{"type":"FeatureCollection","province":"Ağrı","province_id":"TR-P-04","features":[{"type":"Feature","properties":{"id":"TR-D-04-001","parent_id":"TR-P-04","region_id":"TR-R-DOA","level":"district","municipality_type":null,"municipality_type_label":null,"is_metropolitan_municipality":null,"name":"Ağrı","name_ascii":"agri","slug":"agri-agri"},"geometry":{"type":"Polygon","coordinates":[[[42.86281,39.645445],[42.85784,39.648918],[42.855003,39.650671],[42.847827,39.652756],[42.842571,39.654509],[42.839646,39.655656],[42.844974,39.662339],[42.84964,39.668195],[42.855313,39.675606],[42.859248,39.681371],[42.864006,39.687319],[42.870045,39.697292],[42.874254,39.704978],[42.881483,39.712481],[42.887705,39.717056],[42.89658,39.722729],[42.898319,39.723644],[42.906645,39.727579],[42.911129,39.732612],[42.912501,39.736272],[42.912776,39.739749],[42.912044,39.74167],[42.910122,39.7435],[42.906096,39.745422],[42.899783,39.746337],[42.89045,39.746154],[42.882855,39.745513],[42.875078,39.745422],[42.869405,39.746245],[42.862633,39.748075],[42.860346,39.749448],[42.857967,39.754755],[42.85879,39.760519],[42.861078,39.763173],[42.865744,39.766192],[42.871601,39.767748],[42.878646,39.768297],[42.894567,39.768571],[42.901521,39.76912],[42.906828,39.769578],[42.915063,39.772963],[42.918083,39.775068],[42.92156,39.778454],[42.924305,39.783303],[42.924946,39.790166],[42.924214,39.798218],[42.922109,39.803159],[42.919639,39.808557],[42.917443,39.814139],[42.918358,39.818439],[42.921652,39.82457],[42.929155,39.834269],[42.932815,39.841406],[42.933272,39.847537],[42.931351,39.858334],[42.929338,39.868307],[42.926959,39.875353],[42.923848,39.88002],[42.916802,39.888712],[42.911952,39.894202],[42.907286,39.89832],[42.902985,39.902437],[42.899874,39.905457],[42.89594,39.910398],[42.893195,39.913966],[42.890633,39.918267],[42.888528,39.923574],[42.887247,39.928607],[42.884319,39.939861],[42.884045,39.943613],[42.884502,39.94709],[42.886058,39.949926],[42.886973,39.955416],[42.887156,39.961181],[42.887796,39.965115],[42.887796,39.968593],[42.887282,39.971819],[42.89218,39.972898],[42.910861,39.979042],[42.917503,39.982114],[42.922651,39.986016],[42.926636,39.989337],[42.933527,39.992326],[42.939422,39.993572],[42.943822,39.994485],[42.947309,39.994568],[42.952125,39.994651],[42.958268,39.995398],[42.962669,39.996062],[42.96682,39.996228],[42.972051,39.995398],[42.983342,39.994319],[42.994218,39.993073],[42.998286,39.992409],[43.003019,39.99133],[43.008499,39.988424],[43.013978,39.985767],[43.020039,39.983276],[43.029006,39.979208],[43.034485,39.978129],[43.040463,39.979457],[43.046856,39.981035],[43.05109,39.984356],[43.05931,39.988756],[43.063793,39.990998],[43.066284,39.991496],[43.072677,39.990666],[43.076828,39.988839],[43.081395,39.987428],[43.08566,39.986767],[43.102601,39.988028],[43.111342,39.98938],[43.114676,39.990732],[43.124228,39.995778],[43.132878,40.001094],[43.141348,40.004969],[43.149729,40.008123],[43.160992,40.009835],[43.174689,40.010916],[43.18397,40.011727],[43.189557,40.011727],[43.192801,40.011547],[43.209832,40.011817],[43.217491,40.011727],[43.222267,40.012809],[43.230557,40.01398],[43.24056,40.015332],[43.247949,40.016413],[43.252544,40.017404],[43.260294,40.019206],[43.267773,40.020198],[43.272188,40.020468],[43.276964,40.019927],[43.281289,40.017494],[43.287056,40.012809],[43.291291,40.008844],[43.293905,40.003978],[43.294445,40.000914],[43.294865,39.994877],[43.294896,39.994426],[43.296067,39.988299],[43.297239,39.984874],[43.29755,39.983683],[43.297779,39.982802],[43.298633,39.98118],[43.299582,39.979378],[43.302195,39.977666],[43.304718,39.977215],[43.306881,39.978206],[43.307782,39.978598],[43.308953,39.979107],[43.311026,39.979558],[43.312412,39.979281],[43.312828,39.979198],[43.31463,39.978387],[43.316883,39.978296],[43.320127,39.978026],[43.322137,39.978324],[43.32256,39.978387],[43.322796,39.978465],[43.324452,39.979017],[43.325623,39.978477],[43.325804,39.977125],[43.325203,39.976324],[43.324722,39.975683],[43.324272,39.974332],[43.324632,39.973521],[43.32558,39.973229],[43.325804,39.97316],[43.327786,39.97298],[43.328492,39.972778],[43.330309,39.972259],[43.332742,39.970817],[43.333959,39.970006],[43.334364,39.969736],[43.335265,39.968835],[43.335355,39.967844],[43.335355,39.966492],[43.335896,39.965501],[43.337067,39.96478],[43.340221,39.963158],[43.343645,39.960094],[43.345628,39.957031],[43.346979,39.955228],[43.348541,39.953847],[43.349322,39.953156],[43.350043,39.95275],[43.350764,39.952345],[43.353287,39.951263],[43.354494,39.950344],[43.355179,39.949822],[43.355754,39.949225],[43.357522,39.947389],[43.358874,39.944956],[43.361397,39.941171],[43.362839,39.939549],[43.365993,39.936756],[43.368065,39.934773],[43.369056,39.933241],[43.371219,39.930538],[43.371922,39.929679],[43.37203,39.929547],[43.372139,39.929286],[43.372481,39.928466],[43.373021,39.926934],[43.374103,39.925132],[43.375544,39.92345],[43.375725,39.923239],[43.376896,39.922068],[43.377887,39.920176],[43.378969,39.919274],[43.381131,39.918463],[43.383023,39.917923],[43.384736,39.916481],[43.387709,39.913958],[43.389782,39.912246],[43.390683,39.911165],[43.390773,39.909272],[43.391584,39.905037],[43.393026,39.901162],[43.398793,39.89134],[43.403569,39.884312],[43.409606,39.872417],[43.411138,39.8662],[43.411288,39.863256],[43.411588,39.857369],[43.411949,39.849259],[43.412399,39.84214],[43.412309,39.834931],[43.41303,39.827542],[43.416364,39.818712],[43.418527,39.813125],[43.420143,39.810509],[43.420419,39.810061],[43.417215,39.807581],[43.411385,39.801751],[43.407599,39.797359],[43.403434,39.79221],[43.401389,39.788651],[43.399269,39.783048],[43.398891,39.776157],[43.396468,39.764799],[43.394877,39.758287],[43.392151,39.752532],[43.384958,39.744884],[43.36209,39.727695],[43.354215,39.723379],[43.339904,39.71399],[43.328848,39.705888],[43.326122,39.703237],[43.323396,39.700663],[43.322715,39.69983],[43.322185,39.696119],[43.322109,39.690592],[43.322336,39.686427],[43.323169,39.680218],[43.323548,39.673933],[43.323018,39.671283],[43.320216,39.666967],[43.315673,39.662651],[43.310599,39.65841],[43.308025,39.655911],[43.304996,39.652428],[43.300074,39.645916],[43.294471,39.638041],[43.290079,39.630848],[43.284778,39.623427],[43.280992,39.619338],[43.279554,39.616612],[43.278115,39.614037],[43.276373,39.611009],[43.275162,39.606995],[43.274935,39.604269],[43.27448,39.602301],[43.273042,39.597303],[43.271982,39.59329],[43.271906,39.591245],[43.272284,39.586702],[43.272966,39.584279],[43.273496,39.582537],[43.275086,39.578903],[43.276373,39.573678],[43.276373,39.571028],[43.275692,39.568453],[43.274859,39.566712],[43.27395,39.563986],[43.272663,39.561487],[43.27024,39.557095],[43.268801,39.55452],[43.26653,39.55081],[43.264561,39.548766],[43.262365,39.548084],[43.257595,39.547175],[43.251385,39.545055],[43.246766,39.543087],[43.243965,39.541951],[43.242061,39.542223],[43.236404,39.542829],[43.229637,39.543435],[43.221859,39.546061],[43.213779,39.550809],[43.210648,39.553435],[43.206507,39.557273],[43.193982,39.567171],[43.187315,39.571818],[43.181659,39.57707],[43.178629,39.582322],[43.174892,39.589292],[43.171458,39.592524],[43.169841,39.59414],[43.163377,39.597574],[43.154994,39.600402],[43.150852,39.602321],[43.136004,39.608584],[43.122672,39.615553],[43.104693,39.626967],[43.093279,39.637269],[43.081966,39.646966],[43.074189,39.650804],[43.066411,39.65343],[43.058937,39.652723],[43.055604,39.652622],[43.050453,39.650804],[43.04015,39.644744],[43.03409,39.642118],[43.027221,39.641714],[43.009545,39.643633],[42.992677,39.647673],[42.977627,39.650703],[42.974294,39.651713],[42.970153,39.653531],[42.965709,39.654642],[42.960052,39.655956],[42.946316,39.65636],[42.937326,39.656158],[42.92763,39.656057],[42.91662,39.654541],[42.909348,39.652925],[42.903489,39.651915],[42.894601,39.648279],[42.889651,39.647067],[42.882076,39.64636],[42.875309,39.64636],[42.86844,39.645653],[42.86281,39.645445]]]}},{"type":"Feature","properties":{"id":"TR-D-04-002","parent_id":"TR-P-04","region_id":"TR-R-DOA","level":"district","municipality_type":null,"municipality_type_label":null,"is_metropolitan_municipality":null,"name":"Diyadin","name_ascii":"diyadin","slug":"diyadin-agri"},"geometry":{"type":"Polygon","coordinates":[[[43.36878,39.382217],[43.370224,39.386412],[43.371566,39.392115],[43.37425,39.398712],[43.378051,39.406204],[43.380735,39.410229],[43.383754,39.415149],[43.388003,39.424542],[43.39024,39.428008],[43.397619,39.434046],[43.401309,39.437177],[43.402987,39.44042],[43.405111,39.448247],[43.405894,39.451154],[43.406006,39.454061],[43.404552,39.459764],[43.402875,39.464349],[43.40198,39.468598],[43.401421,39.478438],[43.400862,39.485706],[43.401421,39.490514],[43.402987,39.496664],[43.406229,39.505945],[43.407683,39.508852],[43.412044,39.515002],[43.419871,39.522941],[43.427586,39.529091],[43.434296,39.533228],[43.438097,39.537142],[43.441116,39.541726],[43.443241,39.546199],[43.445477,39.548323],[43.450174,39.551454],[43.4561,39.555256],[43.460125,39.558611],[43.46225,39.561853],[43.465716,39.569233],[43.469183,39.574824],[43.471754,39.57885],[43.475109,39.583769],[43.477233,39.587907],[43.480141,39.590814],[43.486179,39.592939],[43.499038,39.597299],[43.514133,39.602443],[43.522967,39.605238],[43.536385,39.610829],[43.55025,39.619327],[43.559866,39.626036],[43.564339,39.629726],[43.573061,39.63856],[43.5933,39.662936],[43.599338,39.673335],[43.606494,39.682951],[43.61043,39.689866],[43.613266,39.687248],[43.614684,39.685939],[43.621283,39.681903],[43.627883,39.677867],[43.636282,39.673504],[43.647844,39.670886],[43.664315,39.666741],[43.680895,39.664341],[43.713292,39.659869],[43.723218,39.660414],[43.732818,39.660196],[43.741326,39.658778],[43.745798,39.657578],[43.754743,39.652779],[43.765323,39.644816],[43.766414,39.644052],[43.768596,39.641544],[43.77045,39.636635],[43.771639,39.633193],[43.772523,39.630636],[43.773777,39.629327],[43.775031,39.628018],[43.779395,39.625945],[43.783649,39.624091],[43.792702,39.619182],[43.801429,39.615146],[43.806992,39.610783],[43.808519,39.60762],[43.808519,39.60522],[43.808192,39.601184],[43.805914,39.598832],[43.80481,39.597693],[43.800011,39.594966],[43.794448,39.593767],[43.782885,39.593112],[43.779037,39.592379],[43.778304,39.592239],[43.774813,39.590058],[43.770232,39.584931],[43.76805,39.581877],[43.766523,39.576314],[43.765105,39.566278],[43.764232,39.559843],[43.763578,39.552098],[43.763033,39.54828],[43.763687,39.544681],[43.765323,39.54239],[43.769312,39.539958],[43.769796,39.539663],[43.773479,39.538865],[43.782885,39.536827],[43.786158,39.535954],[43.793793,39.531482],[43.799247,39.528755],[43.803283,39.52581],[43.808083,39.521228],[43.80961,39.51752],[43.812555,39.510102],[43.814191,39.500612],[43.8155,39.487414],[43.8163,39.474906],[43.8131,39.441455],[43.810628,39.425166],[43.810337,39.402768],[43.810216,39.401389],[43.808838,39.385681],[43.807052,39.385954],[43.801203,39.385138],[43.800387,39.385024],[43.799031,39.384685],[43.789538,39.382312],[43.785068,39.380403],[43.782641,39.379367],[43.775356,39.373632],[43.773828,39.372011],[43.771559,39.369603],[43.770521,39.367856],[43.769854,39.366735],[43.769502,39.365639],[43.769157,39.364565],[43.76959,39.362699],[43.770397,39.359218],[43.772334,39.347439],[43.773652,39.333568],[43.77428,39.322374],[43.774814,39.312877],[43.775124,39.306367],[43.77507,39.305155],[43.774969,39.30288],[43.775669,39.301149],[43.776286,39.299625],[43.778332,39.295099],[43.781014,39.289163],[43.781824,39.283894],[43.782253,39.281104],[43.781401,39.272424],[43.781168,39.265682],[43.777294,39.25987],[43.768342,39.253886],[43.763925,39.251096],[43.76098,39.248694],[43.759841,39.24706],[43.759197,39.246137],[43.758267,39.243579],[43.757647,39.239085],[43.754703,39.229785],[43.750673,39.218006],[43.747263,39.209792],[43.74621,39.207911],[43.745093,39.205917],[43.740083,39.200002],[43.739514,39.19933],[43.737576,39.198115],[43.734322,39.196075],[43.733058,39.195712],[43.728665,39.194448],[43.725793,39.193939],[43.722542,39.193363],[43.711461,39.192433],[43.703634,39.191735],[43.699527,39.191658],[43.689452,39.192588],[43.678526,39.194525],[43.672326,39.195843],[43.670776,39.196773],[43.669149,39.19747],[43.665429,39.198245],[43.662872,39.198865],[43.661012,39.199795],[43.658532,39.199795],[43.656595,39.199795],[43.654502,39.199795],[43.654141,39.199847],[43.65396,39.199872],[43.653572,39.20026],[43.653495,39.2015],[43.653882,39.20336],[43.65334,39.204522],[43.652565,39.205917],[43.65179,39.207312],[43.651325,39.208784],[43.65086,39.209559],[43.651015,39.210799],[43.650473,39.211962],[43.649465,39.212659],[43.647295,39.214054],[43.645358,39.214829],[43.642956,39.216534],[43.640088,39.218006],[43.638771,39.219323],[43.637066,39.220098],[43.634896,39.220718],[43.633191,39.222268],[43.630091,39.224283],[43.622342,39.2287],[43.613275,39.23335],[43.605448,39.239472],[43.596304,39.251329],[43.592894,39.255513],[43.590259,39.259466],[43.587005,39.262023],[43.577163,39.268533],[43.568561,39.27481],[43.564144,39.277987],[43.555232,39.283489],[43.55128,39.285891],[43.545002,39.287519],[43.537098,39.289921],[43.531441,39.293098],[43.522297,39.300305],[43.512145,39.309372],[43.51013,39.311309],[43.503,39.317587],[43.496181,39.321229],[43.484944,39.326653],[43.480527,39.328668],[43.472778,39.331226],[43.462316,39.33386],[43.451932,39.337968],[43.446972,39.340525],[43.441702,39.344632],[43.437905,39.347654],[43.433643,39.350987],[43.430156,39.353002],[43.428063,39.353931],[43.419461,39.356954],[43.414734,39.358891],[43.408612,39.361758],[43.40187,39.366563],[43.399855,39.368423],[43.392416,39.374158],[43.389316,39.376095],[43.381257,39.379892],[43.375212,39.381597],[43.36878,39.382217]]]}},{"type":"Feature","properties":{"id":"TR-D-04-003","parent_id":"TR-P-04","region_id":"TR-R-DOA","level":"district","municipality_type":null,"municipality_type_label":null,"is_metropolitan_municipality":null,"name":"Doğubayazıt","name_ascii":"dogubayazit","slug":"dogubayazit-agri"},"geometry":{"type":"Polygon","coordinates":[[[44.484767,39.630316],[44.484749,39.63025],[44.484234,39.62758],[44.482496,39.620422],[44.481555,39.616121],[44.480768,39.612518],[44.480377,39.610725],[44.477674,39.608674],[44.475309,39.606969],[44.470224,39.603333],[44.466584,39.600383],[44.466232,39.600097],[44.465833,39.599641],[44.465536,39.599301],[44.462536,39.595765],[44.459716,39.592448],[44.456021,39.587978],[44.453776,39.585455],[44.452843,39.584354],[44.449704,39.580648],[44.447658,39.578188],[44.447415,39.577895],[44.446009,39.576278],[44.445076,39.575543],[44.443554,39.574645],[44.441977,39.573596],[44.441324,39.573619],[44.440288,39.573656],[44.439394,39.573715],[44.438441,39.573735],[44.437507,39.573755],[44.436693,39.573596],[44.435263,39.57312],[44.432243,39.572126],[44.431258,39.571794],[44.43022,39.571445],[44.428883,39.570997],[44.428389,39.570855],[44.42768,39.57051],[44.426959,39.57016],[44.426365,39.569746],[44.42531,39.569166],[44.42469,39.568909],[44.42367,39.568487],[44.4235,39.568074],[44.423349,39.566869],[44.422995,39.564028],[44.422965,39.563751],[44.422731,39.561546],[44.422575,39.560586],[44.422454,39.560359],[44.422291,39.560069],[44.421993,39.559433],[44.421973,39.557864],[44.4217,39.557315],[44.421757,39.555935],[44.421775,39.55393],[44.422127,39.552308],[44.422099,39.551412],[44.422184,39.550986],[44.422276,39.550111],[44.422454,39.549978],[44.422618,39.549855],[44.423649,39.54967],[44.423205,39.548547],[44.423144,39.548226],[44.423343,39.5477],[44.424417,39.546858],[44.42537,39.545746],[44.425906,39.544713],[44.426166,39.54354],[44.426164,39.543263],[44.426209,39.542886],[44.426244,39.542468],[44.425981,39.542039],[44.425569,39.541535],[44.425505,39.541279],[44.425529,39.54084],[44.425608,39.540343],[44.425988,39.539081],[44.425597,39.537581],[44.425381,39.536952],[44.424853,39.535417],[44.42394,39.533212],[44.42382,39.532894],[44.42384,39.532655],[44.42388,39.532516],[44.424281,39.532283],[44.425012,39.532179],[44.426224,39.531523],[44.42657,39.531228],[44.427356,39.530669],[44.427495,39.530573],[44.428071,39.530172],[44.428904,39.52931],[44.429204,39.528603],[44.429287,39.528197],[44.429515,39.527084],[44.429793,39.526138],[44.430515,39.525544],[44.430703,39.525382],[44.43123,39.524928],[44.431885,39.523836],[44.432422,39.523339],[44.433534,39.522703],[44.434428,39.522286],[44.434607,39.521988],[44.434805,39.521472],[44.434905,39.520598],[44.435024,39.519843],[44.434924,39.519465],[44.434726,39.519088],[44.433792,39.518367],[44.433335,39.518015],[44.432758,39.517626],[44.432502,39.517242],[44.432342,39.516704],[44.4326,39.515949],[44.432878,39.515632],[44.433128,39.515464],[44.433476,39.513501],[44.433375,39.513069],[44.432736,39.512506],[44.431357,39.511588],[44.430902,39.511183],[44.43083,39.510778],[44.430951,39.510458],[44.431278,39.510123],[44.434309,39.508977],[44.437622,39.507585],[44.438321,39.507169],[44.438957,39.506434],[44.439006,39.506331],[44.439521,39.505252],[44.439407,39.504712],[44.439156,39.504312],[44.439129,39.504271],[44.4385,39.503554],[44.437745,39.5027],[44.437415,39.502386],[44.437302,39.502123],[44.437328,39.501746],[44.437636,39.501227],[44.437924,39.500535],[44.437905,39.499757],[44.437904,39.49972],[44.437785,39.499084],[44.43719,39.498577],[44.435097,39.496789],[44.433735,39.495678],[44.432274,39.494485],[44.427744,39.491401],[44.423875,39.488765],[44.422234,39.487532],[44.422176,39.487488],[44.419665,39.485759],[44.418869,39.485134],[44.417485,39.484263],[44.416892,39.483889],[44.416174,39.483434],[44.415858,39.482785],[44.415676,39.48241],[44.414901,39.480497],[44.412645,39.474842],[44.412183,39.473969],[44.411567,39.473713],[44.410411,39.47325],[44.410156,39.473148],[44.409079,39.472712],[44.40718,39.471558],[44.407023,39.471256],[44.407059,39.471018],[44.407181,39.470841],[44.40726,39.470482],[44.407254,39.470262],[44.407944,39.46981],[44.408193,39.469799],[44.408461,39.46967],[44.408562,39.469492],[44.40876,39.469457],[44.408852,39.469463],[44.408785,39.469603],[44.408577,39.46978],[44.408693,39.470079],[44.409065,39.470274],[44.409432,39.470433],[44.409602,39.470506],[44.409995,39.470491],[44.411019,39.469846],[44.4128,39.468933],[44.413201,39.468888],[44.413936,39.468577],[44.414514,39.468087],[44.415028,39.467803],[44.415495,39.467475],[44.415555,39.467433],[44.415593,39.467432],[44.415962,39.467419],[44.416585,39.467196],[44.416852,39.466907],[44.416883,39.466845],[44.417053,39.466506],[44.417445,39.466574],[44.417565,39.466595],[44.41801,39.466539],[44.418146,39.466457],[44.418188,39.466194],[44.418528,39.466002],[44.418556,39.465973],[44.41891,39.465602],[44.419092,39.465557],[44.41914,39.465582],[44.419265,39.465648],[44.419374,39.465739],[44.419547,39.465784],[44.419819,39.465702],[44.420128,39.465375],[44.420337,39.46512],[44.420728,39.464466],[44.420901,39.464038],[44.420929,39.463575],[44.420859,39.463322],[44.42081,39.463147],[44.420756,39.462893],[44.420812,39.462401],[44.420756,39.461838],[44.421319,39.461493],[44.42141,39.461265],[44.421538,39.461129],[44.42156,39.461126],[44.421901,39.461083],[44.422083,39.460965],[44.422201,39.460611],[44.422265,39.460147],[44.422529,39.459629],[44.422501,39.45942],[44.422292,39.459265],[44.422069,39.459128],[44.422002,39.458851],[44.422107,39.458287],[44.42248,39.457934],[44.422585,39.457628],[44.42249,39.457322],[44.422384,39.456739],[44.422862,39.456262],[44.423254,39.455698],[44.423244,39.455488],[44.423053,39.455307],[44.422824,39.455135],[44.422767,39.454982],[44.422977,39.454772],[44.423225,39.454629],[44.423359,39.454466],[44.423225,39.453969],[44.423263,39.45374],[44.423579,39.453568],[44.423922,39.453215],[44.424285,39.453167],[44.424505,39.453091],[44.424658,39.452957],[44.425021,39.451486],[44.424753,39.451295],[44.42483,39.451152],[44.425116,39.451018],[44.425126,39.450941],[44.425021,39.450741],[44.424992,39.450569],[44.425212,39.449986],[44.424992,39.449766],[44.424725,39.449747],[44.424476,39.449604],[44.424438,39.449442],[44.424543,39.449289],[44.424763,39.449107],[44.424906,39.448821],[44.424877,39.448496],[44.425002,39.448181],[44.425374,39.447808],[44.425432,39.447531],[44.425241,39.447082],[44.425412,39.446805],[44.425718,39.446452],[44.426037,39.44587],[44.426043,39.445859],[44.426253,39.44564],[44.426616,39.445535],[44.426627,39.445537],[44.426883,39.445602],[44.427141,39.445583],[44.427562,39.445277],[44.427781,39.445315],[44.428096,39.445391],[44.428288,39.445267],[44.428373,39.445095],[44.428345,39.444933],[44.428507,39.444847],[44.428717,39.444904],[44.42887,39.444876],[44.428985,39.444742],[44.429501,39.444618],[44.429654,39.444427],[44.429864,39.444302],[44.430485,39.444255],[44.430895,39.443978],[44.431019,39.443806],[44.431067,39.443443],[44.431144,39.443319],[44.431191,39.443156],[44.431041,39.443053],[44.43101,39.443032],[44.430924,39.44287],[44.431058,39.442726],[44.431355,39.44272],[44.431488,39.442717],[44.431659,39.442736],[44.4325,39.442631],[44.432691,39.442468],[44.432653,39.442325],[44.432338,39.442316],[44.432242,39.441981],[44.432338,39.441704],[44.432548,39.441714],[44.432825,39.441609],[44.432834,39.441284],[44.432596,39.441322],[44.432462,39.44116],[44.432519,39.440797],[44.432261,39.440599],[44.431994,39.440396],[44.432051,39.440052],[44.432041,39.439727],[44.432204,39.439593],[44.432317,39.439586],[44.432543,39.439571],[44.432561,39.439415],[44.43242,39.439266],[44.432501,39.439125],[44.432668,39.439035],[44.43274,39.438874],[44.432683,39.438695],[44.432516,39.438632],[44.432456,39.438518],[44.432597,39.438461],[44.432839,39.438342],[44.432887,39.438231],[44.432704,39.438192],[44.432498,39.438177],[44.432444,39.438034],[44.432572,39.437941],[44.43291,39.437896],[44.432868,39.437732],[44.432644,39.437708],[44.43259,39.437475],[44.432564,39.437301],[44.432638,39.437086],[44.432507,39.436987],[44.432369,39.437026],[44.432184,39.437167],[44.432064,39.437056],[44.432001,39.436993],[44.4319,39.436721],[44.431858,39.436464],[44.432073,39.436078],[44.432025,39.435887],[44.431852,39.435773],[44.431625,39.435809],[44.431502,39.43563],[44.431457,39.435457],[44.431568,39.435301],[44.431559,39.435134],[44.431314,39.435053],[44.431176,39.434945],[44.431361,39.43473],[44.43132,39.434628],[44.431116,39.434589],[44.430892,39.43473],[44.430829,39.434607],[44.430955,39.434338],[44.430802,39.43426],[44.430641,39.434362],[44.430626,39.434479],[44.430506,39.4345],[44.430375,39.434413],[44.430273,39.434419],[44.430276,39.434565],[44.430178,39.434578],[44.43007,39.434592],[44.42998,39.434452],[44.429955,39.434363],[44.429938,39.434302],[44.42995,39.43415],[44.42983,39.434051],[44.429633,39.434027],[44.42972,39.433818],[44.429675,39.433689],[44.429615,39.433674],[44.429556,39.433668],[44.429397,39.433629],[44.429328,39.433447],[44.429442,39.433139],[44.429435,39.433125],[44.429226,39.433035],[44.428984,39.433014],[44.428999,39.432882],[44.429125,39.432727],[44.429092,39.432586],[44.428757,39.432649],[44.428527,39.43255],[44.428356,39.432494],[44.428246,39.432458],[44.428159,39.432287],[44.428192,39.43225],[44.428264,39.43217],[44.428192,39.432084],[44.428087,39.432084],[44.428016,39.432084],[44.427902,39.432117],[44.427842,39.431967],[44.427941,39.431844],[44.427995,39.431776],[44.427911,39.431501],[44.428034,39.431327],[44.428276,39.431043],[44.42821,39.430592],[44.428028,39.430302],[44.427788,39.430377],[44.427594,39.430281],[44.427558,39.430182],[44.427681,39.42997],[44.427477,39.429925],[44.427432,39.429728],[44.427355,39.429507],[44.427292,39.429339],[44.427014,39.429175],[44.426939,39.429031],[44.426978,39.428849],[44.42708,39.428562],[44.426879,39.428215],[44.426616,39.427922],[44.426404,39.427602],[44.4263,39.427505],[44.426144,39.42736],[44.426168,39.427083],[44.426177,39.426986],[44.426476,39.425915],[44.426077,39.424682],[44.425373,39.423752],[44.424866,39.422623],[44.424269,39.420597],[44.42336,39.417259],[44.422568,39.413766],[44.422132,39.411573],[44.418452,39.411597],[44.409716,39.412232],[44.402812,39.41269],[44.39991,39.412972],[44.398863,39.413073],[44.397699,39.41298],[44.386476,39.412078],[44.383869,39.411933],[44.380391,39.411715],[44.379451,39.411813],[44.379165,39.411843],[44.378596,39.411992],[44.378326,39.411922],[44.378218,39.411933],[44.378093,39.411859],[44.377736,39.411886],[44.377032,39.411317],[44.376213,39.410801],[44.375879,39.410591],[44.374457,39.409553],[44.374294,39.409183],[44.374234,39.407659],[44.374187,39.407313],[44.374173,39.407092],[44.373895,39.406744],[44.373305,39.406474],[44.372039,39.406189],[44.37051,39.405706],[44.369365,39.405215],[44.368754,39.404746],[44.368098,39.404152],[44.366435,39.402747],[44.36401,39.40065],[44.362863,39.399658],[44.361203,39.398237],[44.361031,39.398089],[44.35968,39.397072],[44.356924,39.395274],[44.356398,39.395014],[44.355313,39.394477],[44.354424,39.394121],[44.353862,39.393915],[44.352988,39.393595],[44.351651,39.393119],[44.349731,39.392656],[44.348984,39.392535],[44.348405,39.392517],[44.347789,39.39287],[44.347098,39.393542],[44.34673,39.394142],[44.346108,39.394497],[44.345613,39.394569],[44.345115,39.39459],[44.345015,39.394304],[44.344866,39.393986],[44.343992,39.39255],[44.343494,39.39186],[44.343174,39.391675],[44.342669,39.391376],[44.34173,39.391042],[44.341517,39.390878],[44.341346,39.390629],[44.340927,39.390061],[44.340763,39.389932],[44.340649,39.389847],[44.339988,39.389392],[44.33927,39.389164],[44.338365,39.388835],[44.338196,39.388773],[44.336528,39.388169],[44.334796,39.387639],[44.33218,39.387003],[44.330765,39.386853],[44.330416,39.386803],[44.330181,39.386931],[44.329972,39.387213],[44.328901,39.388375],[44.328091,39.389001],[44.325429,39.390184],[44.324997,39.390245],[44.324086,39.390184],[44.323546,39.39021],[44.323308,39.390326],[44.321754,39.390978],[44.320965,39.391219],[44.318952,39.391155],[44.317815,39.390992],[44.317097,39.390757],[44.317032,39.390736],[44.316981,39.390704],[44.316222,39.390238],[44.315319,39.389442],[44.314622,39.389029],[44.313882,39.388375],[44.312986,39.387427],[44.312104,39.386035],[44.311258,39.385758],[44.310099,39.385111],[44.309267,39.384705],[44.30842,39.384208],[44.307708,39.384009],[44.307542,39.383963],[44.306586,39.383653],[44.306251,39.383425],[44.306458,39.383077],[44.306466,39.383069],[44.306621,39.382927],[44.306934,39.382501],[44.307083,39.382188],[44.307024,39.381669],[44.307034,39.381292],[44.306678,39.380694],[44.306422,39.380438],[44.306164,39.380357],[44.304891,39.380357],[44.304353,39.380417],[44.303734,39.380403],[44.303165,39.380382],[44.302795,39.380292],[44.302134,39.380133],[44.300847,39.379592],[44.300207,39.379187],[44.299766,39.378661],[44.299382,39.378049],[44.298919,39.377381],[44.298423,39.376929],[44.297454,39.375972],[44.297418,39.375926],[44.296715,39.375034],[44.295418,39.373924],[44.294916,39.373647],[44.294525,39.373526],[44.294091,39.373675],[44.293344,39.374159],[44.291989,39.374913],[44.291547,39.375255],[44.291211,39.375514],[44.290777,39.375894],[44.290222,39.376469],[44.289055,39.377812],[44.28821,39.378767],[44.287065,39.379713],[44.286908,39.38009],[44.286197,39.380765],[44.286211,39.381156],[44.286354,39.381839],[44.286382,39.382223],[44.286183,39.382486],[44.285626,39.382867],[44.284778,39.383327],[44.283823,39.38315],[44.282763,39.38315],[44.281773,39.383185],[44.280686,39.383268],[44.279676,39.38329],[44.278415,39.383185],[44.277178,39.383185],[44.276779,39.383238],[44.276447,39.383282],[44.275949,39.383453],[44.275658,39.38383],[44.275594,39.384143],[44.275566,39.384367],[44.275516,39.384769],[44.274797,39.386056],[44.274478,39.386511],[44.274279,39.386755],[44.273951,39.387179],[44.273197,39.387642],[44.273042,39.388063],[44.272685,39.388858],[44.272265,39.38923],[44.271972,39.389365],[44.271761,39.389462],[44.271462,39.389661],[44.271235,39.389782],[44.27105,39.390074],[44.271027,39.391704],[44.270929,39.392605],[44.270634,39.394007],[44.270616,39.394092],[44.270356,39.394921],[44.27009,39.395336],[44.269777,39.395741],[44.26908,39.39631],[44.268812,39.39648],[44.267987,39.397006],[44.266063,39.39822],[44.26569,39.398455],[44.264756,39.398991],[44.264322,39.399133],[44.263554,39.39897],[44.263448,39.398935],[44.262459,39.398614],[44.259678,39.397306],[44.258903,39.398102],[44.258555,39.398436],[44.258261,39.39855],[44.258231,39.398562],[44.257987,39.398505],[44.257815,39.398465],[44.257445,39.398237],[44.256994,39.398102],[44.256215,39.398116],[44.255753,39.39801],[44.255397,39.397818],[44.255122,39.397868],[44.255092,39.397873],[44.253534,39.397619],[44.253102,39.397345],[44.252794,39.397149],[44.252176,39.39673],[44.251813,39.396552],[44.251126,39.396935],[44.251137,39.396936],[44.251125,39.396953],[44.250753,39.397469],[44.250398,39.397398],[44.247697,39.396944],[44.246885,39.396808],[44.243998,39.398564],[44.243173,39.399375],[44.242784,39.40047],[44.242501,39.402238],[44.242405,39.402732],[44.242049,39.40404],[44.242022,39.40441],[44.241971,39.405101],[44.241522,39.406035],[44.241388,39.406316],[44.240691,39.407169],[44.239724,39.407887],[44.239667,39.408172],[44.239681,39.408634],[44.239833,39.409374],[44.239887,39.409637],[44.239759,39.409871],[44.23951,39.410085],[44.239094,39.410244],[44.237941,39.410686],[44.236209,39.410545],[44.23599,39.410561],[44.235393,39.410988],[44.234489,39.41172],[44.233288,39.412645],[44.233394,39.412957],[44.233448,39.414078],[44.233458,39.414296],[44.233558,39.414998],[44.233551,39.415617],[44.232064,39.415503],[44.229661,39.415596],[44.229563,39.415599],[44.228291,39.415706],[44.227336,39.41613],[44.225463,39.41666],[44.225349,39.416712],[44.224128,39.417267],[44.223872,39.417296],[44.223587,39.417352],[44.223182,39.417181],[44.223135,39.417152],[44.222564,39.416801],[44.221966,39.416612],[44.221186,39.416624],[44.220487,39.416961],[44.220153,39.417373],[44.219882,39.417608],[44.219633,39.417721],[44.219584,39.417743],[44.219271,39.417786],[44.219128,39.41777],[44.21856,39.417708],[44.217443,39.417459],[44.216903,39.417338],[44.215957,39.417238],[44.215212,39.417296],[44.214558,39.417517],[44.21435,39.417587],[44.214123,39.417429],[44.213119,39.416733],[44.212963,39.41637],[44.212565,39.41583],[44.212259,39.415581],[44.211394,39.41514],[44.210516,39.414863],[44.208924,39.414799],[44.206996,39.415005],[44.206129,39.414977],[44.201997,39.413199],[44.201748,39.413192],[44.201535,39.413277],[44.200731,39.413128],[44.199259,39.412715],[44.198386,39.412383],[44.196763,39.41162],[44.196379,39.411691],[44.195947,39.411639],[44.195547,39.411592],[44.1949,39.411229],[44.194338,39.410944],[44.194487,39.410489],[44.194587,39.410212],[44.194548,39.409966],[44.194473,39.409494],[44.19425,39.408918],[44.194218,39.408815],[44.193791,39.407434],[44.193649,39.406762],[44.193757,39.406278],[44.193769,39.406222],[44.193669,39.405767],[44.193278,39.404658],[44.192951,39.404196],[44.191749,39.402972],[44.190391,39.402709],[44.190068,39.402669],[44.189563,39.402606],[44.187518,39.402382],[44.185427,39.402112],[44.183681,39.401849],[44.180924,39.401601],[44.177863,39.401207],[44.177354,39.401142],[44.176034,39.40101],[44.174454,39.400782],[44.17407,39.400789],[44.173565,39.400789],[44.173096,39.400896],[44.172078,39.401159],[44.170533,39.402031],[44.170138,39.402254],[44.169365,39.40252],[44.167123,39.402824],[44.166012,39.40283],[44.164337,39.402839],[44.163863,39.402967],[44.163815,39.40298],[44.163695,39.402972],[44.162855,39.402917],[44.162012,39.402944],[44.160881,39.40298],[44.160472,39.402963],[44.160126,39.402931],[44.159814,39.402803],[44.159502,39.402563],[44.159446,39.40252],[44.158262,39.401896],[44.157454,39.400414],[44.157107,39.400088],[44.155614,39.399021],[44.155044,39.398741],[44.154292,39.398514],[44.152999,39.397925],[44.152256,39.397395],[44.151797,39.397041],[44.151019,39.396794],[44.150791,39.396742],[44.15045,39.396688],[44.150025,39.396693],[44.149522,39.396636],[44.149054,39.396664],[44.148545,39.3969],[44.148161,39.397231],[44.147842,39.397607],[44.147555,39.39789],[44.146991,39.398522],[44.146902,39.398582],[44.146814,39.398642],[44.146282,39.398985],[44.145332,39.399712],[44.144918,39.399766],[44.144515,39.399657],[44.144319,39.3994],[44.144227,39.399152],[44.144234,39.398529],[44.144183,39.398248],[44.14417,39.398174],[44.143447,39.397345],[44.142818,39.396865],[44.142469,39.39665],[44.142178,39.396395],[44.141207,39.395729],[44.140556,39.395627],[44.139814,39.395839],[44.139619,39.395863],[44.139354,39.395733],[44.139213,39.395274],[44.138683,39.394538],[44.135288,39.393304],[44.135444,39.393935],[44.135371,39.394463],[44.135099,39.394913],[44.135126,39.395281],[44.135508,39.395799],[44.135562,39.396548],[44.135807,39.396862],[44.136025,39.397747],[44.136611,39.398197],[44.136727,39.398479],[44.136843,39.399165],[44.136761,39.399655],[44.137361,39.400078],[44.138069,39.400923],[44.138274,39.401127],[44.138437,39.401318],[44.138642,39.401549],[44.139037,39.401808],[44.13901,39.401972],[44.139064,39.402231],[44.139351,39.402313],[44.1395,39.402504],[44.139841,39.402817],[44.140088,39.403093],[44.140413,39.403457],[44.140373,39.403744],[44.139505,39.404355],[44.138928,39.404398],[44.138794,39.404371],[44.137756,39.404166],[44.13717,39.404493],[44.136421,39.405147],[44.135289,39.405694],[44.13484,39.40591],[44.134431,39.406428],[44.134199,39.406837],[44.133858,39.40696],[44.132828,39.407006],[44.132381,39.406886],[44.13225,39.406387],[44.132128,39.405938],[44.131643,39.405533],[44.131637,39.405529],[44.130997,39.405406],[44.130817,39.405394],[44.13022,39.405352],[44.129634,39.405243],[44.129469,39.405133],[44.129021,39.404834],[44.128094,39.404507],[44.127767,39.404438],[44.127058,39.404275],[44.126159,39.404207],[44.125709,39.404166],[44.125409,39.404111],[44.124605,39.404043],[44.123965,39.403866],[44.123202,39.403662],[44.122425,39.403512],[44.122076,39.403521],[44.121416,39.403539],[44.120871,39.403566],[44.120472,39.403405],[44.120122,39.403171],[44.119808,39.402817],[44.119719,39.402728],[44.11955,39.402558],[44.119209,39.402422],[44.118282,39.402217],[44.117451,39.402081],[44.116756,39.402013],[44.11606,39.402076],[44.115856,39.402094],[44.115175,39.402122],[44.115035,39.402107],[44.113622,39.401958],[44.113076,39.402135],[44.112377,39.402647],[44.111755,39.403103],[44.110978,39.403702],[44.110628,39.404253],[44.110369,39.404685],[44.110078,39.405161],[44.109901,39.405488],[44.109656,39.405597],[44.109601,39.405828],[44.10971,39.406115],[44.109588,39.406414],[44.109002,39.40651],[44.108566,39.406619],[44.108266,39.406728],[44.107789,39.406823],[44.107271,39.406905],[44.106917,39.406932],[44.106494,39.406987],[44.106031,39.407014],[44.105309,39.407082],[44.104069,39.406987],[44.102621,39.4075],[44.102128,39.40755],[44.101657,39.407597],[44.101275,39.407811],[44.101182,39.407863],[44.100819,39.408128],[44.10068,39.408337],[44.099842,39.409203],[44.099648,39.409602],[44.099359,39.410259],[44.099293,39.410408],[44.09916,39.410723],[44.098837,39.411502],[44.098729,39.412066],[44.098613,39.412157],[44.098458,39.4122],[44.09832,39.412191],[44.097901,39.412163],[44.097496,39.412177],[44.096756,39.412261],[44.096659,39.412276],[44.096457,39.412274],[44.096209,39.412265],[44.095927,39.41229],[44.095487,39.412274],[44.094459,39.412116],[44.093915,39.412045],[44.093767,39.411997],[44.093572,39.41194],[44.093223,39.411828],[44.092832,39.411717],[44.092385,39.411577],[44.091868,39.411437],[44.091323,39.411298],[44.09103,39.411312],[44.090556,39.411284],[44.089997,39.4112],[44.089285,39.410907],[44.08867,39.410669],[44.088234,39.410245],[44.087972,39.409971],[44.087497,39.409357],[44.086813,39.408449],[44.086662,39.408298],[44.086645,39.408281],[44.086338,39.408072],[44.085752,39.407848],[44.084816,39.407583],[44.084453,39.407346],[44.083894,39.408044],[44.083322,39.408309],[44.082721,39.408365],[44.082337,39.408358],[44.081534,39.40817],[44.080752,39.408309],[44.080459,39.408602],[44.08011,39.408854],[44.079314,39.409077],[44.078183,39.40937],[44.077611,39.409566],[44.077247,39.409719],[44.075488,39.410599],[44.074539,39.411144],[44.073687,39.41173],[44.07332,39.412087],[44.073142,39.412261],[44.072779,39.412387],[44.072011,39.412219],[44.07166,39.41217],[44.070908,39.412065],[44.070517,39.411814],[44.069832,39.411591],[44.06764,39.411339],[44.066607,39.41106],[44.065797,39.410753],[44.065364,39.410306],[44.065043,39.409873],[44.063814,39.40877],[44.063186,39.408393],[44.062543,39.408127],[44.06211,39.407862],[44.061678,39.407303],[44.061356,39.406675],[44.060602,39.406214],[44.059611,39.405209],[44.05908,39.404985],[44.058103,39.40486],[44.057293,39.40493],[44.056525,39.405376],[44.05598,39.405725],[44.055617,39.406116],[44.055282,39.406661],[44.055114,39.407038],[44.054608,39.406912],[44.054444,39.406871],[44.053425,39.406438],[44.052643,39.406075],[44.052391,39.405698],[44.052181,39.405221],[44.052126,39.405097],[44.051875,39.404441],[44.051791,39.404176],[44.051526,39.403812],[44.051204,39.403421],[44.050701,39.403002],[44.050366,39.402569],[44.050129,39.402053],[44.049799,39.40178],[44.049487,39.401522],[44.049123,39.40088],[44.049235,39.400196],[44.049437,39.399463],[44.049584,39.399316],[44.049708,39.399316],[44.049947,39.399316],[44.050129,39.39933],[44.050604,39.399456],[44.050995,39.399386],[44.051162,39.399148],[44.051246,39.39866],[44.051414,39.398129],[44.051902,39.397417],[44.052447,39.396816],[44.052866,39.396383],[44.053313,39.395825],[44.054039,39.394959],[44.054276,39.394233],[44.054364,39.39392],[44.054988,39.393241],[44.055407,39.392836],[44.055882,39.39218],[44.056203,39.391384],[44.057391,39.390503],[44.05827,39.388731],[44.058298,39.388116],[44.05834,39.386678],[44.058326,39.386315],[44.05827,39.386036],[44.057181,39.38665],[44.056189,39.387334],[44.055254,39.38813],[44.054793,39.388424],[44.054527,39.387921],[44.054486,39.387334],[44.054442,39.387058],[44.054463,39.386867],[44.0545,39.386427],[44.054458,39.386106],[44.054328,39.385931],[44.054025,39.385701],[44.053285,39.385561],[44.052628,39.385617],[44.051888,39.385742],[44.051713,39.385815],[44.051483,39.38591],[44.051246,39.385966],[44.050883,39.385882],[44.050143,39.386078],[44.049612,39.386161],[44.049012,39.385365],[44.048537,39.385016],[44.047615,39.384891],[44.046763,39.384891],[44.045898,39.384779],[44.045004,39.384611],[44.04358,39.384402],[44.043105,39.384123],[44.042854,39.383815],[44.042698,39.383483],[44.04249,39.382936],[44.042157,39.382309],[44.042103,39.382242],[44.041904,39.382],[44.041527,39.381763],[44.041024,39.381511],[44.040606,39.381301],[44.040089,39.380869],[44.039684,39.380338],[44.039036,39.379964],[44.038622,39.379654],[44.038203,39.379389],[44.037812,39.378956],[44.037463,39.378537],[44.037128,39.378258],[44.036639,39.377909],[44.036067,39.377685],[44.035271,39.377504],[44.034479,39.377225],[44.034098,39.377092],[44.033721,39.376889],[44.033595,39.37654],[44.033525,39.375951],[44.033483,39.375604],[44.03347,39.375046],[44.033442,39.374445],[44.033274,39.373929],[44.032869,39.373245],[44.032604,39.372742],[44.032691,39.372107],[44.032646,39.371611],[44.032632,39.371094],[44.032478,39.370494],[44.032484,39.370455],[44.032576,39.369809],[44.032836,39.369349],[44.032883,39.369265],[44.033107,39.369083],[44.033637,39.369167],[44.034196,39.369069],[44.03474,39.368706],[44.035061,39.368273],[44.035564,39.367812],[44.03629,39.367477],[44.036625,39.367491],[44.036989,39.367128],[44.037393,39.366779],[44.037743,39.366583],[44.03805,39.366304],[44.038175,39.366067],[44.038217,39.365662],[44.038161,39.365215],[44.038022,39.36474],[44.038052,39.363786],[44.038429,39.362007],[44.038778,39.360824],[44.039092,39.360098],[44.039166,39.359969],[44.039543,39.359313],[44.040335,39.359203],[44.040956,39.359117],[44.042281,39.358985],[44.043605,39.358607],[44.044448,39.358293],[44.045292,39.358057],[44.046371,39.358116],[44.047254,39.358254],[44.048359,39.358264],[44.048962,39.358179],[44.049813,39.357903],[44.051021,39.357371],[44.052053,39.356977],[44.052257,39.3569],[44.053356,39.356566],[44.05469,39.356291],[44.056161,39.355978],[44.057319,39.355899],[44.057594,39.355916],[44.058092,39.355946],[44.058692,39.355879],[44.059065,39.35531],[44.0593,39.354781],[44.059438,39.354388],[44.059488,39.353637],[44.059497,39.353505],[44.059516,39.352779],[44.059673,39.352328],[44.059718,39.352193],[44.059963,39.351459],[44.059963,39.351026],[44.059591,39.351007],[44.053622,39.350121],[44.046385,39.350057],[44.038513,39.350184],[44.031594,39.352342],[44.027023,39.353422],[44.016549,39.35577],[44.011724,39.356976],[43.995917,39.360764],[43.980259,39.363219],[43.966208,39.365335],[43.951311,39.365843],[43.93743,39.365589],[43.925919,39.36525],[43.923295,39.365081],[43.918555,39.364742],[43.915931,39.364235],[43.897649,39.360172],[43.866247,39.354501],[43.862925,39.355189],[43.859128,39.356816],[43.852618,39.360536],[43.842002,39.369758],[43.83216,39.37743],[43.820148,39.383242],[43.814646,39.384792],[43.808838,39.385681],[43.810216,39.401389],[43.810337,39.402768],[43.810628,39.425166],[43.8131,39.441455],[43.8163,39.474906],[43.8155,39.487414],[43.814191,39.500612],[43.812555,39.510102],[43.80961,39.51752],[43.808083,39.521228],[43.803283,39.52581],[43.799247,39.528755],[43.793793,39.531482],[43.786158,39.535954],[43.782885,39.536827],[43.773479,39.538865],[43.769796,39.539663],[43.769312,39.539958],[43.765323,39.54239],[43.763687,39.544681],[43.763033,39.54828],[43.763578,39.552098],[43.764232,39.559843],[43.765105,39.566278],[43.766523,39.576314],[43.76805,39.581877],[43.770232,39.584931],[43.774813,39.590058],[43.778304,39.592239],[43.779037,39.592379],[43.782885,39.593112],[43.794448,39.593767],[43.800011,39.594966],[43.80481,39.597693],[43.805914,39.598832],[43.808192,39.601184],[43.808519,39.60522],[43.808519,39.60762],[43.806992,39.610783],[43.801429,39.615146],[43.792702,39.619182],[43.783649,39.624091],[43.779395,39.625945],[43.775031,39.628018],[43.773777,39.629327],[43.772523,39.630636],[43.771639,39.633193],[43.77045,39.636635],[43.768596,39.641544],[43.766414,39.644052],[43.765323,39.644816],[43.754743,39.652779],[43.745798,39.657578],[43.741326,39.658778],[43.732818,39.660196],[43.723218,39.660414],[43.713292,39.659869],[43.680895,39.664341],[43.664315,39.666741],[43.647844,39.670886],[43.636282,39.673504],[43.627883,39.677867],[43.621283,39.681903],[43.614684,39.685939],[43.613266,39.687248],[43.61043,39.689866],[43.596686,39.700665],[43.584396,39.710415],[43.583487,39.711136],[43.573125,39.719208],[43.571472,39.720992],[43.566253,39.726626],[43.565816,39.728917],[43.565053,39.73448],[43.565598,39.741897],[43.568107,39.749096],[43.568144,39.749751],[43.568761,39.760659],[43.567234,39.772876],[43.563417,39.787492],[43.561526,39.791274],[43.557744,39.798837],[43.555236,39.804509],[43.554472,39.811599],[43.554908,39.816508],[43.556763,39.821743],[43.557734,39.823444],[43.559817,39.827088],[43.562298,39.829678],[43.563964,39.831417],[43.568109,39.825109],[43.572074,39.818261],[43.574958,39.812854],[43.577841,39.809611],[43.581175,39.805375],[43.584329,39.80078],[43.587573,39.796995],[43.5928,39.79267],[43.596314,39.790868],[43.603072,39.789606],[43.610461,39.788345],[43.619022,39.786452],[43.626321,39.78492],[43.634971,39.783569],[43.637404,39.783208],[43.640197,39.783929],[43.643622,39.786002],[43.648668,39.787894],[43.654975,39.788705],[43.660202,39.788795],[43.669393,39.788795],[43.677683,39.788074],[43.687055,39.786092],[43.694173,39.783028],[43.700841,39.779514],[43.706789,39.777171],[43.710393,39.77618],[43.714448,39.775999],[43.719368,39.775231],[43.733191,39.771945],[43.753646,39.770142],[43.768514,39.769872],[43.776804,39.771674],[43.78122,39.774017],[43.787257,39.777351],[43.793024,39.780145],[43.801765,39.781136],[43.809784,39.783298],[43.816363,39.783208],[43.820327,39.780775],[43.824563,39.779153],[43.829338,39.778793],[43.838079,39.777621],[43.844657,39.775098],[43.851505,39.771945],[43.854119,39.769782],[43.863941,39.762213],[43.865743,39.760771],[43.875565,39.754914],[43.881873,39.752571],[43.886919,39.75185],[43.906653,39.745993],[43.931433,39.740226],[43.942066,39.736621],[43.956574,39.733017],[43.968108,39.731035],[43.974506,39.730314],[43.993339,39.728331],[44.01127,39.72698],[44.01875,39.725898],[44.026319,39.725718],[44.028572,39.726619],[44.033798,39.730043],[44.037042,39.731485],[44.044341,39.733918],[44.047314,39.734008],[44.058218,39.733107],[44.065787,39.731936],[44.070743,39.727881],[44.073086,39.724907],[44.077141,39.719681],[44.080295,39.717068],[44.085701,39.713013],[44.09264,39.709588],[44.10084,39.705533],[44.104895,39.704092],[44.107148,39.703641],[44.109851,39.703461],[44.130035,39.7031],[44.151422,39.7025],[44.164638,39.701779],[44.177373,39.702019],[44.193954,39.704302],[44.206929,39.708147],[44.209813,39.708267],[44.242973,39.707546],[44.2646,39.706224],[44.287668,39.705744],[44.295366,39.705576],[44.298527,39.702251],[44.303123,39.697048],[44.307025,39.692886],[44.312315,39.686642],[44.317518,39.680571],[44.320293,39.676236],[44.323242,39.674328],[44.330786,39.673981],[44.338071,39.672593],[44.344141,39.670165],[44.352032,39.66739],[44.36452,39.663488],[44.382471,39.658545],[44.396779,39.653775],[44.407706,39.650133],[44.414904,39.647878],[44.422448,39.64493],[44.429819,39.643109],[44.444215,39.63938],[44.460283,39.636015],[44.484767,39.630316]]]}},{"type":"Feature","properties":{"id":"TR-D-04-004","parent_id":"TR-P-04","region_id":"TR-R-DOA","level":"district","municipality_type":null,"municipality_type_label":null,"is_metropolitan_municipality":null,"name":"Eleşkirt","name_ascii":"eleskirt","slug":"eleskirt-agri"},"geometry":{"type":"Polygon","coordinates":[[[42.887282,39.971819],[42.887796,39.968593],[42.887796,39.965115],[42.887156,39.961181],[42.886973,39.955416],[42.886058,39.949926],[42.884502,39.94709],[42.884045,39.943613],[42.884319,39.939861],[42.887247,39.928607],[42.888528,39.923574],[42.890633,39.918267],[42.893195,39.913966],[42.89594,39.910398],[42.899874,39.905457],[42.902985,39.902437],[42.907286,39.89832],[42.911952,39.894202],[42.916802,39.888712],[42.923848,39.88002],[42.926959,39.875353],[42.929338,39.868307],[42.931351,39.858334],[42.933272,39.847537],[42.932815,39.841406],[42.929155,39.834269],[42.921652,39.82457],[42.918358,39.818439],[42.917443,39.814139],[42.919639,39.808557],[42.922109,39.803159],[42.924214,39.798218],[42.924946,39.790166],[42.924305,39.783303],[42.92156,39.778454],[42.918083,39.775068],[42.915063,39.772963],[42.906828,39.769578],[42.901521,39.76912],[42.894567,39.768571],[42.878646,39.768297],[42.871601,39.767748],[42.865744,39.766192],[42.861078,39.763173],[42.85879,39.760519],[42.857967,39.754755],[42.860346,39.749448],[42.862633,39.748075],[42.869405,39.746245],[42.875078,39.745422],[42.882855,39.745513],[42.89045,39.746154],[42.899783,39.746337],[42.906096,39.745422],[42.910122,39.7435],[42.912044,39.74167],[42.912776,39.739749],[42.912501,39.736272],[42.911129,39.732612],[42.906645,39.727579],[42.898319,39.723644],[42.89658,39.722729],[42.887705,39.717056],[42.881483,39.712481],[42.874254,39.704978],[42.870045,39.697292],[42.864006,39.687319],[42.859248,39.681371],[42.855313,39.675606],[42.84964,39.668195],[42.844974,39.662339],[42.839646,39.655656],[42.838315,39.656177],[42.829387,39.660099],[42.823797,39.662268],[42.815954,39.66594],[42.80519,39.670612],[42.802186,39.671447],[42.798014,39.671864],[42.790922,39.671864],[42.785248,39.672198],[42.768394,39.673282],[42.754543,39.674367],[42.747534,39.676536],[42.742611,39.678539],[42.73385,39.680541],[42.729428,39.681376],[42.725757,39.682043],[42.717997,39.682878],[42.706399,39.683295],[42.697805,39.683879],[42.687709,39.683462],[42.680617,39.682961],[42.673525,39.682461],[42.665932,39.683545],[42.654668,39.685214],[42.645156,39.686966],[42.634726,39.688969],[42.625714,39.688969],[42.615034,39.689052],[42.602936,39.687884],[42.592339,39.686549],[42.5875,39.686215],[42.58241,39.686716],[42.577821,39.688552],[42.572648,39.689052],[42.566473,39.688635],[42.55863,39.688885],[42.551955,39.688718],[42.544279,39.689052],[42.540107,39.689469],[42.527619,39.691222],[42.50993,39.691889],[42.504367,39.692445],[42.489237,39.69467],[42.478223,39.697007],[42.470547,39.698898],[42.453637,39.700678],[42.444292,39.700455],[42.433389,39.700567],[42.423401,39.700205],[42.421511,39.703565],[42.41736,39.710871],[42.412876,39.716185],[42.410469,39.719257],[42.407397,39.723408],[42.403993,39.725982],[42.399094,39.727891],[42.394362,39.728555],[42.386807,39.730465],[42.367711,39.739681],[42.357416,39.744579],[42.349362,39.748647],[42.344381,39.752135],[42.337822,39.756784],[42.331595,39.760354],[42.326945,39.761599],[42.322296,39.762264],[42.316982,39.763094],[42.311669,39.765003],[42.306106,39.766996],[42.303034,39.768407],[42.294234,39.772642],[42.290913,39.774966],[42.289003,39.777789],[42.28809,39.781027],[42.287093,39.786258],[42.286346,39.796968],[42.284935,39.812826],[42.285848,39.821211],[42.286678,39.823453],[42.288588,39.826442],[42.293818,39.832254],[42.299962,39.836986],[42.306853,39.840556],[42.321217,39.848195],[42.329021,39.854338],[42.333421,39.856995],[42.343135,39.860233],[42.348283,39.861396],[42.358412,39.863305],[42.369952,39.865381],[42.381908,39.868536],[42.395275,39.873185],[42.398264,39.874597],[42.401917,39.878748],[42.407314,39.882899],[42.411216,39.885473],[42.41819,39.892032],[42.422756,39.896432],[42.431225,39.904154],[42.434214,39.906229],[42.445505,39.910629],[42.456132,39.91395],[42.462858,39.916275],[42.469167,39.917355],[42.472073,39.917022],[42.475394,39.916358],[42.478964,39.914781],[42.483448,39.91312],[42.485938,39.91229],[42.489426,39.911709],[42.494407,39.911875],[42.498392,39.912954],[42.501215,39.913369],[42.508189,39.915113],[42.514831,39.917271],[42.517488,39.918683],[42.523715,39.922336],[42.535421,39.92574],[42.540569,39.926736],[42.543641,39.926819],[42.545468,39.925823],[42.55294,39.922917],[42.560993,39.921174],[42.564978,39.921008],[42.574858,39.922336],[42.583659,39.92408],[42.612967,39.928065],[42.633225,39.931137],[42.642441,39.932382],[42.646177,39.933129],[42.657634,39.936035],[42.66602,39.93753],[42.680632,39.939107],[42.700891,39.940851],[42.719156,39.944836],[42.732191,39.94824],[42.739282,39.950054],[42.746471,39.951893],[42.759174,39.953636],[42.771794,39.955131],[42.794211,39.956874],[42.803593,39.958203],[42.831572,39.962354],[42.860797,39.965343],[42.870262,39.967419],[42.887282,39.971819]]]}},{"type":"Feature","properties":{"id":"TR-D-04-005","parent_id":"TR-P-04","region_id":"TR-R-DOA","level":"district","municipality_type":null,"municipality_type_label":null,"is_metropolitan_municipality":null,"name":"Hamur","name_ascii":"hamur","slug":"hamur-agri"},"geometry":{"type":"Polygon","coordinates":[[[42.86281,39.645445],[42.86844,39.645653],[42.875309,39.64636],[42.882076,39.64636],[42.889651,39.647067],[42.894601,39.648279],[42.903489,39.651915],[42.909348,39.652925],[42.91662,39.654541],[42.92763,39.656057],[42.937326,39.656158],[42.946316,39.65636],[42.960052,39.655956],[42.965709,39.654642],[42.970153,39.653531],[42.974294,39.651713],[42.977627,39.650703],[42.992677,39.647673],[43.009545,39.643633],[43.027221,39.641714],[43.03409,39.642118],[43.04015,39.644744],[43.050453,39.650804],[43.055604,39.652622],[43.058937,39.652723],[43.066411,39.65343],[43.074189,39.650804],[43.081966,39.646966],[43.093279,39.637269],[43.104693,39.626967],[43.122672,39.615553],[43.136004,39.608584],[43.150852,39.602321],[43.154994,39.600402],[43.163377,39.597574],[43.169841,39.59414],[43.171458,39.592524],[43.174892,39.589292],[43.178629,39.582322],[43.181659,39.57707],[43.187315,39.571818],[43.193982,39.567171],[43.206507,39.557273],[43.210648,39.553435],[43.213779,39.550809],[43.221859,39.546061],[43.229637,39.543435],[43.236404,39.542829],[43.242061,39.542223],[43.243965,39.541951],[43.241087,39.538467],[43.237377,39.533848],[43.230183,39.522415],[43.227987,39.517871],[43.227155,39.516205],[43.226322,39.512874],[43.22564,39.510451],[43.224883,39.507043],[43.224504,39.504014],[43.22458,39.491217],[43.224656,39.488567],[43.225337,39.485538],[43.226549,39.482964],[43.228139,39.477663],[43.229578,39.471151],[43.230486,39.466154],[43.230713,39.459414],[43.230638,39.453508],[43.230335,39.450858],[43.229956,39.448283],[43.229729,39.444573],[43.230108,39.441014],[43.233137,39.434275],[43.237528,39.427611],[43.242753,39.422084],[43.249719,39.416253],[43.255171,39.41118],[43.26032,39.406031],[43.263349,39.403229],[43.26706,39.400503],[43.269558,39.398762],[43.273647,39.395884],[43.277509,39.391114],[43.280235,39.386192],[43.282606,39.381132],[43.279351,39.380047],[43.265867,39.371833],[43.258273,39.3685],[43.25494,39.366563],[43.251143,39.362998],[43.246261,39.358736],[43.240139,39.354706],[43.229755,39.350987],[43.217046,39.345717],[43.205344,39.341532],[43.191472,39.338278],[43.185195,39.338278],[43.175974,39.342152],[43.162257,39.347887],[43.15722,39.349902],[43.153345,39.350754],[43.147378,39.351142],[43.145208,39.350754],[43.137536,39.347654],[43.130717,39.344555],[43.12444,39.341067],[43.120255,39.337813],[43.117698,39.33417],[43.11731,39.326033],[43.11886,39.318749],[43.119558,39.312704],[43.122735,39.307667],[43.126222,39.302088],[43.133309,39.295466],[43.125789,39.294687],[43.118304,39.293695],[43.105319,39.293244],[43.096121,39.293154],[43.089268,39.292883],[43.082325,39.292342],[43.078898,39.292883],[43.07457,39.294506],[43.072045,39.2964],[43.06925,39.297302],[43.062847,39.297302],[43.057076,39.299105],[43.051215,39.300999],[43.049321,39.301991],[43.045714,39.302982],[43.04346,39.302892],[43.041747,39.302081],[43.040304,39.300908],[43.038951,39.299917],[43.037419,39.299826],[43.034623,39.300367],[43.032459,39.3019],[43.030024,39.304515],[43.029303,39.306499],[43.029573,39.308934],[43.029573,39.310828],[43.028582,39.313172],[43.026688,39.315607],[43.023351,39.318402],[43.019745,39.320296],[43.016138,39.324173],[43.014514,39.32778],[43.012801,39.332469],[43.010006,39.337699],[43.00685,39.341667],[43.005227,39.342929],[43.002882,39.343561],[42.995578,39.344192],[42.988184,39.344462],[42.981511,39.345454],[42.974387,39.346356],[42.969428,39.347167],[42.959509,39.349241],[42.950491,39.350865],[42.94472,39.352758],[42.939941,39.35375],[42.931825,39.355373],[42.927227,39.357988],[42.921185,39.364571],[42.918029,39.371154],[42.914512,39.377466],[42.911085,39.38486],[42.90847,39.391623],[42.907118,39.397665],[42.9059,39.404027],[42.908737,39.404611],[42.911657,39.405946],[42.91366,39.408199],[42.913743,39.411703],[42.911657,39.41721],[42.90857,39.424302],[42.907402,39.428808],[42.906401,39.43298],[42.9059,39.435316],[42.906067,39.436401],[42.907402,39.438153],[42.910239,39.440239],[42.915162,39.444995],[42.915662,39.447916],[42.915662,39.452004],[42.915579,39.458345],[42.914745,39.463936],[42.914828,39.46769],[42.915829,39.47278],[42.918833,39.478704],[42.920502,39.482042],[42.922421,39.485713],[42.923673,39.486798],[42.929847,39.491554],[42.934186,39.494057],[42.93986,39.496977],[42.946618,39.499731],[42.952208,39.502401],[42.954461,39.504069],[42.955796,39.505571],[42.956213,39.50724],[42.956297,39.510745],[42.956464,39.51475],[42.956881,39.519923],[42.957882,39.531354],[42.958883,39.537779],[42.960385,39.543035],[42.963222,39.550127],[42.964641,39.553215],[42.968395,39.558471],[42.970315,39.560891],[42.970732,39.563978],[42.970648,39.5684],[42.96973,39.571654],[42.968646,39.574241],[42.967394,39.575826],[42.963139,39.578914],[42.956464,39.582919],[42.950289,39.58659],[42.9452,39.590512],[42.938942,39.59485],[42.928929,39.600774],[42.911407,39.614041],[42.90807,39.616377],[42.904065,39.620466],[42.899809,39.622719],[42.893218,39.625305],[42.883872,39.629644],[42.879951,39.632398],[42.876029,39.636736],[42.87119,39.640157],[42.865599,39.643495],[42.86281,39.645445]]]}},{"type":"Feature","properties":{"id":"TR-D-04-006","parent_id":"TR-P-04","region_id":"TR-R-DOA","level":"district","municipality_type":null,"municipality_type_label":null,"is_metropolitan_municipality":null,"name":"Patnos","name_ascii":"patnos","slug":"patnos-agri"},"geometry":{"type":"Polygon","coordinates":[[[42.714452,38.954903],[42.709387,38.961431],[42.70399,38.971311],[42.698981,38.984097],[42.696767,38.996163],[42.695992,39.007067],[42.695992,39.015121],[42.698317,39.025997],[42.701804,39.033967],[42.704627,39.040941],[42.707699,39.048414],[42.713344,39.056965],[42.716997,39.067509],[42.718243,39.080129],[42.718326,39.087602],[42.717911,39.099806],[42.716333,39.11583],[42.715586,39.12214],[42.713593,39.131771],[42.711518,39.134594],[42.707616,39.138579],[42.702468,39.142398],[42.696075,39.14987],[42.690844,39.155599],[42.687357,39.162241],[42.686112,39.167223],[42.686195,39.170295],[42.686859,39.176023],[42.68744,39.183828],[42.686195,39.192628],[42.683289,39.201844],[42.678972,39.209067],[42.674572,39.214381],[42.670586,39.220359],[42.666933,39.224178],[42.661703,39.229907],[42.660125,39.232397],[42.655725,39.237462],[42.649747,39.244685],[42.643935,39.250663],[42.642275,39.252822],[42.641195,39.254648],[42.636878,39.263532],[42.634221,39.270672],[42.633142,39.276235],[42.630734,39.285949],[42.628493,39.29367],[42.626915,39.298319],[42.625338,39.302886],[42.632556,39.303901],[42.640733,39.304735],[42.655252,39.305403],[42.664847,39.304902],[42.672356,39.304902],[42.678114,39.305153],[42.683037,39.304735],[42.689628,39.304402],[42.697054,39.305236],[42.706232,39.306237],[42.712991,39.307572],[42.716746,39.309241],[42.722837,39.311995],[42.724756,39.312412],[42.738773,39.315833],[42.750121,39.319754],[42.757714,39.32134],[42.761635,39.32159],[42.76564,39.320922],[42.773567,39.3165],[42.779741,39.312912],[42.785832,39.309742],[42.793509,39.307823],[42.800518,39.306905],[42.803271,39.306655],[42.808027,39.307405],[42.812366,39.310075],[42.816037,39.313663],[42.817539,39.315916],[42.818624,39.319337],[42.818791,39.324844],[42.818624,39.329433],[42.820209,39.337443],[42.820626,39.341281],[42.820626,39.346705],[42.82071,39.351211],[42.821377,39.354465],[42.824965,39.365729],[42.828303,39.377661],[42.82922,39.38008],[42.831139,39.385003],[42.833392,39.388341],[42.836396,39.39076],[42.840067,39.39318],[42.845908,39.396184],[42.847243,39.397268],[42.84983,39.399855],[42.851916,39.403443],[42.852166,39.406113],[42.851582,39.40945],[42.85033,39.41454],[42.850414,39.417294],[42.853167,39.420381],[42.855587,39.422133],[42.860009,39.422717],[42.864264,39.422801],[42.870439,39.421048],[42.877781,39.417711],[42.888128,39.41429],[42.892717,39.412538],[42.895387,39.411286],[42.898474,39.408783],[42.901478,39.405946],[42.9059,39.404027],[42.907118,39.397665],[42.90847,39.391623],[42.911085,39.38486],[42.914512,39.377466],[42.918029,39.371154],[42.921185,39.364571],[42.927227,39.357988],[42.931825,39.355373],[42.939941,39.35375],[42.94472,39.352758],[42.950491,39.350865],[42.959509,39.349241],[42.969428,39.347167],[42.974387,39.346356],[42.981511,39.345454],[42.988184,39.344462],[42.995578,39.344192],[43.002882,39.343561],[43.005227,39.342929],[43.00685,39.341667],[43.010006,39.337699],[43.012801,39.332469],[43.014514,39.32778],[43.016138,39.324173],[43.019745,39.320296],[43.023351,39.318402],[43.026688,39.315607],[43.028582,39.313172],[43.029573,39.310828],[43.029573,39.308934],[43.029303,39.306499],[43.030024,39.304515],[43.032459,39.3019],[43.034623,39.300367],[43.037419,39.299826],[43.038951,39.299917],[43.040304,39.300908],[43.041747,39.302081],[43.04346,39.302892],[43.045714,39.302982],[43.049321,39.301991],[43.051215,39.300999],[43.057076,39.299105],[43.062847,39.297302],[43.06925,39.297302],[43.072045,39.2964],[43.07457,39.294506],[43.078898,39.292883],[43.082325,39.292342],[43.089268,39.292883],[43.096121,39.293154],[43.105319,39.293244],[43.118304,39.293695],[43.125789,39.294687],[43.133309,39.295466],[43.135676,39.293253],[43.139164,39.289998],[43.144898,39.284264],[43.149238,39.279149],[43.15443,39.27109],[43.163058,39.258587],[43.166778,39.254351],[43.168327,39.249495],[43.167914,39.245982],[43.167501,39.243295],[43.164401,39.237716],[43.161301,39.232549],[43.160888,39.229139],[43.161921,39.22511],[43.162541,39.22108],[43.161818,39.215707],[43.160139,39.210541],[43.155722,39.206356],[43.154017,39.202714],[43.153707,39.199769],[43.154094,39.198297],[43.155412,39.195817],[43.155799,39.193027],[43.155257,39.191245],[43.153087,39.186672],[43.149832,39.180163],[43.14557,39.174738],[43.14247,39.173111],[43.132861,39.168539],[43.119144,39.162184],[43.11062,39.157225],[43.100391,39.15056],[43.091169,39.141648],[43.082644,39.133279],[43.073577,39.126537],[43.064821,39.120492],[43.058931,39.115842],[43.053506,39.112433],[43.049399,39.110495],[43.045912,39.108868],[43.037697,39.107551],[43.025686,39.104606],[43.022431,39.103056],[43.018556,39.100576],[43.014682,39.097166],[43.002747,39.08686],[42.996238,39.081202],[42.994146,39.07787],[42.993681,39.075468],[42.993371,39.07291],[42.993371,39.068958],[42.993603,39.065316],[42.994301,39.062216],[43.001972,39.053149],[43.007242,39.047725],[43.011659,39.042068],[43.013829,39.034008],[43.013752,39.028739],[43.012589,39.025639],[43.011427,39.023391],[43.010113,39.022841],[43.008095,39.021997],[42.999803,39.022694],[42.986086,39.024011],[42.974462,39.025251],[42.96772,39.025794],[42.963303,39.025949],[42.958808,39.024321],[42.956948,39.022384],[42.955553,39.019052],[42.954778,39.01324],[42.954933,39.008435],[42.955476,39.003708],[42.956483,38.997818],[42.956251,38.993479],[42.955011,38.988519],[42.954778,38.985729],[42.953383,38.982397],[42.952376,38.980692],[42.948346,38.973175],[42.946409,38.968603],[42.945092,38.963488],[42.944084,38.957754],[42.942999,38.952406],[42.941682,38.947137],[42.939357,38.945277],[42.93649,38.943882],[42.93277,38.942255],[42.929438,38.94179],[42.921766,38.942177],[42.916806,38.943262],[42.913861,38.94458],[42.909986,38.947369],[42.903399,38.951167],[42.8972,38.954499],[42.894875,38.955119],[42.886583,38.955739],[42.874649,38.956126],[42.857368,38.956591],[42.842101,38.959458],[42.839002,38.961008],[42.836212,38.962326],[42.830477,38.967208],[42.8242,38.972943],[42.820713,38.976352],[42.815133,38.979065],[42.808934,38.980537],[42.802579,38.980692],[42.794597,38.979452],[42.787158,38.977825],[42.773751,38.974105],[42.76112,38.970928],[42.750813,38.969145],[42.742753,38.967518],[42.733764,38.965581],[42.727409,38.962636],[42.722605,38.961008],[42.717258,38.957056],[42.714452,38.954903]]]}},{"type":"Feature","properties":{"id":"TR-D-04-007","parent_id":"TR-P-04","region_id":"TR-R-DOA","level":"district","municipality_type":null,"municipality_type_label":null,"is_metropolitan_municipality":null,"name":"Taşlıçay","name_ascii":"taslicay","slug":"taslicay-agri"},"geometry":{"type":"Polygon","coordinates":[[[43.61043,39.689866],[43.606494,39.682951],[43.599338,39.673335],[43.5933,39.662936],[43.573061,39.63856],[43.564339,39.629726],[43.559866,39.626036],[43.55025,39.619327],[43.536385,39.610829],[43.522967,39.605238],[43.514133,39.602443],[43.499038,39.597299],[43.486179,39.592939],[43.480141,39.590814],[43.477233,39.587907],[43.475109,39.583769],[43.471754,39.57885],[43.469183,39.574824],[43.465716,39.569233],[43.46225,39.561853],[43.460125,39.558611],[43.4561,39.555256],[43.450174,39.551454],[43.445477,39.548323],[43.443241,39.546199],[43.441116,39.541726],[43.438097,39.537142],[43.434296,39.533228],[43.427586,39.529091],[43.419871,39.522941],[43.412044,39.515002],[43.407683,39.508852],[43.406229,39.505945],[43.402987,39.496664],[43.401421,39.490514],[43.400862,39.485706],[43.401421,39.478438],[43.40198,39.468598],[43.402875,39.464349],[43.404552,39.459764],[43.406006,39.454061],[43.405894,39.451154],[43.405111,39.448247],[43.402987,39.44042],[43.401309,39.437177],[43.397619,39.434046],[43.39024,39.428008],[43.388003,39.424542],[43.383754,39.415149],[43.380735,39.410229],[43.378051,39.406204],[43.37425,39.398712],[43.371566,39.392115],[43.370224,39.386412],[43.36878,39.382217],[43.346539,39.379815],[43.33569,39.378265],[43.326545,39.3778],[43.320423,39.377257],[43.315619,39.377955],[43.305622,39.37935],[43.29733,39.38059],[43.288341,39.380822],[43.282606,39.381132],[43.280235,39.386192],[43.277509,39.391114],[43.273647,39.395884],[43.269558,39.398762],[43.26706,39.400503],[43.263349,39.403229],[43.26032,39.406031],[43.255171,39.41118],[43.249719,39.416253],[43.242753,39.422084],[43.237528,39.427611],[43.233137,39.434275],[43.230108,39.441014],[43.229729,39.444573],[43.229956,39.448283],[43.230335,39.450858],[43.230638,39.453508],[43.230713,39.459414],[43.230486,39.466154],[43.229578,39.471151],[43.228139,39.477663],[43.226549,39.482964],[43.225337,39.485538],[43.224656,39.488567],[43.22458,39.491217],[43.224504,39.504014],[43.224883,39.507043],[43.22564,39.510451],[43.226322,39.512874],[43.227155,39.516205],[43.227987,39.517871],[43.230183,39.522415],[43.237377,39.533848],[43.241087,39.538467],[43.243965,39.541951],[43.246766,39.543087],[43.251385,39.545055],[43.257595,39.547175],[43.262365,39.548084],[43.264561,39.548766],[43.26653,39.55081],[43.268801,39.55452],[43.27024,39.557095],[43.272663,39.561487],[43.27395,39.563986],[43.274859,39.566712],[43.275692,39.568453],[43.276373,39.571028],[43.276373,39.573678],[43.275086,39.578903],[43.273496,39.582537],[43.272966,39.584279],[43.272284,39.586702],[43.271906,39.591245],[43.271982,39.59329],[43.273042,39.597303],[43.27448,39.602301],[43.274935,39.604269],[43.275162,39.606995],[43.276373,39.611009],[43.278115,39.614037],[43.279554,39.616612],[43.280992,39.619338],[43.284778,39.623427],[43.290079,39.630848],[43.294471,39.638041],[43.300074,39.645916],[43.304996,39.652428],[43.308025,39.655911],[43.310599,39.65841],[43.315673,39.662651],[43.320216,39.666967],[43.323018,39.671283],[43.323548,39.673933],[43.323169,39.680218],[43.322336,39.686427],[43.322109,39.690592],[43.322185,39.696119],[43.322715,39.69983],[43.323396,39.700663],[43.326122,39.703237],[43.328848,39.705888],[43.339904,39.71399],[43.354215,39.723379],[43.36209,39.727695],[43.384958,39.744884],[43.392151,39.752532],[43.394877,39.758287],[43.396468,39.764799],[43.398891,39.776157],[43.399269,39.783048],[43.401389,39.788651],[43.403434,39.79221],[43.407599,39.797359],[43.411385,39.801751],[43.417215,39.807581],[43.420419,39.810061],[43.426907,39.805015],[43.430962,39.801591],[43.441955,39.791859],[43.451237,39.783479],[43.454661,39.781857],[43.455098,39.78192],[43.460248,39.782668],[43.468928,39.785595],[43.475476,39.787804],[43.484848,39.795103],[43.48692,39.799879],[43.488272,39.806637],[43.489353,39.810872],[43.491696,39.819433],[43.493949,39.829074],[43.49476,39.833039],[43.496292,39.836103],[43.498725,39.837725],[43.504131,39.840428],[43.509313,39.841825],[43.514494,39.843222],[43.526659,39.844934],[43.5354,39.844303],[43.545221,39.84223],[43.550808,39.840068],[43.558378,39.836103],[43.563514,39.831795],[43.563964,39.831417],[43.562298,39.829678],[43.559817,39.827088],[43.557734,39.823444],[43.556763,39.821743],[43.554908,39.816508],[43.554472,39.811599],[43.555236,39.804509],[43.557744,39.798837],[43.561526,39.791274],[43.563417,39.787492],[43.567234,39.772876],[43.568761,39.760659],[43.568144,39.749751],[43.568107,39.749096],[43.565598,39.741897],[43.565053,39.73448],[43.565816,39.728917],[43.566253,39.726626],[43.571472,39.720992],[43.573125,39.719208],[43.583487,39.711136],[43.584396,39.710415],[43.596686,39.700665],[43.61043,39.689866]]]}},{"type":"Feature","properties":{"id":"TR-D-04-008","parent_id":"TR-P-04","region_id":"TR-R-DOA","level":"district","municipality_type":null,"municipality_type_label":null,"is_metropolitan_municipality":null,"name":"Tutak","name_ascii":"tutak","slug":"tutak-agri"},"geometry":{"type":"Polygon","coordinates":[[[42.839646,39.655656],[42.842571,39.654509],[42.847827,39.652756],[42.855003,39.650671],[42.85784,39.648918],[42.86281,39.645445],[42.865599,39.643495],[42.87119,39.640157],[42.876029,39.636736],[42.879951,39.632398],[42.883872,39.629644],[42.893218,39.625305],[42.899809,39.622719],[42.904065,39.620466],[42.90807,39.616377],[42.911407,39.614041],[42.928929,39.600774],[42.938942,39.59485],[42.9452,39.590512],[42.950289,39.58659],[42.956464,39.582919],[42.963139,39.578914],[42.967394,39.575826],[42.968646,39.574241],[42.96973,39.571654],[42.970648,39.5684],[42.970732,39.563978],[42.970315,39.560891],[42.968395,39.558471],[42.964641,39.553215],[42.963222,39.550127],[42.960385,39.543035],[42.958883,39.537779],[42.957882,39.531354],[42.956881,39.519923],[42.956464,39.51475],[42.956297,39.510745],[42.956213,39.50724],[42.955796,39.505571],[42.954461,39.504069],[42.952208,39.502401],[42.946618,39.499731],[42.93986,39.496977],[42.934186,39.494057],[42.929847,39.491554],[42.923673,39.486798],[42.922421,39.485713],[42.920502,39.482042],[42.918833,39.478704],[42.915829,39.47278],[42.914828,39.46769],[42.914745,39.463936],[42.915579,39.458345],[42.915662,39.452004],[42.915662,39.447916],[42.915162,39.444995],[42.910239,39.440239],[42.907402,39.438153],[42.906067,39.436401],[42.9059,39.435316],[42.906401,39.43298],[42.907402,39.428808],[42.90857,39.424302],[42.911657,39.41721],[42.913743,39.411703],[42.91366,39.408199],[42.911657,39.405946],[42.908737,39.404611],[42.9059,39.404027],[42.901478,39.405946],[42.898474,39.408783],[42.895387,39.411286],[42.892717,39.412538],[42.888128,39.41429],[42.877781,39.417711],[42.870439,39.421048],[42.864264,39.422801],[42.860009,39.422717],[42.855587,39.422133],[42.853167,39.420381],[42.850414,39.417294],[42.85033,39.41454],[42.851582,39.40945],[42.852166,39.406113],[42.851916,39.403443],[42.84983,39.399855],[42.847243,39.397268],[42.845908,39.396184],[42.840067,39.39318],[42.836396,39.39076],[42.833392,39.388341],[42.831139,39.385003],[42.82922,39.38008],[42.828303,39.377661],[42.824965,39.365729],[42.821377,39.354465],[42.82071,39.351211],[42.820626,39.346705],[42.820626,39.341281],[42.820209,39.337443],[42.818624,39.329433],[42.818791,39.324844],[42.818624,39.319337],[42.817539,39.315916],[42.816037,39.313663],[42.812366,39.310075],[42.808027,39.307405],[42.803271,39.306655],[42.800518,39.306905],[42.793509,39.307823],[42.785832,39.309742],[42.779741,39.312912],[42.773567,39.3165],[42.76564,39.320922],[42.761635,39.32159],[42.757714,39.32134],[42.750121,39.319754],[42.738773,39.315833],[42.724756,39.312412],[42.722837,39.311995],[42.716746,39.309241],[42.712991,39.307572],[42.706232,39.306237],[42.697054,39.305236],[42.689628,39.304402],[42.683037,39.304735],[42.678114,39.305153],[42.672356,39.304902],[42.664847,39.304902],[42.655252,39.305403],[42.640733,39.304735],[42.632556,39.303901],[42.625338,39.302886],[42.623677,39.306124],[42.619858,39.310939],[42.612137,39.318245],[42.605744,39.323808],[42.601592,39.326631],[42.596611,39.330616],[42.592875,39.335847],[42.588558,39.341243],[42.58341,39.345893],[42.574443,39.35295],[42.570126,39.356188],[42.566722,39.358762],[42.564397,39.36009],[42.561242,39.360422],[42.557174,39.360671],[42.554434,39.360505],[42.551196,39.360422],[42.547211,39.360505],[42.542562,39.360754],[42.539988,39.36092],[42.537082,39.361667],[42.535671,39.362332],[42.535338,39.363328],[42.535172,39.363619],[42.535006,39.363909],[42.533844,39.364158],[42.532682,39.36449],[42.531187,39.365071],[42.529693,39.366483],[42.528862,39.367064],[42.52853,39.366981],[42.528198,39.366898],[42.527617,39.366068],[42.527534,39.364988],[42.527036,39.363992],[42.526206,39.363245],[42.525126,39.36283],[42.524047,39.363162],[42.523051,39.364407],[42.522636,39.365819],[42.521722,39.366649],[42.520892,39.367396],[42.520726,39.367645],[42.52056,39.367894],[42.520726,39.36914],[42.521058,39.370302],[42.521805,39.371713],[42.522054,39.372959],[42.521722,39.374868],[42.521722,39.376197],[42.521639,39.37711],[42.52139,39.378272],[42.520477,39.379186],[42.519232,39.380182],[42.518567,39.381344],[42.51782,39.383254],[42.516907,39.385496],[42.514665,39.390477],[42.511759,39.39521],[42.509019,39.402516],[42.507442,39.40592],[42.506529,39.407663],[42.506861,39.411566],[42.508521,39.41937],[42.508521,39.424517],[42.507691,39.428004],[42.505034,39.434314],[42.503042,39.438134],[42.499223,39.443198],[42.495071,39.446934],[42.487931,39.451667],[42.482534,39.456565],[42.479629,39.459222],[42.477304,39.462211],[42.4695,39.473585],[42.460865,39.484462],[42.450902,39.49484],[42.444758,39.499406],[42.43795,39.506214],[42.42998,39.512275],[42.451981,39.53519],[42.45937,39.543991],[42.466262,39.551961],[42.468503,39.556278],[42.471243,39.563252],[42.477304,39.57114],[42.488512,39.582182],[42.495902,39.588243],[42.500551,39.589903],[42.508438,39.593307],[42.511427,39.596379],[42.512257,39.599368],[42.51234,39.600531],[42.51151,39.602523],[42.509019,39.605678],[42.507193,39.609497],[42.505948,39.612569],[42.505781,39.614479],[42.506363,39.620955],[42.506861,39.625272],[42.506778,39.629008],[42.505948,39.634986],[42.503789,39.64113],[42.501049,39.648187],[42.495652,39.655659],[42.492331,39.659894],[42.486769,39.664792],[42.480625,39.668611],[42.475311,39.670355],[42.4695,39.671268],[42.46128,39.672763],[42.453725,39.675253],[42.444924,39.679322],[42.439694,39.682227],[42.433716,39.687624],[42.429149,39.691692],[42.4245,39.698251],[42.423401,39.700205],[42.433389,39.700567],[42.444292,39.700455],[42.453637,39.700678],[42.470547,39.698898],[42.478223,39.697007],[42.489237,39.69467],[42.504367,39.692445],[42.50993,39.691889],[42.527619,39.691222],[42.540107,39.689469],[42.544279,39.689052],[42.551955,39.688718],[42.55863,39.688885],[42.566473,39.688635],[42.572648,39.689052],[42.577821,39.688552],[42.58241,39.686716],[42.5875,39.686215],[42.592339,39.686549],[42.602936,39.687884],[42.615034,39.689052],[42.625714,39.688969],[42.634726,39.688969],[42.645156,39.686966],[42.654668,39.685214],[42.665932,39.683545],[42.673525,39.682461],[42.680617,39.682961],[42.687709,39.683462],[42.697805,39.683879],[42.706399,39.683295],[42.717997,39.682878],[42.725757,39.682043],[42.729428,39.681376],[42.73385,39.680541],[42.742611,39.678539],[42.747534,39.676536],[42.754543,39.674367],[42.768394,39.673282],[42.785248,39.672198],[42.790922,39.671864],[42.798014,39.671864],[42.802186,39.671447],[42.80519,39.670612],[42.815954,39.66594],[42.823797,39.662268],[42.829387,39.660099],[42.838315,39.656177],[42.839646,39.655656]]]}}]}