{"type":"FeatureCollection","province":"Aksaray","province_id":"TR-P-68","features":[{"type":"Feature","properties":{"id":"TR-D-68-001","parent_id":"TR-P-68","region_id":"TR-R-ICA","level":"district","municipality_type":null,"municipality_type_label":null,"is_metropolitan_municipality":null,"name":"Ağaçören","name_ascii":"agacoren","slug":"agacoren-aksaray"},"geometry":{"type":"Polygon","coordinates":[[[33.850053,38.697731],[33.837596,38.704135],[33.831893,38.705627],[33.821409,38.706599],[33.811258,38.707459],[33.802368,38.709811],[33.792446,38.713137],[33.786137,38.713883],[33.774896,38.714915],[33.77266,38.715202],[33.76985,38.714628],[33.762451,38.713252],[33.754412,38.710634],[33.74663,38.709308],[33.745016,38.709135],[33.741385,38.70902],[33.737869,38.709424],[33.733258,38.710807],[33.730837,38.712652],[33.728762,38.715245],[33.726164,38.717921],[33.730893,38.720161],[33.733963,38.721571],[33.737696,38.723894],[33.739024,38.725802],[33.740351,38.727959],[33.741513,38.730946],[33.743836,38.733518],[33.74732,38.735094],[33.751551,38.737085],[33.755202,38.738496],[33.757525,38.740155],[33.759267,38.74198],[33.762005,38.74729],[33.764411,38.754923],[33.767481,38.76239],[33.769887,38.766372],[33.773371,38.772096],[33.775694,38.77724],[33.777104,38.780061],[33.777685,38.782218],[33.779096,38.793335],[33.780257,38.803374],[33.78034,38.814076],[33.780257,38.819054],[33.780838,38.822539],[33.781336,38.828595],[33.781585,38.834652],[33.782995,38.84469],[33.78341,38.846267],[33.784239,38.850664],[33.785816,38.855476],[33.787641,38.860288],[33.790462,38.865266],[33.795357,38.875802],[33.797846,38.88078],[33.79909,38.883933],[33.800998,38.887002],[33.801828,38.888745],[33.801911,38.890072],[33.807028,38.888197],[33.811171,38.886793],[33.815594,38.886091],[33.822616,38.886723],[33.82746,38.888759],[33.83385,38.893112],[33.837009,38.89564],[33.841362,38.898589],[33.84403,38.901046],[33.845294,38.903855],[33.845435,38.910314],[33.845856,38.917055],[33.847892,38.922602],[33.851543,38.92541],[33.855896,38.927025],[33.863901,38.928078],[33.868956,38.92878],[33.878294,38.927517],[33.886369,38.927587],[33.893671,38.928921],[33.894373,38.929131],[33.898094,38.930606],[33.902658,38.934257],[33.909106,38.941114],[33.913974,38.947012],[33.917344,38.950476],[33.9224,38.954127],[33.928204,38.957685],[33.937847,38.962646],[33.937869,38.957758],[33.937167,38.952143],[33.935851,38.946441],[33.935062,38.943195],[33.935149,38.939861],[33.935062,38.931615],[33.935062,38.925035],[33.934886,38.917754],[33.935851,38.910911],[33.937606,38.908893],[33.941817,38.906437],[33.949098,38.902489],[33.963398,38.894681],[33.981382,38.887575],[33.992787,38.882048],[34.000507,38.875732],[34.001033,38.875205],[34.003314,38.865204],[34.00656,38.849413],[34.010069,38.833096],[34.011122,38.830639],[34.012789,38.827744],[34.016386,38.822568],[34.017439,38.817217],[34.017175,38.808181],[34.017088,38.798531],[34.015596,38.794759],[34.010245,38.790284],[34.005508,38.785723],[33.999805,38.780547],[33.991383,38.77423],[33.978926,38.766422],[33.964363,38.75879],[33.959362,38.755632],[33.942343,38.744139],[33.933044,38.738262],[33.927429,38.734665],[33.92471,38.734314],[33.919358,38.733086],[33.916727,38.731945],[33.912516,38.728699],[33.908919,38.72633],[33.905936,38.72519],[33.90269,38.723435],[33.899795,38.721505],[33.894444,38.718786],[33.887776,38.716329],[33.882337,38.713522],[33.864967,38.706153],[33.85672,38.70203],[33.850053,38.697731]]]}},{"type":"Feature","properties":{"id":"TR-D-68-002","parent_id":"TR-P-68","region_id":"TR-R-ICA","level":"district","municipality_type":null,"municipality_type_label":null,"is_metropolitan_municipality":null,"name":"Aksaray","name_ascii":"aksaray","slug":"aksaray-aksaray"},"geometry":{"type":"Polygon","coordinates":[[[33.737869,38.709424],[33.741385,38.70902],[33.745016,38.709135],[33.74663,38.709308],[33.754412,38.710634],[33.762451,38.713252],[33.76985,38.714628],[33.77266,38.715202],[33.774896,38.714915],[33.786137,38.713883],[33.792446,38.713137],[33.802368,38.709811],[33.811258,38.707459],[33.821409,38.706599],[33.831893,38.705627],[33.837596,38.704135],[33.850053,38.697731],[33.858179,38.692658],[33.86395,38.689429],[33.875081,38.683382],[33.880165,38.681046],[33.88628,38.678092],[33.887723,38.677267],[33.889234,38.676031],[33.894456,38.667374],[33.895349,38.664763],[33.896861,38.66016],[33.899472,38.653151],[33.902563,38.648479],[33.908942,38.638998],[33.913339,38.6357],[33.91911,38.632952],[33.93047,38.63057],[33.945768,38.629196],[33.951173,38.629287],[33.962899,38.631394],[33.966106,38.631486],[33.974167,38.630936],[33.984153,38.629012],[33.993314,38.627547],[34.003299,38.627455],[34.007879,38.628463],[34.012735,38.63002],[34.016949,38.632036],[34.022537,38.635425],[34.02785,38.63854],[34.032247,38.640189],[34.038019,38.641838],[34.042049,38.642387],[34.047363,38.642387],[34.051027,38.641196],[34.054508,38.64083],[34.05744,38.640647],[34.061013,38.640097],[34.066417,38.638265],[34.06825,38.637624],[34.07054,38.63799],[34.073471,38.638815],[34.079518,38.640922],[34.088587,38.643487],[34.099213,38.645685],[34.106634,38.647884],[34.11213,38.649075],[34.115703,38.648983],[34.121749,38.648617],[34.128712,38.647151],[34.139613,38.645594],[34.147217,38.645227],[34.155553,38.644952],[34.169019,38.646143],[34.17873,38.647151],[34.191647,38.650999],[34.201541,38.653472],[34.203831,38.654113],[34.210243,38.656404],[34.223985,38.662175],[34.236627,38.667305],[34.247712,38.672893],[34.251617,38.674855],[34.251054,38.671601],[34.250168,38.66411],[34.249201,38.655088],[34.249604,38.650497],[34.250973,38.643972],[34.25194,38.639945],[34.257981,38.631326],[34.259431,38.629795],[34.267567,38.624962],[34.280294,38.617954],[34.285368,38.615216],[34.290524,38.613363],[34.294551,38.610705],[34.298901,38.607644],[34.307681,38.604341],[34.311064,38.603294],[34.322744,38.599911],[34.331121,38.597495],[34.338371,38.595964],[34.346587,38.594756],[34.352387,38.594031],[34.356092,38.593709],[34.35875,38.592581],[34.359797,38.591614],[34.362617,38.589842],[34.365516,38.588473],[34.367047,38.588151],[34.369302,38.588151],[34.373088,38.588151],[34.377599,38.58807],[34.380418,38.587667],[34.38356,38.586379],[34.387024,38.583479],[34.389923,38.580418],[34.394193,38.577035],[34.397576,38.574215],[34.399187,38.572121],[34.401764,38.568174],[34.4041,38.565355],[34.406195,38.563502],[34.408772,38.562697],[34.410222,38.562455],[34.421096,38.561166],[34.427299,38.560441],[34.430601,38.559958],[34.435676,38.557461],[34.43914,38.555769],[34.443329,38.552144],[34.446389,38.548278],[34.447034,38.543848],[34.446873,38.537323],[34.446487,38.53397],[34.439089,38.531917],[34.436095,38.531086],[34.43421,38.530579],[34.432268,38.530081],[34.431352,38.529861],[34.430523,38.529675],[34.428938,38.529365],[34.42739,38.529109],[34.425877,38.5289],[34.42436,38.528727],[34.423491,38.528646],[34.421755,38.528522],[34.419157,38.528393],[34.413956,38.528189],[34.411357,38.528072],[34.408761,38.527907],[34.407129,38.527756],[34.405499,38.527578],[34.403055,38.527288],[34.391219,38.525801],[34.387823,38.525332],[34.385366,38.524929],[34.383067,38.524495],[34.379686,38.523805],[34.372931,38.522385],[34.369561,38.521647],[34.367883,38.52125],[34.366266,38.520826],[34.360043,38.519007],[34.359261,38.518795],[34.357539,38.518366],[34.355816,38.517971],[34.352339,38.517216],[34.344519,38.515559],[34.341041,38.514839],[34.338428,38.514335],[34.334064,38.513575],[34.319211,38.511089],[34.308719,38.509355],[34.306099,38.508911],[34.304361,38.508591],[34.303496,38.508415],[34.302636,38.508224],[34.301784,38.50801],[34.300941,38.507766],[34.300102,38.507481],[34.299272,38.507165],[34.29845,38.506826],[34.297632,38.506471],[34.296007,38.505731],[34.273384,38.494962],[34.27014,38.493451],[34.267693,38.49237],[34.265236,38.491353],[34.262767,38.490361],[34.232687,38.478367],[34.220476,38.469826],[34.215287,38.465109],[34.209626,38.458347],[34.205931,38.452687],[34.204358,38.449699],[34.203965,38.448441],[34.203258,38.442702],[34.202393,38.436727],[34.200978,38.431931],[34.198934,38.42682],[34.19744,38.423047],[34.196732,38.417779],[34.196182,38.411006],[34.195453,38.409102],[34.195519,38.403179],[34.196486,38.398977],[34.197237,38.398386],[34.198323,38.397489],[34.19945,38.396514],[34.200149,38.395868],[34.200482,38.395535],[34.2008,38.395195],[34.201112,38.394828],[34.201407,38.394451],[34.201715,38.394032],[34.201964,38.39368],[34.202495,38.392895],[34.203521,38.391307],[34.20426,38.390105],[34.204719,38.389292],[34.205107,38.388513],[34.205463,38.387724],[34.205641,38.387294],[34.205825,38.386807],[34.206008,38.386285],[34.20618,38.385748],[34.206332,38.385216],[34.206458,38.384712],[34.206551,38.384255],[34.206605,38.383888],[34.206632,38.383602],[34.206636,38.383382],[34.209475,38.378783],[34.210072,38.377812],[34.214709,38.370108],[34.218106,38.364416],[34.218844,38.363199],[34.219355,38.362395],[34.219622,38.361999],[34.219877,38.36164],[34.220413,38.360937],[34.220694,38.360593],[34.220985,38.360257],[34.221287,38.359931],[34.221604,38.359616],[34.221902,38.359352],[34.217095,38.353389],[34.213242,38.35048],[34.205695,38.346706],[34.202157,38.343325],[34.195946,38.337665],[34.193273,38.333498],[34.190207,38.329095],[34.18942,38.325164],[34.188556,38.314629],[34.187691,38.30889],[34.186669,38.302285],[34.186276,38.297175],[34.186276,38.293244],[34.187298,38.289785],[34.189263,38.284832],[34.192172,38.280822],[34.200034,38.272803],[34.207031,38.266592],[34.213242,38.262425],[34.225429,38.25983],[34.232662,38.256528],[34.238558,38.255192],[34.242253,38.254012],[34.244769,38.253305],[34.252553,38.245207],[34.258528,38.238131],[34.262066,38.233335],[34.264739,38.226888],[34.26694,38.221385],[34.273544,38.208727],[34.289111,38.183962],[34.292178,38.179087],[34.296085,38.174686],[34.293272,38.169784],[34.290113,38.164488],[34.287883,38.158728],[34.285654,38.153153],[34.282959,38.145163],[34.27915,38.137823],[34.274783,38.130948],[34.270231,38.125559],[34.268193,38.122716],[34.266236,38.119985],[34.262241,38.117198],[34.258524,38.115247],[34.255458,38.114875],[34.249512,38.116083],[34.241243,38.118034],[34.237713,38.119149],[34.23093,38.120914],[34.227865,38.121564],[34.221918,38.123051],[34.21718,38.123701],[34.208168,38.125559],[34.201107,38.126488],[34.198227,38.127789],[34.192466,38.128718],[34.185777,38.129369],[34.180853,38.129369],[34.175929,38.128718],[34.170075,38.127603],[34.162364,38.126024],[34.157812,38.124352],[34.152051,38.121564],[34.14657,38.116176],[34.140345,38.109672],[34.134677,38.102425],[34.12836,38.0949],[34.124364,38.089975],[34.11944,38.085237],[34.116653,38.083286],[34.112008,38.080406],[34.108291,38.078083],[34.10569,38.075296],[34.102159,38.071208],[34.099744,38.067584],[34.097978,38.062474],[34.095284,38.058572],[34.089988,38.052998],[34.076517,38.043057],[34.068506,38.038435],[34.067886,38.040341],[34.064615,38.043084],[34.059339,38.045722],[34.048007,38.052991],[34.034876,38.059182],[34.023245,38.069124],[34.012177,38.078879],[34.002047,38.094449],[33.996044,38.106454],[33.991167,38.114146],[33.981225,38.1239],[33.975222,38.127652],[33.963404,38.129903],[33.950085,38.129528],[33.939392,38.128778],[33.92476,38.122587],[33.909565,38.11696],[33.891908,38.108002],[33.879527,38.099279],[33.865177,38.08929],[33.851811,38.081411],[33.839711,38.07297],[33.828596,38.065935],[33.813542,38.057493],[33.801302,38.051303],[33.791594,38.05074],[33.779635,38.053413],[33.767536,38.058337],[33.758531,38.06298],[33.744181,38.074658],[33.738694,38.079441],[33.733769,38.088727],[33.728423,38.096747],[33.72378,38.101952],[33.719419,38.104907],[33.715883,38.107403],[33.728405,38.15193],[33.731974,38.185956],[33.725954,38.231404],[33.714176,38.25389],[33.68241,38.298862],[33.642435,38.344547],[33.618522,38.371316],[33.592466,38.394159],[33.553763,38.409481],[33.554217,38.419311],[33.554388,38.423011],[33.554946,38.469925],[33.554946,38.522005],[33.554946,38.5241],[33.55338,38.550724],[33.550478,38.600056],[33.548226,38.650503],[33.577546,38.653362],[33.641586,38.672574],[33.656956,38.678124],[33.672849,38.684714],[33.674461,38.685382],[33.689535,38.694054],[33.700266,38.700692],[33.704027,38.70401],[33.71289,38.708877],[33.718946,38.712777],[33.722763,38.715764],[33.726164,38.717921],[33.728762,38.715245],[33.730837,38.712652],[33.733258,38.710807],[33.737869,38.709424]]]}},{"type":"Feature","properties":{"id":"TR-D-68-003","parent_id":"TR-P-68","region_id":"TR-R-ICA","level":"district","municipality_type":null,"municipality_type_label":null,"is_metropolitan_municipality":null,"name":"Eskil","name_ascii":"eskil","slug":"eskil-aksaray"},"geometry":{"type":"Polygon","coordinates":[[[33.488222,38.649075],[33.525032,38.648239],[33.548226,38.650503],[33.550478,38.600056],[33.55338,38.550724],[33.554946,38.5241],[33.554946,38.522005],[33.554946,38.469925],[33.554388,38.423011],[33.554217,38.419311],[33.553763,38.409481],[33.552712,38.386709],[33.548803,38.358226],[33.539867,38.33421],[33.528138,38.317455],[33.514019,38.303377],[33.504775,38.298805],[33.499308,38.293934],[33.495431,38.287473],[33.494735,38.281609],[33.493344,38.271569],[33.492946,38.260039],[33.493045,38.252385],[33.493443,38.246719],[33.495332,38.234791],[33.498711,38.22336],[33.501494,38.214115],[33.504178,38.2001],[33.508254,38.188868],[33.513124,38.182208],[33.519585,38.175747],[33.522269,38.173162],[33.529724,38.167397],[33.53708,38.159942],[33.546026,38.151095],[33.556562,38.144237],[33.566403,38.137875],[33.577437,38.13211],[33.582407,38.127339],[33.591452,38.121971],[33.598211,38.118492],[33.604175,38.116902],[33.61004,38.114019],[33.613519,38.108751],[33.61839,38.1005],[33.620458,38.092975],[33.616731,38.090521],[33.6085,38.085034],[33.600058,38.07712],[33.591722,38.068889],[33.585286,38.062347],[33.581593,38.057599],[33.576528,38.047786],[33.572834,38.039555],[33.570513,38.026365],[33.567347,38.017923],[33.563338,38.011803],[33.559952,38.008019],[33.556162,38.003784],[33.543922,37.993443],[33.527144,37.985318],[33.511633,37.979409],[33.491162,37.974238],[33.466365,37.970651],[33.456974,37.96949],[33.447688,37.971495],[33.437558,37.97962],[33.422996,37.995237],[33.413289,38.008743],[33.406219,38.018134],[33.398199,38.023622],[33.386276,38.029636],[33.374879,38.035651],[33.362006,38.041349],[33.351982,38.045886],[33.342379,38.051162],[33.326974,38.065091],[33.321592,38.070789],[33.316211,38.080391],[33.309457,38.088938],[33.301649,38.096325],[33.293629,38.101917],[33.285293,38.106877],[33.278751,38.111097],[33.272103,38.117006],[33.267988,38.121544],[33.265245,38.124709],[33.263767,38.128086],[33.263873,38.130829],[33.265878,38.135578],[33.271365,38.14117],[33.276746,38.14518],[33.282972,38.149084],[33.288248,38.152883],[33.293524,38.157526],[33.297217,38.161536],[33.303654,38.171877],[33.305236,38.176836],[33.30397,38.183062],[33.300383,38.192136],[33.297217,38.20195],[33.294473,38.209547],[33.291941,38.216089],[33.286771,38.228963],[33.283288,38.237193],[33.278646,38.24363],[33.274319,38.247323],[33.270204,38.249117],[33.26324,38.251438],[33.250788,38.253338],[33.241186,38.25376],[33.23285,38.25165],[33.221665,38.249434],[33.212063,38.250172],[33.200561,38.24975],[33.192753,38.25281],[33.18505,38.259247],[33.179985,38.269377],[33.175975,38.281195],[33.175131,38.285416],[33.175553,38.290903],[33.178824,38.298078],[33.185894,38.307469],[33.191803,38.313484],[33.195285,38.316439],[33.200455,38.321398],[33.212801,38.333427],[33.217339,38.338492],[33.223986,38.345562],[33.226835,38.350099],[33.228313,38.354004],[33.231478,38.366982],[33.231689,38.377007],[33.229473,38.384604],[33.228207,38.391147],[33.232692,38.407256],[33.23649,38.419215],[33.247605,38.43455],[33.257735,38.450449],[33.267584,38.465503],[33.277151,38.48126],[33.292064,38.502083],[33.306555,38.525297],[33.315419,38.539366],[33.330473,38.563706],[33.334918,38.575683],[33.335538,38.577354],[33.37009,38.631013],[33.393003,38.665859],[33.40971,38.696886],[33.454161,38.668732],[33.485082,38.650496],[33.487462,38.649092],[33.488222,38.649075]]]}},{"type":"Feature","properties":{"id":"TR-D-68-004","parent_id":"TR-P-68","region_id":"TR-R-ICA","level":"district","municipality_type":null,"municipality_type_label":null,"is_metropolitan_municipality":null,"name":"Gülağaç","name_ascii":"gulagac","slug":"gulagac-aksaray"},"geometry":{"type":"Polygon","coordinates":[[[34.446487,38.53397],[34.446067,38.530315],[34.445664,38.527657],[34.444617,38.525079],[34.444013,38.523447],[34.443812,38.522905],[34.439704,38.518555],[34.437046,38.516622],[34.432776,38.512997],[34.427541,38.508889],[34.421741,38.503733],[34.418761,38.499948],[34.416344,38.496645],[34.408289,38.483999],[34.406114,38.479971],[34.405309,38.47836],[34.4012,38.470869],[34.397253,38.461847],[34.395481,38.456047],[34.394837,38.45057],[34.394595,38.444851],[34.394595,38.436957],[34.396609,38.430191],[34.402811,38.419316],[34.407886,38.413356],[34.416263,38.406911],[34.426091,38.400226],[34.43044,38.397084],[34.438979,38.39064],[34.448162,38.385002],[34.453881,38.381135],[34.459761,38.377188],[34.461385,38.376087],[34.465144,38.374799],[34.478355,38.369214],[34.483084,38.364055],[34.480111,38.363498],[34.474444,38.362755],[34.467383,38.361361],[34.457627,38.357366],[34.454561,38.356344],[34.451681,38.353464],[34.445642,38.347332],[34.442483,38.344173],[34.438395,38.341479],[34.427711,38.334511],[34.42418,38.33098],[34.422601,38.328843],[34.421068,38.329897],[34.417522,38.332038],[34.413914,38.334055],[34.410551,38.336868],[34.407555,38.339987],[34.405476,38.343533],[34.403458,38.348669],[34.402724,38.351299],[34.3993,38.357658],[34.397099,38.35992],[34.39447,38.361327],[34.391168,38.362244],[34.38597,38.363222],[34.379428,38.364506],[34.374903,38.364934],[34.368666,38.361877],[34.363407,38.360899],[34.353379,38.359981],[34.343718,38.359431],[34.338032,38.359309],[34.328065,38.359431],[34.320544,38.35882],[34.309537,38.357719],[34.302995,38.356557],[34.296085,38.355518],[34.291499,38.35509],[34.287892,38.354906],[34.279637,38.353989],[34.278047,38.353439],[34.275357,38.351482],[34.272299,38.34922],[34.270037,38.345918],[34.267591,38.342677],[34.265084,38.339559],[34.259214,38.333994],[34.256157,38.332221],[34.251937,38.330815],[34.248819,38.330509],[34.247261,38.330571],[34.242095,38.32895],[34.237207,38.330003],[34.236932,38.330236],[34.235758,38.331207],[34.234172,38.332516],[34.233416,38.333159],[34.23305,38.333485],[34.232698,38.333814],[34.232366,38.334149],[34.232062,38.334493],[34.231798,38.334848],[34.231588,38.335218],[34.231458,38.335561],[34.231361,38.335991],[34.23132,38.33628],[34.231294,38.336651],[34.231289,38.337028],[34.231301,38.337408],[34.231326,38.337791],[34.231368,38.338222],[34.2315,38.339194],[34.231697,38.340384],[34.231865,38.341247],[34.232131,38.342468],[34.231969,38.342802],[34.229453,38.347953],[34.22885,38.349187],[34.227708,38.351525],[34.224264,38.358067],[34.223775,38.358259],[34.223383,38.358432],[34.223005,38.358619],[34.222643,38.358821],[34.222301,38.359042],[34.221902,38.359352],[34.221604,38.359616],[34.221287,38.359931],[34.220985,38.360257],[34.220694,38.360593],[34.220413,38.360937],[34.219877,38.36164],[34.219622,38.361999],[34.219355,38.362395],[34.218844,38.363199],[34.218106,38.364416],[34.214709,38.370108],[34.210072,38.377812],[34.209475,38.378783],[34.206636,38.383382],[34.206632,38.383602],[34.206605,38.383888],[34.206551,38.384255],[34.206458,38.384712],[34.206332,38.385216],[34.20618,38.385748],[34.206008,38.386285],[34.205825,38.386807],[34.205641,38.387294],[34.205463,38.387724],[34.205107,38.388513],[34.204719,38.389292],[34.20426,38.390105],[34.203521,38.391307],[34.202495,38.392895],[34.201964,38.39368],[34.201715,38.394032],[34.201407,38.394451],[34.201112,38.394828],[34.2008,38.395195],[34.200482,38.395535],[34.200149,38.395868],[34.19945,38.396514],[34.198323,38.397489],[34.197237,38.398386],[34.196486,38.398977],[34.195519,38.403179],[34.195453,38.409102],[34.196182,38.411006],[34.196732,38.417779],[34.19744,38.423047],[34.198934,38.42682],[34.200978,38.431931],[34.202393,38.436727],[34.203258,38.442702],[34.203965,38.448441],[34.204358,38.449699],[34.205931,38.452687],[34.209626,38.458347],[34.215287,38.465109],[34.220476,38.469826],[34.232687,38.478367],[34.262767,38.490361],[34.265236,38.491353],[34.267693,38.49237],[34.27014,38.493451],[34.273384,38.494962],[34.296007,38.505731],[34.297632,38.506471],[34.29845,38.506826],[34.299272,38.507165],[34.300102,38.507481],[34.300941,38.507766],[34.301784,38.50801],[34.302636,38.508224],[34.303496,38.508415],[34.304361,38.508591],[34.306099,38.508911],[34.308719,38.509355],[34.319211,38.511089],[34.334064,38.513575],[34.338428,38.514335],[34.341041,38.514839],[34.344519,38.515559],[34.352339,38.517216],[34.355816,38.517971],[34.357539,38.518366],[34.359261,38.518795],[34.360043,38.519007],[34.366266,38.520826],[34.367883,38.52125],[34.369561,38.521647],[34.372931,38.522385],[34.379686,38.523805],[34.383067,38.524495],[34.385366,38.524929],[34.387823,38.525332],[34.391219,38.525801],[34.403055,38.527288],[34.405499,38.527578],[34.407129,38.527756],[34.408761,38.527907],[34.411357,38.528072],[34.413956,38.528189],[34.419157,38.528393],[34.421755,38.528522],[34.423491,38.528646],[34.42436,38.528727],[34.425877,38.5289],[34.42739,38.529109],[34.428938,38.529365],[34.430523,38.529675],[34.431352,38.529861],[34.432268,38.530081],[34.43421,38.530579],[34.436095,38.531086],[34.439089,38.531917],[34.446487,38.53397]]]}},{"type":"Feature","properties":{"id":"TR-D-68-005","parent_id":"TR-P-68","region_id":"TR-R-ICA","level":"district","municipality_type":null,"municipality_type_label":null,"is_metropolitan_municipality":null,"name":"Güzelyurt","name_ascii":"guzelyurt","slug":"guzelyurt-aksaray"},"geometry":{"type":"Polygon","coordinates":[[[34.422601,38.328843],[34.422508,38.325034],[34.422694,38.320667],[34.423251,38.316579],[34.424273,38.312212],[34.424645,38.309054],[34.426317,38.302271],[34.430219,38.291866],[34.433378,38.287685],[34.434957,38.283782],[34.435701,38.275235],[34.435701,38.269382],[34.433936,38.261484],[34.43152,38.257954],[34.427153,38.254702],[34.421672,38.252472],[34.416376,38.250057],[34.410987,38.247734],[34.40597,38.246062],[34.401325,38.243925],[34.398816,38.242252],[34.396122,38.239837],[34.392498,38.236678],[34.382371,38.227852],[34.370944,38.219397],[34.360538,38.2115],[34.354499,38.207226],[34.346973,38.202116],[34.338983,38.198121],[34.335174,38.196634],[34.328206,38.196541],[34.319101,38.196356],[34.312504,38.195427],[34.307859,38.193847],[34.304979,38.190595],[34.301355,38.184463],[34.29801,38.178889],[34.296524,38.175451],[34.296085,38.174686],[34.292178,38.179087],[34.289111,38.183962],[34.273544,38.208727],[34.26694,38.221385],[34.264739,38.226888],[34.262066,38.233335],[34.258528,38.238131],[34.252553,38.245207],[34.244769,38.253305],[34.242253,38.254012],[34.238558,38.255192],[34.232662,38.256528],[34.225429,38.25983],[34.213242,38.262425],[34.207031,38.266592],[34.200034,38.272803],[34.192172,38.280822],[34.189263,38.284832],[34.187298,38.289785],[34.186276,38.293244],[34.186276,38.297175],[34.186669,38.302285],[34.187691,38.30889],[34.188556,38.314629],[34.18942,38.325164],[34.190207,38.329095],[34.193273,38.333498],[34.195946,38.337665],[34.202157,38.343325],[34.205695,38.346706],[34.213242,38.35048],[34.217095,38.353389],[34.221902,38.359352],[34.222301,38.359042],[34.222643,38.358821],[34.223005,38.358619],[34.223383,38.358432],[34.223775,38.358259],[34.224264,38.358067],[34.227708,38.351525],[34.22885,38.349187],[34.229453,38.347953],[34.231969,38.342802],[34.232131,38.342468],[34.231865,38.341247],[34.231697,38.340384],[34.2315,38.339194],[34.231368,38.338222],[34.231326,38.337791],[34.231301,38.337408],[34.231289,38.337028],[34.231294,38.336651],[34.23132,38.33628],[34.231361,38.335991],[34.231458,38.335561],[34.231588,38.335218],[34.231798,38.334848],[34.232062,38.334493],[34.232366,38.334149],[34.232698,38.333814],[34.23305,38.333485],[34.233416,38.333159],[34.234172,38.332516],[34.235758,38.331207],[34.236932,38.330236],[34.237207,38.330003],[34.242095,38.32895],[34.247261,38.330571],[34.248819,38.330509],[34.251937,38.330815],[34.256157,38.332221],[34.259214,38.333994],[34.265084,38.339559],[34.267591,38.342677],[34.270037,38.345918],[34.272299,38.34922],[34.275357,38.351482],[34.278047,38.353439],[34.279637,38.353989],[34.287892,38.354906],[34.291499,38.35509],[34.296085,38.355518],[34.302995,38.356557],[34.309537,38.357719],[34.320544,38.35882],[34.328065,38.359431],[34.338032,38.359309],[34.343718,38.359431],[34.353379,38.359981],[34.363407,38.360899],[34.368666,38.361877],[34.374903,38.364934],[34.379428,38.364506],[34.38597,38.363222],[34.391168,38.362244],[34.39447,38.361327],[34.397099,38.35992],[34.3993,38.357658],[34.402724,38.351299],[34.403458,38.348669],[34.405476,38.343533],[34.407555,38.339987],[34.410551,38.336868],[34.413914,38.334055],[34.417522,38.332038],[34.421068,38.329897],[34.422601,38.328843]]]}},{"type":"Feature","properties":{"id":"TR-D-68-006","parent_id":"TR-P-68","region_id":"TR-R-ICA","level":"district","municipality_type":null,"municipality_type_label":null,"is_metropolitan_municipality":null,"name":"Ortaköy","name_ascii":"ortakoy","slug":"ortakoy-aksaray"},"geometry":{"type":"Polygon","coordinates":[[[34.241629,38.833025],[34.250893,38.824003],[34.256934,38.81627],[34.275541,38.799677],[34.283435,38.790414],[34.283919,38.785661],[34.281905,38.77672],[34.279166,38.772531],[34.275622,38.766732],[34.271675,38.762704],[34.2695,38.758516],[34.269178,38.756502],[34.2695,38.752958],[34.270547,38.748447],[34.271433,38.745789],[34.271272,38.743936],[34.271514,38.736445],[34.271997,38.731692],[34.271675,38.727342],[34.270386,38.722509],[34.265714,38.710749],[34.263136,38.705272],[34.261042,38.70068],[34.256773,38.689645],[34.253873,38.68159],[34.251779,38.67579],[34.251617,38.674855],[34.247712,38.672893],[34.236627,38.667305],[34.223985,38.662175],[34.210243,38.656404],[34.203831,38.654113],[34.201541,38.653472],[34.191647,38.650999],[34.17873,38.647151],[34.169019,38.646143],[34.155553,38.644952],[34.147217,38.645227],[34.139613,38.645594],[34.128712,38.647151],[34.121749,38.648617],[34.115703,38.648983],[34.11213,38.649075],[34.106634,38.647884],[34.099213,38.645685],[34.088587,38.643487],[34.079518,38.640922],[34.073471,38.638815],[34.07054,38.63799],[34.06825,38.637624],[34.066417,38.638265],[34.061013,38.640097],[34.05744,38.640647],[34.054508,38.64083],[34.051027,38.641196],[34.047363,38.642387],[34.042049,38.642387],[34.038019,38.641838],[34.032247,38.640189],[34.02785,38.63854],[34.022537,38.635425],[34.016949,38.632036],[34.012735,38.63002],[34.007879,38.628463],[34.003299,38.627455],[33.993314,38.627547],[33.984153,38.629012],[33.974167,38.630936],[33.966106,38.631486],[33.962899,38.631394],[33.951173,38.629287],[33.945768,38.629196],[33.93047,38.63057],[33.91911,38.632952],[33.913339,38.6357],[33.908942,38.638998],[33.902563,38.648479],[33.899472,38.653151],[33.896861,38.66016],[33.895349,38.664763],[33.894456,38.667374],[33.889234,38.676031],[33.887723,38.677267],[33.88628,38.678092],[33.880165,38.681046],[33.875081,38.683382],[33.86395,38.689429],[33.858179,38.692658],[33.850053,38.697731],[33.85672,38.70203],[33.864967,38.706153],[33.882337,38.713522],[33.887776,38.716329],[33.894444,38.718786],[33.899795,38.721505],[33.90269,38.723435],[33.905936,38.72519],[33.908919,38.72633],[33.912516,38.728699],[33.916727,38.731945],[33.919358,38.733086],[33.92471,38.734314],[33.927429,38.734665],[33.933044,38.738262],[33.942343,38.744139],[33.959362,38.755632],[33.964363,38.75879],[33.978926,38.766422],[33.991383,38.77423],[33.999805,38.780547],[34.005508,38.785723],[34.010245,38.790284],[34.015596,38.794759],[34.017088,38.798531],[34.017175,38.808181],[34.017439,38.817217],[34.016386,38.822568],[34.012789,38.827744],[34.011122,38.830639],[34.010069,38.833096],[34.00656,38.849413],[34.003314,38.865204],[34.001033,38.875205],[34.000507,38.875732],[33.992787,38.882048],[33.981382,38.887575],[33.963398,38.894681],[33.949098,38.902489],[33.941817,38.906437],[33.937606,38.908893],[33.935851,38.910911],[33.934886,38.917754],[33.935062,38.925035],[33.935062,38.931615],[33.935149,38.939861],[33.935062,38.943195],[33.935851,38.946441],[33.937167,38.952143],[33.937869,38.957758],[33.937847,38.962646],[33.951234,38.967608],[33.967617,38.973319],[33.974264,38.975659],[33.982783,38.977531],[33.990647,38.979123],[33.996732,38.979778],[34.000304,38.980312],[34.000775,38.979643],[34.002324,38.977431],[34.006196,38.973116],[34.008961,38.971015],[34.01405,38.967364],[34.021682,38.961501],[34.035842,38.954864],[34.043364,38.951214],[34.04635,38.949886],[34.050111,38.948891],[34.054315,38.947785],[34.055642,38.947453],[34.058187,38.945019],[34.06051,38.940152],[34.06239,38.93097],[34.063054,38.926988],[34.063386,38.923338],[34.063054,38.918581],[34.063165,38.915484],[34.064603,38.908847],[34.067368,38.899444],[34.07489,38.889378],[34.08197,38.882298],[34.094249,38.873891],[34.09978,38.871015],[34.106417,38.867917],[34.11593,38.864156],[34.122678,38.860727],[34.126771,38.858957],[34.133408,38.855528],[34.1371,38.851242],[34.140916,38.844024],[34.14299,38.833736],[34.144069,38.818636],[34.145728,38.812995],[34.149047,38.809261],[34.156265,38.802458],[34.161491,38.799886],[34.163814,38.799306],[34.168626,38.799057],[34.175678,38.800052],[34.183892,38.802458],[34.186381,38.803454],[34.194169,38.805881],[34.200391,38.807436],[34.208408,38.810299],[34.214796,38.815691],[34.222014,38.822992],[34.226079,38.826725],[34.232467,38.829878],[34.237611,38.831952],[34.241629,38.833025]]]}},{"type":"Feature","properties":{"id":"TR-D-68-007","parent_id":"TR-P-68","region_id":"TR-R-ICA","level":"district","municipality_type":null,"municipality_type_label":null,"is_metropolitan_municipality":null,"name":"Sarıyahşi","name_ascii":"sariyahsi","slug":"sariyahsi-aksaray"},"geometry":{"type":"Polygon","coordinates":[[[33.75358,38.934831],[33.750058,38.937777],[33.74201,38.944994],[33.737199,38.950968],[33.732967,38.956775],[33.730561,38.958352],[33.726496,38.960675],[33.72268,38.963661],[33.720191,38.966316],[33.719693,38.969967],[33.71961,38.976438],[33.720274,38.980171],[33.721103,38.981093],[33.723924,38.983001],[33.727824,38.985573],[33.737613,38.988643],[33.743836,38.989887],[33.749062,38.991298],[33.761507,38.99221],[33.776773,38.991962],[33.778349,38.991962],[33.781585,38.991298],[33.787226,38.989473],[33.794776,38.988975],[33.799422,38.989224],[33.809875,38.988975],[33.814107,38.988975],[33.818421,38.9908],[33.823565,38.993289],[33.830036,38.996939],[33.835097,39.001088],[33.839079,39.004157],[33.844223,39.008472],[33.848371,39.011873],[33.855921,39.017598],[33.860899,39.020584],[33.872763,39.028051],[33.879317,39.029959],[33.884212,39.030208],[33.888277,39.030042],[33.895029,39.037417],[33.895033,39.037422],[33.895138,39.037832],[33.89532,39.037814],[33.89645,39.037703],[33.897466,39.03763],[33.897976,39.0376],[33.899044,39.037556],[33.899603,39.037543],[33.900721,39.037534],[33.900751,39.037534],[33.901279,39.037539],[33.901836,39.037553],[33.902392,39.037578],[33.902894,39.037612],[33.903393,39.037658],[33.90389,39.037715],[33.904385,39.037784],[33.904875,39.037866],[33.905426,39.037979],[33.905973,39.038107],[33.907058,39.038393],[33.908135,39.038702],[33.909742,39.039189],[33.911336,39.039695],[33.91344,39.040398],[33.923931,39.043948],[33.925508,39.044474],[33.927092,39.044986],[33.928664,39.045465],[33.930243,39.04593],[33.942894,39.049615],[33.944479,39.05007],[33.946073,39.050501],[33.946609,39.050634],[33.947681,39.050877],[33.948761,39.051101],[33.949846,39.051316],[33.953117,39.051945],[33.954213,39.052143],[33.954763,39.052235],[33.955314,39.052319],[33.955866,39.052392],[33.956419,39.05245],[33.95695,39.052486],[33.957481,39.052505],[33.95801,39.052509],[33.958533,39.052496],[33.95905,39.052467],[33.959554,39.052417],[33.960042,39.052342],[33.960508,39.052232],[33.960942,39.052078],[33.961355,39.051861],[33.961732,39.051595],[33.962081,39.051295],[33.962405,39.050967],[33.962706,39.05062],[33.962985,39.050255],[33.963238,39.049877],[33.963459,39.049485],[33.963643,39.049081],[33.963797,39.048666],[33.963925,39.048243],[33.964031,39.047815],[33.964116,39.047383],[33.964183,39.046937],[33.964233,39.046489],[33.964272,39.04604],[33.964329,39.04514],[33.964381,39.043788],[33.964404,39.042458],[33.964418,39.03937],[33.964439,39.038485],[33.96446,39.038043],[33.964528,39.037228],[33.964578,39.036826],[33.964639,39.036429],[33.964717,39.03604],[33.964814,39.035662],[33.964939,39.035302],[33.965108,39.03495],[33.97013,39.032659],[33.97317,39.028593],[33.973784,39.027873],[33.977988,39.023116],[33.982116,39.015072],[33.982302,39.014709],[33.98551,39.006745],[33.988054,39.003315],[33.992147,38.995572],[33.992164,38.995536],[33.995023,38.989599],[33.997346,38.98451],[34.000304,38.980312],[33.996732,38.979778],[33.990647,38.979123],[33.982783,38.977531],[33.974264,38.975659],[33.967617,38.973319],[33.951234,38.967608],[33.937847,38.962646],[33.928204,38.957685],[33.9224,38.954127],[33.917344,38.950476],[33.913974,38.947012],[33.909106,38.941114],[33.902658,38.934257],[33.898094,38.930606],[33.894373,38.929131],[33.893671,38.928921],[33.886369,38.927587],[33.878294,38.927517],[33.868956,38.92878],[33.863901,38.928078],[33.855896,38.927025],[33.851543,38.92541],[33.847892,38.922602],[33.845856,38.917055],[33.845435,38.910314],[33.845294,38.903855],[33.84403,38.901046],[33.841362,38.898589],[33.837009,38.89564],[33.83385,38.893112],[33.82746,38.888759],[33.822616,38.886723],[33.815594,38.886091],[33.811171,38.886793],[33.807028,38.888197],[33.801911,38.890072],[33.801413,38.89115],[33.798012,38.894303],[33.790628,38.902766],[33.788554,38.906001],[33.785401,38.910896],[33.782995,38.914464],[33.780755,38.916538],[33.778598,38.918114],[33.773786,38.919607],[33.76607,38.924336],[33.759516,38.929397],[33.754621,38.93396],[33.75358,38.934831]]]}},{"type":"Feature","properties":{"id":"TR-D-68-008","parent_id":"TR-P-68","region_id":"TR-R-ICA","level":"district","municipality_type":null,"municipality_type_label":null,"is_metropolitan_municipality":null,"name":"Sultanhanı","name_ascii":"sultanhani","slug":"sultanhani-aksaray"},"geometry":{"type":"Polygon","coordinates":[[[33.715883,38.107403],[33.714635,38.108283],[33.711259,38.110253],[33.709992,38.110957],[33.704365,38.111941],[33.697875,38.113841],[33.684052,38.111203],[33.673395,38.109198],[33.657567,38.105294],[33.645643,38.101917],[33.633614,38.098329],[33.621057,38.09337],[33.620458,38.092975],[33.61839,38.1005],[33.613519,38.108751],[33.61004,38.114019],[33.604175,38.116902],[33.598211,38.118492],[33.591452,38.121971],[33.582407,38.127339],[33.577437,38.13211],[33.566403,38.137875],[33.556562,38.144237],[33.546026,38.151095],[33.53708,38.159942],[33.529724,38.167397],[33.522269,38.173162],[33.519585,38.175747],[33.513124,38.182208],[33.508254,38.188868],[33.504178,38.2001],[33.501494,38.214115],[33.498711,38.22336],[33.495332,38.234791],[33.493443,38.246719],[33.493045,38.252385],[33.492946,38.260039],[33.493344,38.271569],[33.494735,38.281609],[33.495431,38.287473],[33.499308,38.293934],[33.504775,38.298805],[33.514019,38.303377],[33.528138,38.317455],[33.539867,38.33421],[33.548803,38.358226],[33.552712,38.386709],[33.553763,38.409481],[33.592466,38.394159],[33.618522,38.371316],[33.642435,38.344547],[33.68241,38.298862],[33.714176,38.25389],[33.725954,38.231404],[33.731974,38.185956],[33.728405,38.15193],[33.715883,38.107403]]]}}]}