{"type":"FeatureCollection","province":"Amasya","province_id":"TR-P-05","features":[{"type":"Feature","properties":{"id":"TR-D-05-001","parent_id":"TR-P-05","region_id":"TR-R-KAR","level":"district","municipality_type":null,"municipality_type_label":null,"is_metropolitan_municipality":null,"name":"Amasya","name_ascii":"amasya","slug":"amasya-amasya"},"geometry":{"type":"Polygon","coordinates":[[[35.940224,40.862973],[35.944736,40.86209],[35.947679,40.862286],[35.95386,40.86052],[35.959844,40.859049],[35.964553,40.857087],[35.968869,40.855615],[35.972793,40.854536],[35.976129,40.853849],[35.978287,40.853849],[35.980935,40.853849],[35.983584,40.853163],[35.986821,40.851102],[35.989568,40.84865],[35.991236,40.847669],[35.995749,40.846786],[35.999673,40.846688],[36.003106,40.845413],[36.00654,40.84502],[36.009973,40.843647],[36.013014,40.841881],[36.015761,40.841096],[36.019685,40.840115],[36.022039,40.840606],[36.024688,40.841783],[36.027239,40.842077],[36.032634,40.841489],[36.037147,40.840802],[36.039992,40.839527],[36.041856,40.838349],[36.044014,40.83678],[36.047938,40.832954],[36.053235,40.830992],[36.058337,40.830305],[36.060397,40.829913],[36.061162,40.82553],[36.063827,40.824198],[36.067539,40.822199],[36.070395,40.820771],[36.073155,40.819153],[36.078675,40.816679],[36.08134,40.815156],[36.082578,40.813918],[36.085433,40.811444],[36.088669,40.805733],[36.092286,40.800593],[36.094665,40.796977],[36.097901,40.791932],[36.100757,40.786317],[36.100852,40.783271],[36.0999,40.777084],[36.098853,40.77461],[36.098377,40.772611],[36.097901,40.76947],[36.097997,40.765282],[36.098758,40.762332],[36.099424,40.758239],[36.0999,40.754717],[36.099424,40.752623],[36.097806,40.751005],[36.095427,40.749102],[36.093428,40.747103],[36.090002,40.74301],[36.088669,40.739394],[36.086956,40.735587],[36.085052,40.731494],[36.084196,40.727782],[36.083625,40.724736],[36.083434,40.721786],[36.082958,40.720168],[36.081911,40.718264],[36.080769,40.716075],[36.078485,40.714076],[36.077057,40.712934],[36.074678,40.710555],[36.072203,40.707319],[36.070204,40.703321],[36.069824,40.70018],[36.070222,40.69544],[36.071259,40.692235],[36.071478,40.691361],[36.071381,40.688559],[36.071091,40.68566],[36.071961,40.682181],[36.073314,40.681311],[36.07544,40.680538],[36.076889,40.679088],[36.078725,40.678122],[36.082108,40.677155],[36.084234,40.676286],[36.088969,40.674739],[36.090612,40.673],[36.093704,40.671357],[36.09612,40.669714],[36.09844,40.667878],[36.100856,40.666622],[36.104625,40.666042],[36.10878,40.664689],[36.111679,40.663336],[36.114095,40.662273],[36.115061,40.659857],[36.116898,40.658408],[36.11854,40.657538],[36.122503,40.656861],[36.126368,40.656088],[36.132166,40.657828],[36.134293,40.658697],[36.137578,40.659277],[36.140767,40.658987],[36.145116,40.656378],[36.148305,40.654832],[36.151398,40.654735],[36.154877,40.654445],[36.158356,40.654639],[36.162028,40.654445],[36.163671,40.654059],[36.166183,40.653769],[36.168116,40.653189],[36.170145,40.652029],[36.172561,40.65116],[36.175364,40.64971],[36.176717,40.64855],[36.179326,40.647391],[36.182612,40.646811],[36.184351,40.646134],[36.184834,40.644492],[36.185124,40.642945],[36.185608,40.640336],[36.18754,40.6385],[36.191599,40.635794],[36.192469,40.634828],[36.193629,40.632315],[36.199362,40.630129],[36.201931,40.628987],[36.206095,40.627483],[36.210022,40.628225],[36.213543,40.629558],[36.216339,40.631252],[36.220015,40.632889],[36.222966,40.63346],[36.224693,40.633736],[36.226582,40.632992],[36.228612,40.630866],[36.230738,40.627],[36.232381,40.624294],[36.235529,40.620897],[36.238385,40.617946],[36.241145,40.615376],[36.246951,40.611759],[36.250568,40.60919],[36.256278,40.605858],[36.258848,40.604907],[36.261703,40.60424],[36.265606,40.602908],[36.269698,40.601385],[36.276075,40.599291],[36.279883,40.596626],[36.283594,40.592724],[36.286091,40.588819],[36.284832,40.588761],[36.28369,40.588419],[36.281025,40.587619],[36.279217,40.586572],[36.277218,40.584954],[36.275618,40.583961],[36.274458,40.583241],[36.273347,40.581972],[36.271126,40.579434],[36.270673,40.577865],[36.269889,40.575151],[36.269128,40.57182],[36.269699,40.568393],[36.270249,40.565551],[36.27027,40.565443],[36.271602,40.561255],[36.274267,40.554212],[36.277598,40.545836],[36.280454,40.540506],[36.283785,40.534414],[36.285974,40.531083],[36.286025,40.530847],[36.28622,40.529934],[36.286568,40.52694],[36.286694,40.525853],[36.286349,40.52569],[36.286218,40.525628],[36.285775,40.525399],[36.285689,40.525351],[36.285343,40.525158],[36.284976,40.524938],[36.28491,40.524898],[36.284852,40.524861],[36.284487,40.524627],[36.284072,40.524348],[36.283665,40.524061],[36.283544,40.523972],[36.283259,40.523762],[36.282935,40.523511],[36.282468,40.523149],[36.281696,40.522513],[36.281376,40.522234],[36.280941,40.521857],[36.280573,40.521524],[36.279987,40.52097],[36.279846,40.520837],[36.279611,40.520603],[36.279494,40.520487],[36.27915,40.520132],[36.278609,40.51954],[36.278288,40.519163],[36.278094,40.518934],[36.277807,40.518569],[36.2776,40.518305],[36.27642,40.516671],[36.275931,40.516026],[36.275855,40.515935],[36.275672,40.515714],[36.275397,40.515413],[36.275052,40.51508],[36.27468,40.514768],[36.274391,40.514558],[36.274282,40.514479],[36.273855,40.514218],[36.273441,40.51401],[36.273005,40.513826],[36.272552,40.513664],[36.272084,40.513522],[36.271614,40.513402],[36.271135,40.513296],[36.27065,40.513201],[36.269665,40.513037],[36.269169,40.512964],[36.268171,40.512834],[36.267172,40.512728],[36.266672,40.512686],[36.266174,40.512655],[36.265679,40.512637],[36.265187,40.512633],[36.264699,40.512646],[36.264216,40.512677],[36.263741,40.51273],[36.263275,40.512812],[36.26279,40.512937],[36.262316,40.513092],[36.26185,40.513272],[36.261391,40.513469],[36.260938,40.51368],[36.260746,40.513774],[36.260489,40.513901],[36.260045,40.51413],[36.259165,40.51461],[36.258301,40.515114],[36.25745,40.51565],[36.256891,40.516025],[36.256612,40.516212],[36.255933,40.516687],[36.254984,40.517348],[36.254188,40.517885],[36.253814,40.518104],[36.253785,40.518122],[36.253374,40.518314],[36.252945,40.51844],[36.252652,40.518469],[36.252491,40.518484],[36.252342,40.518476],[36.252018,40.518458],[36.251533,40.518378],[36.251142,40.51828],[36.251044,40.518256],[36.250555,40.518097],[36.250301,40.517997],[36.250074,40.517907],[36.249786,40.51777],[36.249607,40.517684],[36.249164,40.517432],[36.248737,40.517155],[36.248323,40.516861],[36.248149,40.516729],[36.247918,40.516554],[36.247482,40.516202],[36.247129,40.515918],[36.246363,40.515263],[36.246196,40.515115],[36.245989,40.51493],[36.245915,40.514862],[36.24587,40.51482],[36.245624,40.514593],[36.245454,40.514428],[36.245271,40.514251],[36.245081,40.514054],[36.244935,40.513902],[36.244699,40.513638],[36.24467,40.513604],[36.244625,40.513549],[36.244421,40.5133],[36.244322,40.513168],[36.244189,40.51299],[36.243977,40.512673],[36.243788,40.512348],[36.243612,40.511985],[36.243463,40.511613],[36.243368,40.511331],[36.243336,40.511236],[36.243312,40.511151],[36.243227,40.510853],[36.243135,40.510467],[36.243056,40.510072],[36.242946,40.509391],[36.242736,40.508084],[36.242579,40.507299],[36.242527,40.507084],[36.242519,40.50705],[36.242516,40.507036],[36.242486,40.50691],[36.242399,40.5066],[36.242378,40.506524],[36.242318,40.506339],[36.242256,40.506148],[36.242115,40.505778],[36.241954,40.505414],[36.241768,40.50506],[36.241554,40.504718],[36.241274,40.504353],[36.240958,40.504005],[36.240616,40.503677],[36.24061,40.503672],[36.240235,40.503354],[36.239963,40.503149],[36.239852,40.503065],[36.239764,40.503005],[36.239449,40.50279],[36.239029,40.502527],[36.238596,40.502276],[36.238207,40.502068],[36.238162,40.502044],[36.237718,40.501822],[36.237265,40.50161],[36.236804,40.501407],[36.236749,40.501384],[36.236294,40.501195],[36.235778,40.500992],[36.23444,40.500494],[36.234211,40.500409],[36.233892,40.500295],[36.227906,40.498147],[36.220053,40.495303],[36.218478,40.494742],[36.216883,40.494196],[36.21471,40.493494],[36.210347,40.492121],[36.209035,40.4917],[36.208717,40.491598],[36.20764,40.491235],[36.207109,40.491045],[36.206585,40.490845],[36.20607,40.490632],[36.205855,40.490534],[36.205589,40.490413],[36.205117,40.490181],[36.204652,40.48994],[36.204593,40.489908],[36.204555,40.489887],[36.204416,40.489811],[36.203736,40.489439],[36.203663,40.489397],[36.201924,40.488396],[36.200989,40.487847],[36.19745,40.485768],[36.195958,40.485529],[36.195356,40.485432],[36.19505,40.485382],[36.193136,40.485066],[36.191794,40.484832],[36.190655,40.484624],[36.176465,40.481944],[36.176323,40.481917],[36.169083,40.480557],[36.16795,40.480338],[36.16682,40.48011],[36.166148,40.479962],[36.165699,40.479863],[36.165145,40.479726],[36.164708,40.479609],[36.16459,40.479578],[36.16404,40.479419],[36.162948,40.479084],[36.161862,40.478733],[36.160782,40.478374],[36.159978,40.478096],[36.159699,40.478],[36.159564,40.477953],[36.159173,40.477818],[36.158115,40.477427],[36.157723,40.477271],[36.157595,40.477221],[36.157551,40.477202],[36.157395,40.477136],[36.157082,40.477004],[36.156616,40.476792],[36.155233,40.476137],[36.154782,40.475933],[36.153863,40.475548],[36.153614,40.475453],[36.153395,40.475368],[36.153105,40.475264],[36.15289,40.475187],[36.151865,40.474847],[36.150827,40.474529],[36.150016,40.474294],[36.149781,40.474225],[36.149208,40.47407],[36.148727,40.473939],[36.147663,40.473679],[36.146692,40.473477],[36.145711,40.473307],[36.145251,40.473239],[36.145217,40.473234],[36.145153,40.473226],[36.144721,40.47317],[36.14428,40.473122],[36.144227,40.473117],[36.144148,40.47311],[36.143234,40.473031],[36.141494,40.472906],[36.141244,40.472888],[36.141156,40.47288],[36.140256,40.4728],[36.139766,40.472744],[36.139281,40.472675],[36.138802,40.47259],[36.138314,40.47248],[36.137897,40.47237],[36.137833,40.472353],[36.137358,40.472211],[36.137126,40.472135],[36.136889,40.472057],[36.136424,40.471892],[36.135965,40.471717],[36.135512,40.471532],[36.135396,40.471481],[36.135214,40.471401],[36.135066,40.471336],[36.134609,40.471119],[36.133713,40.470657],[36.133337,40.470448],[36.132397,40.469927],[36.130663,40.468929],[36.13026,40.468694],[36.128505,40.467669],[36.127639,40.467154],[36.126422,40.466429],[36.126357,40.46639],[36.118647,40.461742],[36.113705,40.458794],[36.113668,40.458773],[36.113626,40.458747],[36.113202,40.458486],[36.112726,40.458193],[36.112362,40.457959],[36.112286,40.45791],[36.112137,40.45781],[36.111856,40.457621],[36.111624,40.457454],[36.111442,40.457323],[36.111353,40.457252],[36.111049,40.457012],[36.110684,40.456683],[36.110351,40.456339],[36.11021,40.456168],[36.110054,40.455978],[36.101649,40.451336],[36.100349,40.450264],[36.099048,40.449191],[36.094152,40.452314],[36.086476,40.45721],[36.061021,40.466019],[36.034234,40.46959],[36.022438,40.473982],[36.024133,40.483836],[36.024485,40.485883],[36.012145,40.495999],[35.99287,40.50188],[35.984611,40.504384],[35.981817,40.502843],[35.980009,40.501852],[35.978643,40.501102],[35.977882,40.501292],[35.977548,40.50115],[35.977215,40.501007],[35.977042,40.500775],[35.976926,40.500621],[35.976813,40.500471],[35.976644,40.500245],[35.976094,40.499634],[35.975788,40.499294],[35.974789,40.498711],[35.974646,40.498627],[35.974553,40.4985],[35.973884,40.49758],[35.972932,40.496438],[35.971612,40.495778],[35.971409,40.495677],[35.970443,40.494952],[35.970267,40.49482],[35.969622,40.494087],[35.968607,40.492934],[35.968201,40.492472],[35.968173,40.492441],[35.964366,40.489395],[35.961361,40.48669],[35.958656,40.484255],[35.954944,40.482245],[35.951803,40.480543],[35.946663,40.478669],[35.943713,40.477593],[35.936479,40.475499],[35.929721,40.475023],[35.924486,40.474357],[35.922773,40.474889],[35.918966,40.47607],[35.91872,40.476244],[35.916682,40.477688],[35.914361,40.480194],[35.914302,40.480258],[35.914148,40.480448],[35.912684,40.482257],[35.909829,40.484731],[35.906498,40.486445],[35.902215,40.487396],[35.897932,40.487492],[35.893744,40.487111],[35.891126,40.486397],[35.889556,40.485969],[35.885368,40.484446],[35.883655,40.483511],[35.882227,40.482733],[35.879657,40.48159],[35.876326,40.479116],[35.872329,40.475689],[35.86262,40.4656],[35.859657,40.463451],[35.853959,40.459319],[35.84368,40.453037],[35.84295,40.452688],[35.841491,40.45199],[35.837493,40.450467],[35.833032,40.449028],[35.831592,40.448564],[35.831255,40.44852],[35.828642,40.448183],[35.823502,40.447517],[35.819219,40.44666],[35.816587,40.446069],[35.815996,40.445936],[35.814555,40.445613],[35.810272,40.4439],[35.799612,40.439236],[35.79276,40.436952],[35.787144,40.43619],[35.777912,40.435619],[35.769822,40.43581],[35.762588,40.436761],[35.755925,40.437713],[35.748311,40.439807],[35.740602,40.44114],[35.732987,40.440569],[35.729746,40.439434],[35.728317,40.441422],[35.722321,40.449322],[35.720417,40.452844],[35.718323,40.458364],[35.717181,40.462552],[35.716515,40.468453],[35.716515,40.472355],[35.71642,40.477876],[35.715849,40.480065],[35.714707,40.482159],[35.713279,40.484348],[35.711756,40.486251],[35.709567,40.487774],[35.706426,40.488726],[35.703761,40.489963],[35.700906,40.49082],[35.696623,40.491772],[35.688152,40.493295],[35.683203,40.493295],[35.680347,40.493104],[35.676826,40.492628],[35.67378,40.492152],[35.670353,40.492152],[35.666832,40.492248],[35.662739,40.492438],[35.659884,40.492248],[35.658075,40.491581],[35.655506,40.49063],[35.649319,40.488155],[35.644084,40.48568],[35.637231,40.48273],[35.632853,40.481017],[35.629236,40.48016],[35.625524,40.480255],[35.622859,40.481017],[35.620765,40.483491],[35.619433,40.486727],[35.617053,40.49063],[35.615816,40.493485],[35.613722,40.495293],[35.610581,40.497197],[35.605347,40.499862],[35.600968,40.502337],[35.594115,40.505953],[35.59126,40.507286],[35.587929,40.507571],[35.584788,40.508047],[35.581647,40.508142],[35.578601,40.507571],[35.573176,40.507381],[35.568417,40.507857],[35.564515,40.508523],[35.558614,40.511474],[35.551666,40.513853],[35.546241,40.515757],[35.542053,40.51747],[35.538436,40.518898],[35.532949,40.520407],[35.528812,40.522238],[35.526371,40.523255],[35.524608,40.523187],[35.520607,40.521424],[35.517352,40.520339],[35.514639,40.519932],[35.512198,40.519051],[35.510435,40.519186],[35.509214,40.519797],[35.507722,40.521153],[35.506199,40.523462],[35.507927,40.524881],[35.512326,40.528493],[35.514089,40.530314],[35.51859,40.532098],[35.522587,40.535334],[35.524586,40.537428],[35.525823,40.540093],[35.527822,40.544852],[35.529821,40.550848],[35.531344,40.554084],[35.532676,40.55732],[35.533438,40.559319],[35.533914,40.560652],[35.533818,40.56246],[35.532962,40.563126],[35.53201,40.563221],[35.530392,40.562841],[35.528584,40.562174],[35.52649,40.562079],[35.524681,40.56227],[35.522873,40.563507],[35.521966,40.563454],[35.52039,40.562666],[35.518239,40.561949],[35.516663,40.561662],[35.514943,40.561519],[35.513653,40.561376],[35.512578,40.562236],[35.511072,40.562809],[35.509137,40.563382],[35.507561,40.563526],[35.506557,40.563167],[35.505626,40.562307],[35.504407,40.562236],[35.502185,40.562666],[35.50068,40.563024],[35.499892,40.562522],[35.498315,40.562307],[35.49681,40.562092],[35.495448,40.562451],[35.494302,40.563024],[35.493298,40.563812],[35.492223,40.564171],[35.490503,40.564386],[35.488926,40.564457],[35.487206,40.564314],[35.486131,40.564457],[35.484268,40.564529],[35.48176,40.565174],[35.481401,40.565246],[35.481043,40.565317],[35.479466,40.565604],[35.476456,40.566679],[35.473231,40.567109],[35.471654,40.567826],[35.469862,40.568543],[35.467497,40.568614],[35.465502,40.568099],[35.465199,40.568301],[35.464897,40.568502],[35.464333,40.569389],[35.463929,40.57072],[35.462962,40.572413],[35.457771,40.576261],[35.453393,40.580639],[35.451108,40.584541],[35.450061,40.587206],[35.449966,40.589205],[35.450061,40.592441],[35.450537,40.596153],[35.450537,40.600151],[35.450537,40.605005],[35.450347,40.60805],[35.450061,40.61024],[35.4493,40.611858],[35.447492,40.613761],[35.443304,40.617568],[35.439497,40.620709],[35.436165,40.621471],[35.432453,40.622137],[35.422936,40.624231],[35.416003,40.626381],[35.408088,40.628799],[35.40152,40.63156],[35.397999,40.633178],[35.405906,40.638018],[35.409523,40.640112],[35.412283,40.642111],[35.416281,40.64449],[35.419612,40.647441],[35.420944,40.649439],[35.421706,40.653151],[35.421801,40.656292],[35.420849,40.661432],[35.419231,40.664668],[35.416376,40.669046],[35.414853,40.671045],[35.412949,40.674281],[35.410475,40.678278],[35.408571,40.6818],[35.407619,40.685797],[35.407905,40.688558],[35.409809,40.691889],[35.411902,40.693126],[35.414948,40.694078],[35.41847,40.694649],[35.421706,40.694554],[35.424466,40.693888],[35.428749,40.692555],[35.432651,40.690652],[35.435983,40.68989],[35.438267,40.69008],[35.440551,40.690842],[35.444929,40.691223],[35.448165,40.690842],[35.451211,40.690842],[35.453591,40.691794],[35.456065,40.69246],[35.459492,40.692841],[35.462252,40.691698],[35.464727,40.689985],[35.467011,40.68732],[35.469295,40.683608],[35.470818,40.681514],[35.472341,40.679135],[35.475577,40.675709],[35.478147,40.67371],[35.480145,40.672948],[35.485666,40.671045],[35.49052,40.670474],[35.493946,40.670283],[35.496326,40.669617],[35.499371,40.668665],[35.501751,40.667904],[35.50394,40.667809],[35.507652,40.667904],[35.510222,40.66876],[35.513743,40.669998],[35.516028,40.67133],[35.518217,40.672282],[35.520977,40.673139],[35.524118,40.673805],[35.527639,40.674757],[35.530971,40.675709],[35.534492,40.676851],[35.536872,40.677802],[35.541631,40.679325],[35.547151,40.681134],[35.549911,40.682561],[35.55697,40.683666],[35.56211,40.684142],[35.563728,40.684142],[35.568011,40.683285],[35.570962,40.682619],[35.572485,40.681667],[35.574959,40.679954],[35.577053,40.677479],[35.578861,40.674624],[35.58048,40.673387],[35.583145,40.671102],[35.586856,40.670531],[35.589141,40.670627],[35.592186,40.671007],[35.594851,40.671959],[35.597612,40.672625],[35.601228,40.672816],[35.605226,40.67253],[35.61265,40.672245],[35.618075,40.671674],[35.620264,40.670912],[35.625118,40.670341],[35.630543,40.669104],[35.634731,40.668057],[35.643678,40.666724],[35.651578,40.666915],[35.65805,40.667486],[35.66633,40.669484],[35.672041,40.670722],[35.673469,40.671674],[35.674421,40.674148],[35.674992,40.679097],[35.674992,40.682714],[35.675848,40.685284],[35.677942,40.687663],[35.680798,40.689377],[35.684224,40.690424],[35.689078,40.690709],[35.693742,40.689948],[35.699072,40.689186],[35.701737,40.688901],[35.704021,40.688901],[35.705925,40.689377],[35.708114,40.690995],[35.710113,40.692422],[35.712587,40.696991],[35.713444,40.700798],[35.715823,40.705081],[35.718203,40.708032],[35.721344,40.709745],[35.726007,40.711648],[35.732099,40.714694],[35.736953,40.718596],[35.741426,40.722499],[35.744662,40.724973],[35.750278,40.728781],[35.753228,40.73135],[35.755989,40.734777],[35.757416,40.739155],[35.759605,40.743724],[35.761699,40.747911],[35.763603,40.751052],[35.768076,40.755335],[35.773216,40.760094],[35.775119,40.761712],[35.777309,40.763426],[35.780069,40.765139],[35.782258,40.766947],[35.784447,40.769612],[35.786922,40.771516],[35.789872,40.773324],[35.793489,40.774942],[35.797486,40.775799],[35.804434,40.777036],[35.81281,40.778369],[35.827277,40.780653],[35.836224,40.782747],[35.843077,40.78465],[35.84755,40.786935],[35.849834,40.788838],[35.851548,40.790837],[35.853642,40.792645],[35.857258,40.795501],[35.861161,40.797404],[35.863921,40.798451],[35.868014,40.800164],[35.873344,40.801973],[35.879054,40.803305],[35.883528,40.805209],[35.888191,40.807969],[35.889334,40.808921],[35.89,40.810253],[35.890761,40.812062],[35.891903,40.815203],[35.893046,40.816916],[35.894378,40.817963],[35.896948,40.819295],[35.899232,40.820818],[35.902183,40.822817],[35.904372,40.82472],[35.904562,40.827195],[35.904943,40.830526],[35.905038,40.833191],[35.905419,40.834524],[35.905799,40.835951],[35.906561,40.837284],[35.908084,40.838997],[35.909987,40.839949],[35.913794,40.841472],[35.916174,40.8429],[35.917697,40.844708],[35.918934,40.846707],[35.919981,40.849752],[35.920933,40.852322],[35.921694,40.854797],[35.922265,40.857557],[35.923122,40.859746],[35.923312,40.862126],[35.923978,40.864029],[35.925235,40.866618],[35.925901,40.866504],[35.928844,40.865425],[35.931689,40.864248],[35.935319,40.863365],[35.940224,40.862973]]]}},{"type":"Feature","properties":{"id":"TR-D-05-002","parent_id":"TR-P-05","region_id":"TR-R-KAR","level":"district","municipality_type":null,"municipality_type_label":null,"is_metropolitan_municipality":null,"name":"Göynücek","name_ascii":"goynucek","slug":"goynucek-amasya"},"geometry":{"type":"Polygon","coordinates":[[[35.451011,40.233825],[35.445092,40.235692],[35.441015,40.236711],[35.435791,40.237476],[35.431714,40.238367],[35.427382,40.240151],[35.42305,40.242062],[35.416934,40.244356],[35.413621,40.244738],[35.398714,40.246777],[35.392089,40.246649],[35.388957,40.246649],[35.386482,40.246658],[35.381057,40.248466],[35.37706,40.25018],[35.37211,40.252654],[35.369875,40.254585],[35.373337,40.261846],[35.375194,40.267588],[35.377727,40.277382],[35.378403,40.279324],[35.380022,40.285499],[35.381818,40.291963],[35.382865,40.297483],[35.384864,40.302528],[35.386482,40.30643],[35.386577,40.31433],[35.386635,40.316751],[35.386673,40.318327],[35.386101,40.32242],[35.384674,40.324799],[35.381438,40.329178],[35.379439,40.331462],[35.376584,40.332699],[35.373443,40.333746],[35.369065,40.33565],[35.365733,40.338029],[35.36383,40.339552],[35.362021,40.343454],[35.36145,40.347357],[35.360689,40.354305],[35.360879,40.358968],[35.36145,40.361633],[35.362592,40.364108],[35.365543,40.368391],[35.3664,40.369533],[35.368874,40.373816],[35.372872,40.380003],[35.375822,40.38381],[35.378297,40.385143],[35.380962,40.38638],[35.38501,40.387859],[35.385911,40.388188],[35.39048,40.390948],[35.394001,40.392947],[35.396571,40.395707],[35.397618,40.398563],[35.398379,40.401608],[35.398777,40.4032],[35.399331,40.405416],[35.399236,40.408081],[35.399807,40.410555],[35.401044,40.415124],[35.401806,40.417598],[35.403709,40.420454],[35.405613,40.423785],[35.405899,40.426164],[35.406565,40.432827],[35.40685,40.435397],[35.406565,40.438442],[35.40666,40.440632],[35.407041,40.443487],[35.407707,40.445295],[35.409991,40.448531],[35.41218,40.451672],[35.418462,40.456907],[35.42246,40.460524],[35.428075,40.46652],[35.43331,40.470898],[35.440924,40.477561],[35.447206,40.482986],[35.460079,40.495296],[35.465195,40.500499],[35.469097,40.504591],[35.471667,40.507352],[35.474617,40.50935],[35.478805,40.511444],[35.485277,40.514109],[35.493177,40.517726],[35.500696,40.521153],[35.506199,40.523462],[35.507722,40.521153],[35.509214,40.519797],[35.510435,40.519186],[35.512198,40.519051],[35.514639,40.519932],[35.517352,40.520339],[35.520607,40.521424],[35.524608,40.523187],[35.526371,40.523255],[35.528812,40.522238],[35.532949,40.520407],[35.538436,40.518898],[35.542053,40.51747],[35.546241,40.515757],[35.551666,40.513853],[35.558614,40.511474],[35.564515,40.508523],[35.568417,40.507857],[35.573176,40.507381],[35.578601,40.507571],[35.581647,40.508142],[35.584788,40.508047],[35.587929,40.507571],[35.59126,40.507286],[35.594115,40.505953],[35.600968,40.502337],[35.605347,40.499862],[35.610581,40.497197],[35.613722,40.495293],[35.615816,40.493485],[35.617053,40.49063],[35.619433,40.486727],[35.620765,40.483491],[35.622859,40.481017],[35.625524,40.480255],[35.629236,40.48016],[35.632853,40.481017],[35.637231,40.48273],[35.644084,40.48568],[35.649319,40.488155],[35.655506,40.49063],[35.658075,40.491581],[35.659884,40.492248],[35.662739,40.492438],[35.666832,40.492248],[35.670353,40.492152],[35.67378,40.492152],[35.676826,40.492628],[35.680347,40.493104],[35.683203,40.493295],[35.688152,40.493295],[35.696623,40.491772],[35.700906,40.49082],[35.703761,40.489963],[35.706426,40.488726],[35.709567,40.487774],[35.711756,40.486251],[35.713279,40.484348],[35.714707,40.482159],[35.715849,40.480065],[35.71642,40.477876],[35.716515,40.472355],[35.716515,40.468453],[35.717181,40.462552],[35.718323,40.458364],[35.720417,40.452844],[35.722321,40.449322],[35.728317,40.441422],[35.729746,40.439434],[35.729557,40.439368],[35.72918,40.439236],[35.727277,40.437904],[35.725754,40.432574],[35.725754,40.428957],[35.726611,40.422104],[35.726135,40.418106],[35.725564,40.413538],[35.724231,40.404496],[35.72385,40.397929],[35.72366,40.394217],[35.723565,40.387269],[35.722803,40.383271],[35.722137,40.380987],[35.719282,40.375371],[35.716522,40.372706],[35.712143,40.369756],[35.709193,40.368518],[35.696439,40.365378],[35.681686,40.363855],[35.665696,40.362903],[35.658558,40.361856],[35.65456,40.36138],[35.650468,40.360143],[35.647041,40.357002],[35.642663,40.351006],[35.639522,40.347484],[35.635334,40.343106],[35.633907,40.341583],[35.631337,40.338632],[35.626959,40.336158],[35.622771,40.334635],[35.615918,40.333398],[35.602498,40.331209],[35.590315,40.328924],[35.586317,40.328068],[35.579941,40.325783],[35.575943,40.32407],[35.571946,40.323118],[35.567948,40.322071],[35.563475,40.32131],[35.559572,40.320929],[35.552434,40.319692],[35.54739,40.31855],[35.53949,40.317312],[35.533779,40.315504],[35.526165,40.312744],[35.522453,40.31065],[35.52112,40.309222],[35.516361,40.304178],[35.514172,40.301894],[35.511031,40.299704],[35.507986,40.297801],[35.505225,40.295992],[35.501228,40.293899],[35.496659,40.291138],[35.490854,40.28676],[35.487998,40.284476],[35.485238,40.282477],[35.478766,40.278384],[35.473246,40.274197],[35.469724,40.271722],[35.467059,40.269152],[35.466488,40.266868],[35.466202,40.263917],[35.466297,40.260396],[35.466488,40.25716],[35.466393,40.254019],[35.465251,40.250783],[35.461539,40.245453],[35.459159,40.241265],[35.456304,40.238314],[35.453544,40.23584],[35.451011,40.233825]]]}},{"type":"Feature","properties":{"id":"TR-D-05-003","parent_id":"TR-P-05","region_id":"TR-R-KAR","level":"district","municipality_type":null,"municipality_type_label":null,"is_metropolitan_municipality":null,"name":"Gümüşhacıköy","name_ascii":"gumushacikoy","slug":"gumushacikoy-amasya"},"geometry":{"type":"Polygon","coordinates":[[[35.252391,41.022324],[35.25201,41.020135],[35.251535,41.016994],[35.250868,41.0149],[35.250773,41.011379],[35.252106,41.008618],[35.253819,41.006239],[35.257245,41.003764],[35.261623,41.001861],[35.264479,41.000909],[35.266668,40.999672],[35.269809,40.996531],[35.271617,40.994056],[35.272664,40.991486],[35.27295,40.989773],[35.272093,40.985871],[35.271998,40.984158],[35.273045,40.981397],[35.274187,40.978447],[35.277042,40.973878],[35.278946,40.970262],[35.280754,40.967597],[35.28361,40.96398],[35.287988,40.960268],[35.291605,40.957603],[35.295126,40.955414],[35.299314,40.953415],[35.301408,40.952558],[35.306928,40.950655],[35.313686,40.948561],[35.317113,40.946467],[35.320539,40.945039],[35.323109,40.943802],[35.326916,40.941423],[35.330438,40.938853],[35.332627,40.937615],[35.335863,40.935902],[35.339099,40.934855],[35.341002,40.933808],[35.342335,40.931905],[35.342811,40.930001],[35.344238,40.925528],[35.344524,40.918389],[35.344524,40.91582],[35.343382,40.912108],[35.340812,40.909252],[35.338813,40.906492],[35.338242,40.904398],[35.337861,40.901543],[35.337671,40.897545],[35.337005,40.891739],[35.336814,40.888884],[35.33691,40.884791],[35.338242,40.879366],[35.339384,40.875369],[35.341002,40.87061],[35.343382,40.865946],[35.344334,40.863757],[35.344809,40.860711],[35.34519,40.856714],[35.344524,40.852145],[35.343096,40.846625],[35.341764,40.841771],[35.338432,40.834632],[35.335482,40.829493],[35.33196,40.825114],[35.329391,40.823211],[35.324727,40.820831],[35.318921,40.818642],[35.314257,40.817119],[35.310165,40.816453],[35.306453,40.816358],[35.302645,40.817405],[35.299314,40.819023],[35.29684,40.820165],[35.293318,40.82026],[35.288749,40.820165],[35.284847,40.819784],[35.281421,40.818642],[35.279327,40.817119],[35.276471,40.815121],[35.273806,40.813883],[35.270665,40.813027],[35.268952,40.81198],[35.267715,40.811123],[35.264574,40.808934],[35.262195,40.807982],[35.260005,40.806935],[35.257912,40.806364],[35.256008,40.805984],[35.253343,40.806269],[35.249536,40.806269],[35.245538,40.806935],[35.240494,40.807031],[35.234307,40.807411],[35.230881,40.807411],[35.228121,40.80684],[35.226503,40.806269],[35.225551,40.804746],[35.22498,40.802557],[35.225265,40.799702],[35.226027,40.798179],[35.226598,40.795609],[35.227074,40.793134],[35.227169,40.791421],[35.227359,40.788756],[35.227645,40.786377],[35.228597,40.784664],[35.23031,40.78295],[35.23326,40.780095],[35.235069,40.77743],[35.236687,40.77448],[35.240304,40.769625],[35.241065,40.766009],[35.241731,40.759441],[35.241541,40.751637],[35.240875,40.747354],[35.240208,40.7425],[35.239352,40.739168],[35.238019,40.736123],[35.236877,40.733838],[35.235259,40.731649],[35.234117,40.730507],[35.23326,40.728413],[35.232213,40.726319],[35.231737,40.72394],[35.231737,40.722893],[35.231737,40.721465],[35.231737,40.720323],[35.231452,40.719562],[35.230786,40.718895],[35.230691,40.718324],[35.230737,40.716743],[35.230195,40.717199],[35.227901,40.717815],[35.225607,40.718206],[35.22197,40.71815],[35.219284,40.717199],[35.21783,40.717031],[35.2152,40.716696],[35.213857,40.716304],[35.212794,40.715688],[35.211059,40.715185],[35.209828,40.715185],[35.207702,40.714737],[35.206359,40.71401],[35.204289,40.71345],[35.202611,40.713059],[35.201044,40.712723],[35.199365,40.712499],[35.197519,40.711492],[35.195896,40.710709],[35.193994,40.709534],[35.189853,40.70724],[35.189518,40.707104],[35.189183,40.706968],[35.186969,40.705176],[35.181639,40.701273],[35.170311,40.696895],[35.156795,40.692231],[35.151179,40.690422],[35.144897,40.688709],[35.14575,40.69539],[35.146797,40.705955],[35.146987,40.710428],[35.146607,40.713664],[35.146797,40.716519],[35.146892,40.720136],[35.147463,40.722135],[35.148129,40.723563],[35.149652,40.725181],[35.150223,40.727465],[35.15108,40.730225],[35.151556,40.73289],[35.152032,40.736792],[35.151746,40.739457],[35.150985,40.741361],[35.148605,40.744692],[35.146131,40.747452],[35.144227,40.750117],[35.143085,40.752116],[35.14299,40.753639],[35.144132,40.756304],[35.147082,40.758493],[35.150604,40.760016],[35.153364,40.762395],[35.156695,40.764394],[35.159932,40.766678],[35.160978,40.769343],[35.162121,40.773722],[35.162121,40.775054],[35.161359,40.776196],[35.160027,40.777434],[35.158313,40.779052],[35.15641,40.781146],[35.154792,40.782764],[35.15384,40.784286],[35.153555,40.785238],[35.15384,40.788474],[35.154316,40.79152],[35.155553,40.795137],[35.155839,40.797136],[35.156124,40.799801],[35.154887,40.801894],[35.152032,40.804179],[35.14851,40.805511],[35.146511,40.805606],[35.144227,40.805226],[35.141848,40.803798],[35.14061,40.803322],[35.138897,40.803037],[35.136042,40.802656],[35.132235,40.802656],[35.127761,40.803512],[35.125382,40.804179],[35.12186,40.804559],[35.118719,40.804274],[35.113104,40.803512],[35.107774,40.803322],[35.101777,40.802085],[35.098446,40.802275],[35.096352,40.803227],[35.095591,40.805131],[35.095591,40.806749],[35.095401,40.809794],[35.095591,40.81284],[35.096257,40.817218],[35.097019,40.819693],[35.098827,40.822739],[35.10035,40.824928],[35.101968,40.826736],[35.103681,40.82883],[35.104442,40.830353],[35.104633,40.8314],[35.103967,40.833303],[35.103396,40.834445],[35.102349,40.835302],[35.096447,40.841869],[35.09226,40.845296],[35.090166,40.847485],[35.086644,40.850721],[35.085121,40.852339],[35.083408,40.853767],[35.080648,40.855385],[35.078935,40.857193],[35.077793,40.858716],[35.075794,40.861666],[35.073605,40.864236],[35.071416,40.866521],[35.07094,40.868043],[35.070654,40.870899],[35.070749,40.87423],[35.071796,40.877561],[35.072272,40.880512],[35.072938,40.883272],[35.073129,40.885651],[35.072653,40.887174],[35.071511,40.888888],[35.069036,40.890601],[35.065324,40.892695],[35.062088,40.894313],[35.057044,40.897358],[35.053903,40.899167],[35.056663,40.902498],[35.059233,40.905829],[35.062374,40.908114],[35.064848,40.909732],[35.067037,40.911254],[35.068655,40.913348],[35.069988,40.915823],[35.07113,40.91944],[35.072272,40.926102],[35.072367,40.929529],[35.071796,40.932765],[35.070273,40.936382],[35.067894,40.939903],[35.065229,40.945424],[35.063421,40.947993],[35.061517,40.950087],[35.055901,40.952657],[35.051618,40.956084],[35.046669,40.961414],[35.043528,40.966172],[35.039055,40.972264],[35.037913,40.9755],[35.036961,40.977975],[35.035343,40.980354],[35.033059,40.982924],[35.029918,40.985684],[35.028205,40.987735],[35.028023,40.989786],[35.027968,40.991979],[35.028216,40.994314],[35.030013,40.998343],[35.031726,41.001388],[35.03382,41.005671],[35.036675,41.009955],[35.037563,41.011403],[35.038906,41.011968],[35.040814,41.012533],[35.042298,41.013311],[35.043923,41.0143],[35.045195,41.015501],[35.046538,41.016985],[35.047881,41.01748],[35.049789,41.018257],[35.051838,41.01854],[35.053675,41.018328],[35.054064,41.018434],[35.054453,41.01854],[35.056785,41.019529],[35.058622,41.0196],[35.060389,41.019741],[35.062438,41.019741],[35.063428,41.019812],[35.064558,41.020589],[35.066678,41.020943],[35.067809,41.021296],[35.069717,41.020943],[35.070918,41.021084],[35.072544,41.022073],[35.073392,41.022497],[35.074734,41.022285],[35.075052,41.022285],[35.07537,41.022285],[35.07643,41.022921],[35.077702,41.023275],[35.078692,41.024264],[35.07961,41.0249],[35.080458,41.025607],[35.081236,41.026031],[35.082296,41.026313],[35.082578,41.026419],[35.082861,41.026525],[35.083002,41.027303],[35.083356,41.027939],[35.084275,41.028857],[35.085476,41.029564],[35.087172,41.030836],[35.088444,41.03225],[35.089292,41.033734],[35.090847,41.035218],[35.091624,41.036348],[35.093108,41.037903],[35.094875,41.039811],[35.09544,41.041012],[35.095157,41.04285],[35.095401,41.046313],[35.095305,41.048502],[35.094258,41.053832],[35.09245,41.061922],[35.091022,41.0663],[35.088548,41.07163],[35.086359,41.075437],[35.085978,41.078388],[35.089404,41.07972],[35.093211,41.080672],[35.099684,41.081148],[35.106632,41.081148],[35.11101,41.082005],[35.114912,41.082005],[35.118529,41.081909],[35.122804,41.081416],[35.129094,41.080101],[35.137089,41.078388],[35.140325,41.077626],[35.146511,41.074771],[35.158694,41.069346],[35.168117,41.06373],[35.18136,41.054251],[35.191782,41.044848],[35.201395,41.036595],[35.204971,41.0339],[35.209374,41.030583],[35.216028,41.026772],[35.220878,41.025697],[35.222505,41.025465],[35.228977,41.023942],[35.237258,41.0228],[35.246014,41.022515],[35.252391,41.022324]]]}},{"type":"Feature","properties":{"id":"TR-D-05-004","parent_id":"TR-P-05","region_id":"TR-R-KAR","level":"district","municipality_type":null,"municipality_type_label":null,"is_metropolitan_municipality":null,"name":"Hamamözü","name_ascii":"hamamozu","slug":"hamamozu-amasya"},"geometry":{"type":"Polygon","coordinates":[[[35.053903,40.899167],[35.057044,40.897358],[35.062088,40.894313],[35.065324,40.892695],[35.069036,40.890601],[35.071511,40.888888],[35.072653,40.887174],[35.073129,40.885651],[35.072938,40.883272],[35.072272,40.880512],[35.071796,40.877561],[35.070749,40.87423],[35.070654,40.870899],[35.07094,40.868043],[35.071416,40.866521],[35.073605,40.864236],[35.075794,40.861666],[35.077793,40.858716],[35.078935,40.857193],[35.080648,40.855385],[35.083408,40.853767],[35.085121,40.852339],[35.086644,40.850721],[35.090166,40.847485],[35.09226,40.845296],[35.096447,40.841869],[35.102349,40.835302],[35.103396,40.834445],[35.103967,40.833303],[35.104633,40.8314],[35.104442,40.830353],[35.103681,40.82883],[35.101968,40.826736],[35.10035,40.824928],[35.098827,40.822739],[35.097019,40.819693],[35.096257,40.817218],[35.095591,40.81284],[35.095401,40.809794],[35.095591,40.806749],[35.095591,40.805131],[35.096352,40.803227],[35.098446,40.802275],[35.101777,40.802085],[35.107774,40.803322],[35.113104,40.803512],[35.118719,40.804274],[35.12186,40.804559],[35.125382,40.804179],[35.127761,40.803512],[35.132235,40.802656],[35.136042,40.802656],[35.138897,40.803037],[35.14061,40.803322],[35.141848,40.803798],[35.144227,40.805226],[35.146511,40.805606],[35.14851,40.805511],[35.152032,40.804179],[35.154887,40.801894],[35.156124,40.799801],[35.155839,40.797136],[35.155553,40.795137],[35.154316,40.79152],[35.15384,40.788474],[35.153555,40.785238],[35.15384,40.784286],[35.154792,40.782764],[35.15641,40.781146],[35.158313,40.779052],[35.160027,40.777434],[35.161359,40.776196],[35.162121,40.775054],[35.162121,40.773722],[35.160978,40.769343],[35.159932,40.766678],[35.156695,40.764394],[35.153364,40.762395],[35.150604,40.760016],[35.147082,40.758493],[35.144132,40.756304],[35.14299,40.753639],[35.143085,40.752116],[35.144227,40.750117],[35.146131,40.747452],[35.148605,40.744692],[35.150985,40.741361],[35.151746,40.739457],[35.152032,40.736792],[35.151556,40.73289],[35.15108,40.730225],[35.150223,40.727465],[35.149652,40.725181],[35.148129,40.723563],[35.147463,40.722135],[35.146892,40.720136],[35.146797,40.716519],[35.146607,40.713664],[35.146987,40.710428],[35.146797,40.705955],[35.14575,40.69539],[35.144897,40.688709],[35.140994,40.688709],[35.13376,40.689565],[35.127192,40.690672],[35.119567,40.690417],[35.111296,40.690898],[35.10549,40.691088],[35.094258,40.691374],[35.078743,40.692802],[35.062181,40.695848],[35.057487,40.697064],[35.049261,40.70245],[35.048963,40.702671],[35.048664,40.702891],[35.041811,40.710697],[35.039923,40.71394],[35.038289,40.715456],[35.035243,40.718883],[35.030769,40.723452],[35.023059,40.73297],[35.019995,40.736849],[35.016117,40.742979],[35.01231,40.749832],[35.010025,40.754305],[35.007646,40.757541],[35.002449,40.764592],[34.998505,40.771264],[34.995273,40.774483],[34.992893,40.778005],[34.992608,40.781336],[34.992513,40.787047],[34.994511,40.798754],[34.995368,40.803227],[34.997081,40.809033],[34.998794,40.813221],[35.000317,40.817313],[35.001079,40.820359],[35.00184,40.822739],[35.003173,40.829972],[35.003839,40.833494],[35.0046,40.836063],[35.005647,40.839204],[35.00705,40.842338],[35.008883,40.844344],[35.010977,40.846533],[35.011929,40.848532],[35.01278,40.852825],[35.012881,40.855765],[35.012786,40.857574],[35.012119,40.86081],[35.012024,40.86338],[35.011834,40.865188],[35.011453,40.866901],[35.011739,40.86909],[35.012786,40.870899],[35.013928,40.872231],[35.014784,40.873469],[35.016307,40.874991],[35.019163,40.87661],[35.022113,40.878323],[35.024873,40.879275],[35.026491,40.880036],[35.0283,40.880702],[35.030298,40.881083],[35.032678,40.882415],[35.034772,40.883462],[35.03658,40.884509],[35.038484,40.886223],[35.040578,40.888316],[35.042576,40.891362],[35.045622,40.894122],[35.047526,40.89574],[35.04962,40.896978],[35.051428,40.89812],[35.053903,40.899167]]]}},{"type":"Feature","properties":{"id":"TR-D-05-005","parent_id":"TR-P-05","region_id":"TR-R-KAR","level":"district","municipality_type":null,"municipality_type_label":null,"is_metropolitan_municipality":null,"name":"Merzifon","name_ascii":"merzifon","slug":"merzifon-amasya"},"geometry":{"type":"Polygon","coordinates":[[[35.292961,40.68761],[35.290733,40.686477],[35.285879,40.685431],[35.277693,40.684955],[35.272363,40.685906],[35.267714,40.687588],[35.259731,40.692636],[35.257842,40.694147],[35.256877,40.695238],[35.25629,40.695616],[35.256059,40.695804],[35.255828,40.695993],[35.255157,40.696413],[35.254737,40.697],[35.254443,40.697546],[35.254318,40.697776],[35.254192,40.698008],[35.253814,40.698469],[35.253184,40.699057],[35.252975,40.699204],[35.252765,40.69935],[35.251716,40.699644],[35.250834,40.699686],[35.249499,40.699966],[35.2481,40.700581],[35.247037,40.701756],[35.246477,40.702428],[35.245358,40.702875],[35.244295,40.703211],[35.24312,40.703715],[35.242001,40.704666],[35.241665,40.705617],[35.241917,40.705813],[35.242169,40.706009],[35.243344,40.706568],[35.244575,40.707296],[35.243903,40.707743],[35.243624,40.707911],[35.243344,40.708079],[35.242393,40.709254],[35.241274,40.710429],[35.239875,40.711716],[35.237805,40.712052],[35.236238,40.712555],[35.234503,40.713171],[35.233105,40.713562],[35.232265,40.714458],[35.231594,40.715409],[35.231258,40.716304],[35.230737,40.716743],[35.230691,40.718324],[35.230786,40.718895],[35.231452,40.719562],[35.231737,40.720323],[35.231737,40.721465],[35.231737,40.722893],[35.231737,40.72394],[35.232213,40.726319],[35.23326,40.728413],[35.234117,40.730507],[35.235259,40.731649],[35.236877,40.733838],[35.238019,40.736123],[35.239352,40.739168],[35.240208,40.7425],[35.240875,40.747354],[35.241541,40.751637],[35.241731,40.759441],[35.241065,40.766009],[35.240304,40.769625],[35.236687,40.77448],[35.235069,40.77743],[35.23326,40.780095],[35.23031,40.78295],[35.228597,40.784664],[35.227645,40.786377],[35.227359,40.788756],[35.227169,40.791421],[35.227074,40.793134],[35.226598,40.795609],[35.226027,40.798179],[35.225265,40.799702],[35.22498,40.802557],[35.225551,40.804746],[35.226503,40.806269],[35.228121,40.80684],[35.230881,40.807411],[35.234307,40.807411],[35.240494,40.807031],[35.245538,40.806935],[35.249536,40.806269],[35.253343,40.806269],[35.256008,40.805984],[35.257912,40.806364],[35.260005,40.806935],[35.262195,40.807982],[35.264574,40.808934],[35.267715,40.811123],[35.268952,40.81198],[35.270665,40.813027],[35.273806,40.813883],[35.276471,40.815121],[35.279327,40.817119],[35.281421,40.818642],[35.284847,40.819784],[35.288749,40.820165],[35.293318,40.82026],[35.29684,40.820165],[35.299314,40.819023],[35.302645,40.817405],[35.306453,40.816358],[35.310165,40.816453],[35.314257,40.817119],[35.318921,40.818642],[35.324727,40.820831],[35.329391,40.823211],[35.33196,40.825114],[35.335482,40.829493],[35.338432,40.834632],[35.341764,40.841771],[35.343096,40.846625],[35.344524,40.852145],[35.34519,40.856714],[35.344809,40.860711],[35.344334,40.863757],[35.343382,40.865946],[35.341002,40.87061],[35.339384,40.875369],[35.338242,40.879366],[35.33691,40.884791],[35.336814,40.888884],[35.337005,40.891739],[35.337671,40.897545],[35.337861,40.901543],[35.338242,40.904398],[35.338813,40.906492],[35.340812,40.909252],[35.343382,40.912108],[35.344524,40.91582],[35.344524,40.918389],[35.344238,40.925528],[35.342811,40.930001],[35.342335,40.931905],[35.341002,40.933808],[35.339099,40.934855],[35.335863,40.935902],[35.332627,40.937615],[35.330438,40.938853],[35.326916,40.941423],[35.323109,40.943802],[35.320539,40.945039],[35.317113,40.946467],[35.313686,40.948561],[35.306928,40.950655],[35.301408,40.952558],[35.299314,40.953415],[35.295126,40.955414],[35.291605,40.957603],[35.287988,40.960268],[35.28361,40.96398],[35.280754,40.967597],[35.278946,40.970262],[35.277042,40.973878],[35.274187,40.978447],[35.273045,40.981397],[35.271998,40.984158],[35.272093,40.985871],[35.27295,40.989773],[35.272664,40.991486],[35.271617,40.994056],[35.269809,40.996531],[35.266668,40.999672],[35.264479,41.000909],[35.261623,41.001861],[35.257245,41.003764],[35.253819,41.006239],[35.252106,41.008618],[35.250773,41.011379],[35.250868,41.0149],[35.251535,41.016994],[35.25201,41.020135],[35.252391,41.022324],[35.261243,41.023276],[35.268572,41.024894],[35.272636,41.025511],[35.275149,41.026205],[35.277765,41.026927],[35.281546,41.027971],[35.286655,41.031081],[35.290463,41.032603],[35.295318,41.034284],[35.302675,41.03583],[35.306548,41.037267],[35.311211,41.039171],[35.312829,41.039837],[35.315399,41.040123],[35.318064,41.040218],[35.320824,41.040503],[35.324407,41.040625],[35.325489,41.040515],[35.325821,41.040515],[35.326154,41.040515],[35.327041,41.040653],[35.328316,41.040653],[35.329369,41.040653],[35.329979,41.040598],[35.330173,41.040598],[35.330367,41.040598],[35.331532,41.040431],[35.333029,41.040154],[35.334359,41.039877],[35.33544,41.039655],[35.335773,41.039586],[35.336106,41.039517],[35.336905,41.039448],[35.337076,41.039433],[35.337367,41.039392],[35.337658,41.03935],[35.338323,41.039184],[35.338587,41.039073],[35.33885,41.038962],[35.339709,41.038435],[35.339917,41.038228],[35.340125,41.03802],[35.340097,41.037299],[35.339931,41.03644],[35.340153,41.035747],[35.340818,41.03522],[35.342204,41.034998],[35.34237,41.034873],[35.342537,41.034749],[35.342949,41.034145],[35.343784,41.032919],[35.34402,41.032794],[35.344255,41.03267],[35.344948,41.032004],[35.345641,41.031422],[35.346279,41.031145],[35.346487,41.030923],[35.346695,41.030701],[35.34736,41.03023],[35.348303,41.029981],[35.349069,41.029596],[35.35016,41.028566],[35.351435,41.027094],[35.352416,41.024936],[35.353594,41.02317],[35.354869,41.021895],[35.354378,41.019639],[35.353692,41.016401],[35.354476,41.015224],[35.356733,41.012379],[35.357616,41.0113],[35.35997,41.010123],[35.361147,41.007769],[35.363894,41.006395],[35.366935,41.005218],[35.371644,41.005709],[35.375176,41.005807],[35.377726,41.005316],[35.380767,41.006493],[35.384495,41.007278],[35.388027,41.005905],[35.390283,41.003648],[35.392441,41.002177],[35.39509,41.001981],[35.399897,41.001883],[35.40284,41.001981],[35.405194,41.002569],[35.407058,41.004728],[35.409511,41.00512],[35.412061,41.005218],[35.415201,41.004924],[35.417457,41.005512],[35.418928,41.006493],[35.421381,41.007474],[35.424814,41.00924],[35.42658,41.010319],[35.429327,41.011104],[35.431289,41.011693],[35.434036,41.011791],[35.435998,41.012281],[35.438156,41.01336],[35.441099,41.014145],[35.443846,41.014145],[35.447574,41.013164],[35.452184,41.01287],[35.455814,41.012968],[35.458659,41.012674],[35.460131,41.012281],[35.464761,41.012595],[35.467802,41.012105],[35.469862,41.011124],[35.471334,41.009946],[35.471628,41.008181],[35.47153,41.005238],[35.471824,41.001314],[35.471922,40.997782],[35.471137,40.995231],[35.468587,40.993073],[35.465742,40.991307],[35.46378,40.989051],[35.46172,40.987285],[35.461425,40.985225],[35.462603,40.983067],[35.463191,40.980516],[35.462603,40.977083],[35.462603,40.973355],[35.463976,40.970216],[35.466232,40.967371],[35.468881,40.963839],[35.472217,40.960112],[35.474473,40.957659],[35.478789,40.955167],[35.481732,40.952126],[35.483694,40.949772],[35.487128,40.947123],[35.490267,40.945161],[35.49321,40.943984],[35.497036,40.942218],[35.501058,40.94055],[35.507631,40.939373],[35.511653,40.938902],[35.514007,40.938019],[35.515675,40.93645],[35.516852,40.934782],[35.519697,40.932624],[35.521757,40.931545],[35.525485,40.930956],[35.528134,40.931349],[35.532254,40.932231],[35.534706,40.932624],[35.536767,40.932428],[35.539611,40.930858],[35.543241,40.929681],[35.545399,40.929877],[35.548048,40.93125],[35.549814,40.931839],[35.554248,40.933311],[35.559349,40.935567],[35.562783,40.937627],[35.566118,40.939197],[35.57014,40.940766],[35.572691,40.940962],[35.576222,40.940079],[35.579362,40.939981],[35.584267,40.939098],[35.587995,40.939295],[35.591036,40.939589],[35.594175,40.939785],[35.598099,40.939589],[35.601925,40.937725],[35.606437,40.937136],[35.611362,40.937431],[35.614501,40.937725],[35.616463,40.937823],[35.618916,40.937921],[35.62078,40.937627],[35.62284,40.937136],[35.623821,40.935469],[35.625783,40.932526],[35.627745,40.928896],[35.628235,40.922716],[35.627647,40.919675],[35.627941,40.916339],[35.628338,40.914321],[35.629766,40.912227],[35.631098,40.910894],[35.631955,40.909372],[35.632716,40.907563],[35.632907,40.905184],[35.633288,40.903851],[35.633668,40.90309],[35.634317,40.902115],[35.632336,40.899473],[35.631194,40.898045],[35.62929,40.896618],[35.626815,40.895476],[35.624341,40.893762],[35.622247,40.891859],[35.620343,40.889384],[35.618725,40.885958],[35.617107,40.884435],[35.614918,40.882151],[35.6133,40.880437],[35.609874,40.877868],[35.608256,40.876345],[35.606733,40.875012],[35.604639,40.872633],[35.603116,40.870444],[35.601117,40.866827],[35.599499,40.865114],[35.597976,40.86321],[35.596929,40.861116],[35.596263,40.859213],[35.596263,40.857785],[35.596073,40.855025],[35.596358,40.852836],[35.596453,40.849885],[35.595597,40.846459],[35.59436,40.842937],[35.592837,40.839606],[35.591028,40.835323],[35.589315,40.831706],[35.587697,40.829612],[35.586555,40.828184],[35.584366,40.826947],[35.581986,40.824948],[35.580559,40.822854],[35.579797,40.816573],[35.579226,40.812385],[35.578465,40.809149],[35.577037,40.805532],[35.574753,40.800583],[35.572849,40.796585],[35.57085,40.79373],[35.568757,40.790208],[35.56514,40.78583],[35.558097,40.777454],[35.555812,40.77498],[35.553528,40.772981],[35.552196,40.770601],[35.550292,40.76727],[35.548959,40.764605],[35.547341,40.761274],[35.54677,40.75899],[35.546675,40.757848],[35.547151,40.756896],[35.548674,40.755658],[35.551244,40.75404],[35.554289,40.752422],[35.556098,40.751566],[35.557525,40.751185],[35.560095,40.750995],[35.561618,40.750899],[35.562665,40.750519],[35.563617,40.749472],[35.564664,40.74852],[35.566567,40.747283],[35.567995,40.746521],[35.569328,40.746045],[35.571041,40.745569],[35.572278,40.745474],[35.57323,40.744903],[35.573991,40.744142],[35.574182,40.741953],[35.573801,40.739478],[35.572659,40.734814],[35.571802,40.730626],[35.566758,40.724821],[35.564093,40.72206],[35.561809,40.719776],[35.558287,40.714256],[35.557525,40.708164],[35.556859,40.703596],[35.555527,40.699789],[35.555146,40.693792],[35.553814,40.689224],[35.552481,40.685893],[35.549911,40.682561],[35.547151,40.681134],[35.541631,40.679325],[35.536872,40.677802],[35.534492,40.676851],[35.530971,40.675709],[35.527639,40.674757],[35.524118,40.673805],[35.520977,40.673139],[35.518217,40.672282],[35.516028,40.67133],[35.513743,40.669998],[35.510222,40.66876],[35.507652,40.667904],[35.50394,40.667809],[35.501751,40.667904],[35.499371,40.668665],[35.496326,40.669617],[35.493946,40.670283],[35.49052,40.670474],[35.485666,40.671045],[35.480145,40.672948],[35.478147,40.67371],[35.475577,40.675709],[35.472341,40.679135],[35.470818,40.681514],[35.469295,40.683608],[35.467011,40.68732],[35.464727,40.689985],[35.462252,40.691698],[35.459492,40.692841],[35.456065,40.69246],[35.453591,40.691794],[35.451211,40.690842],[35.448165,40.690842],[35.444929,40.691223],[35.440551,40.690842],[35.438267,40.69008],[35.435983,40.68989],[35.432651,40.690652],[35.428749,40.692555],[35.424466,40.693888],[35.421706,40.694554],[35.41847,40.694649],[35.414948,40.694078],[35.411902,40.693126],[35.409809,40.691889],[35.407905,40.688558],[35.407619,40.685797],[35.408571,40.6818],[35.410475,40.678278],[35.412949,40.674281],[35.414853,40.671045],[35.416376,40.669046],[35.419231,40.664668],[35.420849,40.661432],[35.421801,40.656292],[35.421706,40.653151],[35.420944,40.649439],[35.419612,40.647441],[35.416281,40.64449],[35.412283,40.642111],[35.409523,40.640112],[35.405906,40.638018],[35.397999,40.633178],[35.395239,40.635271],[35.388386,40.639079],[35.383056,40.641363],[35.376393,40.642791],[35.372301,40.643076],[35.369255,40.642695],[35.367161,40.642315],[35.362307,40.640982],[35.358405,40.640221],[35.354693,40.639269],[35.35041,40.63984],[35.343081,40.641934],[35.337656,40.644885],[35.334991,40.648121],[35.333182,40.653355],[35.333468,40.658019],[35.334413,40.662413],[35.334215,40.667065],[35.333563,40.671249],[35.332326,40.675913],[35.331374,40.678863],[35.330137,40.681338],[35.325473,40.686002],[35.320999,40.689428],[35.315955,40.691903],[35.311101,40.692093],[35.307674,40.691998],[35.302059,40.69057],[35.296539,40.689428],[35.292961,40.68761]]]}},{"type":"Feature","properties":{"id":"TR-D-05-006","parent_id":"TR-P-05","region_id":"TR-R-KAR","level":"district","municipality_type":null,"municipality_type_label":null,"is_metropolitan_municipality":null,"name":"Suluova","name_ascii":"suluova","slug":"suluova-amasya"},"geometry":{"type":"Polygon","coordinates":[[[35.634317,40.902115],[35.642754,40.900545],[35.646874,40.898779],[35.651485,40.895934],[35.656096,40.892991],[35.660608,40.889656],[35.664434,40.885339],[35.668162,40.8822],[35.674146,40.877393],[35.676991,40.874843],[35.681406,40.871507],[35.690333,40.867093],[35.694659,40.865033],[35.698191,40.86464],[35.704273,40.865523],[35.710551,40.865719],[35.716535,40.866602],[35.720087,40.867606],[35.721048,40.867878],[35.72715,40.869349],[35.733428,40.870134],[35.737548,40.87033],[35.743925,40.870722],[35.749321,40.871507],[35.754618,40.871703],[35.757169,40.8719],[35.765703,40.871703],[35.771393,40.871998],[35.776396,40.87239],[35.780615,40.873077],[35.78395,40.872979],[35.786501,40.871703],[35.788463,40.871017],[35.78964,40.870036],[35.794447,40.868859],[35.800136,40.868564],[35.805434,40.867093],[35.808867,40.867289],[35.811516,40.867191],[35.816323,40.865719],[35.818285,40.865131],[35.822111,40.864444],[35.823681,40.864836],[35.825643,40.867681],[35.82731,40.869545],[35.829567,40.871311],[35.832019,40.872586],[35.834177,40.873175],[35.837415,40.873273],[35.840848,40.872979],[35.844674,40.871998],[35.846047,40.871213],[35.847715,40.871213],[35.85056,40.871213],[35.854484,40.871213],[35.858408,40.8719],[35.860763,40.873077],[35.865471,40.873273],[35.868709,40.874254],[35.869788,40.874548],[35.874987,40.873862],[35.878028,40.872881],[35.883129,40.870232],[35.884012,40.869643],[35.888623,40.869055],[35.892253,40.86876],[35.896373,40.868662],[35.900395,40.868564],[35.904515,40.868466],[35.911873,40.867191],[35.92129,40.867289],[35.925235,40.866618],[35.923978,40.864029],[35.923312,40.862126],[35.923122,40.859746],[35.922265,40.857557],[35.921694,40.854797],[35.920933,40.852322],[35.919981,40.849752],[35.918934,40.846707],[35.917697,40.844708],[35.916174,40.8429],[35.913794,40.841472],[35.909987,40.839949],[35.908084,40.838997],[35.906561,40.837284],[35.905799,40.835951],[35.905419,40.834524],[35.905038,40.833191],[35.904943,40.830526],[35.904562,40.827195],[35.904372,40.82472],[35.902183,40.822817],[35.899232,40.820818],[35.896948,40.819295],[35.894378,40.817963],[35.893046,40.816916],[35.891903,40.815203],[35.890761,40.812062],[35.89,40.810253],[35.889334,40.808921],[35.888191,40.807969],[35.883528,40.805209],[35.879054,40.803305],[35.873344,40.801973],[35.868014,40.800164],[35.863921,40.798451],[35.861161,40.797404],[35.857258,40.795501],[35.853642,40.792645],[35.851548,40.790837],[35.849834,40.788838],[35.84755,40.786935],[35.843077,40.78465],[35.836224,40.782747],[35.827277,40.780653],[35.81281,40.778369],[35.804434,40.777036],[35.797486,40.775799],[35.793489,40.774942],[35.789872,40.773324],[35.786922,40.771516],[35.784447,40.769612],[35.782258,40.766947],[35.780069,40.765139],[35.777309,40.763426],[35.775119,40.761712],[35.773216,40.760094],[35.768076,40.755335],[35.763603,40.751052],[35.761699,40.747911],[35.759605,40.743724],[35.757416,40.739155],[35.755989,40.734777],[35.753228,40.73135],[35.750278,40.728781],[35.744662,40.724973],[35.741426,40.722499],[35.736953,40.718596],[35.732099,40.714694],[35.726007,40.711648],[35.721344,40.709745],[35.718203,40.708032],[35.715823,40.705081],[35.713444,40.700798],[35.712587,40.696991],[35.710113,40.692422],[35.708114,40.690995],[35.705925,40.689377],[35.704021,40.688901],[35.701737,40.688901],[35.699072,40.689186],[35.693742,40.689948],[35.689078,40.690709],[35.684224,40.690424],[35.680798,40.689377],[35.677942,40.687663],[35.675848,40.685284],[35.674992,40.682714],[35.674992,40.679097],[35.674421,40.674148],[35.673469,40.671674],[35.672041,40.670722],[35.66633,40.669484],[35.65805,40.667486],[35.651578,40.666915],[35.643678,40.666724],[35.634731,40.668057],[35.630543,40.669104],[35.625118,40.670341],[35.620264,40.670912],[35.618075,40.671674],[35.61265,40.672245],[35.605226,40.67253],[35.601228,40.672816],[35.597612,40.672625],[35.594851,40.671959],[35.592186,40.671007],[35.589141,40.670627],[35.586856,40.670531],[35.583145,40.671102],[35.58048,40.673387],[35.578861,40.674624],[35.577053,40.677479],[35.574959,40.679954],[35.572485,40.681667],[35.570962,40.682619],[35.568011,40.683285],[35.563728,40.684142],[35.56211,40.684142],[35.55697,40.683666],[35.549911,40.682561],[35.552481,40.685893],[35.553814,40.689224],[35.555146,40.693792],[35.555527,40.699789],[35.556859,40.703596],[35.557525,40.708164],[35.558287,40.714256],[35.561809,40.719776],[35.564093,40.72206],[35.566758,40.724821],[35.571802,40.730626],[35.572659,40.734814],[35.573801,40.739478],[35.574182,40.741953],[35.573991,40.744142],[35.57323,40.744903],[35.572278,40.745474],[35.571041,40.745569],[35.569328,40.746045],[35.567995,40.746521],[35.566567,40.747283],[35.564664,40.74852],[35.563617,40.749472],[35.562665,40.750519],[35.561618,40.750899],[35.560095,40.750995],[35.557525,40.751185],[35.556098,40.751566],[35.554289,40.752422],[35.551244,40.75404],[35.548674,40.755658],[35.547151,40.756896],[35.546675,40.757848],[35.54677,40.75899],[35.547341,40.761274],[35.548959,40.764605],[35.550292,40.76727],[35.552196,40.770601],[35.553528,40.772981],[35.555812,40.77498],[35.558097,40.777454],[35.56514,40.78583],[35.568757,40.790208],[35.57085,40.79373],[35.572849,40.796585],[35.574753,40.800583],[35.577037,40.805532],[35.578465,40.809149],[35.579226,40.812385],[35.579797,40.816573],[35.580559,40.822854],[35.581986,40.824948],[35.584366,40.826947],[35.586555,40.828184],[35.587697,40.829612],[35.589315,40.831706],[35.591028,40.835323],[35.592837,40.839606],[35.59436,40.842937],[35.595597,40.846459],[35.596453,40.849885],[35.596358,40.852836],[35.596073,40.855025],[35.596263,40.857785],[35.596263,40.859213],[35.596929,40.861116],[35.597976,40.86321],[35.599499,40.865114],[35.601117,40.866827],[35.603116,40.870444],[35.604639,40.872633],[35.606733,40.875012],[35.608256,40.876345],[35.609874,40.877868],[35.6133,40.880437],[35.614918,40.882151],[35.617107,40.884435],[35.618725,40.885958],[35.620343,40.889384],[35.622247,40.891859],[35.624341,40.893762],[35.626815,40.895476],[35.62929,40.896618],[35.631194,40.898045],[35.632336,40.899473],[35.634317,40.902115]]]}},{"type":"Feature","properties":{"id":"TR-D-05-007","parent_id":"TR-P-05","region_id":"TR-R-KAR","level":"district","municipality_type":null,"municipality_type_label":null,"is_metropolitan_municipality":null,"name":"Taşova","name_ascii":"tasova","slug":"tasova-amasya"},"geometry":{"type":"Polygon","coordinates":[[[36.336133,40.594187],[36.332421,40.594282],[36.327853,40.594282],[36.323379,40.594187],[36.319763,40.59352],[36.316622,40.592283],[36.313576,40.590094],[36.311544,40.58954],[36.310435,40.589237],[36.308987,40.588832],[36.305676,40.587905],[36.301488,40.587619],[36.295111,40.587524],[36.290543,40.588952],[36.286926,40.588857],[36.286127,40.58882],[36.286091,40.588819],[36.283594,40.592724],[36.279883,40.596626],[36.276075,40.599291],[36.269698,40.601385],[36.265606,40.602908],[36.261703,40.60424],[36.258848,40.604907],[36.256278,40.605858],[36.250568,40.60919],[36.246951,40.611759],[36.241145,40.615376],[36.238385,40.617946],[36.235529,40.620897],[36.232381,40.624294],[36.230738,40.627],[36.228612,40.630866],[36.226582,40.632992],[36.224693,40.633736],[36.222966,40.63346],[36.220015,40.632889],[36.216339,40.631252],[36.213543,40.629558],[36.210022,40.628225],[36.206095,40.627483],[36.201931,40.628987],[36.199362,40.630129],[36.193629,40.632315],[36.192469,40.634828],[36.191599,40.635794],[36.18754,40.6385],[36.185608,40.640336],[36.185124,40.642945],[36.184834,40.644492],[36.184351,40.646134],[36.182612,40.646811],[36.179326,40.647391],[36.176717,40.64855],[36.175364,40.64971],[36.172561,40.65116],[36.170145,40.652029],[36.168116,40.653189],[36.166183,40.653769],[36.163671,40.654059],[36.162028,40.654445],[36.158356,40.654639],[36.154877,40.654445],[36.151398,40.654735],[36.148305,40.654832],[36.145116,40.656378],[36.140767,40.658987],[36.137578,40.659277],[36.134293,40.658697],[36.132166,40.657828],[36.126368,40.656088],[36.122503,40.656861],[36.11854,40.657538],[36.116898,40.658408],[36.115061,40.659857],[36.114095,40.662273],[36.111679,40.663336],[36.10878,40.664689],[36.104625,40.666042],[36.100856,40.666622],[36.09844,40.667878],[36.09612,40.669714],[36.093704,40.671357],[36.090612,40.673],[36.088969,40.674739],[36.084234,40.676286],[36.082108,40.677155],[36.078725,40.678122],[36.076889,40.679088],[36.07544,40.680538],[36.073314,40.681311],[36.071961,40.682181],[36.071091,40.68566],[36.071381,40.688559],[36.071478,40.691361],[36.071259,40.692235],[36.070222,40.69544],[36.069824,40.70018],[36.070204,40.703321],[36.072203,40.707319],[36.074678,40.710555],[36.077057,40.712934],[36.078485,40.714076],[36.080769,40.716075],[36.081911,40.718264],[36.082958,40.720168],[36.083434,40.721786],[36.083625,40.724736],[36.084196,40.727782],[36.085052,40.731494],[36.086956,40.735587],[36.088669,40.739394],[36.090002,40.74301],[36.093428,40.747103],[36.095427,40.749102],[36.097806,40.751005],[36.099424,40.752623],[36.0999,40.754717],[36.099424,40.758239],[36.098758,40.762332],[36.097997,40.765282],[36.097901,40.76947],[36.098377,40.772611],[36.098853,40.77461],[36.0999,40.777084],[36.100852,40.783271],[36.100757,40.786317],[36.097901,40.791932],[36.094665,40.796977],[36.092286,40.800593],[36.088669,40.805733],[36.085433,40.811444],[36.082578,40.813918],[36.08134,40.815156],[36.078675,40.816679],[36.073155,40.819153],[36.070395,40.820771],[36.067539,40.822199],[36.063827,40.824198],[36.061162,40.82553],[36.060397,40.829913],[36.063242,40.828245],[36.065988,40.828539],[36.069128,40.828539],[36.071678,40.829226],[36.075504,40.830403],[36.079036,40.831679],[36.083941,40.832954],[36.088453,40.834622],[36.0912,40.835799],[36.096694,40.836289],[36.100127,40.836878],[36.103855,40.837368],[36.108073,40.838447],[36.112292,40.839232],[36.114842,40.840704],[36.118864,40.842764],[36.121121,40.844039],[36.123966,40.845511],[36.126222,40.847375],[36.128871,40.849729],[36.13201,40.851887],[36.135738,40.853947],[36.137994,40.856007],[36.139073,40.85895],[36.140447,40.860226],[36.142605,40.861893],[36.144076,40.864052],[36.144959,40.865817],[36.146038,40.868662],[36.14594,40.871017],[36.147019,40.872783],[36.148589,40.874843],[36.152317,40.878276],[36.154769,40.880925],[36.15575,40.883377],[36.15732,40.885536],[36.15938,40.888184],[36.16144,40.890244],[36.161832,40.891422],[36.163108,40.896327],[36.165168,40.899858],[36.166934,40.903096],[36.168209,40.906627],[36.16919,40.909472],[36.169092,40.912906],[36.169975,40.916633],[36.16968,40.918399],[36.170563,40.920263],[36.172623,40.922225],[36.174684,40.924383],[36.176253,40.926542],[36.177823,40.929288],[36.178019,40.930662],[36.179883,40.931937],[36.181158,40.933311],[36.183218,40.935174],[36.184003,40.937136],[36.184101,40.938608],[36.184396,40.939981],[36.185082,40.942924],[36.185769,40.945965],[36.186554,40.948516],[36.187339,40.95087],[36.188123,40.953617],[36.189104,40.956855],[36.190478,40.959405],[36.190473,40.960565],[36.190312,40.962013],[36.189105,40.964104],[36.18629,40.965391],[36.181785,40.966678],[36.17897,40.968207],[36.176396,40.969896],[36.174707,40.971826],[36.173259,40.974079],[36.173178,40.975527],[36.173661,40.977457],[36.175189,40.978664],[36.177683,40.979468],[36.180337,40.979468],[36.187933,40.979859],[36.193747,40.98069],[36.19956,40.981105],[36.206413,40.982247],[36.21233,40.981935],[36.217314,40.981832],[36.222401,40.981416],[36.228111,40.981209],[36.234755,40.980586],[36.239635,40.980171],[36.245656,40.981209],[36.250536,40.983389],[36.254065,40.985258],[36.258322,40.985361],[36.263305,40.986296],[36.266316,40.985465],[36.271507,40.984842],[36.276518,40.984492],[36.277507,40.984938],[36.282896,40.987995],[36.28642,40.98962],[36.287989,40.98962],[36.290932,40.990601],[36.29672,40.990307],[36.298486,40.989816],[36.299116,40.989046],[36.300878,40.987412],[36.301735,40.983699],[36.302021,40.981604],[36.305258,40.977891],[36.308399,40.975606],[36.310875,40.974083],[36.312834,40.972973],[36.316132,40.972333],[36.320038,40.972088],[36.324434,40.970867],[36.328015,40.969809],[36.330945,40.967937],[36.33355,40.965333],[36.335991,40.961426],[36.33827,40.957682],[36.340224,40.954426],[36.345351,40.949543],[36.349665,40.946857],[36.359107,40.944578],[36.365944,40.943194],[36.366746,40.942942],[36.370339,40.94181],[36.375874,40.939124],[36.378478,40.937415],[36.381164,40.934892],[36.385722,40.930822],[36.393987,40.923263],[36.39796,40.918105],[36.39796,40.91732],[36.39796,40.915947],[36.399628,40.912415],[36.400903,40.910061],[36.401884,40.908785],[36.402571,40.906823],[36.402865,40.905058],[36.403454,40.903782],[36.40414,40.902507],[36.405514,40.901232],[36.406004,40.900054],[36.406397,40.898387],[36.40777,40.897013],[36.408457,40.895836],[36.409732,40.894757],[36.410713,40.893384],[36.410811,40.891912],[36.409928,40.890048],[36.40974,40.88988],[36.408064,40.888381],[36.406495,40.887301],[36.405121,40.884555],[36.404704,40.88372],[36.403883,40.882079],[36.403355,40.881023],[36.402571,40.879355],[36.401688,40.878374],[36.400805,40.877491],[36.400216,40.874941],[36.400511,40.873862],[36.4017,40.873224],[36.402804,40.872562],[36.404349,40.871753],[36.406262,40.871164],[36.406777,40.870207],[36.407071,40.868221],[36.406924,40.866897],[36.407439,40.86594],[36.408322,40.865499],[36.40972,40.864836],[36.40983,40.864542],[36.40994,40.864248],[36.410308,40.863733],[36.410566,40.863549],[36.410823,40.863365],[36.41281,40.86285],[36.41487,40.86285],[36.416489,40.862776],[36.418549,40.863071],[36.419873,40.863659],[36.421124,40.864248],[36.421522,40.864414],[36.42289,40.864984],[36.423504,40.865123],[36.424508,40.865351],[36.426718,40.865332],[36.427499,40.865325],[36.427507,40.864562],[36.427547,40.860731],[36.427521,40.860527],[36.427498,40.86035],[36.427423,40.859964],[36.427316,40.85959],[36.42717,40.859234],[36.426972,40.858902],[36.426727,40.858613],[36.426433,40.858352],[36.426097,40.858119],[36.425927,40.858026],[36.425726,40.857917],[36.42532,40.857751],[36.424878,40.857622],[36.424409,40.857526],[36.423922,40.857455],[36.423422,40.857402],[36.422397,40.857331],[36.420862,40.857252],[36.420358,40.857214],[36.419862,40.857161],[36.419376,40.857085],[36.418857,40.856969],[36.418355,40.856821],[36.417873,40.856645],[36.417413,40.856442],[36.416981,40.856211],[36.416585,40.855949],[36.416249,40.855669],[36.415948,40.855364],[36.415674,40.855038],[36.415425,40.854698],[36.415199,40.854345],[36.414996,40.853981],[36.414818,40.853609],[36.414653,40.853186],[36.414515,40.852756],[36.414394,40.85232],[36.414366,40.852203],[36.414287,40.85188],[36.414096,40.850996],[36.413147,40.846124],[36.412077,40.840833],[36.411829,40.839509],[36.411731,40.838884],[36.41169,40.838626],[36.411636,40.838183],[36.411566,40.837303],[36.411528,40.836422],[36.411521,40.83607],[36.411493,40.834657],[36.411412,40.828032],[36.411311,40.822285],[36.411319,40.821401],[36.411329,40.821131],[36.411335,40.82096],[36.411364,40.82052],[36.411412,40.820083],[36.411484,40.819641],[36.411577,40.819202],[36.41169,40.818766],[36.411821,40.818334],[36.411972,40.817907],[36.412147,40.817487],[36.412351,40.817076],[36.412567,40.816714],[36.412807,40.816361],[36.413069,40.816015],[36.413349,40.815677],[36.413646,40.815347],[36.413961,40.815026],[36.414324,40.814686],[36.414705,40.814355],[36.415498,40.813711],[36.416183,40.81318],[36.416313,40.813079],[36.421263,40.809336],[36.428117,40.804108],[36.428237,40.804017],[36.428245,40.80401],[36.429042,40.803416],[36.429831,40.80284],[36.430798,40.802159],[36.431033,40.801994],[36.431857,40.801451],[36.432281,40.801191],[36.43275,40.800922],[36.433713,40.80041],[36.435192,40.799674],[36.437688,40.798478],[36.439193,40.79777],[36.440714,40.797083],[36.441734,40.796651],[36.442763,40.796231],[36.447943,40.794176],[36.448982,40.793771],[36.450026,40.793374],[36.45108,40.792994],[36.451364,40.792899],[36.451613,40.792815],[36.452678,40.792491],[36.454298,40.792045],[36.45593,40.79162],[36.456285,40.791529],[36.461379,40.79022],[36.463552,40.789645],[36.465208,40.789184],[36.46796,40.7884],[36.470157,40.787761],[36.471248,40.787428],[36.471789,40.787254],[36.472324,40.787072],[36.472839,40.786886],[36.473349,40.78669],[36.474349,40.786278],[36.474838,40.78606],[36.475318,40.785833],[36.475785,40.785595],[36.476235,40.785342],[36.476662,40.785069],[36.477058,40.784776],[36.477432,40.784464],[36.47779,40.784138],[36.478137,40.783802],[36.478211,40.783725],[36.478809,40.783111],[36.479648,40.782225],[36.480127,40.781719],[36.480136,40.781709],[36.480826,40.781024],[36.481178,40.780699],[36.48154,40.780382],[36.481913,40.780073],[36.482296,40.779774],[36.482691,40.779487],[36.483101,40.779215],[36.48353,40.778964],[36.483985,40.778736],[36.484459,40.77853],[36.484948,40.778345],[36.48545,40.778179],[36.485963,40.778032],[36.486487,40.777908],[36.487019,40.777809],[36.48756,40.77773],[36.488106,40.777666],[36.488657,40.777611],[36.489766,40.777523],[36.491438,40.777414],[36.493113,40.777319],[36.497114,40.777111],[36.498256,40.777044],[36.499388,40.77696],[36.499947,40.776906],[36.500498,40.776838],[36.501037,40.776751],[36.501561,40.776638],[36.502062,40.776489],[36.502546,40.776293],[36.503007,40.77606],[36.503452,40.775801],[36.503885,40.775521],[36.50431,40.775228],[36.504729,40.774926],[36.505556,40.774303],[36.506767,40.773346],[36.507157,40.773021],[36.507535,40.772693],[36.507896,40.772359],[36.50823,40.772018],[36.508528,40.771665],[36.508774,40.771296],[36.508948,40.770925],[36.509071,40.770539],[36.509156,40.770141],[36.509212,40.769734],[36.509249,40.769252],[36.509018,40.768095],[36.508336,40.764678],[36.508276,40.76433],[36.508032,40.764009],[36.50777,40.76378],[36.507457,40.763551],[36.507105,40.763326],[36.506724,40.763107],[36.506318,40.762895],[36.505891,40.762694],[36.505445,40.762505],[36.504986,40.762329],[36.504516,40.762162],[36.50404,40.762004],[36.503557,40.761855],[36.503071,40.761713],[36.502524,40.761564],[36.501975,40.761424],[36.500872,40.761157],[36.498663,40.760654],[36.497007,40.760302],[36.496455,40.760195],[36.495902,40.760098],[36.495348,40.760015],[36.494823,40.759952],[36.494298,40.759908],[36.493774,40.759883],[36.493253,40.759883],[36.492736,40.759912],[36.492199,40.759981],[36.491669,40.760082],[36.491145,40.76021],[36.490628,40.760359],[36.490121,40.760528],[36.489625,40.760715],[36.489144,40.760922],[36.488683,40.761151],[36.488297,40.761372],[36.487927,40.761607],[36.486888,40.762324],[36.486508,40.762577],[36.486132,40.762795],[36.485755,40.762958],[36.485451,40.763023],[36.48537,40.76304],[36.484964,40.763022],[36.484546,40.762918],[36.484121,40.762751],[36.483689,40.762539],[36.483254,40.762295],[36.482815,40.762028],[36.481931,40.761455],[36.479262,40.759635],[36.478364,40.759035],[36.477452,40.758457],[36.476986,40.758183],[36.476543,40.757941],[36.47651,40.757924],[36.476019,40.757686],[36.475576,40.757501],[36.475119,40.757339],[36.474651,40.757199],[36.474173,40.757085],[36.4737,40.757],[36.473219,40.756939],[36.472733,40.756898],[36.472243,40.756875],[36.471752,40.75687],[36.471259,40.756884],[36.470763,40.756918],[36.470267,40.756969],[36.469966,40.757008],[36.469772,40.757033],[36.469278,40.757108],[36.468294,40.757283],[36.46717,40.75752],[36.466466,40.757687],[36.466056,40.757785],[36.464954,40.758074],[36.464409,40.758232],[36.463929,40.758381],[36.462983,40.758702],[36.462517,40.758874],[36.461621,40.759228],[36.461578,40.759245],[36.460338,40.759765],[36.45972,40.760023],[36.459252,40.760212],[36.458779,40.760393],[36.458321,40.760554],[36.457857,40.760704],[36.457251,40.760878],[36.445385,40.760096],[36.440932,40.759008],[36.438435,40.754652],[36.435778,40.751916],[36.435742,40.751835],[36.43392,40.747847],[36.434083,40.747302],[36.434008,40.746776],[36.433858,40.746625],[36.433707,40.746475],[36.43303,40.745572],[36.431978,40.744896],[36.430399,40.743617],[36.429346,40.74279],[36.427965,40.742166],[36.427124,40.741332],[36.426555,40.740926],[36.426325,40.740762],[36.425791,40.740381],[36.424364,40.738953],[36.422428,40.737202],[36.422365,40.737145],[36.419985,40.734194],[36.419744,40.733803],[36.415417,40.72677],[36.412466,40.722106],[36.410563,40.719632],[36.40885,40.7163],[36.406565,40.712493],[36.406103,40.71159],[36.404376,40.70821],[36.402282,40.701453],[36.402092,40.696884],[36.401045,40.689746],[36.400283,40.684701],[36.399998,40.681275],[36.398856,40.675945],[36.397047,40.671567],[36.39305,40.662715],[36.389909,40.655291],[36.387625,40.649676],[36.385626,40.644821],[36.384389,40.640634],[36.383342,40.635875],[36.381914,40.631496],[36.381724,40.628641],[36.381438,40.626262],[36.381057,40.624073],[36.380962,40.621788],[36.380106,40.618933],[36.378773,40.616268],[36.377345,40.613698],[36.374585,40.610557],[36.372587,40.608083],[36.371064,40.604942],[36.36916,40.601706],[36.366495,40.599041],[36.361736,40.597232],[36.356692,40.595995],[36.352218,40.595329],[36.347745,40.594567],[36.344509,40.594091],[36.340131,40.594091],[36.336133,40.594187]]]}}]}