{"type":"FeatureCollection","province":"Ardahan","province_id":"TR-P-75","features":[{"type":"Feature","properties":{"id":"TR-D-75-001","parent_id":"TR-P-75","region_id":"TR-R-DOA","level":"district","municipality_type":null,"municipality_type_label":null,"is_metropolitan_municipality":null,"name":"Ardahan","name_ascii":"ardahan","slug":"ardahan-ardahan"},"geometry":{"type":"Polygon","coordinates":[[[43.071742,40.972412],[43.069059,40.971397],[43.065903,40.970203],[43.053122,40.967204],[43.048582,40.96654],[43.044042,40.965876],[43.043417,40.965784],[43.038017,40.964521],[43.029058,40.961062],[43.016374,40.953434],[43.008214,40.94758],[42.994997,40.934807],[42.978144,40.916003],[42.961646,40.898617],[42.94772,40.881587],[42.940092,40.870145],[42.938743,40.870523],[42.929985,40.87298],[42.920651,40.874901],[42.913329,40.875817],[42.901524,40.875908],[42.891914,40.875542],[42.880475,40.877098],[42.869584,40.881399],[42.863727,40.885243],[42.856772,40.892381],[42.851372,40.902174],[42.843868,40.914711],[42.84277,40.917915],[42.839292,40.930818],[42.835997,40.941526],[42.833892,40.946651],[42.830049,40.950586],[42.82291,40.955437],[42.819341,40.956626],[42.81385,40.957358],[42.809,40.957541],[42.805248,40.957541],[42.801953,40.957175],[42.799116,40.955986],[42.79692,40.95507],[42.782917,40.953057],[42.762601,40.952416],[42.757018,40.952874],[42.753723,40.953698],[42.751436,40.956809],[42.744938,40.967791],[42.741003,40.976394],[42.737891,40.986735],[42.736884,40.993233],[42.734505,40.997443],[42.732583,41.001195],[42.730936,41.003209],[42.726543,41.005771],[42.710436,41.011811],[42.702382,41.014831],[42.690943,41.019407],[42.678313,41.021695],[42.655526,41.02563],[42.647564,41.026728],[42.640151,41.02682],[42.635117,41.026728],[42.628345,41.025813],[42.624227,41.024532],[42.613794,41.02197],[42.609675,41.02078],[42.603635,41.019224],[42.600066,41.018949],[42.597778,41.019041],[42.595856,41.01959],[42.593477,41.020231],[42.588169,41.022519],[42.584691,41.023708],[42.58158,41.0238],[42.573526,41.022427],[42.567944,41.020414],[42.56172,41.017394],[42.554399,41.012543],[42.544973,41.007235],[42.535455,41.003941],[42.529323,41.0033],[42.525663,41.003758],[42.523192,41.005313],[42.520446,41.006778],[42.51587,41.007784],[42.510928,41.007144],[42.506078,41.006503],[42.503699,41.006412],[42.502417,41.005954],[42.500404,41.004124],[42.499031,41.002934],[42.497292,41.001653],[42.495279,41.000829],[42.493449,41.000371],[42.488049,41.000371],[42.47542,41.000371],[42.465261,41.002934],[42.453181,41.005313],[42.440918,41.006778],[42.435244,41.007876],[42.422431,41.008883],[42.417032,41.008883],[42.412364,41.008425],[42.408246,41.006778],[42.402847,41.004673],[42.39644,41.003209],[42.388936,41.002476],[42.385241,41.002237],[42.383554,41.010274],[42.381173,41.017417],[42.375617,41.025256],[42.372938,41.032796],[42.371648,41.040436],[42.372045,41.044504],[42.372045,41.049068],[42.373831,41.056311],[42.378395,41.065539],[42.382066,41.072186],[42.38792,41.083993],[42.3905,41.089649],[42.390992,41.090373],[42.395758,41.097388],[42.405978,41.111279],[42.428203,41.135786],[42.42882,41.136381],[42.444971,41.151959],[42.46174,41.16528],[42.473447,41.174581],[42.478474,41.177961],[42.496466,41.190059],[42.500865,41.192817],[42.50232,41.19373],[42.50738,41.198492],[42.510759,41.202494],[42.51115,41.202957],[42.514226,41.208613],[42.515714,41.212383],[42.518195,41.21655],[42.521469,41.220321],[42.530697,41.229449],[42.543694,41.235997],[42.547473,41.237378],[42.554013,41.239768],[42.563836,41.242347],[42.565028,41.242649],[42.572071,41.244431],[42.576139,41.245919],[42.577802,41.246935],[42.581497,41.249193],[42.587496,41.254668],[42.589434,41.256436],[42.59336,41.260868],[42.597374,41.257702],[42.607239,41.249604],[42.611435,41.246807],[42.61276,41.244451],[42.613938,41.241507],[42.615263,41.239814],[42.618502,41.236722],[42.630795,41.226637],[42.639114,41.221336],[42.652806,41.215005],[42.65899,41.213018],[42.670768,41.209043],[42.675994,41.20757],[42.681663,41.206172],[42.689834,41.205141],[42.696459,41.204626],[42.704557,41.203301],[42.711109,41.202712],[42.720752,41.198884],[42.730764,41.194909],[42.740922,41.191228],[42.755351,41.188946],[42.765289,41.187695],[42.780748,41.184897],[42.788845,41.184382],[42.801139,41.183351],[42.832572,41.181879],[42.855025,41.180333],[42.869748,41.179965],[42.87387,41.180628],[42.880298,41.181447],[42.886883,41.183631],[42.887521,41.183441],[42.890776,41.182518],[42.893496,41.181768],[42.894591,41.181487],[42.895141,41.181357],[42.895696,41.181236],[42.896265,41.181124],[42.897414,41.18093],[42.89857,41.180757],[42.89973,41.180594],[42.907285,41.179571],[42.913095,41.178774],[42.916001,41.178366],[42.920075,41.177783],[42.921236,41.177625],[42.922392,41.177486],[42.922965,41.177432],[42.923533,41.177395],[42.923707,41.176579],[42.923963,41.174033],[42.92371,41.17024],[42.923575,41.168203],[42.92338,41.163409],[42.923186,41.159328],[42.922927,41.157385],[42.921307,41.152461],[42.919753,41.147991],[42.918428,41.14386],[42.917507,41.136719],[42.916701,41.127736],[42.916585,41.120596],[42.918313,41.111383],[42.920386,41.106546],[42.927987,41.101018],[42.937546,41.098254],[42.94722,41.097332],[42.967259,41.096526],[42.977624,41.096296],[42.991214,41.09572],[42.999275,41.094223],[43.006876,41.091113],[43.011138,41.086852],[43.017011,41.080633],[43.022309,41.075451],[43.02991,41.066007],[43.033595,41.057715],[43.036705,41.049423],[43.039584,41.045046],[43.045342,41.038827],[43.049027,41.032378],[43.053058,41.024662],[43.054325,41.018788],[43.05398,41.011994],[43.05421,41.001974],[43.054786,40.998778],[43.057032,40.993336],[43.06135,40.985649],[43.066533,40.979085],[43.071742,40.972412]]]}},{"type":"Feature","properties":{"id":"TR-D-75-002","parent_id":"TR-P-75","region_id":"TR-R-DOA","level":"district","municipality_type":null,"municipality_type_label":null,"is_metropolitan_municipality":null,"name":"Çıldır","name_ascii":"cildir","slug":"cildir-ardahan"},"geometry":{"type":"Polygon","coordinates":[[[43.005673,41.399415],[43.005792,41.398957],[43.006171,41.398318],[43.006635,41.396873],[43.008229,41.396851],[43.010831,41.396047],[43.011588,41.395716],[43.01173,41.395455],[43.011588,41.394817],[43.011284,41.39396],[43.01167,41.393015],[43.011848,41.392143],[43.012298,41.39167],[43.012464,41.391055],[43.013528,41.390227],[43.014403,41.389375],[43.01547,41.388674],[43.016331,41.387075],[43.018496,41.384241],[43.019142,41.383265],[43.019954,41.381578],[43.020572,41.380735],[43.021328,41.379704],[43.021703,41.378736],[43.021703,41.378205],[43.020235,41.377299],[43.019718,41.376737],[43.018424,41.375331],[43.017893,41.37402],[43.016144,41.372458],[43.016112,41.371583],[43.016425,41.37074],[43.029387,41.371084],[43.032143,41.371046],[43.034178,41.372007],[43.034857,41.372327],[43.03561,41.372683],[43.036869,41.373778],[43.037757,41.37455],[43.039448,41.37604],[43.039924,41.37632],[43.042411,41.376634],[43.045392,41.376175],[43.046061,41.375833],[43.047418,41.375139],[43.049934,41.374616],[43.051192,41.374354],[43.051697,41.374036],[43.05392,41.372635],[43.055228,41.372],[43.055975,41.371851],[43.057171,41.370206],[43.058778,41.36845],[43.059675,41.366956],[43.060572,41.366507],[43.062963,41.366133],[43.065108,41.365552],[43.066102,41.365386],[43.066999,41.364938],[43.069502,41.364564],[43.070661,41.364676],[43.071083,41.36501],[43.071515,41.365063],[43.071545,41.365067],[43.071686,41.365012],[43.072641,41.364639],[43.072818,41.364666],[43.073047,41.364701],[43.073375,41.364855],[43.073721,41.364875],[43.074434,41.364509],[43.075355,41.363867],[43.075512,41.363758],[43.076243,41.362872],[43.076609,41.362545],[43.077245,41.362391],[43.078323,41.362275],[43.078939,41.362218],[43.079517,41.362044],[43.081423,41.3606],[43.082713,41.360138],[43.084503,41.359426],[43.085735,41.358945],[43.086332,41.358848],[43.087025,41.358925],[43.089028,41.358675],[43.091357,41.358367],[43.093398,41.357789],[43.09475,41.357641],[43.094804,41.357635],[43.094867,41.357598],[43.095324,41.357327],[43.095728,41.357192],[43.09619,41.356345],[43.096749,41.355999],[43.097538,41.355691],[43.098558,41.355152],[43.099502,41.354574],[43.100176,41.35415],[43.102197,41.35338],[43.10549,41.351513],[43.106799,41.350839],[43.107684,41.350223],[43.109456,41.349298],[43.110033,41.348644],[43.11079,41.348149],[43.110977,41.348028],[43.111069,41.347865],[43.111381,41.347315],[43.112113,41.345602],[43.112305,41.344947],[43.11296,41.343946],[43.114038,41.342271],[43.114962,41.340596],[43.115636,41.339806],[43.116021,41.339152],[43.116522,41.338844],[43.116888,41.33869],[43.117388,41.337939],[43.118062,41.337534],[43.120161,41.335436],[43.121182,41.334645],[43.121354,41.334511],[43.121598,41.334112],[43.121894,41.333626],[43.1221,41.333488],[43.122644,41.333125],[43.124031,41.331604],[43.125398,41.330064],[43.125687,41.32964],[43.125725,41.329236],[43.125856,41.328899],[43.12586,41.32889],[43.125871,41.328881],[43.126418,41.328447],[43.126996,41.328062],[43.127284,41.327542],[43.127862,41.326598],[43.128748,41.326078],[43.128999,41.32549],[43.130019,41.324326],[43.130577,41.323575],[43.130866,41.322959],[43.131328,41.322285],[43.131944,41.321823],[43.132059,41.321496],[43.132579,41.321226],[43.13281,41.320938],[43.133138,41.320591],[43.134697,41.319936],[43.135371,41.319359],[43.135641,41.318974],[43.136276,41.318762],[43.136738,41.318781],[43.137219,41.318531],[43.137739,41.318627],[43.138297,41.3188],[43.138721,41.318762],[43.139029,41.318396],[43.139376,41.318204],[43.139722,41.317896],[43.140011,41.317799],[43.141359,41.317857],[43.142052,41.317587],[43.143015,41.317876],[43.144054,41.317741],[43.144555,41.317549],[43.145248,41.317145],[43.145941,41.31676],[43.1465,41.316779],[43.147116,41.316625],[43.147674,41.316625],[43.148059,41.316586],[43.14854,41.316567],[43.14906,41.316548],[43.14933,41.31676],[43.149869,41.316779],[43.150331,41.31649],[43.150735,41.316663],[43.151351,41.31649],[43.151663,41.316244],[43.151717,41.316201],[43.152122,41.316105],[43.152793,41.316115],[43.153354,41.316124],[43.154528,41.316394],[43.155587,41.316278],[43.156223,41.316529],[43.156781,41.316509],[43.157878,41.316259],[43.158341,41.316163],[43.159399,41.315989],[43.160035,41.315816],[43.160362,41.315624],[43.160786,41.315431],[43.161171,41.314873],[43.161344,41.31443],[43.161806,41.314103],[43.162518,41.313332],[43.16275,41.312812],[43.163154,41.312562],[43.163327,41.311985],[43.163789,41.31158],[43.163808,41.311118],[43.164117,41.310752],[43.165368,41.309905],[43.165849,41.309424],[43.165855,41.309416],[43.166273,41.308885],[43.166542,41.30875],[43.166966,41.308731],[43.167415,41.308808],[43.167967,41.308904],[43.169334,41.308923],[43.170124,41.308673],[43.171009,41.3085],[43.171452,41.308346],[43.171857,41.308095],[43.173204,41.307633],[43.174937,41.307749],[43.176073,41.307595],[43.177113,41.306998],[43.177941,41.30669],[43.17873,41.30669],[43.179866,41.306363],[43.180848,41.306285],[43.181791,41.306112],[43.182427,41.305766],[43.182581,41.3054],[43.183475,41.304798],[43.183582,41.304726],[43.183864,41.304741],[43.184314,41.304764],[43.185103,41.304803],[43.186027,41.304784],[43.186682,41.304841],[43.187562,41.304989],[43.188472,41.304572],[43.188488,41.30457],[43.189165,41.304495],[43.189818,41.304767],[43.189858,41.304784],[43.190725,41.305034],[43.191572,41.3054],[43.192381,41.305708],[43.192881,41.306151],[43.193965,41.306446],[43.194145,41.30644],[43.19473,41.30642],[43.195038,41.306459],[43.195269,41.306805],[43.195591,41.307254],[43.195712,41.307421],[43.196713,41.308038],[43.197887,41.308403],[43.198176,41.308634],[43.199293,41.308654],[43.199824,41.308308],[43.200121,41.308114],[43.20116,41.307845],[43.201988,41.307287],[43.20247,41.30667],[43.203028,41.306497],[43.203452,41.306324],[43.203837,41.306074],[43.204318,41.30592],[43.205109,41.305871],[43.205957,41.305819],[43.206474,41.305611],[43.208329,41.305674],[43.20865,41.305727],[43.209362,41.305631],[43.209978,41.305765],[43.210537,41.306093],[43.210883,41.306247],[43.211326,41.306181],[43.211403,41.30617],[43.212077,41.306285],[43.212424,41.306343],[43.213021,41.306228],[43.213521,41.305708],[43.214118,41.305419],[43.214176,41.305246],[43.214002,41.305149],[43.213771,41.305053],[43.213508,41.304921],[43.213463,41.304899],[43.213252,41.304495],[43.213213,41.303802],[43.213694,41.303128],[43.21483,41.302049],[43.215428,41.301562],[43.215774,41.301279],[43.216024,41.300721],[43.216063,41.300278],[43.21566,41.299402],[43.215504,41.299065],[43.214561,41.298468],[43.213444,41.29791],[43.212212,41.297737],[43.212,41.297448],[43.212323,41.296955],[43.21252,41.296273],[43.212404,41.294541],[43.212635,41.293616],[43.213252,41.292981],[43.21356,41.291652],[43.213612,41.291045],[43.213675,41.290324],[43.212828,41.289419],[43.211786,41.28934],[43.210806,41.289265],[43.209921,41.289149],[43.208837,41.288446],[43.208111,41.287975],[43.207456,41.287686],[43.206879,41.287744],[43.206224,41.287763],[43.205184,41.287551],[43.204241,41.287263],[43.203333,41.287177],[43.203102,41.286889],[43.202988,41.286547],[43.203074,41.286033],[43.203416,41.285719],[43.203416,41.285433],[43.203159,41.285062],[43.20216,41.284748],[43.201389,41.284691],[43.200448,41.284634],[43.199449,41.284891],[43.199049,41.285462],[43.198706,41.285861],[43.198044,41.285963],[43.197964,41.285976],[43.197166,41.28572],[43.195738,41.285262],[43.193628,41.284422],[43.19294,41.284149],[43.191884,41.283492],[43.19188,41.283484],[43.191513,41.282693],[43.190457,41.282008],[43.189182,41.281634],[43.188316,41.28138],[43.18726,41.281237],[43.186518,41.280923],[43.18629,41.280552],[43.186147,41.280096],[43.186429,41.279559],[43.186432,41.279553],[43.186604,41.278982],[43.186061,41.278183],[43.185234,41.277412],[43.184663,41.27707],[43.183238,41.276811],[43.182779,41.276727],[43.181209,41.276356],[43.18041,41.275928],[43.180353,41.275186],[43.18045,41.274604],[43.180495,41.27433],[43.17981,41.273473],[43.179496,41.27296],[43.178069,41.272874],[43.176785,41.273616],[43.1757,41.273359],[43.174358,41.272332],[43.173987,41.271989],[43.173274,41.271761],[43.171561,41.272046],[43.169614,41.272575],[43.169563,41.272589],[43.169135,41.27256],[43.167137,41.271818],[43.166413,41.271487],[43.166138,41.271361],[43.164339,41.270333],[43.163611,41.270176],[43.163283,41.270105],[43.162659,41.26972],[43.162313,41.269506],[43.161228,41.268878],[43.160029,41.268278],[43.15923,41.267964],[43.159029,41.26798],[43.157403,41.268107],[43.156318,41.267993],[43.155833,41.267393],[43.155605,41.266708],[43.155656,41.266369],[43.155691,41.266137],[43.155034,41.264967],[43.153949,41.263711],[43.153236,41.26334],[43.152436,41.262655],[43.151095,41.262141],[43.15001,41.26177],[43.149068,41.261485],[43.148212,41.26217],[43.147727,41.262398],[43.146813,41.26217],[43.145729,41.261513],[43.143788,41.260686],[43.140933,41.259458],[43.140619,41.259078],[43.140814,41.258494],[43.141258,41.258106],[43.141452,41.257953],[43.141452,41.257745],[43.141133,41.257439],[43.140619,41.257232],[43.139773,41.257259],[43.139384,41.257467],[43.139106,41.257953],[43.138884,41.258356],[43.138509,41.258481],[43.136857,41.257967],[43.136441,41.257717],[43.135427,41.257564],[43.135101,41.257549],[43.134234,41.257509],[43.132457,41.256967],[43.131429,41.256148],[43.131082,41.255845],[43.130666,41.255482],[43.13018,41.254857],[43.129916,41.254427],[43.129777,41.254191],[43.129486,41.253913],[43.128778,41.25358],[43.128358,41.253442],[43.127764,41.253247],[43.127318,41.253036],[43.12732,41.25283],[43.127667,41.252442],[43.128111,41.252358],[43.128581,41.252409],[43.128725,41.252425],[43.129204,41.252485],[43.129698,41.2525],[43.131675,41.252081],[43.133038,41.2525],[43.134275,41.252612],[43.135943,41.25244],[43.136826,41.252051],[43.13783,41.251452],[43.138938,41.251018],[43.139596,41.250928],[43.142337,41.249325],[43.145092,41.247154],[43.145511,41.246959],[43.146095,41.246855],[43.146866,41.246447],[43.147413,41.246157],[43.147853,41.246252],[43.147937,41.246271],[43.149644,41.246929],[43.150303,41.246885],[43.151366,41.246525],[43.151651,41.246375],[43.152265,41.24579],[43.152374,41.245685],[43.152817,41.245538],[43.155769,41.246104],[43.156177,41.246288],[43.158031,41.247127],[43.15973,41.248121],[43.161969,41.249105],[43.163986,41.24972],[43.165265,41.249794],[43.166501,41.249564],[43.166987,41.249474],[43.171095,41.251294],[43.174244,41.253066],[43.175127,41.253873],[43.175401,41.254124],[43.176139,41.254542],[43.177482,41.254649],[43.177983,41.254689],[43.181624,41.254689],[43.183322,41.254542],[43.186569,41.253508],[43.189866,41.252155],[43.19144,41.251811],[43.196533,41.251319],[43.196617,41.251265],[43.197492,41.250704],[43.197716,41.25012],[43.197761,41.249354],[43.197762,41.249326],[43.199233,41.246033],[43.199608,41.245193],[43.200444,41.239437],[43.201112,41.235465],[43.201354,41.234025],[43.202025,41.233077],[43.211897,41.219123],[43.221385,41.205805],[43.223043,41.203403],[43.227443,41.19703],[43.232699,41.189903],[43.235772,41.18625],[43.236822,41.185078],[43.237688,41.184112],[43.237821,41.183622],[43.237517,41.182841],[43.236894,41.182182],[43.234341,41.179483],[43.233387,41.178018],[43.233006,41.177089],[43.232499,41.176005],[43.231454,41.174653],[43.231211,41.174234],[43.231262,41.173854],[43.231302,41.17343],[43.231646,41.17347],[43.232132,41.173497],[43.234065,41.174556],[43.235106,41.175058],[43.236373,41.175301],[43.236729,41.175369],[43.239544,41.175431],[43.239573,41.175414],[43.240764,41.174724],[43.24148,41.174462],[43.242244,41.174485],[43.244507,41.176002],[43.244774,41.17618],[43.246684,41.177111],[43.250109,41.177083],[43.254943,41.177851],[43.256308,41.178633],[43.257226,41.178739],[43.258532,41.178598],[43.259979,41.179163],[43.263179,41.179393],[43.264391,41.179481],[43.265706,41.180202],[43.266192,41.180469],[43.266672,41.180629],[43.267674,41.180963],[43.269722,41.181987],[43.270688,41.182734],[43.271275,41.183187],[43.27371,41.184175],[43.274722,41.184386],[43.275405,41.184528],[43.275937,41.184782],[43.276146,41.184881],[43.277959,41.185397],[43.278069,41.185428],[43.279121,41.185521],[43.280501,41.185872],[43.281015,41.186223],[43.281764,41.18648],[43.283634,41.18655],[43.285364,41.18655],[43.287469,41.186644],[43.28976,41.186924],[43.290882,41.187556],[43.292621,41.18903],[43.29273,41.189122],[43.293549,41.1894],[43.294749,41.189576],[43.296293,41.189439],[43.296337,41.189435],[43.297644,41.189223],[43.298632,41.189364],[43.300362,41.189541],[43.303891,41.19007],[43.305092,41.189929],[43.305868,41.189541],[43.306257,41.189612],[43.307739,41.190459],[43.308975,41.190776],[43.309679,41.191151],[43.312717,41.192765],[43.312882,41.192822],[43.318859,41.194906],[43.32073,41.195295],[43.323052,41.195599],[43.325283,41.196671],[43.327507,41.198665],[43.32948,41.200433],[43.332343,41.200801],[43.335767,41.201154],[43.340826,41.20163],[43.351899,41.202672],[43.353946,41.201931],[43.358923,41.202319],[43.367254,41.202566],[43.368807,41.202602],[43.37029,41.202037],[43.373326,41.202531],[43.37562,41.20299],[43.377738,41.202566],[43.379821,41.201684],[43.384513,41.200157],[43.396067,41.195],[43.400631,41.192951],[43.405755,41.190436],[43.411368,41.187319],[43.417157,41.186247],[43.420281,41.185668],[43.426258,41.183676],[43.42862,41.182785],[43.430298,41.182152],[43.433255,41.18139],[43.439841,41.179239],[43.446198,41.177364],[43.448617,41.176651],[43.449629,41.174717],[43.451303,41.17152],[43.454329,41.16629],[43.455959,41.163121],[43.458947,41.157506],[43.459938,41.155816],[43.462026,41.152254],[43.463717,41.148171],[43.468365,41.136951],[43.471517,41.129332],[43.471773,41.128715],[43.472711,41.126447],[43.473315,41.125259],[43.474364,41.123195],[43.47275,41.122941],[43.466585,41.121972],[43.459014,41.119961],[43.459053,41.117435],[43.459083,41.115545],[43.456749,41.109396],[43.453036,41.106717],[43.450766,41.104371],[43.449655,41.102005],[43.44789,41.10036],[43.447558,41.099519],[43.447377,41.09906],[43.447416,41.098759],[43.447599,41.097338],[43.447414,41.095319],[43.447473,41.093925],[43.447544,41.092244],[43.448268,41.089841],[43.44984,41.087502],[43.450239,41.087415],[43.453378,41.086724],[43.455508,41.084724],[43.456342,41.08352],[43.461663,41.073874],[43.465119,41.071864],[43.470579,41.06869],[43.471425,41.068198],[43.471198,41.061538],[43.469197,41.04892],[43.469011,41.047105],[43.471879,41.043603],[43.477403,41.037625],[43.478766,41.036036],[43.481033,41.026786],[43.482625,41.020825],[43.48909,41.016691],[43.488819,41.01645],[43.488735,41.016332],[43.488013,41.010811],[43.48746,41.009314],[43.485963,41.005263],[43.481139,41.002489],[43.475303,41.000387],[43.466656,41.000203],[43.457457,41.002779],[43.454698,41.005907],[43.446689,41.016407],[43.441799,41.023275],[43.424431,41.044612],[43.410105,41.059775],[43.400939,41.067373],[43.392256,41.074368],[43.377784,41.083172],[43.369221,41.088237],[43.362829,41.091011],[43.357402,41.093061],[43.352819,41.094388],[43.346427,41.094991],[43.338468,41.093785],[43.329664,41.09294],[43.325684,41.09294],[43.314347,41.087996],[43.311815,41.085101],[43.307835,41.079312],[43.307512,41.078923],[43.299755,41.069557],[43.282602,41.050046],[43.279794,41.047713],[43.265987,41.03624],[43.248156,41.024405],[43.229142,41.017857],[43.228422,41.017782],[43.221445,41.017062],[43.199211,41.015208],[43.197583,41.015095],[43.188668,41.014622],[43.17202,41.005706],[43.164052,41.002629],[43.15845,41.001209],[43.154111,41.000578],[43.145116,40.999947],[43.140856,41.000736],[43.133676,41.003813],[43.129889,41.004523],[43.123498,41.004444],[43.11695,41.004602],[43.114935,41.004132],[43.114583,41.00405],[43.113062,41.003125],[43.110559,41.001604],[43.106535,40.998685],[43.100302,40.993004],[43.094622,40.988112],[43.088862,40.982747],[43.082866,40.977303],[43.077659,40.974463],[43.071742,40.972412],[43.066533,40.979085],[43.06135,40.985649],[43.057032,40.993336],[43.054786,40.998778],[43.05421,41.001974],[43.05398,41.011994],[43.054325,41.018788],[43.053058,41.024662],[43.049027,41.032378],[43.045342,41.038827],[43.039584,41.045046],[43.036705,41.049423],[43.033595,41.057715],[43.02991,41.066007],[43.022309,41.075451],[43.017011,41.080633],[43.011138,41.086852],[43.006876,41.091113],[42.999275,41.094223],[42.991214,41.09572],[42.977624,41.096296],[42.967259,41.096526],[42.94722,41.097332],[42.937546,41.098254],[42.927987,41.101018],[42.920386,41.106546],[42.918313,41.111383],[42.916585,41.120596],[42.916701,41.127736],[42.917507,41.136719],[42.918428,41.14386],[42.919753,41.147991],[42.921307,41.152461],[42.922927,41.157385],[42.923186,41.159328],[42.92338,41.163409],[42.923575,41.168203],[42.92371,41.17024],[42.923963,41.174033],[42.923707,41.176579],[42.923533,41.177395],[42.924095,41.17738],[42.924648,41.177398],[42.925187,41.17746],[42.925662,41.177564],[42.926125,41.177706],[42.926578,41.177878],[42.926903,41.178022],[42.927021,41.178075],[42.927169,41.178148],[42.927473,41.178298],[42.929252,41.179252],[42.929697,41.179475],[42.929956,41.179599],[42.930149,41.179691],[42.930213,41.179719],[42.93061,41.179896],[42.931011,41.180061],[42.93113,41.180109],[42.931285,41.180168],[42.931658,41.18031],[42.932194,41.180499],[42.932736,41.180676],[42.933284,41.18084],[42.933838,41.180989],[42.9344,41.181118],[42.934882,41.181209],[42.935369,41.181283],[42.935859,41.181343],[42.936351,41.181388],[42.936845,41.181417],[42.937338,41.181429],[42.937831,41.181421],[42.938322,41.181395],[42.938809,41.18135],[42.939292,41.181288],[42.939768,41.181206],[42.940235,41.1811],[42.940716,41.180962],[42.941186,41.1808],[42.941647,41.180619],[42.9421,41.180424],[42.942546,41.180216],[42.942984,41.179997],[42.943413,41.179768],[42.943831,41.179527],[42.944265,41.179257],[42.944689,41.178976],[42.945513,41.178393],[42.946319,41.177793],[42.94711,41.177182],[42.947889,41.176557],[42.948645,41.175919],[42.94902,41.175584],[42.949385,41.175245],[42.94974,41.174899],[42.950084,41.174548],[42.950389,41.174218],[42.950971,41.173546],[42.951252,41.173205],[42.951798,41.172514],[42.952321,41.171814],[42.95257,41.17146],[42.952795,41.171125],[42.953222,41.170447],[42.953623,41.169761],[42.953839,41.169368],[42.954255,41.168575],[42.954893,41.1673],[42.956612,41.16378],[42.96012,41.162902],[42.964821,41.161686],[42.967565,41.160991],[42.969219,41.160588],[42.970328,41.160331],[42.971981,41.159962],[42.97253,41.159833],[42.973074,41.159694],[42.973562,41.159558],[42.974044,41.159411],[42.97452,41.159256],[42.974989,41.159092],[42.975457,41.158915],[42.975914,41.158729],[42.976359,41.158535],[42.976788,41.15833],[42.977196,41.158114],[42.977576,41.157885],[42.977921,41.157638],[42.978217,41.15737],[42.978468,41.157059],[42.978655,41.156726],[42.978784,41.15638],[42.978853,41.156029],[42.978865,41.155727],[42.978842,41.155133],[42.978853,41.154844],[42.978911,41.154563],[42.979063,41.154249],[42.979292,41.153947],[42.97958,41.153655],[42.979913,41.153372],[42.980281,41.153099],[42.980676,41.152835],[42.981093,41.152583],[42.981531,41.152346],[42.981988,41.152127],[42.982465,41.151933],[42.982979,41.151765],[42.98351,41.151622],[42.984055,41.151497],[42.984609,41.151386],[42.985733,41.151188],[42.986868,41.151008],[42.988576,41.150752],[42.989714,41.15059],[42.990851,41.150445],[42.991418,41.150384],[42.991985,41.150336],[42.992551,41.150305],[42.993116,41.150299],[42.993664,41.150322],[42.99421,41.150369],[42.994755,41.150435],[42.995298,41.150515],[42.995839,41.150609],[42.996376,41.150714],[42.996909,41.150831],[42.997436,41.150962],[42.997955,41.151109],[42.998431,41.151264],[42.998899,41.151435],[42.999358,41.151619],[42.999809,41.151817],[43.000266,41.152036],[43.000705,41.15226],[43.000715,41.152265],[43.00074,41.152278],[43.001157,41.152502],[43.00203,41.152992],[43.004202,41.154253],[43.004649,41.154496],[43.005107,41.154725],[43.005546,41.154923],[43.005996,41.155106],[43.006456,41.155276],[43.006924,41.155433],[43.007392,41.155574],[43.007866,41.155705],[43.008828,41.155945],[43.010289,41.156269],[43.011269,41.156469],[43.012253,41.15666],[43.013731,41.156927],[43.014718,41.157093],[43.015708,41.157248],[43.017193,41.15746],[43.018682,41.157654],[43.020848,41.157911],[43.024642,41.158339],[43.030229,41.158955],[43.031903,41.159148],[43.033571,41.159363],[43.034705,41.159533],[43.035836,41.159716],[43.038658,41.160195],[43.043734,41.161072],[43.044107,41.161139],[43.046309,41.164128],[43.047266,41.165427],[43.047143,41.165837],[43.046137,41.166612],[43.044975,41.166921],[43.043968,41.167386],[43.044084,41.167735],[43.044123,41.167851],[43.044742,41.168316],[43.046137,41.168393],[43.047763,41.168393],[43.048228,41.168858],[43.048449,41.169212],[43.048615,41.169477],[43.04877,41.173195],[43.048383,41.17668],[43.047995,41.182954],[43.048383,41.192791],[43.047763,41.202008],[43.047531,41.208359],[43.046214,41.215175],[43.042419,41.224934],[43.037927,41.232757],[43.035835,41.237326],[43.032427,41.241276],[43.028245,41.248015],[43.025766,41.252739],[43.022823,41.257851],[43.020112,41.266681],[43.016937,41.274736],[43.01531,41.281165],[43.014846,41.287438],[43.01562,41.294177],[43.016395,41.296888],[43.019648,41.302542],[43.020654,41.308506],[43.019957,41.313075],[43.018176,41.315864],[43.013606,41.317955],[43.006635,41.321131],[42.991919,41.328489],[42.986962,41.331277],[42.977126,41.336621],[42.969458,41.339719],[42.967986,41.339952],[42.933264,41.346194],[42.935575,41.352626],[42.935976,41.360562],[42.935374,41.366288],[42.935374,41.371612],[42.935976,41.377136],[42.936278,41.384168],[42.937483,41.388789],[42.941348,41.399988],[42.941401,41.400139],[42.943581,41.406927],[42.965592,41.399666],[42.976903,41.397221],[42.983934,41.395692],[42.990507,41.395539],[42.996425,41.396347],[42.997232,41.396457],[43.005673,41.399415]]]}},{"type":"Feature","properties":{"id":"TR-D-75-003","parent_id":"TR-P-75","region_id":"TR-R-DOA","level":"district","municipality_type":null,"municipality_type_label":null,"is_metropolitan_municipality":null,"name":"Damal","name_ascii":"damal","slug":"damal-ardahan"},"geometry":{"type":"Polygon","coordinates":[[[42.933264,41.346194],[42.929146,41.341476],[42.923583,41.337227],[42.917367,41.330094],[42.907381,41.321738],[42.896172,41.314605],[42.885472,41.308695],[42.872633,41.303192],[42.861628,41.299116],[42.839006,41.29341],[42.817097,41.290251],[42.802322,41.291168],[42.793252,41.29341],[42.786935,41.297384],[42.78133,41.302071],[42.774503,41.308695],[42.770834,41.315828],[42.769917,41.327343],[42.772057,41.334476],[42.775318,41.34436],[42.776031,41.349251],[42.775929,41.352206],[42.77542,41.361581],[42.774299,41.370345],[42.772057,41.377172],[42.769917,41.38298],[42.766962,41.386954],[42.762835,41.393017],[42.762147,41.394928],[42.75909,41.40708],[42.756645,41.414952],[42.756263,41.417779],[42.757333,41.421753],[42.758097,41.423282],[42.768032,41.423511],[42.773806,41.423851],[42.774528,41.423893],[42.776439,41.423511],[42.781407,41.420531],[42.784616,41.419231],[42.789125,41.41755],[42.794093,41.416633],[42.797609,41.41648],[42.808308,41.415257],[42.814499,41.414646],[42.826039,41.412659],[42.842165,41.411283],[42.850419,41.410748],[42.855081,41.409525],[42.861653,41.407844],[42.869066,41.40708],[42.87969,41.40708],[42.883664,41.40708],[42.890466,41.407385],[42.898414,41.407691],[42.90598,41.408608],[42.91538,41.408608],[42.931965,41.408073],[42.937171,41.407853],[42.937391,41.407844],[42.939454,41.407538],[42.943581,41.406927],[42.941401,41.400139],[42.941348,41.399988],[42.937483,41.388789],[42.936278,41.384168],[42.935976,41.377136],[42.935374,41.371612],[42.935374,41.366288],[42.935976,41.360562],[42.935575,41.352626],[42.933264,41.346194]]]}},{"type":"Feature","properties":{"id":"TR-D-75-004","parent_id":"TR-P-75","region_id":"TR-R-DOA","level":"district","municipality_type":null,"municipality_type_label":null,"is_metropolitan_municipality":null,"name":"Göle","name_ascii":"gole","slug":"gole-ardahan"},"geometry":{"type":"Polygon","coordinates":[[[42.940148,40.8034],[42.937033,40.804936],[42.933695,40.806583],[42.923492,40.811614],[42.912418,40.81861],[42.901862,40.822779],[42.894642,40.824303],[42.893879,40.824464],[42.885364,40.825972],[42.883987,40.82591],[42.881461,40.825795],[42.874553,40.823646],[42.873478,40.823311],[42.870019,40.822069],[42.868478,40.82085],[42.865762,40.818699],[42.863618,40.814589],[42.862568,40.812579],[42.860262,40.800781],[42.860262,40.79679],[42.86026,40.796615],[42.860085,40.784815],[42.858754,40.775058],[42.857528,40.767866],[42.856093,40.759447],[42.854557,40.750902],[42.853255,40.743659],[42.851924,40.735764],[42.849884,40.732483],[42.848952,40.731551],[42.848288,40.730886],[42.846159,40.729467],[42.828774,40.723169],[42.811477,40.716428],[42.797197,40.711904],[42.785133,40.706848],[42.776263,40.703389],[42.76899,40.698688],[42.758435,40.690528],[42.747968,40.684673],[42.740606,40.680771],[42.728809,40.675626],[42.719939,40.672699],[42.709827,40.669683],[42.697941,40.66578],[42.692708,40.664006],[42.685878,40.661168],[42.67692,40.655402],[42.672218,40.652741],[42.658647,40.646],[42.651995,40.644049],[42.64348,40.641299],[42.630973,40.639703],[42.624764,40.639259],[42.613765,40.640501],[42.59638,40.643517],[42.588841,40.646089],[42.582011,40.650169],[42.574649,40.656378],[42.570812,40.659888],[42.571823,40.665685],[42.572865,40.669778],[42.573088,40.67588],[42.571153,40.682056],[42.567953,40.689423],[42.564456,40.694335],[42.563141,40.697535],[42.561951,40.7019],[42.560958,40.707456],[42.561157,40.715493],[42.561157,40.718371],[42.560859,40.724621],[42.560462,40.731269],[42.560462,40.736329],[42.559371,40.740199],[42.557883,40.743175],[42.555204,40.747442],[42.552227,40.751411],[42.54806,40.757364],[42.542504,40.762722],[42.541313,40.763615],[42.52385,40.774628],[42.518691,40.778696],[42.513928,40.782565],[42.509067,40.787526],[42.501427,40.796555],[42.496168,40.801516],[42.492696,40.80489],[42.490314,40.806279],[42.469677,40.810843],[42.449932,40.812331],[42.420662,40.820666],[42.410641,40.823741],[42.405677,40.82431],[42.397085,40.825523],[42.389908,40.826837],[42.377778,40.83078],[42.372522,40.835935],[42.369995,40.83917],[42.368175,40.845235],[42.365446,40.851603],[42.360992,40.860781],[42.355376,40.867398],[42.349225,40.878411],[42.34476,40.888432],[42.344065,40.897461],[42.343073,40.901926],[42.34089,40.908078],[42.340493,40.91036],[42.340493,40.913832],[42.34089,40.918297],[42.341585,40.921075],[42.348133,40.925342],[42.354384,40.929906],[42.35875,40.934371],[42.363413,40.940026],[42.36758,40.945979],[42.371648,40.954314],[42.375815,40.962748],[42.379288,40.970189],[42.381372,40.976142],[42.382562,40.980905],[42.383852,40.989636],[42.384844,40.99678],[42.385241,41.002237],[42.388936,41.002476],[42.39644,41.003209],[42.402847,41.004673],[42.408246,41.006778],[42.412364,41.008425],[42.417032,41.008883],[42.422431,41.008883],[42.435244,41.007876],[42.440918,41.006778],[42.453181,41.005313],[42.465261,41.002934],[42.47542,41.000371],[42.488049,41.000371],[42.493449,41.000371],[42.495279,41.000829],[42.497292,41.001653],[42.499031,41.002934],[42.500404,41.004124],[42.502417,41.005954],[42.503699,41.006412],[42.506078,41.006503],[42.510928,41.007144],[42.51587,41.007784],[42.520446,41.006778],[42.523192,41.005313],[42.525663,41.003758],[42.529323,41.0033],[42.535455,41.003941],[42.544973,41.007235],[42.554399,41.012543],[42.56172,41.017394],[42.567944,41.020414],[42.573526,41.022427],[42.58158,41.0238],[42.584691,41.023708],[42.588169,41.022519],[42.593477,41.020231],[42.595856,41.01959],[42.597778,41.019041],[42.600066,41.018949],[42.603635,41.019224],[42.609675,41.02078],[42.613794,41.02197],[42.624227,41.024532],[42.628345,41.025813],[42.635117,41.026728],[42.640151,41.02682],[42.647564,41.026728],[42.655526,41.02563],[42.678313,41.021695],[42.690943,41.019407],[42.702382,41.014831],[42.710436,41.011811],[42.726543,41.005771],[42.730936,41.003209],[42.732583,41.001195],[42.734505,40.997443],[42.736884,40.993233],[42.737891,40.986735],[42.741003,40.976394],[42.744938,40.967791],[42.751436,40.956809],[42.753723,40.953698],[42.757018,40.952874],[42.762601,40.952416],[42.782917,40.953057],[42.79692,40.95507],[42.799116,40.955986],[42.801953,40.957175],[42.805248,40.957541],[42.809,40.957541],[42.81385,40.957358],[42.819341,40.956626],[42.82291,40.955437],[42.830049,40.950586],[42.833892,40.946651],[42.835997,40.941526],[42.839292,40.930818],[42.84277,40.917915],[42.843868,40.914711],[42.851372,40.902174],[42.856772,40.892381],[42.863727,40.885243],[42.869584,40.881399],[42.880475,40.877098],[42.891914,40.875542],[42.901524,40.875908],[42.913329,40.875817],[42.920651,40.874901],[42.929985,40.87298],[42.938743,40.870523],[42.940092,40.870145],[42.938051,40.865772],[42.937608,40.864823],[42.935568,40.858791],[42.933972,40.852937],[42.933794,40.848236],[42.935568,40.843269],[42.937963,40.838834],[42.942753,40.832536],[42.945858,40.826327],[42.946922,40.820207],[42.946833,40.816659],[42.94621,40.81455],[42.94178,40.807082],[42.940663,40.806145],[42.938419,40.804265],[42.940148,40.8034]]]}},{"type":"Feature","properties":{"id":"TR-D-75-005","parent_id":"TR-P-75","region_id":"TR-R-DOA","level":"district","municipality_type":null,"municipality_type_label":null,"is_metropolitan_municipality":null,"name":"Hanak","name_ascii":"hanak","slug":"hanak-ardahan"},"geometry":{"type":"Polygon","coordinates":[[[42.758097,41.423282],[42.757333,41.421753],[42.756263,41.417779],[42.756645,41.414952],[42.75909,41.40708],[42.762147,41.394928],[42.762835,41.393017],[42.766962,41.386954],[42.769917,41.38298],[42.772057,41.377172],[42.774299,41.370345],[42.77542,41.361581],[42.775929,41.352206],[42.776031,41.349251],[42.775318,41.34436],[42.772057,41.334476],[42.769917,41.327343],[42.770834,41.315828],[42.774503,41.308695],[42.78133,41.302071],[42.786935,41.297384],[42.793252,41.29341],[42.802322,41.291168],[42.817097,41.290251],[42.839006,41.29341],[42.861628,41.299116],[42.872633,41.303192],[42.885472,41.308695],[42.896172,41.314605],[42.907381,41.321738],[42.917367,41.330094],[42.923583,41.337227],[42.929146,41.341476],[42.933264,41.346194],[42.967986,41.339952],[42.969458,41.339719],[42.977126,41.336621],[42.986962,41.331277],[42.991919,41.328489],[43.006635,41.321131],[43.013606,41.317955],[43.018176,41.315864],[43.019957,41.313075],[43.020654,41.308506],[43.019648,41.302542],[43.016395,41.296888],[43.01562,41.294177],[43.014846,41.287438],[43.01531,41.281165],[43.016937,41.274736],[43.020112,41.266681],[43.022823,41.257851],[43.025766,41.252739],[43.028245,41.248015],[43.032427,41.241276],[43.035835,41.237326],[43.037927,41.232757],[43.042419,41.224934],[43.046214,41.215175],[43.047531,41.208359],[43.047763,41.202008],[43.048383,41.192791],[43.047995,41.182954],[43.048383,41.17668],[43.04877,41.173195],[43.048615,41.169477],[43.048449,41.169212],[43.048228,41.168858],[43.047763,41.168393],[43.046137,41.168393],[43.044742,41.168316],[43.044123,41.167851],[43.044084,41.167735],[43.043968,41.167386],[43.044975,41.166921],[43.046137,41.166612],[43.047143,41.165837],[43.047266,41.165427],[43.046309,41.164128],[43.044107,41.161139],[43.043734,41.161072],[43.038658,41.160195],[43.035836,41.159716],[43.034705,41.159533],[43.033571,41.159363],[43.031903,41.159148],[43.030229,41.158955],[43.024642,41.158339],[43.020848,41.157911],[43.018682,41.157654],[43.017193,41.15746],[43.015708,41.157248],[43.014718,41.157093],[43.013731,41.156927],[43.012253,41.15666],[43.011269,41.156469],[43.010289,41.156269],[43.008828,41.155945],[43.007866,41.155705],[43.007392,41.155574],[43.006924,41.155433],[43.006456,41.155276],[43.005996,41.155106],[43.005546,41.154923],[43.005107,41.154725],[43.004649,41.154496],[43.004202,41.154253],[43.00203,41.152992],[43.001157,41.152502],[43.00074,41.152278],[43.000715,41.152265],[43.000705,41.15226],[43.000266,41.152036],[42.999809,41.151817],[42.999358,41.151619],[42.998899,41.151435],[42.998431,41.151264],[42.997955,41.151109],[42.997436,41.150962],[42.996909,41.150831],[42.996376,41.150714],[42.995839,41.150609],[42.995298,41.150515],[42.994755,41.150435],[42.99421,41.150369],[42.993664,41.150322],[42.993116,41.150299],[42.992551,41.150305],[42.991985,41.150336],[42.991418,41.150384],[42.990851,41.150445],[42.989714,41.15059],[42.988576,41.150752],[42.986868,41.151008],[42.985733,41.151188],[42.984609,41.151386],[42.984055,41.151497],[42.98351,41.151622],[42.982979,41.151765],[42.982465,41.151933],[42.981988,41.152127],[42.981531,41.152346],[42.981093,41.152583],[42.980676,41.152835],[42.980281,41.153099],[42.979913,41.153372],[42.97958,41.153655],[42.979292,41.153947],[42.979063,41.154249],[42.978911,41.154563],[42.978853,41.154844],[42.978842,41.155133],[42.978865,41.155727],[42.978853,41.156029],[42.978784,41.15638],[42.978655,41.156726],[42.978468,41.157059],[42.978217,41.15737],[42.977921,41.157638],[42.977576,41.157885],[42.977196,41.158114],[42.976788,41.15833],[42.976359,41.158535],[42.975914,41.158729],[42.975457,41.158915],[42.974989,41.159092],[42.97452,41.159256],[42.974044,41.159411],[42.973562,41.159558],[42.973074,41.159694],[42.97253,41.159833],[42.971981,41.159962],[42.970328,41.160331],[42.969219,41.160588],[42.967565,41.160991],[42.964821,41.161686],[42.96012,41.162902],[42.956612,41.16378],[42.954893,41.1673],[42.954255,41.168575],[42.953839,41.169368],[42.953623,41.169761],[42.953222,41.170447],[42.952795,41.171125],[42.95257,41.17146],[42.952321,41.171814],[42.951798,41.172514],[42.951252,41.173205],[42.950971,41.173546],[42.950389,41.174218],[42.950084,41.174548],[42.94974,41.174899],[42.949385,41.175245],[42.94902,41.175584],[42.948645,41.175919],[42.947889,41.176557],[42.94711,41.177182],[42.946319,41.177793],[42.945513,41.178393],[42.944689,41.178976],[42.944265,41.179257],[42.943831,41.179527],[42.943413,41.179768],[42.942984,41.179997],[42.942546,41.180216],[42.9421,41.180424],[42.941647,41.180619],[42.941186,41.1808],[42.940716,41.180962],[42.940235,41.1811],[42.939768,41.181206],[42.939292,41.181288],[42.938809,41.18135],[42.938322,41.181395],[42.937831,41.181421],[42.937338,41.181429],[42.936845,41.181417],[42.936351,41.181388],[42.935859,41.181343],[42.935369,41.181283],[42.934882,41.181209],[42.9344,41.181118],[42.933838,41.180989],[42.933284,41.18084],[42.932736,41.180676],[42.932194,41.180499],[42.931658,41.18031],[42.931285,41.180168],[42.93113,41.180109],[42.931011,41.180061],[42.93061,41.179896],[42.930213,41.179719],[42.930149,41.179691],[42.929956,41.179599],[42.929697,41.179475],[42.929252,41.179252],[42.927473,41.178298],[42.927169,41.178148],[42.927021,41.178075],[42.926903,41.178022],[42.926578,41.177878],[42.926125,41.177706],[42.925662,41.177564],[42.925187,41.17746],[42.924648,41.177398],[42.924095,41.17738],[42.923533,41.177395],[42.922965,41.177432],[42.922392,41.177486],[42.921236,41.177625],[42.920075,41.177783],[42.916001,41.178366],[42.913095,41.178774],[42.907285,41.179571],[42.89973,41.180594],[42.89857,41.180757],[42.897414,41.18093],[42.896265,41.181124],[42.895696,41.181236],[42.895141,41.181357],[42.894591,41.181487],[42.893496,41.181768],[42.890776,41.182518],[42.887521,41.183441],[42.886883,41.183631],[42.880298,41.181447],[42.87387,41.180628],[42.869748,41.179965],[42.855025,41.180333],[42.832572,41.181879],[42.801139,41.183351],[42.788845,41.184382],[42.780748,41.184897],[42.765289,41.187695],[42.755351,41.188946],[42.740922,41.191228],[42.730764,41.194909],[42.720752,41.198884],[42.711109,41.202712],[42.704557,41.203301],[42.696459,41.204626],[42.689834,41.205141],[42.681663,41.206172],[42.675994,41.20757],[42.670768,41.209043],[42.65899,41.213018],[42.652806,41.215005],[42.639114,41.221336],[42.630795,41.226637],[42.618502,41.236722],[42.615263,41.239814],[42.613938,41.241507],[42.61276,41.244451],[42.611435,41.246807],[42.607239,41.249604],[42.597374,41.257702],[42.59336,41.260868],[42.59427,41.261897],[42.595586,41.263382],[42.598804,41.26701],[42.601043,41.269533],[42.605309,41.27757],[42.608187,41.284119],[42.611957,41.292255],[42.615033,41.299001],[42.615727,41.302474],[42.616323,41.306443],[42.615727,41.309519],[42.612354,41.314182],[42.606897,41.318052],[42.60144,41.322318],[42.59509,41.32837],[42.587847,41.335911],[42.572865,41.349206],[42.567308,41.354763],[42.554211,41.365578],[42.550719,41.368633],[42.549449,41.369745],[42.549387,41.369894],[42.548963,41.370916],[42.555799,41.373614],[42.556755,41.373848],[42.560661,41.374805],[42.567209,41.376492],[42.57217,41.376789],[42.579413,41.37669],[42.587946,41.376392],[42.596777,41.374606],[42.604119,41.372821],[42.611659,41.371531],[42.614636,41.371325],[42.620446,41.371611],[42.627182,41.37186],[42.631548,41.372235],[42.632702,41.372587],[42.637473,41.374043],[42.642088,41.375977],[42.645331,41.37816],[42.647452,41.380093],[42.649479,41.381219],[42.650258,41.381652],[42.653751,41.381715],[42.654705,41.381625],[42.657056,41.381403],[42.661422,41.381278],[42.664728,41.382276],[42.667659,41.383835],[42.668626,41.384802],[42.669593,41.385769],[42.670965,41.386268],[42.672524,41.386143],[42.674083,41.386018],[42.676827,41.385394],[42.68007,41.385207],[42.680819,41.385329],[42.682378,41.385581],[42.682497,41.385644],[42.684748,41.386829],[42.690174,41.39107],[42.69139,41.392005],[42.694228,41.394188],[42.694574,41.394404],[42.696536,41.395623],[42.69979,41.397857],[42.700715,41.398492],[42.701414,41.398977],[42.703771,41.400612],[42.705803,41.400939],[42.707263,41.401174],[42.709633,41.402047],[42.713126,41.405415],[42.715995,41.409157],[42.721047,41.413959],[42.724029,41.416715],[42.726785,41.419261],[42.729742,41.421898],[42.7314,41.423377],[42.732906,41.424419],[42.735454,41.426183],[42.740319,41.428179],[42.743562,41.428616],[42.744289,41.428595],[42.745745,41.428553],[42.747553,41.427431],[42.749611,41.424811],[42.751545,41.423564],[42.754663,41.423127],[42.758097,41.423282]]]}},{"type":"Feature","properties":{"id":"TR-D-75-006","parent_id":"TR-P-75","region_id":"TR-R-DOA","level":"district","municipality_type":null,"municipality_type_label":null,"is_metropolitan_municipality":null,"name":"Posof","name_ascii":"posof","slug":"posof-ardahan"},"geometry":{"type":"Polygon","coordinates":[[[42.5243,41.443921],[42.524368,41.44437],[42.523877,41.444862],[42.523667,41.444985],[42.521585,41.446204],[42.520635,41.447415],[42.520144,41.448529],[42.520635,41.450067],[42.521323,41.451705],[42.521336,41.451904],[42.521421,41.453211],[42.521126,41.453571],[42.520461,41.453933],[42.518114,41.455208],[42.517197,41.456321],[42.516346,41.457172],[42.516346,41.45786],[42.516804,41.458286],[42.517483,41.458766],[42.51759,41.458842],[42.518474,41.459432],[42.517427,41.459857],[42.516313,41.460643],[42.516037,41.460919],[42.515921,41.461036],[42.515916,41.461093],[42.515822,41.462182],[42.515724,41.46264],[42.513727,41.465718],[42.512908,41.467552],[42.512483,41.469942],[42.512712,41.471579],[42.513072,41.472365],[42.514447,41.474002],[42.516674,41.475344],[42.517721,41.476064],[42.519948,41.476686],[42.520602,41.476981],[42.521052,41.477386],[42.521257,41.47757],[42.522195,41.477761],[42.523353,41.477996],[42.524499,41.478389],[42.525547,41.478978],[42.526169,41.479469],[42.526197,41.479564],[42.526267,41.479797],[42.524466,41.482842],[42.523582,41.486935],[42.526496,41.48831],[42.527904,41.488932],[42.529607,41.488833],[42.530589,41.488997],[42.532249,41.490257],[42.533044,41.49106],[42.534816,41.491121],[42.534943,41.491126],[42.537006,41.491224],[42.539429,41.491748],[42.541078,41.492189],[42.541754,41.49237],[42.543022,41.492603],[42.543358,41.492664],[42.544373,41.492632],[42.545061,41.492828],[42.545879,41.493581],[42.546001,41.49376],[42.547418,41.49584],[42.548531,41.497281],[42.549219,41.498099],[42.549677,41.498689],[42.550594,41.498754],[42.551609,41.498558],[42.552563,41.498319],[42.553181,41.498165],[42.55413,41.498099],[42.554654,41.498296],[42.555374,41.499016],[42.556357,41.500686],[42.557291,41.50402],[42.557339,41.504189],[42.557601,41.504844],[42.55819,41.505434],[42.55955,41.506188],[42.560908,41.50694],[42.564869,41.507824],[42.566539,41.50802],[42.570042,41.507955],[42.57073,41.508086],[42.570894,41.508315],[42.570861,41.508609],[42.571057,41.509133],[42.571144,41.509278],[42.571549,41.509952],[42.571745,41.511032],[42.571483,41.511687],[42.57073,41.512866],[42.57073,41.513619],[42.570658,41.513871],[42.570599,41.514077],[42.569027,41.515845],[42.568862,41.516007],[42.567456,41.517384],[42.567325,41.517777],[42.567388,41.518064],[42.56762,41.51912],[42.566997,41.520658],[42.565982,41.521935],[42.565071,41.523277],[42.564804,41.523671],[42.564607,41.524751],[42.564836,41.526486],[42.565014,41.526513],[42.565917,41.52665],[42.56762,41.528353],[42.568274,41.529924],[42.568253,41.530721],[42.568242,41.531136],[42.568634,41.53202],[42.569944,41.533264],[42.571783,41.533938],[42.571909,41.533984],[42.573939,41.535098],[42.575117,41.535818],[42.575183,41.536997],[42.575397,41.537424],[42.575739,41.53811],[42.576034,41.53883],[42.577399,41.539773],[42.577409,41.53978],[42.577431,41.539811],[42.577999,41.540631],[42.578486,41.541108],[42.579505,41.542104],[42.580258,41.542661],[42.580716,41.543119],[42.580815,41.543807],[42.580356,41.544396],[42.5798,41.545608],[42.57952,41.546042],[42.57921,41.546524],[42.578959,41.54749],[42.578555,41.549046],[42.576689,41.554808],[42.576296,41.555528],[42.575838,41.555823],[42.575691,41.555931],[42.575347,41.556183],[42.573775,41.557657],[42.573808,41.558148],[42.574959,41.5599],[42.575314,41.56044],[42.576439,41.563041],[42.576263,41.564827],[42.576328,41.565136],[42.576427,41.565613],[42.576939,41.565912],[42.580356,41.567905],[42.582607,41.569181],[42.58805,41.571932],[42.59103,41.573798],[42.591647,41.57458],[42.593846,41.577367],[42.595155,41.579528],[42.597535,41.581703],[42.597579,41.581743],[42.60111,41.585104],[42.610944,41.58666],[42.612484,41.586903],[42.615369,41.587481],[42.618865,41.587481],[42.61887,41.587481],[42.627863,41.588363],[42.628155,41.588389],[42.631733,41.588703],[42.634925,41.589246],[42.635823,41.589506],[42.637267,41.589925],[42.639848,41.590231],[42.640696,41.590231],[42.643446,41.590876],[42.644072,41.590714],[42.646739,41.590027],[42.647622,41.589755],[42.649489,41.590027],[42.65156,41.590638],[42.654412,41.591283],[42.658113,41.592573],[42.659471,41.592913],[42.660659,41.592913],[42.662187,41.593524],[42.666634,41.594305],[42.668298,41.594678],[42.671727,41.595934],[42.679196,41.598718],[42.682999,41.599771],[42.684323,41.599974],[42.68507,41.599838],[42.686563,41.599227],[42.687786,41.59899],[42.688634,41.599261],[42.689449,41.599635],[42.690536,41.599872],[42.691724,41.599838],[42.692412,41.599659],[42.693286,41.59994],[42.694813,41.600076],[42.695458,41.60045],[42.695811,41.600497],[42.696477,41.600585],[42.696884,41.600585],[42.697258,41.600755],[42.698446,41.600925],[42.699838,41.60028],[42.700687,41.600178],[42.701057,41.599913],[42.701182,41.599824],[42.701366,41.599827],[42.701909,41.599838],[42.702656,41.599533],[42.703614,41.599116],[42.703732,41.599064],[42.704637,41.59867],[42.704827,41.598674],[42.70527,41.598684],[42.705902,41.598233],[42.705983,41.598175],[42.706059,41.598166],[42.706832,41.598073],[42.708937,41.596919],[42.709134,41.596771],[42.709322,41.59663],[42.709657,41.596559],[42.710532,41.596376],[42.710818,41.596131],[42.711245,41.595764],[42.712122,41.595703],[42.712705,41.595663],[42.713515,41.595325],[42.713927,41.595153],[42.71427,41.595179],[42.715727,41.595289],[42.717594,41.595459],[42.719529,41.595696],[42.719903,41.595866],[42.720751,41.595731],[42.721365,41.595501],[42.721566,41.595425],[42.722313,41.595425],[42.722517,41.595629],[42.724147,41.595663],[42.724648,41.595928],[42.724724,41.595968],[42.724805,41.595949],[42.725301,41.595832],[42.726039,41.596106],[42.726489,41.596274],[42.727071,41.596225],[42.727711,41.596172],[42.728934,41.596172],[42.729918,41.59607],[42.730699,41.596104],[42.731876,41.596537],[42.7344,41.596613],[42.735421,41.596748],[42.736708,41.596919],[42.738474,41.596783],[42.740239,41.596341],[42.741563,41.595595],[42.741591,41.595551],[42.741937,41.595017],[42.742378,41.594678],[42.742514,41.594169],[42.742887,41.593897],[42.743329,41.593863],[42.743702,41.593625],[42.743872,41.593422],[42.743872,41.593048],[42.743736,41.592675],[42.743974,41.5922],[42.744788,41.591826],[42.745588,41.591329],[42.746045,41.591045],[42.746486,41.590638],[42.746622,41.590129],[42.747165,41.589517],[42.74715,41.589294],[42.747131,41.589008],[42.747301,41.588635],[42.747708,41.588227],[42.748591,41.588024],[42.7491,41.587277],[42.74927,41.586835],[42.749304,41.585409],[42.749677,41.584629],[42.750424,41.584595],[42.75314,41.585172],[42.753548,41.585477],[42.753574,41.585539],[42.753717,41.585885],[42.754464,41.585681],[42.755177,41.585308],[42.75589,41.585613],[42.756434,41.585783],[42.756605,41.585892],[42.758131,41.585851],[42.758637,41.585959],[42.759116,41.586156],[42.759434,41.586153],[42.759661,41.586111],[42.759787,41.585892],[42.76024,41.585817],[42.761104,41.586027],[42.761288,41.585749],[42.761918,41.585573],[42.762229,41.585758],[42.762612,41.586224],[42.762748,41.586564],[42.762986,41.586666],[42.763869,41.586258],[42.764683,41.585919],[42.765159,41.585885],[42.765804,41.585443],[42.766358,41.585617],[42.767666,41.585403],[42.768889,41.585124],[42.769446,41.584909],[42.770025,41.584781],[42.770562,41.584523],[42.770798,41.584266],[42.770926,41.58388],[42.771162,41.583472],[42.771591,41.583108],[42.77187,41.582936],[42.772085,41.582571],[42.772256,41.581992],[42.772793,41.58152],[42.772793,41.581501],[42.772793,41.581241],[42.773565,41.580448],[42.774144,41.57959],[42.774659,41.579161],[42.774744,41.578753],[42.775109,41.578432],[42.775624,41.578281],[42.776804,41.578063],[42.777179,41.578141],[42.777741,41.578188],[42.777991,41.578203],[42.7786,41.578047],[42.779193,41.577797],[42.77974,41.577625],[42.780318,41.577532],[42.78077,41.577407],[42.781145,41.577094],[42.78152,41.577173],[42.781551,41.57761],[42.78177,41.57825],[42.78202,41.579484],[42.782067,41.580358],[42.782301,41.581217],[42.782381,41.581868],[42.782457,41.582482],[42.783863,41.584185],[42.784487,41.584513],[42.785081,41.584611],[42.785331,41.584653],[42.785862,41.584887],[42.786174,41.585137],[42.786249,41.585219],[42.786361,41.58534],[42.786267,41.58573],[42.786189,41.585949],[42.786283,41.586137],[42.787751,41.586105],[42.788373,41.586034],[42.788844,41.58598],[42.789891,41.586121],[42.791327,41.586433],[42.792967,41.586215],[42.792889,41.58712],[42.792967,41.587339],[42.792931,41.587531],[42.792873,41.587839],[42.792873,41.588042],[42.79317,41.588135],[42.794224,41.587917],[42.794825,41.587792],[42.795653,41.587823],[42.796543,41.587979],[42.797964,41.587917],[42.798886,41.587901],[42.800245,41.587933],[42.803024,41.587886],[42.808537,41.588073],[42.813753,41.587886],[42.817517,41.587573],[42.818375,41.587573],[42.822514,41.587417],[42.825044,41.587214],[42.827169,41.587493],[42.828576,41.587678],[42.830053,41.587546],[42.831266,41.586649],[42.831494,41.586459],[42.833032,41.585173],[42.833797,41.584856],[42.83525,41.584654],[42.836065,41.58454],[42.835664,41.583678],[42.835379,41.583063],[42.834905,41.581534],[42.834061,41.580848],[42.833823,41.580506],[42.833586,41.580057],[42.833692,41.579741],[42.833929,41.579451],[42.834034,41.579003],[42.833955,41.578686],[42.833692,41.578317],[42.833507,41.577895],[42.833704,41.57725],[42.833375,41.576287],[42.833612,41.575654],[42.833586,41.574968],[42.834377,41.574467],[42.834667,41.574098],[42.834588,41.573623],[42.83443,41.572964],[42.834456,41.572041],[42.834456,41.571224],[42.834166,41.570037],[42.833955,41.569563],[42.833982,41.56914],[42.834098,41.568921],[42.834192,41.568745],[42.834087,41.568402],[42.833946,41.568238],[42.833771,41.568033],[42.833659,41.567256],[42.833586,41.566741],[42.833359,41.566417],[42.833032,41.56595],[42.832241,41.565423],[42.83145,41.564922],[42.831107,41.564368],[42.830448,41.562997],[42.830211,41.562126],[42.830158,41.561836],[42.830316,41.561414],[42.830448,41.560492],[42.830316,41.5597],[42.830252,41.559567],[42.83,41.559041],[42.829499,41.558039],[42.828998,41.557486],[42.828576,41.557116],[42.827917,41.557063],[42.827539,41.557217],[42.827073,41.557406],[42.825833,41.556668],[42.825121,41.55651],[42.823856,41.555903],[42.823223,41.555982],[42.822379,41.556352],[42.821957,41.556431],[42.821166,41.556193],[42.820797,41.555824],[42.820138,41.554664],[42.820032,41.554216],[42.81998,41.553556],[42.819531,41.553266],[42.819083,41.553082],[42.818793,41.552555],[42.818872,41.552159],[42.819083,41.551869],[42.818891,41.547758],[42.818846,41.54678],[42.819162,41.545356],[42.819505,41.544881],[42.819452,41.54438],[42.818687,41.543378],[42.818493,41.542655],[42.817782,41.541492],[42.817264,41.540608],[42.817221,41.540263],[42.817351,41.539811],[42.817286,41.539078],[42.816876,41.538776],[42.81595,41.538755],[42.815519,41.538518],[42.815303,41.53785],[42.814609,41.537296],[42.813687,41.536772],[42.81351,41.536479],[42.813321,41.535673],[42.812868,41.535285],[42.812286,41.535135],[42.811614,41.53507],[42.811209,41.534919],[42.810218,41.534165],[42.809528,41.533561],[42.808615,41.532841],[42.808385,41.532671],[42.808053,41.532424],[42.807502,41.531773],[42.806909,41.531574],[42.806209,41.530932],[42.805862,41.530064],[42.805778,41.529855],[42.805972,41.52895],[42.805153,41.527894],[42.804679,41.526838],[42.804227,41.526083],[42.803839,41.525027],[42.802567,41.523907],[42.801727,41.523196],[42.801166,41.522334],[42.800735,41.52186],[42.800175,41.521342],[42.799679,41.520653],[42.799442,41.519769],[42.799184,41.518994],[42.798753,41.518326],[42.798149,41.517895],[42.797805,41.517399],[42.797611,41.517011],[42.797524,41.516407],[42.797805,41.515847],[42.797805,41.515459],[42.798365,41.515028],[42.798667,41.514274],[42.799011,41.513994],[42.799399,41.513649],[42.799572,41.513283],[42.79996,41.513197],[42.80011,41.513089],[42.800154,41.512485],[42.800541,41.512205],[42.800843,41.512313],[42.801317,41.512033],[42.801748,41.511322],[42.802718,41.510223],[42.803558,41.509942],[42.804183,41.509123],[42.804981,41.507744],[42.804928,41.507355],[42.804587,41.507147],[42.804502,41.506953],[42.804502,41.506502],[42.804258,41.50627],[42.804344,41.506063],[42.804344,41.505856],[42.803674,41.505357],[42.803649,41.505089],[42.803515,41.504614],[42.802882,41.504151],[42.802346,41.503664],[42.801883,41.503286],[42.801683,41.502962],[42.801576,41.502788],[42.801639,41.502336],[42.801396,41.501849],[42.801481,41.501618],[42.801554,41.501423],[42.801311,41.500485],[42.801774,41.499535],[42.801907,41.499364],[42.801822,41.499133],[42.801323,41.49884],[42.801043,41.498511],[42.800994,41.49828],[42.800982,41.49811],[42.80097,41.497756],[42.800787,41.497513],[42.800733,41.497159],[42.801238,41.496599],[42.801542,41.495856],[42.801822,41.495503],[42.802248,41.495271],[42.803016,41.495308],[42.803174,41.495174],[42.803345,41.494918],[42.803418,41.494395],[42.803601,41.4942],[42.80421,41.494212],[42.80438,41.494285],[42.804928,41.49409],[42.805386,41.49378],[42.805696,41.493664],[42.805854,41.49342],[42.806767,41.493785],[42.807568,41.493755],[42.808043,41.49395],[42.808059,41.493957],[42.808702,41.493931],[42.809369,41.493329],[42.809497,41.493212],[42.80985,41.492935],[42.81019,41.492746],[42.810572,41.492688],[42.811032,41.492463],[42.811918,41.491952],[42.812712,41.491523],[42.813343,41.491119],[42.813822,41.490854],[42.814112,41.490779],[42.81473,41.490892],[42.815121,41.49088],[42.815575,41.490615],[42.815915,41.490401],[42.816218,41.490287],[42.816484,41.490313],[42.816874,41.49035],[42.817504,41.490262],[42.818551,41.489657],[42.818806,41.489349],[42.819302,41.489166],[42.819962,41.489166],[42.820445,41.488711],[42.820808,41.488196],[42.820861,41.48812],[42.82098,41.488089],[42.82143,41.487973],[42.821748,41.487562],[42.82187,41.487405],[42.821984,41.487391],[42.822457,41.487331],[42.822842,41.48713],[42.823117,41.486616],[42.824061,41.485517],[42.825007,41.484415],[42.825046,41.484378],[42.826142,41.483352],[42.827043,41.48225],[42.827557,41.481938],[42.828016,41.481553],[42.828673,41.480643],[42.829061,41.480103],[42.829575,41.479626],[42.830602,41.479094],[42.832162,41.478434],[42.834161,41.478122],[42.835427,41.478104],[42.837115,41.477627],[42.837881,41.477526],[42.838417,41.477315],[42.838784,41.476985],[42.839096,41.476361],[42.839335,41.476177],[42.839481,41.475865],[42.839775,41.475572],[42.840362,41.475609],[42.840821,41.475572],[42.842185,41.475173],[42.842976,41.475042],[42.843756,41.474545],[42.844416,41.474434],[42.844985,41.474214],[42.845645,41.473774],[42.846251,41.473499],[42.846985,41.473407],[42.847718,41.473737],[42.849113,41.473903],[42.849902,41.473627],[42.85014,41.47337],[42.850782,41.473242],[42.851204,41.473279],[42.852286,41.473939],[42.85302,41.47449],[42.854249,41.475132],[42.855845,41.476232],[42.857056,41.477003],[42.857533,41.477223],[42.857845,41.477994],[42.85918,41.479833],[42.859698,41.480011],[42.860065,41.480488],[42.860519,41.481031],[42.860725,41.481277],[42.861202,41.482818],[42.861411,41.484297],[42.86181,41.486137],[42.862473,41.488243],[42.862496,41.48952],[42.862615,41.490253],[42.862547,41.491457],[42.862544,41.491507],[42.862851,41.492927],[42.863971,41.49417],[42.86422,41.494263],[42.865264,41.494654],[42.865596,41.495009],[42.865738,41.495482],[42.866282,41.49631],[42.86651,41.496544],[42.867111,41.497159],[42.867589,41.497421],[42.869405,41.498416],[42.873355,41.50019],[42.885799,41.50292],[42.890057,41.503854],[42.893406,41.502294],[42.90016,41.499149],[42.899568,41.498415],[42.899403,41.497871],[42.899592,41.497091],[42.899757,41.496586],[42.89997,41.495931],[42.899947,41.495434],[42.899663,41.494346],[42.899474,41.493944],[42.899497,41.49269],[42.899379,41.491602],[42.899024,41.490514],[42.898758,41.489625],[42.898621,41.488696],[42.89848,41.488313],[42.897936,41.488006],[42.896942,41.487698],[42.897959,41.484197],[42.897912,41.483463],[42.898527,41.481902],[42.89904,41.479983],[42.899071,41.479868],[42.899095,41.479181],[42.899261,41.478968],[42.900018,41.478614],[42.901577,41.478325],[42.901934,41.478259],[42.902835,41.477924],[42.903779,41.477573],[42.905104,41.477218],[42.905648,41.477147],[42.906118,41.477316],[42.9065,41.477454],[42.906796,41.477215],[42.906997,41.477052],[42.908059,41.477021],[42.908249,41.477016],[42.908358,41.476974],[42.910262,41.476248],[42.910853,41.475988],[42.911728,41.476248],[42.912192,41.476303],[42.91232,41.476319],[42.913905,41.476177],[42.914955,41.475703],[42.915112,41.475633],[42.917217,41.474876],[42.919701,41.474237],[42.922469,41.473669],[42.923214,41.473581],[42.923273,41.473574],[42.924196,41.473456],[42.925284,41.473101],[42.926136,41.472628],[42.926226,41.472533],[42.926846,41.471871],[42.927461,41.471303],[42.928289,41.471114],[42.929848,41.47077],[42.930324,41.470665],[42.930844,41.470286],[42.931672,41.469363],[42.931735,41.46911],[42.931743,41.469079],[42.931475,41.468684],[42.931067,41.468081],[42.929969,41.467376],[42.929708,41.466713],[42.929732,41.466264],[42.929945,41.465767],[42.930584,41.465318],[42.931601,41.46449],[42.932737,41.464371],[42.935605,41.464614],[42.935812,41.464632],[42.936826,41.463381],[42.937232,41.462881],[42.937571,41.462668],[42.938438,41.462124],[42.939716,41.460941],[42.940341,41.460283],[42.94078,41.459924],[42.941096,41.459409],[42.94123,41.45919],[42.941869,41.458528],[42.943288,41.457558],[42.944556,41.45696],[42.947002,41.456399],[42.947014,41.456399],[42.948162,41.456422],[42.950173,41.455878],[42.951355,41.455287],[42.952112,41.454821],[42.952893,41.45434],[42.954999,41.453394],[42.956111,41.452921],[42.957483,41.452424],[42.959565,41.451974],[42.960322,41.45214],[42.965477,41.451683],[42.966189,41.45162],[42.967395,41.451217],[42.968318,41.450673],[42.968981,41.448426],[42.969619,41.447361],[42.970944,41.445398],[42.971015,41.444546],[42.970897,41.443623],[42.971181,41.442227],[42.971346,41.441636],[42.971204,41.441115],[42.970755,41.440666],[42.969832,41.440146],[42.969406,41.439672],[42.969051,41.439081],[42.968575,41.438453],[42.968082,41.437803],[42.968028,41.437384],[42.96794,41.436691],[42.96794,41.435674],[42.968176,41.43461],[42.968838,41.433923],[42.970755,41.432031],[42.971394,41.430871],[42.972435,41.43028],[42.972908,41.43002],[42.974256,41.429452],[42.976243,41.428719],[42.977513,41.428065],[42.977805,41.427914],[42.979532,41.427063],[42.981046,41.425643],[42.982844,41.424578],[42.985139,41.422236],[42.988285,41.420628],[42.988404,41.420344],[42.988522,41.418806],[42.989711,41.416731],[42.989918,41.416369],[42.990296,41.415801],[42.988825,41.415364],[42.988546,41.415281],[42.988072,41.414855],[42.987528,41.413696],[42.987505,41.413033],[42.987836,41.412016],[42.988617,41.411354],[42.990568,41.410917],[42.990627,41.410904],[42.993466,41.409958],[42.996826,41.408799],[42.99808,41.408538],[42.998587,41.408181],[42.999357,41.407639],[43.000342,41.407485],[43.003592,41.406977],[43.003781,41.406267],[43.003734,41.405368],[43.003553,41.40488],[43.003497,41.404729],[43.003899,41.404304],[43.004373,41.403783],[43.004751,41.402151],[43.005153,41.401417],[43.005673,41.399415],[42.997232,41.396457],[42.996425,41.396347],[42.990507,41.395539],[42.983934,41.395692],[42.976903,41.397221],[42.965592,41.399666],[42.943581,41.406927],[42.939454,41.407538],[42.937391,41.407844],[42.937171,41.407853],[42.931965,41.408073],[42.91538,41.408608],[42.90598,41.408608],[42.898414,41.407691],[42.890466,41.407385],[42.883664,41.40708],[42.87969,41.40708],[42.869066,41.40708],[42.861653,41.407844],[42.855081,41.409525],[42.850419,41.410748],[42.842165,41.411283],[42.826039,41.412659],[42.814499,41.414646],[42.808308,41.415257],[42.797609,41.41648],[42.794093,41.416633],[42.789125,41.41755],[42.784616,41.419231],[42.781407,41.420531],[42.776439,41.423511],[42.774528,41.423893],[42.773806,41.423851],[42.768032,41.423511],[42.758097,41.423282],[42.754663,41.423127],[42.751545,41.423564],[42.749611,41.424811],[42.747553,41.427431],[42.745745,41.428553],[42.744289,41.428595],[42.743562,41.428616],[42.740319,41.428179],[42.735454,41.426183],[42.732906,41.424419],[42.7314,41.423377],[42.729742,41.421898],[42.726785,41.419261],[42.724029,41.416715],[42.721047,41.413959],[42.715995,41.409157],[42.713126,41.405415],[42.709633,41.402047],[42.707263,41.401174],[42.705803,41.400939],[42.703771,41.400612],[42.701414,41.398977],[42.700715,41.398492],[42.69979,41.397857],[42.696536,41.395623],[42.694574,41.394404],[42.694228,41.394188],[42.69139,41.392005],[42.690174,41.39107],[42.684748,41.386829],[42.682497,41.385644],[42.682378,41.385581],[42.680819,41.385329],[42.68007,41.385207],[42.676827,41.385394],[42.674083,41.386018],[42.672524,41.386143],[42.670965,41.386268],[42.669593,41.385769],[42.668626,41.384802],[42.667659,41.383835],[42.664728,41.382276],[42.661422,41.381278],[42.657056,41.381403],[42.654705,41.381625],[42.653751,41.381715],[42.650258,41.381652],[42.649479,41.381219],[42.647452,41.380093],[42.645331,41.37816],[42.642088,41.375977],[42.637473,41.374043],[42.632702,41.372587],[42.631548,41.372235],[42.627182,41.37186],[42.620446,41.371611],[42.614636,41.371325],[42.611659,41.371531],[42.604119,41.372821],[42.596777,41.374606],[42.587946,41.376392],[42.579413,41.37669],[42.57217,41.376789],[42.567209,41.376492],[42.560661,41.374805],[42.556755,41.373848],[42.555799,41.373614],[42.548963,41.370916],[42.547762,41.373813],[42.545579,41.379865],[42.543793,41.388001],[42.542702,41.393954],[42.542801,41.398121],[42.543198,41.402785],[42.544091,41.410028],[42.545479,41.416017],[42.545461,41.416145],[42.545105,41.418637],[42.544356,41.423626],[42.543421,41.428553],[42.542423,41.431797],[42.541176,41.434104],[42.538681,41.435788],[42.535491,41.437899],[42.532881,41.439655],[42.530822,41.440965],[42.526082,41.443397],[42.5243,41.443921]]]}}]}