{"type":"FeatureCollection","province":"Artvin","province_id":"TR-P-08","features":[{"type":"Feature","properties":{"id":"TR-D-08-001","parent_id":"TR-P-08","region_id":"TR-R-KAR","level":"district","municipality_type":null,"municipality_type_label":null,"is_metropolitan_municipality":null,"name":"Ardanuç","name_ascii":"ardanuc","slug":"ardanuc-artvin"},"geometry":{"type":"Polygon","coordinates":[[[42.153017,41.257535],[42.154527,41.257768],[42.154653,41.257788],[42.156268,41.258068],[42.156414,41.25809],[42.156808,41.258152],[42.157788,41.258285],[42.158771,41.258388],[42.159264,41.258425],[42.159516,41.258436],[42.159756,41.258448],[42.160251,41.258455],[42.160745,41.258447],[42.161239,41.258425],[42.161731,41.258391],[42.162222,41.258344],[42.16271,41.258283],[42.163205,41.258205],[42.164188,41.258017],[42.166145,41.257596],[42.167124,41.2574],[42.168109,41.257228],[42.168605,41.257155],[42.169097,41.257095],[42.169591,41.257045],[42.170086,41.257005],[42.171081,41.256949],[42.171579,41.256934],[42.172116,41.256929],[42.172473,41.256933],[42.172652,41.256934],[42.173188,41.256949],[42.173213,41.25695],[42.173724,41.256972],[42.173973,41.256988],[42.174258,41.257005],[42.174445,41.257021],[42.17479,41.25705],[42.175319,41.257108],[42.17588,41.257187],[42.176439,41.257281],[42.176995,41.257386],[42.178103,41.257615],[42.17851,41.257705],[42.1786,41.257725],[42.182902,41.255447],[42.18524,41.251218],[42.185932,41.250967],[42.186883,41.250491],[42.187502,41.249007],[42.189017,41.247155],[42.189704,41.24664],[42.190821,41.245437],[42.190914,41.245358],[42.191939,41.244491],[42.193142,41.24389],[42.194431,41.243288],[42.195118,41.241569],[42.195032,41.239679],[42.195032,41.238304],[42.194946,41.23753],[42.19529,41.236757],[42.19529,41.235811],[42.194431,41.235382],[42.193743,41.23478],[42.193657,41.234522],[42.193571,41.234265],[42.194001,41.233491],[42.194259,41.23203],[42.194517,41.230655],[42.19486,41.229452],[42.195634,41.228421],[42.195634,41.227304],[42.196235,41.226272],[42.197095,41.225843],[42.198728,41.225499],[42.200361,41.225241],[42.202853,41.224811],[42.203626,41.22421],[42.204829,41.223866],[42.205947,41.223982],[42.207322,41.224124],[42.207747,41.223958],[42.208868,41.223522],[42.210157,41.222749],[42.210673,41.221718],[42.210931,41.220858],[42.211557,41.22058],[42.211704,41.220514],[42.212245,41.220196],[42.213165,41.219655],[42.214454,41.218882],[42.2154,41.218624],[42.216517,41.218538],[42.217033,41.218194],[42.21729,41.217077],[42.216861,41.216304],[42.216824,41.215996],[42.216689,41.214843],[42.217033,41.213811],[42.217147,41.212895],[42.217204,41.212436],[42.217226,41.212221],[42.217462,41.209858],[42.217978,41.208655],[42.218923,41.20728],[42.22004,41.205733],[42.222275,41.204702],[42.22365,41.203499],[42.224939,41.202296],[42.225029,41.202283],[42.225357,41.202239],[42.226006,41.201463],[42.227429,41.199761],[42.231808,41.194907],[42.234649,41.190896],[42.236662,41.188054],[42.238247,41.185547],[42.240754,41.181582],[42.243229,41.178917],[42.243476,41.17869],[42.246846,41.175586],[42.249891,41.172826],[42.253032,41.169018],[42.257982,41.160833],[42.262836,41.154075],[42.26493,41.150459],[42.268261,41.1457],[42.275875,41.138466],[42.281967,41.132184],[42.285774,41.126378],[42.295767,41.112578],[42.302001,41.107247],[42.302335,41.106962],[42.307189,41.104392],[42.311662,41.102774],[42.317754,41.100871],[42.325178,41.10068],[42.330127,41.101537],[42.33717,41.103631],[42.345736,41.105059],[42.350224,41.105301],[42.352779,41.105439],[42.360675,41.105253],[42.36087,41.105249],[42.364772,41.104012],[42.372101,41.101061],[42.379715,41.096778],[42.387044,41.092876],[42.390992,41.090373],[42.3905,41.089649],[42.38792,41.083993],[42.382066,41.072186],[42.378395,41.065539],[42.373831,41.056311],[42.372045,41.049068],[42.372045,41.044504],[42.371648,41.040436],[42.372938,41.032796],[42.375617,41.025256],[42.381173,41.017417],[42.383554,41.010274],[42.385241,41.002237],[42.384844,40.99678],[42.383852,40.989636],[42.382562,40.980905],[42.381372,40.976142],[42.379288,40.970189],[42.375815,40.962748],[42.371648,40.954314],[42.36758,40.945979],[42.363413,40.940026],[42.35875,40.934371],[42.354384,40.929906],[42.348133,40.925342],[42.341585,40.921075],[42.335568,40.922985],[42.324432,40.926031],[42.318816,40.927268],[42.309108,40.927744],[42.298163,40.9286],[42.295117,40.928696],[42.282553,40.929933],[42.266468,40.932408],[42.247337,40.938118],[42.239057,40.943258],[42.234393,40.946018],[42.218022,40.953823],[42.206411,40.958582],[42.201747,40.9602],[42.191658,40.962389],[42.17919,40.963721],[42.165865,40.963531],[42.154729,40.962674],[42.14997,40.961913],[42.144164,40.960485],[42.139595,40.960009],[42.136454,40.960104],[42.13398,40.960676],[42.129887,40.962674],[42.12627,40.964387],[42.120465,40.96591],[42.117038,40.966005],[42.108472,40.966291],[42.103428,40.966481],[42.09667,40.966577],[42.089912,40.965339],[42.08068,40.964387],[42.074684,40.964578],[42.065071,40.96553],[42.054125,40.966386],[42.042989,40.96553],[42.033662,40.964197],[42.025572,40.962674],[42.018053,40.960009],[42.012437,40.959153],[42.004823,40.958582],[41.996447,40.959153],[41.985311,40.960295],[41.978078,40.960009],[41.970052,40.958216],[41.964636,40.965464],[41.962841,40.969485],[41.962626,40.97049],[41.962339,40.975301],[41.962051,40.978173],[41.960902,40.982194],[41.959754,40.985568],[41.959107,40.987651],[41.958102,40.988871],[41.955158,40.991097],[41.95322,40.992533],[41.949917,40.993826],[41.946829,40.996554],[41.943383,41.000072],[41.942234,41.003734],[41.941803,41.009263],[41.941803,41.014864],[41.942162,41.018454],[41.942162,41.020608],[41.941301,41.023121],[41.939936,41.026424],[41.93929,41.028793],[41.938141,41.031091],[41.938285,41.03303],[41.938285,41.036476],[41.939147,41.039061],[41.939793,41.041933],[41.939721,41.044518],[41.938644,41.0466],[41.936562,41.048754],[41.930961,41.054139],[41.92974,41.057442],[41.929022,41.060745],[41.929453,41.063115],[41.930889,41.064407],[41.9329,41.065915],[41.934264,41.067279],[41.935269,41.069361],[41.936418,41.071228],[41.937998,41.072951],[41.939506,41.074531],[41.940798,41.076685],[41.941803,41.07848],[41.943455,41.080634],[41.944675,41.082645],[41.946542,41.084942],[41.947619,41.086953],[41.947906,41.090256],[41.947835,41.093846],[41.946111,41.098369],[41.944029,41.104329],[41.941875,41.107847],[41.939434,41.110073],[41.937567,41.111868],[41.936777,41.11273],[41.936274,41.114381],[41.935915,41.116822],[41.934695,41.120772],[41.933618,41.122997],[41.932828,41.124864],[41.932182,41.127377],[41.931607,41.131542],[41.931622,41.131813],[41.931329,41.136263],[41.932843,41.141677],[41.93481,41.144463],[41.935582,41.144666],[41.936105,41.14482],[41.936618,41.144986],[41.937116,41.145171],[41.937595,41.145379],[41.938044,41.145614],[41.938473,41.145873],[41.938884,41.146152],[41.93928,41.146446],[41.939676,41.146765],[41.940062,41.147093],[41.941939,41.14875],[41.942701,41.149405],[41.944258,41.150711],[41.945043,41.151358],[41.945834,41.151996],[41.946637,41.152616],[41.947047,41.152914],[41.947466,41.153198],[41.947898,41.153465],[41.948346,41.153705],[41.948818,41.153912],[41.949247,41.154056],[41.949693,41.154175],[41.950153,41.154274],[41.950623,41.154361],[41.952544,41.154664],[41.953506,41.15483],[41.953984,41.154924],[41.954457,41.155028],[41.954998,41.155164],[41.955534,41.155313],[41.956065,41.155473],[41.957118,41.155814],[41.958686,41.156351],[41.96441,41.158374],[41.96648,41.159123],[41.967498,41.159516],[41.968003,41.159728],[41.968552,41.159991],[41.969127,41.160304],[41.96971,41.160653],[41.970277,41.161021],[41.970806,41.16139],[41.971276,41.161743],[41.971675,41.162067],[41.971977,41.16233],[41.97223,41.162573],[41.971535,41.165866],[41.971559,41.166315],[41.971629,41.166772],[41.97174,41.167171],[41.971901,41.167593],[41.972093,41.16801],[41.972305,41.168423],[41.972531,41.168834],[41.973008,41.169652],[41.973502,41.170466],[41.976999,41.176159],[41.97841,41.178425],[41.979373,41.179927],[41.979876,41.180669],[41.980137,41.181035],[41.980725,41.181807],[41.981649,41.182947],[41.987027,41.189351],[41.990805,41.193884],[41.991441,41.194635],[41.99209,41.195377],[41.992425,41.195741],[41.99277,41.196098],[41.99313,41.196445],[41.993509,41.196778],[41.993915,41.197095],[41.99434,41.197398],[41.99478,41.197691],[41.995231,41.197977],[41.995689,41.198257],[41.996618,41.198809],[41.998502,41.199892],[41.999455,41.200421],[41.999937,41.200679],[42.000423,41.200931],[42.000916,41.201173],[42.00142,41.201402],[42.001934,41.201614],[42.002459,41.201814],[42.00299,41.202004],[42.004067,41.202366],[42.0057,41.202886],[42.011161,41.204593],[42.01825,41.20683],[42.019893,41.207331],[42.020998,41.207645],[42.022028,41.207908],[42.023068,41.208148],[42.023591,41.20826],[42.024644,41.208463],[42.025193,41.208554],[42.026298,41.208714],[42.026853,41.208785],[42.027967,41.208914],[42.029084,41.209025],[42.029643,41.209071],[42.030219,41.20911],[42.031374,41.209171],[42.034845,41.209304],[42.036568,41.209383],[42.039387,41.209554],[42.040512,41.209633],[42.041629,41.209725],[42.042182,41.209779],[42.042728,41.209843],[42.043266,41.209921],[42.043792,41.210017],[42.0443,41.210138],[42.044786,41.210295],[42.045261,41.210502],[42.045712,41.210746],[42.046145,41.211017],[42.046565,41.211307],[42.046976,41.211612],[42.047773,41.212241],[42.04855,41.212885],[42.049695,41.213868],[42.050437,41.214535],[42.050797,41.214875],[42.051146,41.215222],[42.051487,41.215581],[42.052141,41.216315],[42.053413,41.2178],[42.053739,41.218165],[42.054074,41.218524],[42.054423,41.218873],[42.054792,41.219209],[42.055155,41.219506],[42.055536,41.219792],[42.05593,41.220068],[42.056747,41.220599],[42.057593,41.221108],[42.058463,41.221595],[42.059397,41.222074],[42.060348,41.222535],[42.063234,41.223882],[42.065655,41.224985],[42.067145,41.225632],[42.069672,41.226682],[42.070689,41.227093],[42.071713,41.227494],[42.07275,41.227872],[42.073216,41.228029],[42.074158,41.228324],[42.075111,41.228598],[42.075591,41.228727],[42.076559,41.228968],[42.077535,41.229188],[42.078026,41.229288],[42.078519,41.229381],[42.079009,41.229464],[42.079501,41.229538],[42.079995,41.229603],[42.08049,41.229658],[42.080987,41.229702],[42.081486,41.229732],[42.082065,41.229748],[42.082646,41.229748],[42.08381,41.229718],[42.086131,41.229631],[42.086704,41.229623],[42.087272,41.229628],[42.087832,41.229653],[42.088381,41.229707],[42.088915,41.229799],[42.089428,41.229938],[42.089927,41.230115],[42.090415,41.230321],[42.090895,41.230547],[42.091369,41.230787],[42.091839,41.231038],[42.092771,41.231559],[42.096941,41.233969],[42.098342,41.234755],[42.099291,41.235257],[42.099774,41.235494],[42.100266,41.235718],[42.10077,41.235924],[42.101287,41.236107],[42.101816,41.236272],[42.102355,41.236424],[42.102899,41.236567],[42.103448,41.236702],[42.104555,41.236961],[42.108449,41.237836],[42.109555,41.238101],[42.11065,41.238387],[42.111169,41.238536],[42.112198,41.238852],[42.113729,41.239354],[42.115754,41.24005],[42.116756,41.240414],[42.117251,41.240603],[42.118166,41.240978],[42.118614,41.241176],[42.119055,41.241384],[42.119505,41.241612],[42.119948,41.24185],[42.120811,41.242347],[42.121238,41.242608],[42.122074,41.243146],[42.122482,41.243424],[42.123302,41.24401],[42.123703,41.24431],[42.124494,41.24492],[42.125653,41.245857],[42.127195,41.247157],[42.127973,41.247781],[42.128371,41.248086],[42.128778,41.248384],[42.12959,41.248944],[42.130427,41.249483],[42.131276,41.250002],[42.132571,41.250756],[42.133883,41.251482],[42.135211,41.25218],[42.136106,41.252629],[42.137012,41.253059],[42.137472,41.253265],[42.13793,41.253459],[42.138392,41.253645],[42.138861,41.253823],[42.139335,41.253991],[42.139869,41.254166],[42.140954,41.254488],[42.142051,41.254789],[42.143154,41.255081],[42.148133,41.256368],[42.149241,41.256648],[42.150354,41.256918],[42.150913,41.257046],[42.151976,41.257273],[42.153017,41.257535]]]}},{"type":"Feature","properties":{"id":"TR-D-08-002","parent_id":"TR-P-08","region_id":"TR-R-KAR","level":"district","municipality_type":null,"municipality_type_label":null,"is_metropolitan_municipality":null,"name":"Arhavi","name_ascii":"arhavi","slug":"arhavi-artvin"},"geometry":{"type":"Polygon","coordinates":[[[41.395577,41.087538],[41.39521,41.090542],[41.394771,41.093325],[41.393526,41.097281],[41.392866,41.101896],[41.391914,41.106877],[41.39206,41.110467],[41.392207,41.113909],[41.39228,41.118598],[41.391694,41.12248],[41.390815,41.129],[41.38935,41.132003],[41.386127,41.137937],[41.381585,41.143577],[41.377996,41.147972],[41.374406,41.152441],[41.372135,41.155664],[41.370158,41.157788],[41.36796,41.160352],[41.365836,41.163429],[41.363491,41.167971],[41.360635,41.173098],[41.35851,41.17786],[41.355727,41.182988],[41.354774,41.18687],[41.353163,41.191851],[41.350233,41.196906],[41.348768,41.19969],[41.343493,41.205843],[41.336314,41.212729],[41.32833,41.219175],[41.323788,41.22335],[41.318953,41.228112],[41.316096,41.23346],[41.314412,41.238954],[41.313825,41.243349],[41.313093,41.245839],[41.311628,41.250015],[41.308258,41.255143],[41.304376,41.259245],[41.300567,41.262468],[41.295732,41.266497],[41.291337,41.269134],[41.286868,41.270892],[41.28174,41.274775],[41.276539,41.279023],[41.272584,41.283419],[41.269507,41.290817],[41.26709,41.295212],[41.266284,41.298509],[41.264745,41.305614],[41.263134,41.309277],[41.261083,41.311694],[41.254417,41.320631],[41.250827,41.324148],[41.250058,41.326649],[41.249727,41.327466],[41.253207,41.331488],[41.257871,41.336514],[41.25834,41.33702],[41.258528,41.337222],[41.259283,41.337907],[41.259887,41.338384],[41.260532,41.338837],[41.261725,41.339591],[41.262574,41.34022],[41.266874,41.342139],[41.268415,41.343103],[41.27288,41.345896],[41.281757,41.348873],[41.286098,41.349616],[41.293865,41.351639],[41.296992,41.35133],[41.297356,41.351294],[41.298098,41.351753],[41.301008,41.353552],[41.303769,41.353929],[41.306855,41.35435],[41.313004,41.357691],[41.313285,41.357843],[41.318388,41.360903],[41.324014,41.363214],[41.329969,41.365313],[41.330929,41.365806],[41.33477,41.367779],[41.337353,41.369765],[41.339406,41.365725],[41.342404,41.361014],[41.343403,41.359872],[41.346116,41.358016],[41.34997,41.35516],[41.35354,41.351734],[41.356252,41.347522],[41.357965,41.343953],[41.36025,41.340812],[41.364818,41.337957],[41.366674,41.3371],[41.368031,41.336172],[41.36953,41.334459],[41.371029,41.332674],[41.372813,41.330818],[41.375526,41.328677],[41.377453,41.327892],[41.379452,41.327392],[41.381094,41.327463],[41.382593,41.327963],[41.384021,41.328605],[41.384734,41.329462],[41.385805,41.330533],[41.388089,41.331461],[41.390445,41.33246],[41.392658,41.334816],[41.393158,41.335887],[41.3933,41.337528],[41.392444,41.33967],[41.391801,41.341312],[41.392016,41.342597],[41.392587,41.343382],[41.394585,41.34381],[41.39844,41.344239],[41.403294,41.344881],[41.408862,41.345523],[41.414573,41.346594],[41.417785,41.347023],[41.421997,41.347379],[41.426494,41.347522],[41.43199,41.348165],[41.436416,41.34845],[41.440128,41.347736],[41.443555,41.346523],[41.448409,41.34588],[41.452478,41.345167],[41.454833,41.344167],[41.457046,41.342668],[41.46083,41.341597],[41.465041,41.340812],[41.469824,41.33967],[41.472965,41.3381],[41.481103,41.334459],[41.486028,41.33089],[41.488955,41.327321],[41.492958,41.321658],[41.492575,41.321481],[41.492454,41.321425],[41.491246,41.320539],[41.489598,41.319331],[41.487124,41.317142],[41.486172,41.314668],[41.484935,41.310575],[41.483983,41.305911],[41.482745,41.30001],[41.480842,41.291444],[41.479784,41.288483],[41.478462,41.284782],[41.477853,41.283716],[41.47694,41.282117],[41.47694,41.279737],[41.478367,41.275835],[41.479409,41.27326],[41.479985,41.271837],[41.485585,41.263636],[41.489408,41.258037],[41.489979,41.25718],[41.493881,41.24928],[41.496356,41.243093],[41.497022,41.240524],[41.503399,41.226723],[41.507682,41.218537],[41.512083,41.211248],[41.513774,41.208449],[41.516058,41.198264],[41.516583,41.194193],[41.5172,41.189413],[41.51739,41.185701],[41.517676,41.176754],[41.517677,41.17666],[41.517771,41.166189],[41.517866,41.163429],[41.517295,41.156005],[41.51548,41.149251],[41.514916,41.147154],[41.510461,41.135542],[41.50911,41.13202],[41.508932,41.131709],[41.506445,41.127357],[41.503304,41.122693],[41.499307,41.115935],[41.492739,41.107083],[41.489789,41.102229],[41.478082,41.101373],[41.470943,41.101087],[41.465042,41.100611],[41.458856,41.099089],[41.451622,41.095281],[41.44534,41.092236],[41.439534,41.090522],[41.435061,41.089855],[41.433157,41.089571],[41.430812,41.089156],[41.417548,41.08681],[41.409934,41.086144],[41.395577,41.087538]]]}},{"type":"Feature","properties":{"id":"TR-D-08-003","parent_id":"TR-P-08","region_id":"TR-R-KAR","level":"district","municipality_type":null,"municipality_type_label":null,"is_metropolitan_municipality":null,"name":"Artvin","name_ascii":"artvin","slug":"artvin-artvin"},"geometry":{"type":"Polygon","coordinates":[[[41.970052,40.958216],[41.952094,40.945923],[41.94863,40.947575],[41.94311,40.95005],[41.937494,40.951668],[41.933402,40.951668],[41.929594,40.950145],[41.924455,40.949288],[41.918554,40.949098],[41.914461,40.949384],[41.910178,40.950431],[41.907513,40.951382],[41.902754,40.952049],[41.898471,40.952239],[41.893141,40.952525],[41.887716,40.953191],[41.883528,40.953571],[41.876199,40.954238],[41.874296,40.953857],[41.87106,40.95281],[41.868395,40.950716],[41.865254,40.94748],[41.862303,40.94491],[41.860971,40.94234],[41.858401,40.940342],[41.855831,40.939485],[41.849359,40.940342],[41.844505,40.941769],[41.840793,40.944244],[41.834987,40.947861],[41.829562,40.949764],[41.823756,40.95005],[41.81776,40.949764],[41.811288,40.950811],[41.807671,40.951573],[41.804815,40.953952],[41.802722,40.957855],[41.800532,40.961281],[41.798629,40.965659],[41.797582,40.968705],[41.797296,40.970989],[41.798058,40.97413],[41.801294,40.979079],[41.802817,40.981268],[41.803007,40.983458],[41.802722,40.985266],[41.801484,40.987741],[41.79939,40.992785],[41.798534,40.99545],[41.795964,41.001066],[41.793965,41.004873],[41.789587,41.00868],[41.7834,41.013819],[41.779593,41.01677],[41.772074,41.019625],[41.763698,41.023052],[41.755418,41.026669],[41.750754,41.028001],[41.746661,41.029048],[41.742949,41.03019],[41.740189,41.032474],[41.736668,41.036757],[41.730767,41.042754],[41.725056,41.046275],[41.71649,41.049797],[41.7084,41.05132],[41.69793,41.052176],[41.692695,41.052557],[41.68965,41.052462],[41.683939,41.050749],[41.6768,41.047989],[41.672042,41.047513],[41.662904,41.047227],[41.660715,41.047608],[41.654529,41.049892],[41.651388,41.051225],[41.648152,41.053128],[41.645772,41.054175],[41.643869,41.054746],[41.640633,41.054841],[41.636921,41.053794],[41.63378,41.052747],[41.6314,41.052272],[41.627117,41.052272],[41.624072,41.052747],[41.621502,41.052747],[41.616648,41.052843],[41.613031,41.052557],[41.609414,41.051891],[41.606844,41.051605],[41.603513,41.052081],[41.597898,41.05389],[41.591996,41.055698],[41.587047,41.057602],[41.581908,41.058553],[41.577053,41.058268],[41.570772,41.057982],[41.564871,41.05941],[41.563538,41.060171],[41.562301,41.062456],[41.560397,41.065882],[41.558589,41.069213],[41.557447,41.070736],[41.556114,41.071973],[41.552879,41.074276],[41.554554,41.08168],[41.555276,41.086635],[41.558167,41.095101],[41.559303,41.100779],[41.560851,41.107077],[41.562813,41.109967],[41.565084,41.113477],[41.567355,41.115749],[41.571382,41.117504],[41.574479,41.119775],[41.579022,41.123595],[41.582841,41.126589],[41.586352,41.129789],[41.587281,41.13268],[41.587281,41.135674],[41.58821,41.136913],[41.590791,41.137635],[41.59492,41.138565],[41.59874,41.139804],[41.601837,41.140939],[41.605451,41.142075],[41.607516,41.143727],[41.609374,41.146308],[41.609684,41.149302],[41.610406,41.152915],[41.612161,41.155289],[41.6134,41.1588],[41.613504,41.161174],[41.613194,41.165407],[41.612678,41.168298],[41.614123,41.171911],[41.615672,41.175215],[41.620524,41.180996],[41.624344,41.184506],[41.636526,41.193178],[41.641481,41.198444],[41.645095,41.203502],[41.648398,41.209387],[41.65067,41.213207],[41.654386,41.216923],[41.658,41.218988],[41.662542,41.221363],[41.666878,41.224047],[41.669563,41.226112],[41.671834,41.228589],[41.673589,41.232409],[41.674518,41.23561],[41.675241,41.239223],[41.67648,41.242217],[41.679164,41.245211],[41.681951,41.248102],[41.683087,41.250167],[41.68319,41.252954],[41.68319,41.25698],[41.682055,41.259871],[41.680506,41.262142],[41.679783,41.264207],[41.67968,41.265962],[41.680196,41.268956],[41.681014,41.271478],[41.688248,41.273096],[41.69058,41.273287],[41.692911,41.273477],[41.698813,41.274048],[41.705761,41.274524],[41.712518,41.275952],[41.718705,41.277456],[41.719561,41.277665],[41.720665,41.278217],[41.725082,41.280425],[41.729167,41.282153],[41.730031,41.282519],[41.731839,41.283566],[41.733648,41.284613],[41.738121,41.287563],[41.742012,41.289444],[41.743832,41.290324],[41.74526,41.29077],[41.7484,41.291751],[41.754639,41.293698],[41.760298,41.295463],[41.761941,41.295974],[41.764581,41.296796],[41.766675,41.297224],[41.768769,41.297652],[41.770609,41.297652],[41.774289,41.297652],[41.780666,41.297272],[41.787043,41.29651],[41.790279,41.295749],[41.796751,41.294607],[41.804936,41.293179],[41.809981,41.292037],[41.816072,41.29099],[41.821307,41.289848],[41.834251,41.287468],[41.842056,41.283947],[41.84672,41.28052],[41.851764,41.279092],[41.85757,41.277284],[41.864613,41.275856],[41.872608,41.27519],[41.879366,41.275761],[41.883459,41.277474],[41.88974,41.28309],[41.894975,41.289848],[41.897355,41.294511],[41.900207,41.298607],[41.901067,41.299841],[41.904017,41.303744],[41.90571,41.305403],[41.908966,41.308598],[41.916771,41.314118],[41.919246,41.315332],[41.921816,41.316593],[41.930096,41.319067],[41.937615,41.320114],[41.945515,41.321257],[41.948561,41.321828],[41.962837,41.325064],[41.973592,41.330015],[41.976067,41.331155],[41.979268,41.33338],[41.983872,41.33658],[41.987323,41.338745],[41.989487,41.340102],[41.992438,41.342005],[42.003955,41.348668],[42.014139,41.353522],[42.02813,41.361612],[42.03319,41.364842],[42.038928,41.368503],[42.041371,41.367187],[42.041736,41.36699],[42.041974,41.366806],[42.04383,41.365372],[42.048208,41.36461],[42.0543,41.364705],[42.059249,41.365372],[42.063342,41.365847],[42.070861,41.36461],[42.07857,41.362707],[42.093037,41.359946],[42.105696,41.356901],[42.11036,41.355568],[42.116261,41.352903],[42.117308,41.352142],[42.122543,41.347478],[42.129967,41.340244],[42.132873,41.336064],[42.136915,41.330251],[42.144339,41.316164],[42.153,41.299413],[42.154237,41.297224],[42.155094,41.294654],[42.156046,41.291228],[42.15595,41.288277],[42.155474,41.284851],[42.154618,41.281424],[42.153856,41.278759],[42.15319,41.276983],[42.152714,41.275713],[42.152714,41.273334],[42.153,41.268004],[42.153381,41.264673],[42.153017,41.257535],[42.151976,41.257273],[42.150913,41.257046],[42.150354,41.256918],[42.149241,41.256648],[42.148133,41.256368],[42.143154,41.255081],[42.142051,41.254789],[42.140954,41.254488],[42.139869,41.254166],[42.139335,41.253991],[42.138861,41.253823],[42.138392,41.253645],[42.13793,41.253459],[42.137472,41.253265],[42.137012,41.253059],[42.136106,41.252629],[42.135211,41.25218],[42.133883,41.251482],[42.132571,41.250756],[42.131276,41.250002],[42.130427,41.249483],[42.12959,41.248944],[42.128778,41.248384],[42.128371,41.248086],[42.127973,41.247781],[42.127195,41.247157],[42.125653,41.245857],[42.124494,41.24492],[42.123703,41.24431],[42.123302,41.24401],[42.122482,41.243424],[42.122074,41.243146],[42.121238,41.242608],[42.120811,41.242347],[42.119948,41.24185],[42.119505,41.241612],[42.119055,41.241384],[42.118614,41.241176],[42.118166,41.240978],[42.117251,41.240603],[42.116756,41.240414],[42.115754,41.24005],[42.113729,41.239354],[42.112198,41.238852],[42.111169,41.238536],[42.11065,41.238387],[42.109555,41.238101],[42.108449,41.237836],[42.104555,41.236961],[42.103448,41.236702],[42.102899,41.236567],[42.102355,41.236424],[42.101816,41.236272],[42.101287,41.236107],[42.10077,41.235924],[42.100266,41.235718],[42.099774,41.235494],[42.099291,41.235257],[42.098342,41.234755],[42.096941,41.233969],[42.092771,41.231559],[42.091839,41.231038],[42.091369,41.230787],[42.090895,41.230547],[42.090415,41.230321],[42.089927,41.230115],[42.089428,41.229938],[42.088915,41.229799],[42.088381,41.229707],[42.087832,41.229653],[42.087272,41.229628],[42.086704,41.229623],[42.086131,41.229631],[42.08381,41.229718],[42.082646,41.229748],[42.082065,41.229748],[42.081486,41.229732],[42.080987,41.229702],[42.08049,41.229658],[42.079995,41.229603],[42.079501,41.229538],[42.079009,41.229464],[42.078519,41.229381],[42.078026,41.229288],[42.077535,41.229188],[42.076559,41.228968],[42.075591,41.228727],[42.075111,41.228598],[42.074158,41.228324],[42.073216,41.228029],[42.07275,41.227872],[42.071713,41.227494],[42.070689,41.227093],[42.069672,41.226682],[42.067145,41.225632],[42.065655,41.224985],[42.063234,41.223882],[42.060348,41.222535],[42.059397,41.222074],[42.058463,41.221595],[42.057593,41.221108],[42.056747,41.220599],[42.05593,41.220068],[42.055536,41.219792],[42.055155,41.219506],[42.054792,41.219209],[42.054423,41.218873],[42.054074,41.218524],[42.053739,41.218165],[42.053413,41.2178],[42.052141,41.216315],[42.051487,41.215581],[42.051146,41.215222],[42.050797,41.214875],[42.050437,41.214535],[42.049695,41.213868],[42.04855,41.212885],[42.047773,41.212241],[42.046976,41.211612],[42.046565,41.211307],[42.046145,41.211017],[42.045712,41.210746],[42.045261,41.210502],[42.044786,41.210295],[42.0443,41.210138],[42.043792,41.210017],[42.043266,41.209921],[42.042728,41.209843],[42.042182,41.209779],[42.041629,41.209725],[42.040512,41.209633],[42.039387,41.209554],[42.036568,41.209383],[42.034845,41.209304],[42.031374,41.209171],[42.030219,41.20911],[42.029643,41.209071],[42.029084,41.209025],[42.027967,41.208914],[42.026853,41.208785],[42.026298,41.208714],[42.025193,41.208554],[42.024644,41.208463],[42.023591,41.20826],[42.023068,41.208148],[42.022028,41.207908],[42.020998,41.207645],[42.019893,41.207331],[42.01825,41.20683],[42.011161,41.204593],[42.0057,41.202886],[42.004067,41.202366],[42.00299,41.202004],[42.002459,41.201814],[42.001934,41.201614],[42.00142,41.201402],[42.000916,41.201173],[42.000423,41.200931],[41.999937,41.200679],[41.999455,41.200421],[41.998502,41.199892],[41.996618,41.198809],[41.995689,41.198257],[41.995231,41.197977],[41.99478,41.197691],[41.99434,41.197398],[41.993915,41.197095],[41.993509,41.196778],[41.99313,41.196445],[41.99277,41.196098],[41.992425,41.195741],[41.99209,41.195377],[41.991441,41.194635],[41.990805,41.193884],[41.987027,41.189351],[41.981649,41.182947],[41.980725,41.181807],[41.980137,41.181035],[41.979876,41.180669],[41.979373,41.179927],[41.97841,41.178425],[41.976999,41.176159],[41.973502,41.170466],[41.973008,41.169652],[41.972531,41.168834],[41.972305,41.168423],[41.972093,41.16801],[41.971901,41.167593],[41.97174,41.167171],[41.971629,41.166772],[41.971559,41.166315],[41.971535,41.165866],[41.97223,41.162573],[41.971977,41.16233],[41.971675,41.162067],[41.971276,41.161743],[41.970806,41.16139],[41.970277,41.161021],[41.96971,41.160653],[41.969127,41.160304],[41.968552,41.159991],[41.968003,41.159728],[41.967498,41.159516],[41.96648,41.159123],[41.96441,41.158374],[41.958686,41.156351],[41.957118,41.155814],[41.956065,41.155473],[41.955534,41.155313],[41.954998,41.155164],[41.954457,41.155028],[41.953984,41.154924],[41.953506,41.15483],[41.952544,41.154664],[41.950623,41.154361],[41.950153,41.154274],[41.949693,41.154175],[41.949247,41.154056],[41.948818,41.153912],[41.948346,41.153705],[41.947898,41.153465],[41.947466,41.153198],[41.947047,41.152914],[41.946637,41.152616],[41.945834,41.151996],[41.945043,41.151358],[41.944258,41.150711],[41.942701,41.149405],[41.941939,41.14875],[41.940062,41.147093],[41.939676,41.146765],[41.93928,41.146446],[41.938884,41.146152],[41.938473,41.145873],[41.938044,41.145614],[41.937595,41.145379],[41.937116,41.145171],[41.936618,41.144986],[41.936105,41.14482],[41.935582,41.144666],[41.93481,41.144463],[41.932843,41.141677],[41.931329,41.136263],[41.931622,41.131813],[41.931607,41.131542],[41.932182,41.127377],[41.932828,41.124864],[41.933618,41.122997],[41.934695,41.120772],[41.935915,41.116822],[41.936274,41.114381],[41.936777,41.11273],[41.937567,41.111868],[41.939434,41.110073],[41.941875,41.107847],[41.944029,41.104329],[41.946111,41.098369],[41.947835,41.093846],[41.947906,41.090256],[41.947619,41.086953],[41.946542,41.084942],[41.944675,41.082645],[41.943455,41.080634],[41.941803,41.07848],[41.940798,41.076685],[41.939506,41.074531],[41.937998,41.072951],[41.936418,41.071228],[41.935269,41.069361],[41.934264,41.067279],[41.9329,41.065915],[41.930889,41.064407],[41.929453,41.063115],[41.929022,41.060745],[41.92974,41.057442],[41.930961,41.054139],[41.936562,41.048754],[41.938644,41.0466],[41.939721,41.044518],[41.939793,41.041933],[41.939147,41.039061],[41.938285,41.036476],[41.938285,41.03303],[41.938141,41.031091],[41.93929,41.028793],[41.939936,41.026424],[41.941301,41.023121],[41.942162,41.020608],[41.942162,41.018454],[41.941803,41.014864],[41.941803,41.009263],[41.942234,41.003734],[41.943383,41.000072],[41.946829,40.996554],[41.949917,40.993826],[41.95322,40.992533],[41.955158,40.991097],[41.958102,40.988871],[41.959107,40.987651],[41.959754,40.985568],[41.960902,40.982194],[41.962051,40.978173],[41.962339,40.975301],[41.962626,40.97049],[41.962841,40.969485],[41.964636,40.965464],[41.970052,40.958216]]]}},{"type":"Feature","properties":{"id":"TR-D-08-004","parent_id":"TR-P-08","region_id":"TR-R-KAR","level":"district","municipality_type":null,"municipality_type_label":null,"is_metropolitan_municipality":null,"name":"Borçka","name_ascii":"borcka","slug":"borcka-artvin"},"geometry":{"type":"Polygon","coordinates":[[[42.084811,41.51076],[42.084811,41.510574],[42.084825,41.510385],[42.084847,41.510182],[42.084613,41.506057],[42.083491,41.498823],[42.083553,41.494582],[42.083803,41.491526],[42.084676,41.488657],[42.084551,41.486848],[42.083927,41.484228],[42.083927,41.480798],[42.084489,41.478989],[42.085362,41.476931],[42.086048,41.474748],[42.08742,41.472877],[42.087919,41.471942],[42.088418,41.470383],[42.088667,41.468699],[42.089166,41.466703],[42.089665,41.464645],[42.089603,41.46215],[42.088917,41.45978],[42.088168,41.456973],[42.087046,41.455352],[42.085611,41.453855],[42.083241,41.452046],[42.078189,41.450612],[42.075009,41.449676],[42.071641,41.448429],[42.069333,41.447057],[42.068273,41.446246],[42.067213,41.444999],[42.065965,41.442504],[42.064406,41.440882],[42.063595,41.440259],[42.061412,41.439136],[42.059167,41.438824],[42.057047,41.4382],[42.055051,41.437327],[42.053055,41.436205],[42.050061,41.435082],[42.048627,41.434334],[42.04713,41.433647],[42.045945,41.433336],[42.045134,41.432837],[42.044448,41.432151],[42.04345,41.430342],[42.042951,41.428034],[42.043138,41.426413],[42.043388,41.424916],[42.043513,41.422608],[42.043762,41.42055],[42.043263,41.41712],[42.042764,41.414687],[42.041018,41.412317],[42.03977,41.41107],[42.036777,41.407577],[42.035093,41.404334],[42.030976,41.400218],[42.026112,41.395603],[42.025036,41.394464],[42.024802,41.392593],[42.024802,41.390816],[42.02527,41.387167],[42.026486,41.385062],[42.030602,41.380993],[42.03266,41.377344],[42.035514,41.373509],[42.037244,41.371217],[42.038928,41.368503],[42.03319,41.364842],[42.02813,41.361612],[42.014139,41.353522],[42.003955,41.348668],[41.992438,41.342005],[41.989487,41.340102],[41.987323,41.338745],[41.983872,41.33658],[41.979268,41.33338],[41.976067,41.331155],[41.973592,41.330015],[41.962837,41.325064],[41.948561,41.321828],[41.945515,41.321257],[41.937615,41.320114],[41.930096,41.319067],[41.921816,41.316593],[41.919246,41.315332],[41.916771,41.314118],[41.908966,41.308598],[41.90571,41.305403],[41.904017,41.303744],[41.901067,41.299841],[41.900207,41.298607],[41.897355,41.294511],[41.894975,41.289848],[41.88974,41.28309],[41.883459,41.277474],[41.879366,41.275761],[41.872608,41.27519],[41.864613,41.275856],[41.85757,41.277284],[41.851764,41.279092],[41.84672,41.28052],[41.842056,41.283947],[41.834251,41.287468],[41.821307,41.289848],[41.816072,41.29099],[41.809981,41.292037],[41.804936,41.293179],[41.796751,41.294607],[41.790279,41.295749],[41.787043,41.29651],[41.780666,41.297272],[41.774289,41.297652],[41.770609,41.297652],[41.768769,41.297652],[41.766675,41.297224],[41.764581,41.296796],[41.761941,41.295974],[41.760298,41.295463],[41.754639,41.293698],[41.7484,41.291751],[41.74526,41.29077],[41.743832,41.290324],[41.742012,41.289444],[41.738121,41.287563],[41.733648,41.284613],[41.731839,41.283566],[41.730031,41.282519],[41.729167,41.282153],[41.725082,41.280425],[41.720665,41.278217],[41.719561,41.277665],[41.718705,41.277456],[41.712518,41.275952],[41.705761,41.274524],[41.698813,41.274048],[41.692911,41.273477],[41.69058,41.273287],[41.688248,41.273096],[41.681014,41.271478],[41.677397,41.275285],[41.675399,41.278331],[41.674474,41.281336],[41.674256,41.282043],[41.67321,41.284803],[41.671401,41.289848],[41.671189,41.290196],[41.670069,41.292037],[41.668546,41.295178],[41.666737,41.297747],[41.664739,41.301459],[41.662835,41.305362],[41.66036,41.308979],[41.656839,41.3125],[41.654174,41.315546],[41.651223,41.317735],[41.647203,41.319875],[41.645322,41.320876],[41.643419,41.323636],[41.640468,41.326111],[41.637232,41.32849],[41.634377,41.329918],[41.631045,41.331345],[41.626953,41.332583],[41.62286,41.333154],[41.618958,41.333154],[41.615775,41.332651],[41.615341,41.332583],[41.612894,41.331563],[41.611915,41.331155],[41.61132,41.330679],[41.609535,41.329252],[41.606775,41.327633],[41.604205,41.326396],[41.601635,41.325478],[41.600208,41.324968],[41.594592,41.32316],[41.589167,41.324397],[41.583361,41.324588],[41.578888,41.324968],[41.574509,41.32554],[41.570702,41.326396],[41.566419,41.327443],[41.562898,41.328871],[41.559662,41.33087],[41.557663,41.331536],[41.55595,41.331345],[41.555442,41.33125],[41.554427,41.33106],[41.553142,41.330473],[41.551096,41.329537],[41.549032,41.328892],[41.54805,41.328585],[41.547669,41.328561],[41.545004,41.328395],[41.54291,41.328025],[41.541768,41.327824],[41.536438,41.328205],[41.53206,41.328205],[41.526159,41.327348],[41.522161,41.327253],[41.517929,41.327209],[41.519201,41.328669],[41.520756,41.330452],[41.524415,41.335525],[41.527409,41.339599],[41.530319,41.34226],[41.530569,41.342926],[41.53165,41.345836],[41.533895,41.349911],[41.535641,41.35332],[41.537138,41.356564],[41.537304,41.358726],[41.537388,41.36147],[41.537388,41.36438],[41.537304,41.36596],[41.536805,41.368123],[41.536307,41.369869],[41.535724,41.371782],[41.534477,41.374609],[41.534311,41.377187],[41.534144,41.381178],[41.534228,41.38359],[41.533812,41.386833],[41.535724,41.389494],[41.53772,41.395232],[41.538053,41.396812],[41.538053,41.399224],[41.536805,41.401885],[41.53614,41.403881],[41.535974,41.40596],[41.536639,41.408122],[41.537887,41.411365],[41.539051,41.414275],[41.539134,41.41677],[41.539716,41.420263],[41.540291,41.421337],[41.540963,41.422591],[41.541712,41.423173],[41.543292,41.423506],[41.548947,41.424504],[41.553021,41.425169],[41.558094,41.425751],[41.562418,41.427331],[41.569653,41.428911],[41.573478,41.430907],[41.574642,41.433069],[41.57722,41.434732],[41.58038,41.437227],[41.582875,41.439472],[41.584122,41.441302],[41.585952,41.443547],[41.587116,41.44546],[41.5867,41.447539],[41.586534,41.449534],[41.586617,41.451281],[41.587615,41.453276],[41.589445,41.455355],[41.590858,41.457185],[41.590609,41.460594],[41.590526,41.461842],[41.590193,41.464087],[41.59011,41.466582],[41.589528,41.469409],[41.58986,41.471072],[41.590359,41.472237],[41.591274,41.472652],[41.59327,41.473234],[41.595848,41.474648],[41.59801,41.475896],[41.601503,41.47706],[41.603665,41.478141],[41.606076,41.480053],[41.607739,41.481966],[41.609985,41.483712],[41.612812,41.484627],[41.615889,41.485708],[41.618217,41.485791],[41.619714,41.486124],[41.620379,41.487205],[41.620629,41.488619],[41.620712,41.489783],[41.620878,41.492527],[41.621045,41.494523],[41.622524,41.497128],[41.623029,41.496364],[41.624073,41.495276],[41.625263,41.494108],[41.626035,41.4935],[41.626209,41.49338],[41.626561,41.493137],[41.626935,41.492985],[41.627473,41.493056],[41.627836,41.492833],[41.628164,41.492576],[41.628269,41.49233],[41.628398,41.492096],[41.628538,41.491149],[41.628491,41.490786],[41.628609,41.49063],[41.628748,41.490447],[41.62886,41.490376],[41.630838,41.489126],[41.632844,41.487586],[41.633766,41.487091],[41.633939,41.486998],[41.634114,41.486979],[41.635277,41.486856],[41.636088,41.486674],[41.642108,41.48641],[41.643608,41.486552],[41.646,41.486228],[41.646912,41.485721],[41.647622,41.485538],[41.648331,41.485538],[41.648717,41.485741],[41.650034,41.485822],[41.651575,41.48564],[41.653521,41.485599],[41.656176,41.485255],[41.657332,41.485173],[41.658872,41.484687],[41.659926,41.484322],[41.662055,41.483896],[41.662886,41.483673],[41.664058,41.483001],[41.664441,41.482816],[41.665071,41.482513],[41.665539,41.482367],[41.666065,41.482435],[41.666669,41.48263],[41.666854,41.482769],[41.667293,41.483098],[41.66777,41.483351],[41.668521,41.483595],[41.669232,41.483741],[41.669544,41.483723],[41.669904,41.483669],[41.670063,41.483522],[41.67021,41.483507],[41.670382,41.483678],[41.670742,41.484041],[41.671219,41.484257],[41.67166,41.484383],[41.672038,41.484368],[41.672389,41.48432],[41.672704,41.484281],[41.673161,41.484101],[41.673522,41.484001],[41.673797,41.483926],[41.674186,41.483942],[41.674714,41.484096],[41.67507,41.484332],[41.675363,41.484526],[41.67594,41.484867],[41.676752,41.485322],[41.677158,41.485566],[41.677629,41.48585],[41.678262,41.486329],[41.678847,41.486662],[41.679529,41.486962],[41.680341,41.487246],[41.681355,41.487376],[41.682395,41.487498],[41.683653,41.487563],[41.684403,41.487373],[41.685207,41.487086],[41.686489,41.486913],[41.687408,41.487028],[41.688326,41.487488],[41.689623,41.487657],[41.690087,41.487717],[41.691159,41.4881],[41.69246,41.488732],[41.693187,41.48898],[41.693788,41.489376],[41.695829,41.490722],[41.697111,41.491143],[41.697116,41.491145],[41.697953,41.491545],[41.698814,41.492272],[41.700173,41.492827],[41.70046,41.493153],[41.700805,41.493727],[41.701206,41.494129],[41.702259,41.49455],[41.702523,41.494801],[41.703063,41.495315],[41.704135,41.496119],[41.705015,41.496483],[41.707331,41.496368],[41.708135,41.496349],[41.708785,41.496406],[41.710297,41.496674],[41.710795,41.496425],[41.71112,41.496023],[41.711943,41.495564],[41.712957,41.494856],[41.714145,41.493638],[41.715516,41.492225],[41.716472,41.491643],[41.71697,41.490314],[41.717054,41.489026],[41.716912,41.488561],[41.716763,41.48807],[41.715977,41.486774],[41.715516,41.486076],[41.715184,41.484954],[41.715018,41.483582],[41.714893,41.482461],[41.714893,41.481666],[41.714893,41.48084],[41.714602,41.480175],[41.713004,41.478761],[41.712441,41.478264],[41.710281,41.47681],[41.708962,41.475855],[41.708253,41.475031],[41.708224,41.474151],[41.708764,41.473895],[41.710211,41.473612],[41.712398,41.473839],[41.713229,41.473918],[41.71359,41.473952],[41.714385,41.473924],[41.715151,41.473754],[41.71623,41.473555],[41.717139,41.473555],[41.718246,41.473782],[41.71941,41.47381],[41.720716,41.473413],[41.722675,41.473413],[41.723207,41.473157],[41.723442,41.473044],[41.725259,41.472334],[41.727132,41.471908],[41.728296,41.47188],[41.729489,41.471937],[41.730795,41.472334],[41.732441,41.472476],[41.732639,41.472472],[41.733776,41.472447],[41.735877,41.472447],[41.736483,41.472186],[41.737722,41.471652],[41.739397,41.471794],[41.739913,41.471901],[41.74022,41.471965],[41.741101,41.471851],[41.741206,41.471769],[41.74209,41.471081],[41.7428,41.47085],[41.74361,41.470635],[41.744717,41.470866],[41.745427,41.471147],[41.745871,41.471195],[41.746352,41.471246],[41.746848,41.471098],[41.7469,41.471064],[41.747393,41.470751],[41.74784,41.470751],[41.748616,41.470519],[41.749046,41.469991],[41.750318,41.469445],[41.751673,41.469991],[41.752654,41.470164],[41.752691,41.470171],[41.753613,41.470029],[41.754678,41.469674],[41.755459,41.468645],[41.756523,41.467864],[41.756532,41.467853],[41.756878,41.467403],[41.757374,41.467115],[41.757714,41.467107],[41.757947,41.467102],[41.758888,41.466679],[41.759638,41.466434],[41.763795,41.464727],[41.765277,41.464308],[41.765995,41.463916],[41.766794,41.463655],[41.767398,41.463721],[41.768214,41.463508],[41.768818,41.463166],[41.769977,41.462709],[41.771985,41.461762],[41.772333,41.461584],[41.773862,41.460799],[41.774531,41.461027],[41.775135,41.462105],[41.775232,41.462248],[41.775576,41.462758],[41.776082,41.463378],[41.77649,41.463476],[41.777045,41.463166],[41.777644,41.462983],[41.777796,41.462937],[41.779101,41.462774],[41.779855,41.462754],[41.780342,41.462741],[41.781044,41.462725],[41.781419,41.462643],[41.782056,41.462382],[41.782183,41.462307],[41.782774,41.461958],[41.783476,41.461713],[41.784292,41.461615],[41.78469,41.461633],[41.78501,41.461648],[41.785467,41.461517],[41.785859,41.461468],[41.786414,41.461223],[41.786773,41.461011],[41.78705,41.460456],[41.787311,41.459738],[41.787703,41.458612],[41.787661,41.458507],[41.787279,41.457567],[41.78723,41.4568],[41.787344,41.456473],[41.787507,41.455984],[41.788226,41.455168],[41.788617,41.454825],[41.788927,41.454303],[41.78909,41.453519],[41.789139,41.45316],[41.789188,41.452164],[41.789041,41.451658],[41.788519,41.451022],[41.788552,41.45063],[41.789041,41.450189],[41.789727,41.449683],[41.790217,41.449243],[41.791114,41.448851],[41.791637,41.448671],[41.792681,41.448084],[41.793954,41.447741],[41.794934,41.447496],[41.795505,41.447431],[41.796452,41.447496],[41.797251,41.447725],[41.797692,41.447904],[41.798019,41.447937],[41.79834,41.44789],[41.798592,41.447732],[41.799078,41.447717],[41.799666,41.447984],[41.800035,41.448109],[41.800483,41.448149],[41.801495,41.447591],[41.803268,41.447066],[41.803471,41.447012],[41.804366,41.446775],[41.804868,41.446673],[41.805316,41.446524],[41.805614,41.446344],[41.805857,41.446085],[41.806146,41.44542],[41.806194,41.445308],[41.80661,41.44468],[41.807301,41.444006],[41.807866,41.443378],[41.808509,41.442993],[41.809011,41.442475],[41.809215,41.442256],[41.809458,41.442217],[41.809694,41.442091],[41.809858,41.441769],[41.81069,41.44119],[41.810839,41.441087],[41.811726,41.440373],[41.812032,41.440122],[41.8124,41.439698],[41.812738,41.438788],[41.812761,41.43838],[41.812754,41.437885],[41.812628,41.437438],[41.81251,41.437104],[41.812487,41.437038],[41.812346,41.43685],[41.812346,41.436614],[41.812487,41.436395],[41.812918,41.436093],[41.813554,41.435649],[41.814106,41.435097],[41.81422,41.434742],[41.814231,41.43471],[41.814714,41.434255],[41.816137,41.433661],[41.816418,41.433586],[41.819285,41.432832],[41.822711,41.432169],[41.822724,41.432134],[41.822959,41.431506],[41.823443,41.430829],[41.824843,41.432213],[41.82541,41.432773],[41.828504,41.434748],[41.829557,41.435143],[41.831862,41.435472],[41.833896,41.435472],[41.834232,41.435472],[41.834965,41.435883],[41.835877,41.436394],[41.838181,41.437162],[41.839235,41.437513],[41.839593,41.437816],[41.840946,41.438961],[41.842527,41.439554],[41.843712,41.440278],[41.844059,41.440407],[41.845489,41.440936],[41.84608,41.442841],[41.846959,41.444374],[41.846733,41.445997],[41.846418,41.448252],[41.846954,41.44851],[41.848434,41.448788],[41.849197,41.448949],[41.849844,41.449111],[41.850674,41.448915],[41.851116,41.448811],[41.852388,41.449019],[41.85359,41.449736],[41.854284,41.450291],[41.854755,41.450577],[41.854816,41.450614],[41.85581,41.451585],[41.85655,41.451886],[41.857822,41.452038],[41.858695,41.452071],[41.859071,41.452085],[41.860328,41.452685],[41.861106,41.453056],[41.862216,41.453426],[41.86425,41.454351],[41.86532,41.454518],[41.866088,41.454638],[41.867834,41.45527],[41.868138,41.455464],[41.869159,41.456114],[41.870725,41.457077],[41.871809,41.457137],[41.872381,41.457017],[41.873614,41.457272],[41.874128,41.457378],[41.878494,41.459155],[41.880693,41.460149],[41.88169,41.460753],[41.882206,41.461166],[41.882206,41.46163],[41.882871,41.462276],[41.883478,41.463005],[41.883838,41.463503],[41.88365,41.465352],[41.883649,41.46536],[41.883655,41.465373],[41.884405,41.467284],[41.884956,41.468213],[41.885815,41.4689],[41.886332,41.469139],[41.887361,41.469898],[41.88748,41.47084],[41.888066,41.471938],[41.888422,41.472158],[41.889466,41.47248],[41.890291,41.47298],[41.894039,41.474633],[41.895114,41.475011],[41.895192,41.475238],[41.894527,41.47586],[41.894456,41.476266],[41.894817,41.477773],[41.894616,41.478364],[41.894539,41.478697],[41.894366,41.478961],[41.89397,41.47919],[41.893691,41.47933],[41.893636,41.479357],[41.893129,41.479586],[41.892817,41.479885],[41.892817,41.480198],[41.893664,41.480663],[41.894185,41.480948],[41.89497,41.481434],[41.895498,41.481872],[41.895623,41.482143],[41.895679,41.482428],[41.896166,41.482871],[41.896554,41.483164],[41.897054,41.483414],[41.897135,41.48345],[41.897589,41.48365],[41.897804,41.483977],[41.897892,41.484238],[41.897992,41.484533],[41.89886,41.485616],[41.899131,41.486165],[41.899291,41.486617],[41.89952,41.487263],[41.899854,41.488013],[41.90059,41.488992],[41.901278,41.489492],[41.901951,41.489833],[41.90383,41.49077],[41.904767,41.49101],[41.904853,41.491032],[41.905638,41.491151],[41.906328,41.491746],[41.907351,41.49234],[41.909897,41.494648],[41.910301,41.496099],[41.910302,41.496106],[41.910349,41.49667],[41.910537,41.497261],[41.910491,41.497805],[41.910615,41.498272],[41.911471,41.499144],[41.913526,41.500125],[41.914694,41.500794],[41.915955,41.50109],[41.915975,41.501089],[41.918051,41.500953],[41.918839,41.501741],[41.919867,41.502563],[41.921512,41.503831],[41.922779,41.504996],[41.923602,41.506127],[41.924516,41.506858],[41.92463,41.506949],[41.925125,41.507168],[41.927462,41.508201],[41.927576,41.508251],[41.927591,41.508252],[41.930455,41.508491],[41.931928,41.508354],[41.932853,41.508114],[41.934704,41.508628],[41.935286,41.509142],[41.937479,41.510033],[41.938336,41.510615],[41.939626,41.511806],[41.939534,41.512242],[41.939786,41.512655],[41.940405,41.513159],[41.940612,41.513664],[41.941378,41.514569],[41.942263,41.515613],[41.94458,41.517012],[41.944664,41.517028],[41.946323,41.517333],[41.94896,41.517609],[41.950946,41.519548],[41.951744,41.520237],[41.952273,41.520576],[41.952772,41.520686],[41.95327,41.521134],[41.95348,41.521524],[41.953929,41.521903],[41.954438,41.522731],[41.954622,41.523062],[41.954637,41.52309],[41.955107,41.523434],[41.95646,41.523755],[41.956763,41.523803],[41.958226,41.52403],[41.959625,41.524076],[41.960519,41.524306],[41.961253,41.524589],[41.961528,41.524696],[41.962308,41.524856],[41.963165,41.524666],[41.964579,41.524352],[41.966207,41.524122],[41.969348,41.522944],[41.972566,41.521232],[41.973402,41.521242],[41.975342,41.521578],[41.976461,41.52141],[41.977655,41.521373],[41.979128,41.522305],[41.979594,41.522455],[41.981946,41.522396],[41.982678,41.522309],[41.984593,41.522082],[41.985656,41.521522],[41.986813,41.520608],[41.986971,41.520308],[41.987167,41.519937],[41.987242,41.519284],[41.987484,41.518444],[41.988324,41.517922],[41.989368,41.517605],[41.990483,41.517005],[41.990823,41.516822],[41.991439,41.51615],[41.991476,41.515702],[41.991551,41.515106],[41.991401,41.514397],[41.991385,41.51423],[41.991364,41.514024],[41.990898,41.513184],[41.99072,41.510686],[41.991211,41.510299],[41.99136,41.510182],[41.99218,41.509711],[41.992529,41.509157],[41.992467,41.508562],[41.992549,41.508009],[41.992303,41.507271],[41.992218,41.506888],[41.99218,41.506717],[41.992652,41.505815],[41.993205,41.5052],[41.993984,41.504728],[41.994579,41.504462],[41.995183,41.504696],[41.99585,41.504954],[41.996588,41.505077],[41.9987,41.504523],[42.000283,41.504333],[42.016655,41.503135],[42.023483,41.501569],[42.028202,41.499288],[42.029918,41.498057],[42.030664,41.497292],[42.030664,41.49684],[42.030664,41.496658],[42.031224,41.496229],[42.031522,41.495726],[42.031932,41.495483],[42.032684,41.495469],[42.032902,41.495465],[42.03432,41.495278],[42.039134,41.494093],[42.039169,41.494084],[42.03921,41.494087],[42.040941,41.494178],[42.043246,41.494129],[42.043571,41.494122],[42.043712,41.4942],[42.044206,41.494476],[42.044672,41.494849],[42.045231,41.495073],[42.046332,41.494924],[42.047,41.494971],[42.047376,41.494998],[42.047843,41.49511],[42.04793,41.495243],[42.048234,41.495707],[42.048887,41.496416],[42.049894,41.49705],[42.050622,41.49815],[42.051293,41.498412],[42.054259,41.498841],[42.054912,41.498785],[42.055844,41.498449],[42.056721,41.498356],[42.05771,41.498486],[42.058754,41.498859],[42.059575,41.499456],[42.063324,41.502179],[42.07027,41.506984],[42.073007,41.507464],[42.076265,41.507864],[42.081626,41.509408],[42.084811,41.51076]]]}},{"type":"Feature","properties":{"id":"TR-D-08-005","parent_id":"TR-P-08","region_id":"TR-R-KAR","level":"district","municipality_type":null,"municipality_type_label":null,"is_metropolitan_municipality":null,"name":"Hopa","name_ascii":"hopa","slug":"hopa-artvin"},"geometry":{"type":"Polygon","coordinates":[[[41.540291,41.421337],[41.539716,41.420263],[41.539134,41.41677],[41.539051,41.414275],[41.537887,41.411365],[41.536639,41.408122],[41.535974,41.40596],[41.53614,41.403881],[41.536805,41.401885],[41.538053,41.399224],[41.538053,41.396812],[41.53772,41.395232],[41.535724,41.389494],[41.533812,41.386833],[41.534228,41.38359],[41.534144,41.381178],[41.534311,41.377187],[41.534477,41.374609],[41.535724,41.371782],[41.536307,41.369869],[41.536805,41.368123],[41.537304,41.36596],[41.537388,41.36438],[41.537388,41.36147],[41.537304,41.358726],[41.537138,41.356564],[41.535641,41.35332],[41.533895,41.349911],[41.53165,41.345836],[41.530569,41.342926],[41.530319,41.34226],[41.527409,41.339599],[41.524415,41.335525],[41.520756,41.330452],[41.519201,41.328669],[41.517929,41.327209],[41.516058,41.327041],[41.510062,41.326565],[41.50397,41.325518],[41.498878,41.324116],[41.497403,41.32371],[41.492958,41.321658],[41.488955,41.327321],[41.486028,41.33089],[41.481103,41.334459],[41.472965,41.3381],[41.469824,41.33967],[41.465041,41.340812],[41.46083,41.341597],[41.457046,41.342668],[41.454833,41.344167],[41.452478,41.345167],[41.448409,41.34588],[41.443555,41.346523],[41.440128,41.347736],[41.436416,41.34845],[41.43199,41.348165],[41.426494,41.347522],[41.421997,41.347379],[41.417785,41.347023],[41.414573,41.346594],[41.408862,41.345523],[41.403294,41.344881],[41.39844,41.344239],[41.394585,41.34381],[41.392587,41.343382],[41.392016,41.342597],[41.391801,41.341312],[41.392444,41.33967],[41.3933,41.337528],[41.393158,41.335887],[41.392658,41.334816],[41.390445,41.33246],[41.388089,41.331461],[41.385805,41.330533],[41.384734,41.329462],[41.384021,41.328605],[41.382593,41.327963],[41.381094,41.327463],[41.379452,41.327392],[41.377453,41.327892],[41.375526,41.328677],[41.372813,41.330818],[41.371029,41.332674],[41.36953,41.334459],[41.368031,41.336172],[41.366674,41.3371],[41.364818,41.337957],[41.36025,41.340812],[41.357965,41.343953],[41.356252,41.347522],[41.35354,41.351734],[41.34997,41.35516],[41.346116,41.358016],[41.343403,41.359872],[41.342404,41.361014],[41.339406,41.365725],[41.337353,41.369765],[41.339802,41.371648],[41.340033,41.371826],[41.341053,41.37234],[41.342438,41.373032],[41.352381,41.375384],[41.359393,41.377863],[41.366999,41.37885],[41.375352,41.378807],[41.380816,41.377978],[41.386908,41.379767],[41.393596,41.380424],[41.397581,41.381852],[41.398323,41.382118],[41.401975,41.382897],[41.406872,41.386071],[41.408852,41.387519],[41.412515,41.390253],[41.41443,41.391651],[41.415002,41.392088],[41.415459,41.392445],[41.415759,41.392713],[41.416296,41.393124],[41.416944,41.393629],[41.418034,41.394498],[41.419297,41.395524],[41.420924,41.397119],[41.423815,41.400035],[41.427652,41.404289],[41.42961,41.406895],[41.431947,41.409912],[41.432811,41.411152],[41.436292,41.416302],[41.437049,41.417508],[41.437587,41.419822],[41.438533,41.42092],[41.440175,41.422657],[41.441281,41.423841],[41.442134,41.425089],[41.44261,41.425712],[41.444036,41.427712],[41.445893,41.430461],[41.447895,41.432162],[41.449435,41.43438],[41.451398,41.437225],[41.452886,41.438418],[41.454203,41.439474],[41.456842,41.44278],[41.457879,41.445073],[41.457906,41.445132],[41.460926,41.4487],[41.462476,41.450011],[41.463795,41.4511],[41.466616,41.451934],[41.468993,41.45325],[41.469393,41.453015],[41.472853,41.450989],[41.475637,41.448419],[41.476994,41.447563],[41.479706,41.445921],[41.481491,41.444065],[41.485631,41.44178],[41.488487,41.440139],[41.491199,41.437569],[41.494982,41.435713],[41.498623,41.434785],[41.501621,41.43507],[41.504476,41.435285],[41.511686,41.433785],[41.516398,41.430074],[41.521466,41.426647],[41.529247,41.424077],[41.534315,41.422721],[41.540291,41.421337]]]}},{"type":"Feature","properties":{"id":"TR-D-08-006","parent_id":"TR-P-08","region_id":"TR-R-KAR","level":"district","municipality_type":null,"municipality_type_label":null,"is_metropolitan_municipality":null,"name":"Kemalpaşa","name_ascii":"kemalpasa","slug":"kemalpasa-artvin"},"geometry":{"type":"Polygon","coordinates":[[[41.540291,41.421337],[41.534315,41.422721],[41.529247,41.424077],[41.521466,41.426647],[41.516398,41.430074],[41.511686,41.433785],[41.504476,41.435285],[41.501621,41.43507],[41.498623,41.434785],[41.494982,41.435713],[41.491199,41.437569],[41.488487,41.440139],[41.485631,41.44178],[41.481491,41.444065],[41.479706,41.445921],[41.476994,41.447563],[41.475637,41.448419],[41.472853,41.450989],[41.469393,41.453015],[41.468993,41.45325],[41.47078,41.454239],[41.472203,41.456162],[41.472711,41.457727],[41.473818,41.460313],[41.474332,41.461248],[41.476787,41.462419],[41.480602,41.463393],[41.483487,41.464116],[41.483671,41.464173],[41.484726,41.464498],[41.48716,41.466123],[41.488365,41.467831],[41.488922,41.468622],[41.491243,41.469933],[41.494667,41.471016],[41.496929,41.471721],[41.497596,41.471653],[41.497733,41.471639],[41.498667,41.471361],[41.499912,41.471066],[41.500342,41.471036],[41.501001,41.471108],[41.501496,41.471077],[41.5023,41.471314],[41.50298,41.47185],[41.503423,41.472282],[41.504322,41.473114],[41.504551,41.473442],[41.504897,41.473962],[41.505711,41.474766],[41.506556,41.475343],[41.507256,41.475631],[41.508472,41.476404],[41.508718,41.476568],[41.50906,41.476796],[41.509389,41.477146],[41.509905,41.477857],[41.510131,41.478063],[41.511461,41.47864],[41.512048,41.478712],[41.512759,41.478816],[41.513913,41.479011],[41.514428,41.479187],[41.515675,41.479908],[41.516191,41.48033],[41.517242,41.481144],[41.517716,41.481361],[41.518169,41.481485],[41.518808,41.481495],[41.519086,41.481474],[41.51936,41.481524],[41.520446,41.481721],[41.521193,41.482143],[41.52193,41.482628],[41.521489,41.48291],[41.52145,41.482935],[41.521683,41.483154],[41.521885,41.483385],[41.522125,41.483664],[41.522496,41.484065],[41.522824,41.484426],[41.523209,41.484829],[41.523433,41.48511],[41.523743,41.485529],[41.523904,41.485817],[41.524065,41.486115],[41.524306,41.486489],[41.525294,41.487873],[41.525496,41.488217],[41.525794,41.488723],[41.527138,41.490826],[41.527579,41.491405],[41.527713,41.491626],[41.527673,41.491927],[41.528287,41.492917],[41.529099,41.494204],[41.529387,41.494673],[41.530238,41.49622],[41.530353,41.496418],[41.531104,41.497707],[41.531257,41.498175],[41.531384,41.498912],[41.531409,41.499056],[41.531855,41.5001],[41.532247,41.501025],[41.532475,41.501602],[41.532812,41.502146],[41.533073,41.502614],[41.533324,41.503038],[41.533802,41.503832],[41.534096,41.504441],[41.534662,41.505877],[41.534966,41.506443],[41.535488,41.507139],[41.535916,41.507509],[41.536054,41.507628],[41.536348,41.50802],[41.5365,41.50827],[41.536647,41.508584],[41.536716,41.508742],[41.536847,41.509044],[41.536888,41.509106],[41.536985,41.509274],[41.537019,41.509329],[41.537013,41.509372],[41.536984,41.509405],[41.536949,41.509428],[41.536917,41.509436],[41.53688,41.50946],[41.536866,41.509474],[41.536857,41.509492],[41.536854,41.509526],[41.536871,41.509566],[41.536884,41.509628],[41.536902,41.509648],[41.536969,41.509649],[41.537102,41.509648],[41.537107,41.509676],[41.537107,41.509718],[41.537086,41.509756],[41.537081,41.509802],[41.537089,41.50983],[41.537112,41.509858],[41.537132,41.509874],[41.537161,41.509883],[41.537222,41.509892],[41.537268,41.509874],[41.537299,41.50985],[41.53737,41.509792],[41.537417,41.509787],[41.537468,41.509815],[41.537609,41.509914],[41.537719,41.509992],[41.539325,41.511099],[41.539878,41.511435],[41.541219,41.511664],[41.541514,41.511586],[41.54173,41.511652],[41.541989,41.51173],[41.542182,41.511887],[41.542434,41.512061],[41.542651,41.512241],[41.542753,41.512512],[41.543156,41.513444],[41.543607,41.514563],[41.543829,41.515092],[41.544281,41.516452],[41.544463,41.516728],[41.544584,41.516834],[41.544599,41.516954],[41.544611,41.517035],[41.544714,41.517209],[41.544806,41.517247],[41.544804,41.517344],[41.544802,41.517442],[41.544946,41.51752],[41.545036,41.51758],[41.545371,41.517805],[41.545542,41.517897],[41.545566,41.51791],[41.545945,41.518113],[41.546362,41.518643],[41.546471,41.518908],[41.546483,41.518937],[41.546655,41.519365],[41.546826,41.519423],[41.546959,41.519486],[41.547045,41.519528],[41.547435,41.519689],[41.547554,41.519639],[41.547695,41.519581],[41.548288,41.519487],[41.549071,41.519297],[41.550146,41.518958],[41.551087,41.518616],[41.552061,41.518417],[41.552927,41.51778],[41.553976,41.517771],[41.554462,41.517711],[41.554768,41.517735],[41.555623,41.51788],[41.556115,41.51767],[41.556932,41.517563],[41.557551,41.517687],[41.557744,41.517703],[41.558164,41.517695],[41.558575,41.517695],[41.559087,41.517852],[41.559324,41.517962],[41.559734,41.518057],[41.560286,41.51831],[41.560649,41.518515],[41.561075,41.518609],[41.56169,41.518688],[41.562369,41.518562],[41.563631,41.51853],[41.564135,41.518609],[41.564593,41.518783],[41.564956,41.51872],[41.565366,41.518767],[41.565666,41.518767],[41.566155,41.518925],[41.56666,41.519051],[41.56707,41.519098],[41.567796,41.519114],[41.568363,41.519146],[41.568916,41.51924],[41.569342,41.519351],[41.569752,41.519398],[41.570446,41.519304],[41.571109,41.51913],[41.572134,41.518783],[41.573065,41.518262],[41.573617,41.518089],[41.574406,41.518152],[41.575463,41.517678],[41.576741,41.517174],[41.578208,41.516527],[41.578729,41.516116],[41.579612,41.515312],[41.580559,41.514381],[41.581209,41.513635],[41.581411,41.513403],[41.58136,41.513018],[41.581316,41.512677],[41.581293,41.512509],[41.581206,41.511431],[41.581395,41.51091],[41.581852,41.510169],[41.582389,41.509758],[41.582878,41.509348],[41.583241,41.50897],[41.583682,41.508481],[41.583998,41.50826],[41.584377,41.508165],[41.585087,41.508086],[41.586364,41.507944],[41.587153,41.507834],[41.588194,41.507676],[41.590056,41.507629],[41.591602,41.507424],[41.59277,41.507282],[41.593527,41.507171],[41.593953,41.506887],[41.594647,41.506619],[41.595373,41.506366],[41.596062,41.50613],[41.596477,41.505988],[41.598039,41.505246],[41.599774,41.504505],[41.600405,41.504189],[41.600752,41.504031],[41.601478,41.503684],[41.602535,41.503495],[41.603482,41.503432],[41.604207,41.5034],[41.605391,41.503369],[41.606101,41.50329],[41.607268,41.502643],[41.607836,41.502264],[41.609003,41.502122],[41.609966,41.50187],[41.611102,41.501712],[41.612254,41.501696],[41.615393,41.501696],[41.616229,41.501286],[41.616876,41.501207],[41.617286,41.50127],[41.617791,41.501144],[41.618375,41.500829],[41.619022,41.500482],[41.619511,41.500198],[41.620299,41.499582],[41.621167,41.49873],[41.622051,41.497847],[41.622524,41.497128],[41.621045,41.494523],[41.620878,41.492527],[41.620712,41.489783],[41.620629,41.488619],[41.620379,41.487205],[41.619714,41.486124],[41.618217,41.485791],[41.615889,41.485708],[41.612812,41.484627],[41.609985,41.483712],[41.607739,41.481966],[41.606076,41.480053],[41.603665,41.478141],[41.601503,41.47706],[41.59801,41.475896],[41.595848,41.474648],[41.59327,41.473234],[41.591274,41.472652],[41.590359,41.472237],[41.58986,41.471072],[41.589528,41.469409],[41.59011,41.466582],[41.590193,41.464087],[41.590526,41.461842],[41.590609,41.460594],[41.590858,41.457185],[41.589445,41.455355],[41.587615,41.453276],[41.586617,41.451281],[41.586534,41.449534],[41.5867,41.447539],[41.587116,41.44546],[41.585952,41.443547],[41.584122,41.441302],[41.582875,41.439472],[41.58038,41.437227],[41.57722,41.434732],[41.574642,41.433069],[41.573478,41.430907],[41.569653,41.428911],[41.562418,41.427331],[41.558094,41.425751],[41.553021,41.425169],[41.548947,41.424504],[41.543292,41.423506],[41.541712,41.423173],[41.540963,41.422591],[41.540291,41.421337]]]}},{"type":"Feature","properties":{"id":"TR-D-08-007","parent_id":"TR-P-08","region_id":"TR-R-KAR","level":"district","municipality_type":null,"municipality_type_label":null,"is_metropolitan_municipality":null,"name":"Murgul","name_ascii":"murgul","slug":"murgul-artvin"},"geometry":{"type":"Polygon","coordinates":[[[41.492958,41.321658],[41.497403,41.32371],[41.498878,41.324116],[41.50397,41.325518],[41.510062,41.326565],[41.516058,41.327041],[41.517929,41.327209],[41.522161,41.327253],[41.526159,41.327348],[41.53206,41.328205],[41.536438,41.328205],[41.541768,41.327824],[41.54291,41.328025],[41.545004,41.328395],[41.547669,41.328561],[41.54805,41.328585],[41.549032,41.328892],[41.551096,41.329537],[41.553142,41.330473],[41.554427,41.33106],[41.555442,41.33125],[41.55595,41.331345],[41.557663,41.331536],[41.559662,41.33087],[41.562898,41.328871],[41.566419,41.327443],[41.570702,41.326396],[41.574509,41.32554],[41.578888,41.324968],[41.583361,41.324588],[41.589167,41.324397],[41.594592,41.32316],[41.600208,41.324968],[41.601635,41.325478],[41.604205,41.326396],[41.606775,41.327633],[41.609535,41.329252],[41.61132,41.330679],[41.611915,41.331155],[41.612894,41.331563],[41.615341,41.332583],[41.615775,41.332651],[41.618958,41.333154],[41.62286,41.333154],[41.626953,41.332583],[41.631045,41.331345],[41.634377,41.329918],[41.637232,41.32849],[41.640468,41.326111],[41.643419,41.323636],[41.645322,41.320876],[41.647203,41.319875],[41.651223,41.317735],[41.654174,41.315546],[41.656839,41.3125],[41.66036,41.308979],[41.662835,41.305362],[41.664739,41.301459],[41.666737,41.297747],[41.668546,41.295178],[41.670069,41.292037],[41.671189,41.290196],[41.671401,41.289848],[41.67321,41.284803],[41.674256,41.282043],[41.674474,41.281336],[41.675399,41.278331],[41.677397,41.275285],[41.681014,41.271478],[41.680196,41.268956],[41.67968,41.265962],[41.679783,41.264207],[41.680506,41.262142],[41.682055,41.259871],[41.68319,41.25698],[41.68319,41.252954],[41.683087,41.250167],[41.681951,41.248102],[41.679164,41.245211],[41.67648,41.242217],[41.675241,41.239223],[41.674518,41.23561],[41.673589,41.232409],[41.671834,41.228589],[41.669563,41.226112],[41.666878,41.224047],[41.662542,41.221363],[41.658,41.218988],[41.654386,41.216923],[41.65067,41.213207],[41.648398,41.209387],[41.645095,41.203502],[41.641481,41.198444],[41.636526,41.193178],[41.624344,41.184506],[41.620524,41.180996],[41.615672,41.175215],[41.614123,41.171911],[41.612678,41.168298],[41.613194,41.165407],[41.613504,41.161174],[41.6134,41.1588],[41.612161,41.155289],[41.610406,41.152915],[41.609684,41.149302],[41.609374,41.146308],[41.607516,41.143727],[41.605451,41.142075],[41.601837,41.140939],[41.59874,41.139804],[41.59492,41.138565],[41.590791,41.137635],[41.58821,41.136913],[41.587281,41.135674],[41.587281,41.13268],[41.586352,41.129789],[41.582841,41.126589],[41.579022,41.123595],[41.574479,41.119775],[41.571382,41.117504],[41.567355,41.115749],[41.565084,41.113477],[41.562813,41.109967],[41.560851,41.107077],[41.559303,41.100779],[41.558167,41.095101],[41.555276,41.086635],[41.554554,41.08168],[41.552879,41.074276],[41.551165,41.075495],[41.54612,41.077779],[41.542028,41.078826],[41.539077,41.078636],[41.532415,41.078921],[41.525372,41.080159],[41.520613,41.081777],[41.514236,41.086155],[41.509477,41.088725],[41.507192,41.090343],[41.502434,41.094055],[41.498531,41.097101],[41.492725,41.100717],[41.489789,41.102229],[41.492739,41.107083],[41.499307,41.115935],[41.503304,41.122693],[41.506445,41.127357],[41.508932,41.131709],[41.50911,41.13202],[41.510461,41.135542],[41.514916,41.147154],[41.51548,41.149251],[41.517295,41.156005],[41.517866,41.163429],[41.517771,41.166189],[41.517677,41.17666],[41.517676,41.176754],[41.51739,41.185701],[41.5172,41.189413],[41.516583,41.194193],[41.516058,41.198264],[41.513774,41.208449],[41.512083,41.211248],[41.507682,41.218537],[41.503399,41.226723],[41.497022,41.240524],[41.496356,41.243093],[41.493881,41.24928],[41.489979,41.25718],[41.489408,41.258037],[41.485585,41.263636],[41.479985,41.271837],[41.479409,41.27326],[41.478367,41.275835],[41.47694,41.279737],[41.47694,41.282117],[41.477853,41.283716],[41.478462,41.284782],[41.479784,41.288483],[41.480842,41.291444],[41.482745,41.30001],[41.483983,41.305911],[41.484935,41.310575],[41.486172,41.314668],[41.487124,41.317142],[41.489598,41.319331],[41.491246,41.320539],[41.492454,41.321425],[41.492575,41.321481],[41.492958,41.321658]]]}},{"type":"Feature","properties":{"id":"TR-D-08-008","parent_id":"TR-P-08","region_id":"TR-R-KAR","level":"district","municipality_type":null,"municipality_type_label":null,"is_metropolitan_municipality":null,"name":"Şavşat","name_ascii":"savsat","slug":"savsat-artvin"},"geometry":{"type":"Polygon","coordinates":[[[42.084811,41.51076],[42.090832,41.513316],[42.094646,41.510844],[42.096397,41.509709],[42.103041,41.506773],[42.111644,41.510685],[42.11659,41.50982],[42.117258,41.509703],[42.121918,41.507022],[42.125253,41.505495],[42.126052,41.505239],[42.126598,41.505063],[42.128175,41.505191],[42.132504,41.505543],[42.134041,41.505975],[42.13577,41.507128],[42.13839,41.507322],[42.140435,41.506917],[42.143039,41.506049],[42.146155,41.505511],[42.146526,41.505447],[42.152673,41.505831],[42.15445,41.505783],[42.157235,41.50612],[42.158723,41.506456],[42.159502,41.506983],[42.161845,41.508568],[42.162997,41.508905],[42.164386,41.509319],[42.166215,41.509865],[42.167943,41.511786],[42.169864,41.512458],[42.170772,41.513236],[42.170873,41.513323],[42.171055,41.51332],[42.173802,41.513275],[42.175819,41.513467],[42.177502,41.514222],[42.178172,41.514523],[42.178863,41.514121],[42.180813,41.512986],[42.182686,41.510921],[42.186527,41.509241],[42.1884,41.508953],[42.193436,41.507694],[42.194162,41.507512],[42.194996,41.506554],[42.196083,41.505303],[42.196756,41.503814],[42.196899,41.502758],[42.197476,41.50199],[42.198349,41.501675],[42.198676,41.501558],[42.198732,41.501031],[42.198772,41.500645],[42.19858,41.499973],[42.199541,41.49882],[42.200885,41.497812],[42.201317,41.496851],[42.20151,41.495939],[42.202086,41.495075],[42.202038,41.493202],[42.202854,41.492241],[42.204919,41.491185],[42.206792,41.491281],[42.208136,41.491569],[42.20907,41.492431],[42.210489,41.49445],[42.211539,41.495285],[42.213178,41.495891],[42.214954,41.496366],[42.219776,41.496308],[42.221589,41.496925],[42.22528,41.498676],[42.225872,41.498642],[42.227344,41.498004],[42.22892,41.49679],[42.229807,41.496732],[42.230714,41.497195],[42.231714,41.497428],[42.233347,41.497572],[42.235124,41.497092],[42.23926,41.495073],[42.242567,41.494066],[42.24444,41.49445],[42.247849,41.494018],[42.250058,41.494306],[42.253083,41.494642],[42.255244,41.494499],[42.257549,41.493874],[42.260959,41.492818],[42.262976,41.491809],[42.268306,41.491665],[42.268834,41.49253],[42.271331,41.49397],[42.272941,41.494013],[42.27423,41.494223],[42.274741,41.494306],[42.275163,41.494158],[42.276517,41.493682],[42.277622,41.492866],[42.279229,41.493145],[42.280387,41.49299],[42.281194,41.493111],[42.28331,41.493177],[42.284105,41.493202],[42.287034,41.491761],[42.290365,41.490003],[42.290491,41.489937],[42.290494,41.489936],[42.292556,41.489696],[42.293755,41.489904],[42.294813,41.488592],[42.295533,41.487872],[42.296254,41.486959],[42.297454,41.486911],[42.298943,41.486671],[42.300121,41.485834],[42.300926,41.484553],[42.30097,41.484483],[42.302448,41.483118],[42.304037,41.482419],[42.304849,41.482493],[42.306866,41.482493],[42.309699,41.481581],[42.31138,41.480717],[42.312388,41.481053],[42.312669,41.481302],[42.313685,41.482205],[42.314067,41.480837],[42.314261,41.48014],[42.315462,41.479612],[42.316634,41.47939],[42.317239,41.479276],[42.317355,41.478839],[42.317431,41.478556],[42.319568,41.476125],[42.321032,41.47505],[42.32112,41.475055],[42.321944,41.475098],[42.322761,41.474138],[42.325114,41.472985],[42.32641,41.471305],[42.327563,41.469912],[42.327992,41.468945],[42.328139,41.468616],[42.329292,41.468087],[42.330396,41.468039],[42.332018,41.468773],[42.332413,41.468952],[42.332631,41.468983],[42.336111,41.46948],[42.340432,41.47092],[42.341043,41.471182],[42.341777,41.471497],[42.342473,41.471422],[42.344898,41.47116],[42.347203,41.471257],[42.347632,41.471306],[42.348884,41.471449],[42.350794,41.470521],[42.352629,41.46963],[42.352795,41.469827],[42.353247,41.470363],[42.353686,41.4702],[42.355137,41.469264],[42.355895,41.469096],[42.356642,41.468723],[42.357745,41.467522],[42.358152,41.467079],[42.359496,41.466791],[42.35954,41.46679],[42.361993,41.466743],[42.364443,41.465734],[42.365595,41.465302],[42.36579,41.465237],[42.366887,41.464872],[42.368042,41.464769],[42.368563,41.464943],[42.368586,41.464954],[42.369643,41.465463],[42.370541,41.465206],[42.371081,41.465172],[42.371669,41.465136],[42.372325,41.465337],[42.372421,41.465367],[42.372541,41.465367],[42.373835,41.465363],[42.375919,41.465206],[42.377398,41.465945],[42.37784,41.466166],[42.378752,41.466695],[42.380769,41.467079],[42.382162,41.467607],[42.383108,41.466451],[42.383891,41.465494],[42.384467,41.464101],[42.384563,41.463429],[42.385571,41.463141],[42.386676,41.463333],[42.388693,41.464197],[42.390565,41.465254],[42.392342,41.466022],[42.394743,41.465926],[42.397673,41.465878],[42.398921,41.466502],[42.399602,41.466564],[42.400393,41.466564],[42.400845,41.466473],[42.400938,41.466455],[42.400949,41.466439],[42.402042,41.464822],[42.402571,41.464486],[42.403147,41.464438],[42.404251,41.46463],[42.404811,41.464577],[42.40647,41.463381],[42.406778,41.462764],[42.407507,41.462128],[42.409389,41.461316],[42.410158,41.460644],[42.410398,41.460116],[42.410686,41.459203],[42.412079,41.458483],[42.413015,41.457977],[42.414768,41.458867],[42.416542,41.458673],[42.417841,41.458531],[42.418761,41.457317],[42.419636,41.456737],[42.420096,41.456419],[42.420098,41.456418],[42.420099,41.456417],[42.421347,41.455026],[42.422595,41.454209],[42.423286,41.454071],[42.423796,41.453969],[42.425813,41.452865],[42.425716,41.451952],[42.426677,41.4508],[42.428214,41.449455],[42.429618,41.447929],[42.431047,41.44715],[42.432583,41.445614],[42.432911,41.444793],[42.432967,41.444653],[42.43388,41.443741],[42.434628,41.443752],[42.437145,41.443789],[42.437675,41.443963],[42.438291,41.443894],[42.438701,41.443279],[42.439043,41.442287],[42.439348,41.441745],[42.439351,41.441739],[42.439453,41.441705],[42.439967,41.441534],[42.444535,41.441466],[42.446191,41.441603],[42.447833,41.440714],[42.448551,41.440132],[42.448722,41.439653],[42.448654,41.439209],[42.44849,41.438882],[42.448346,41.438593],[42.448517,41.438217],[42.449338,41.43808],[42.450193,41.438251],[42.450979,41.438114],[42.452052,41.437898],[42.452448,41.438068],[42.452998,41.438303],[42.45375,41.43873],[42.455768,41.438969],[42.45717,41.439106],[42.458469,41.438764],[42.45944,41.438362],[42.460282,41.437977],[42.460932,41.437328],[42.461718,41.436815],[42.463258,41.436678],[42.464523,41.437191],[42.465652,41.436586],[42.467234,41.436509],[42.468169,41.435911],[42.468627,41.435618],[42.469837,41.43546],[42.471534,41.435481],[42.472971,41.435994],[42.473178,41.436317],[42.473586,41.436951],[42.475775,41.437943],[42.476888,41.437853],[42.480131,41.438367],[42.480417,41.43821],[42.481392,41.437673],[42.482369,41.437853],[42.483296,41.438393],[42.484209,41.439217],[42.485406,41.440297],[42.485766,41.440967],[42.487645,41.440915],[42.488468,41.440709],[42.488513,41.440684],[42.488931,41.440452],[42.489189,41.440503],[42.48942,41.440735],[42.489858,41.441764],[42.491067,41.443771],[42.491119,41.444183],[42.4911,41.444259],[42.490913,41.445032],[42.492227,41.444958],[42.494567,41.444826],[42.495571,41.444698],[42.497552,41.443874],[42.499276,41.442588],[42.499559,41.442304],[42.500975,41.441558],[42.503187,41.440452],[42.504217,41.440143],[42.505233,41.440295],[42.505246,41.440297],[42.505684,41.440864],[42.506121,41.44197],[42.506533,41.442202],[42.506996,41.442047],[42.511422,41.4395],[42.512503,41.439217],[42.514793,41.439371],[42.515745,41.439294],[42.517492,41.438182],[42.518995,41.436974],[42.518998,41.436971],[42.520079,41.43648],[42.520996,41.437593],[42.524139,41.442864],[42.5243,41.443921],[42.526082,41.443397],[42.530822,41.440965],[42.532881,41.439655],[42.535491,41.437899],[42.538681,41.435788],[42.541176,41.434104],[42.542423,41.431797],[42.543421,41.428553],[42.544356,41.423626],[42.545105,41.418637],[42.545461,41.416145],[42.545479,41.416017],[42.544091,41.410028],[42.543198,41.402785],[42.542801,41.398121],[42.542702,41.393954],[42.543793,41.388001],[42.545579,41.379865],[42.547762,41.373813],[42.548963,41.370916],[42.549387,41.369894],[42.549449,41.369745],[42.550719,41.368633],[42.554211,41.365578],[42.567308,41.354763],[42.572865,41.349206],[42.587847,41.335911],[42.59509,41.32837],[42.60144,41.322318],[42.606897,41.318052],[42.612354,41.314182],[42.615727,41.309519],[42.616323,41.306443],[42.615727,41.302474],[42.615033,41.299001],[42.611957,41.292255],[42.608187,41.284119],[42.605309,41.27757],[42.601043,41.269533],[42.598804,41.26701],[42.595586,41.263382],[42.59427,41.261897],[42.59336,41.260868],[42.589434,41.256436],[42.587496,41.254668],[42.581497,41.249193],[42.577802,41.246935],[42.576139,41.245919],[42.572071,41.244431],[42.565028,41.242649],[42.563836,41.242347],[42.554013,41.239768],[42.547473,41.237378],[42.543694,41.235997],[42.530697,41.229449],[42.521469,41.220321],[42.518195,41.21655],[42.515714,41.212383],[42.514226,41.208613],[42.51115,41.202957],[42.510759,41.202494],[42.50738,41.198492],[42.50232,41.19373],[42.500865,41.192817],[42.496466,41.190059],[42.478474,41.177961],[42.473447,41.174581],[42.46174,41.16528],[42.444971,41.151959],[42.42882,41.136381],[42.428203,41.135786],[42.405978,41.111279],[42.395758,41.097388],[42.390992,41.090373],[42.387044,41.092876],[42.379715,41.096778],[42.372101,41.101061],[42.364772,41.104012],[42.36087,41.105249],[42.360675,41.105253],[42.352779,41.105439],[42.350224,41.105301],[42.345736,41.105059],[42.33717,41.103631],[42.330127,41.101537],[42.325178,41.10068],[42.317754,41.100871],[42.311662,41.102774],[42.307189,41.104392],[42.302335,41.106962],[42.302001,41.107247],[42.295767,41.112578],[42.285774,41.126378],[42.281967,41.132184],[42.275875,41.138466],[42.268261,41.1457],[42.26493,41.150459],[42.262836,41.154075],[42.257982,41.160833],[42.253032,41.169018],[42.249891,41.172826],[42.246846,41.175586],[42.243476,41.17869],[42.243229,41.178917],[42.240754,41.181582],[42.238247,41.185547],[42.236662,41.188054],[42.234649,41.190896],[42.231808,41.194907],[42.227429,41.199761],[42.226006,41.201463],[42.225357,41.202239],[42.225029,41.202283],[42.224939,41.202296],[42.22365,41.203499],[42.222275,41.204702],[42.22004,41.205733],[42.218923,41.20728],[42.217978,41.208655],[42.217462,41.209858],[42.217226,41.212221],[42.217204,41.212436],[42.217147,41.212895],[42.217033,41.213811],[42.216689,41.214843],[42.216824,41.215996],[42.216861,41.216304],[42.21729,41.217077],[42.217033,41.218194],[42.216517,41.218538],[42.2154,41.218624],[42.214454,41.218882],[42.213165,41.219655],[42.212245,41.220196],[42.211704,41.220514],[42.211557,41.22058],[42.210931,41.220858],[42.210673,41.221718],[42.210157,41.222749],[42.208868,41.223522],[42.207747,41.223958],[42.207322,41.224124],[42.205947,41.223982],[42.204829,41.223866],[42.203626,41.22421],[42.202853,41.224811],[42.200361,41.225241],[42.198728,41.225499],[42.197095,41.225843],[42.196235,41.226272],[42.195634,41.227304],[42.195634,41.228421],[42.19486,41.229452],[42.194517,41.230655],[42.194259,41.23203],[42.194001,41.233491],[42.193571,41.234265],[42.193657,41.234522],[42.193743,41.23478],[42.194431,41.235382],[42.19529,41.235811],[42.19529,41.236757],[42.194946,41.23753],[42.195032,41.238304],[42.195032,41.239679],[42.195118,41.241569],[42.194431,41.243288],[42.193142,41.24389],[42.191939,41.244491],[42.190914,41.245358],[42.190821,41.245437],[42.189704,41.24664],[42.189017,41.247155],[42.187502,41.249007],[42.186883,41.250491],[42.185932,41.250967],[42.18524,41.251218],[42.182902,41.255447],[42.1786,41.257725],[42.17851,41.257705],[42.178103,41.257615],[42.176995,41.257386],[42.176439,41.257281],[42.17588,41.257187],[42.175319,41.257108],[42.17479,41.25705],[42.174445,41.257021],[42.174258,41.257005],[42.173973,41.256988],[42.173724,41.256972],[42.173213,41.25695],[42.173188,41.256949],[42.172652,41.256934],[42.172473,41.256933],[42.172116,41.256929],[42.171579,41.256934],[42.171081,41.256949],[42.170086,41.257005],[42.169591,41.257045],[42.169097,41.257095],[42.168605,41.257155],[42.168109,41.257228],[42.167124,41.2574],[42.166145,41.257596],[42.164188,41.258017],[42.163205,41.258205],[42.16271,41.258283],[42.162222,41.258344],[42.161731,41.258391],[42.161239,41.258425],[42.160745,41.258447],[42.160251,41.258455],[42.159756,41.258448],[42.159516,41.258436],[42.159264,41.258425],[42.158771,41.258388],[42.157788,41.258285],[42.156808,41.258152],[42.156414,41.25809],[42.156268,41.258068],[42.154653,41.257788],[42.154527,41.257768],[42.153017,41.257535],[42.153381,41.264673],[42.153,41.268004],[42.152714,41.273334],[42.152714,41.275713],[42.15319,41.276983],[42.153856,41.278759],[42.154618,41.281424],[42.155474,41.284851],[42.15595,41.288277],[42.156046,41.291228],[42.155094,41.294654],[42.154237,41.297224],[42.153,41.299413],[42.144339,41.316164],[42.136915,41.330251],[42.132873,41.336064],[42.129967,41.340244],[42.122543,41.347478],[42.117308,41.352142],[42.116261,41.352903],[42.11036,41.355568],[42.105696,41.356901],[42.093037,41.359946],[42.07857,41.362707],[42.070861,41.36461],[42.063342,41.365847],[42.059249,41.365372],[42.0543,41.364705],[42.048208,41.36461],[42.04383,41.365372],[42.041974,41.366806],[42.041736,41.36699],[42.041371,41.367187],[42.038928,41.368503],[42.037244,41.371217],[42.035514,41.373509],[42.03266,41.377344],[42.030602,41.380993],[42.026486,41.385062],[42.02527,41.387167],[42.024802,41.390816],[42.024802,41.392593],[42.025036,41.394464],[42.026112,41.395603],[42.030976,41.400218],[42.035093,41.404334],[42.036777,41.407577],[42.03977,41.41107],[42.041018,41.412317],[42.042764,41.414687],[42.043263,41.41712],[42.043762,41.42055],[42.043513,41.422608],[42.043388,41.424916],[42.043138,41.426413],[42.042951,41.428034],[42.04345,41.430342],[42.044448,41.432151],[42.045134,41.432837],[42.045945,41.433336],[42.04713,41.433647],[42.048627,41.434334],[42.050061,41.435082],[42.053055,41.436205],[42.055051,41.437327],[42.057047,41.4382],[42.059167,41.438824],[42.061412,41.439136],[42.063595,41.440259],[42.064406,41.440882],[42.065965,41.442504],[42.067213,41.444999],[42.068273,41.446246],[42.069333,41.447057],[42.071641,41.448429],[42.075009,41.449676],[42.078189,41.450612],[42.083241,41.452046],[42.085611,41.453855],[42.087046,41.455352],[42.088168,41.456973],[42.088917,41.45978],[42.089603,41.46215],[42.089665,41.464645],[42.089166,41.466703],[42.088667,41.468699],[42.088418,41.470383],[42.087919,41.471942],[42.08742,41.472877],[42.086048,41.474748],[42.085362,41.476931],[42.084489,41.478989],[42.083927,41.480798],[42.083927,41.484228],[42.084551,41.486848],[42.084676,41.488657],[42.083803,41.491526],[42.083553,41.494582],[42.083491,41.498823],[42.084613,41.506057],[42.084847,41.510182],[42.084825,41.510385],[42.084811,41.510574],[42.084811,41.51076]]]}},{"type":"Feature","properties":{"id":"TR-D-08-009","parent_id":"TR-P-08","region_id":"TR-R-KAR","level":"district","municipality_type":null,"municipality_type_label":null,"is_metropolitan_municipality":null,"name":"Yusufeli","name_ascii":"yusufeli","slug":"yusufeli-artvin"},"geometry":{"type":"Polygon","coordinates":[[[41.334718,40.56582],[41.3341,40.566494],[41.332958,40.569635],[41.332292,40.573537],[41.331626,40.577154],[41.330959,40.583721],[41.329817,40.588766],[41.329341,40.590384],[41.327914,40.592858],[41.3262,40.59638],[41.323916,40.603138],[41.322393,40.608087],[41.318967,40.61494],[41.316683,40.618176],[41.31554,40.623125],[41.315255,40.62855],[41.315065,40.635118],[41.314969,40.639591],[41.315731,40.642922],[41.316016,40.645207],[41.315445,40.648252],[41.314398,40.650917],[41.311448,40.653202],[41.308592,40.656247],[41.308212,40.657485],[41.309259,40.662053],[41.311829,40.667002],[41.314684,40.67081],[41.315731,40.67357],[41.31773,40.679376],[41.322108,40.684325],[41.327152,40.68718],[41.33391,40.689655],[41.344665,40.694414],[41.354754,40.700315],[41.360084,40.704598],[41.361892,40.707263],[41.363796,40.714782],[41.364938,40.721159],[41.365033,40.724966],[41.36351,40.728012],[41.359989,40.732676],[41.356943,40.735721],[41.354183,40.736673],[41.349138,40.737244],[41.344189,40.73753],[41.339716,40.739528],[41.335909,40.741908],[41.330769,40.746762],[41.326772,40.749712],[41.317634,40.753996],[41.312875,40.75628],[41.308688,40.757422],[41.30174,40.757993],[41.293269,40.760087],[41.288129,40.760848],[41.281086,40.762466],[41.275851,40.764084],[41.267475,40.767606],[41.262145,40.771223],[41.259671,40.773602],[41.25672,40.7776],[41.252152,40.781026],[41.248154,40.782644],[41.236066,40.785595],[41.223217,40.789212],[41.204467,40.795779],[41.196853,40.798729],[41.190762,40.800443],[41.182386,40.802917],[41.173915,40.805106],[41.16611,40.806534],[41.156783,40.80958],[41.153166,40.811007],[41.153261,40.813197],[41.153547,40.816242],[41.154784,40.827188],[41.15802,40.836325],[41.160114,40.840703],[41.162398,40.844986],[41.164778,40.848698],[41.169442,40.854504],[41.172868,40.858501],[41.176865,40.862023],[41.17915,40.863927],[41.183338,40.866306],[41.186479,40.867639],[41.189048,40.868495],[41.195901,40.875253],[41.200089,40.879155],[41.203325,40.884485],[41.206371,40.89229],[41.208655,40.898191],[41.210083,40.900761],[41.212272,40.904187],[41.213795,40.908089],[41.214556,40.913419],[41.214746,40.915799],[41.215222,40.917893],[41.215889,40.918749],[41.220172,40.9217],[41.222456,40.923603],[41.224074,40.925602],[41.226453,40.930171],[41.228167,40.935215],[41.228643,40.937975],[41.227881,40.94045],[41.226453,40.944257],[41.226644,40.945875],[41.22712,40.949016],[41.229594,40.951985],[41.231307,40.95377],[41.23352,40.955411],[41.236519,40.957838],[41.238731,40.959123],[41.240873,40.960408],[41.245013,40.963192],[41.248725,40.96619],[41.251813,40.969249],[41.253977,40.970918],[41.260643,40.975826],[41.26246,40.977372],[41.265551,40.980002],[41.271437,40.983212],[41.276832,40.986155],[41.290751,40.992748],[41.296611,40.99663],[41.300869,40.999771],[41.302471,41.000952],[41.310822,41.005567],[41.328916,41.015456],[41.330523,41.016445],[41.337486,41.020731],[41.347302,41.027324],[41.347793,41.027843],[41.351038,41.031279],[41.357045,41.038605],[41.359934,41.042024],[41.360635,41.042853],[41.364664,41.046663],[41.366861,41.048128],[41.367301,41.048421],[41.368617,41.049226],[41.37089,41.050618],[41.373492,41.051532],[41.376311,41.052523],[41.378179,41.053366],[41.382318,41.055233],[41.386127,41.058017],[41.386332,41.058282],[41.387372,41.059628],[41.389345,41.064507],[41.390009,41.066148],[41.39069,41.068079],[41.39228,41.072594],[41.394112,41.077502],[41.395064,41.083802],[41.395506,41.087025],[41.395577,41.087538],[41.409934,41.086144],[41.417548,41.08681],[41.430812,41.089156],[41.433157,41.089571],[41.435061,41.089855],[41.439534,41.090522],[41.44534,41.092236],[41.451622,41.095281],[41.458856,41.099089],[41.465042,41.100611],[41.470943,41.101087],[41.478082,41.101373],[41.489789,41.102229],[41.492725,41.100717],[41.498531,41.097101],[41.502434,41.094055],[41.507192,41.090343],[41.509477,41.088725],[41.514236,41.086155],[41.520613,41.081777],[41.525372,41.080159],[41.532415,41.078921],[41.539077,41.078636],[41.542028,41.078826],[41.54612,41.077779],[41.551165,41.075495],[41.552879,41.074276],[41.556114,41.071973],[41.557447,41.070736],[41.558589,41.069213],[41.560397,41.065882],[41.562301,41.062456],[41.563538,41.060171],[41.564871,41.05941],[41.570772,41.057982],[41.577053,41.058268],[41.581908,41.058553],[41.587047,41.057602],[41.591996,41.055698],[41.597898,41.05389],[41.603513,41.052081],[41.606844,41.051605],[41.609414,41.051891],[41.613031,41.052557],[41.616648,41.052843],[41.621502,41.052747],[41.624072,41.052747],[41.627117,41.052272],[41.6314,41.052272],[41.63378,41.052747],[41.636921,41.053794],[41.640633,41.054841],[41.643869,41.054746],[41.645772,41.054175],[41.648152,41.053128],[41.651388,41.051225],[41.654529,41.049892],[41.660715,41.047608],[41.662904,41.047227],[41.672042,41.047513],[41.6768,41.047989],[41.683939,41.050749],[41.68965,41.052462],[41.692695,41.052557],[41.69793,41.052176],[41.7084,41.05132],[41.71649,41.049797],[41.725056,41.046275],[41.730767,41.042754],[41.736668,41.036757],[41.740189,41.032474],[41.742949,41.03019],[41.746661,41.029048],[41.750754,41.028001],[41.755418,41.026669],[41.763698,41.023052],[41.772074,41.019625],[41.779593,41.01677],[41.7834,41.013819],[41.789587,41.00868],[41.793965,41.004873],[41.795964,41.001066],[41.798534,40.99545],[41.79939,40.992785],[41.801484,40.987741],[41.802722,40.985266],[41.803007,40.983458],[41.802817,40.981268],[41.801294,40.979079],[41.798058,40.97413],[41.797296,40.970989],[41.797582,40.968705],[41.798629,40.965659],[41.800532,40.961281],[41.802722,40.957855],[41.804815,40.953952],[41.807671,40.951573],[41.811288,40.950811],[41.81776,40.949764],[41.823756,40.95005],[41.829562,40.949764],[41.834987,40.947861],[41.840793,40.944244],[41.844505,40.941769],[41.849359,40.940342],[41.855831,40.939485],[41.858401,40.940342],[41.860971,40.94234],[41.862303,40.94491],[41.865254,40.94748],[41.868395,40.950716],[41.87106,40.95281],[41.874296,40.953857],[41.876199,40.954238],[41.883528,40.953571],[41.887716,40.953191],[41.893141,40.952525],[41.898471,40.952239],[41.902754,40.952049],[41.907513,40.951382],[41.910178,40.950431],[41.914461,40.949384],[41.918554,40.949098],[41.924455,40.949288],[41.929594,40.950145],[41.933402,40.951668],[41.937494,40.951668],[41.94311,40.95005],[41.94863,40.947575],[41.952094,40.945923],[41.948192,40.943543],[41.939054,40.936595],[41.928014,40.923556],[41.921256,40.91756],[41.916212,40.914324],[41.910691,40.911659],[41.904314,40.908898],[41.896129,40.904996],[41.887373,40.900047],[41.882328,40.896145],[41.878902,40.892718],[41.875666,40.889101],[41.871573,40.884247],[41.868908,40.880535],[41.866433,40.876633],[41.864054,40.873492],[41.861579,40.870637],[41.857201,40.864926],[41.856249,40.862832],[41.856344,40.859406],[41.856725,40.855408],[41.857201,40.850173],[41.858533,40.846747],[41.860818,40.842274],[41.864149,40.83918],[41.867861,40.83711],[41.872715,40.833826],[41.877712,40.829044],[41.880996,40.825118],[41.881567,40.821905],[41.881352,40.817908],[41.880781,40.811626],[41.880639,40.803702],[41.878354,40.799776],[41.874785,40.795636],[41.868503,40.792495],[41.861579,40.790282],[41.853441,40.788355],[41.851229,40.787498],[41.850616,40.786837],[41.849444,40.785571],[41.848587,40.782858],[41.847374,40.779075],[41.845946,40.775078],[41.843947,40.767796],[41.840164,40.760515],[41.836381,40.755304],[41.83481,40.751378],[41.831527,40.745953],[41.829599,40.742741],[41.827529,40.740671],[41.826744,40.739528],[41.826244,40.737815],[41.825959,40.73446],[41.825744,40.729535],[41.825887,40.724466],[41.825816,40.720969],[41.824317,40.714116],[41.822247,40.709761],[41.82089,40.705907],[41.820391,40.704122],[41.820462,40.702837],[41.822175,40.699625],[41.824031,40.696627],[41.82603,40.693058],[41.828029,40.69063],[41.829813,40.68749],[41.830456,40.685134],[41.830242,40.681993],[41.827529,40.677996],[41.822746,40.673855],[41.817678,40.669786],[41.81161,40.665575],[41.807756,40.663219],[41.805043,40.661387],[41.801617,40.658056],[41.797429,40.654534],[41.794669,40.652916],[41.791718,40.651774],[41.787911,40.652821],[41.781534,40.655962],[41.773729,40.66034],[41.767353,40.663576],[41.761832,40.664528],[41.759072,40.664813],[41.755265,40.663576],[41.747746,40.662529],[41.746193,40.662544],[41.737847,40.662624],[41.728805,40.663862],[41.723475,40.665289],[41.714243,40.669667],[41.703964,40.674617],[41.693304,40.678709],[41.679312,40.68423],[41.669033,40.688513],[41.659515,40.692701],[41.645524,40.69746],[41.633246,40.700125],[41.628963,40.700696],[41.623633,40.699744],[41.619921,40.698506],[41.61383,40.694414],[41.609451,40.69251],[41.606406,40.692034],[41.599648,40.691844],[41.593842,40.691558],[41.589178,40.690607],[41.577376,40.686038],[41.568715,40.682802],[41.561386,40.679661],[41.558912,40.677567],[41.556342,40.675378],[41.55263,40.67119],[41.550631,40.668906],[41.549489,40.667193],[41.548347,40.665004],[41.546158,40.663576],[41.544159,40.662244],[41.536259,40.66034],[41.53388,40.659769],[41.532642,40.658817],[41.530929,40.656438],[41.527693,40.65244],[41.525123,40.650632],[41.518746,40.647491],[41.513512,40.644731],[41.510085,40.643208],[41.506564,40.642351],[41.497141,40.638354],[41.4861,40.632357],[41.479438,40.627123],[41.470872,40.619889],[41.45669,40.612751],[41.452693,40.611133],[41.449171,40.609515],[41.444698,40.608277],[41.442223,40.60685],[41.441652,40.605898],[41.441557,40.603614],[41.441747,40.600473],[41.441652,40.597903],[41.438416,40.593525],[41.434609,40.589337],[41.430516,40.585815],[41.426423,40.581627],[41.420297,40.576342],[41.415919,40.57263],[41.411731,40.570155],[41.408591,40.569869],[41.402404,40.57006],[41.397264,40.570682],[41.388694,40.569221],[41.378929,40.566018],[41.363701,40.562116],[41.352755,40.561925],[41.33924,40.56421],[41.335147,40.565352],[41.334718,40.56582]]]}}]}