{"type":"FeatureCollection","province":"Batman","province_id":"TR-P-72","features":[{"type":"Feature","properties":{"id":"TR-D-72-001","parent_id":"TR-P-72","region_id":"TR-R-GDA","level":"district","municipality_type":null,"municipality_type_label":null,"is_metropolitan_municipality":null,"name":"Batman","name_ascii":"batman","slug":"batman-batman"},"geometry":{"type":"Polygon","coordinates":[[[41.266068,38.042543],[41.261785,38.038634],[41.258538,38.0365],[41.252971,38.033809],[41.251023,38.033253],[41.245456,38.029356],[41.242395,38.026202],[41.241003,38.022676],[41.241281,38.020728],[41.242488,38.017388],[41.244621,38.014141],[41.246848,38.012192],[41.251487,38.00876],[41.252322,38.006162],[41.252322,38.003564],[41.251116,37.999575],[41.250095,37.997441],[41.24657,37.994936],[41.242951,37.994286],[41.235529,37.992431],[41.228942,37.990761],[41.221427,37.990019],[41.215489,37.98872],[41.209459,37.984638],[41.204913,37.981483],[41.203614,37.979906],[41.203336,37.977679],[41.203985,37.975638],[41.205562,37.973319],[41.20649,37.97035],[41.206583,37.966825],[41.206861,37.963485],[41.207418,37.959773],[41.208624,37.957825],[41.211129,37.955784],[41.214191,37.952908],[41.218523,37.939363],[41.225376,37.926514],[41.227801,37.912582],[41.226623,37.911901],[41.222262,37.90819],[41.220499,37.905777],[41.220685,37.902623],[41.223561,37.898726],[41.226623,37.895108],[41.231076,37.889912],[41.235529,37.885366],[41.238313,37.879429],[41.245178,37.8631],[41.2526,37.844916],[41.258167,37.83471],[41.261507,37.831927],[41.270135,37.826824],[41.273011,37.82534],[41.279227,37.822556],[41.292309,37.816712],[41.305761,37.813093],[41.317266,37.809846],[41.331646,37.806599],[41.339439,37.804465],[41.350109,37.801682],[41.359479,37.798713],[41.36987,37.795466],[41.373767,37.794167],[41.381931,37.791662],[41.398631,37.784982],[41.407259,37.782199],[41.415331,37.779322],[41.42767,37.773478],[41.434165,37.77088],[41.438154,37.768282],[41.441308,37.765591],[41.443164,37.764571],[41.445112,37.762066],[41.446875,37.756128],[41.447432,37.752139],[41.449658,37.747871],[41.454019,37.743139],[41.458194,37.738872],[41.46128,37.733957],[41.462213,37.732472],[41.463923,37.729624],[41.463352,37.729563],[41.462856,37.729502],[41.462362,37.729432],[41.461811,37.729339],[41.461263,37.729235],[41.460716,37.729123],[41.459628,37.728883],[41.458,37.728504],[41.452037,37.727084],[41.44661,37.725804],[41.444977,37.725424],[41.441023,37.721364],[41.439165,37.715983],[41.438276,37.71341],[41.427763,37.709945],[41.411159,37.706818],[41.399339,37.705855],[41.393246,37.706194],[41.384106,37.706701],[41.376526,37.707527],[41.362874,37.714769],[41.359319,37.714966],[41.345785,37.71774],[41.335924,37.715852],[41.329252,37.715408],[41.323666,37.715715],[41.311986,37.716357],[41.300551,37.719821],[41.296768,37.723271],[41.290112,37.728905],[41.284501,37.732338],[41.27515,37.739833],[41.271366,37.740761],[41.267654,37.741903],[41.261587,37.742475],[41.252521,37.741761],[41.246645,37.73802],[41.246619,37.738008],[41.246268,37.73778],[41.245958,37.737505],[41.245688,37.737195],[41.245461,37.736855],[41.245275,37.736484],[41.245125,37.736094],[41.245002,37.73569],[41.244898,37.735278],[41.244809,37.73486],[41.24473,37.734438],[41.244593,37.733589],[41.244426,37.732314],[41.244378,37.731783],[41.244349,37.731467],[41.244328,37.731044],[41.244322,37.730622],[41.244334,37.730225],[41.244361,37.729828],[41.244445,37.729036],[41.244587,37.727883],[41.244621,37.72747],[41.244635,37.727077],[41.244633,37.726683],[41.244615,37.726288],[41.244585,37.725894],[41.244542,37.725499],[41.244426,37.724709],[41.244282,37.72392],[41.24411,37.723134],[41.243903,37.722358],[41.243657,37.721596],[41.243516,37.72122],[41.243362,37.720848],[41.243193,37.72048],[41.243007,37.720119],[41.2428,37.719766],[41.242543,37.719384],[41.242261,37.719013],[41.24196,37.718651],[41.241641,37.718298],[41.241307,37.717956],[41.240955,37.717627],[41.240584,37.717315],[41.240224,37.717048],[41.239845,37.716804],[41.239447,37.716587],[41.239028,37.716402],[41.238594,37.716258],[41.238143,37.716149],[41.23768,37.716073],[41.23721,37.716028],[41.236722,37.716017],[41.236236,37.716037],[41.235758,37.716089],[41.235295,37.716174],[41.234846,37.716297],[41.23443,37.716457],[41.234056,37.716655],[41.23374,37.716894],[41.233496,37.717175],[41.233317,37.717492],[41.233197,37.717835],[41.233137,37.718195],[41.233138,37.718592],[41.233199,37.718996],[41.233325,37.719435],[41.233473,37.719801],[41.233676,37.72018],[41.233915,37.720549],[41.234185,37.720911],[41.23448,37.721262],[41.234785,37.721591],[41.235107,37.721911],[41.235441,37.722224],[41.235786,37.72253],[41.236818,37.7234],[41.237146,37.723694],[41.237457,37.723998],[41.237743,37.724312],[41.237999,37.724636],[41.238217,37.724974],[41.238393,37.725329],[41.238527,37.725697],[41.238623,37.726074],[41.238683,37.726457],[41.238706,37.726852],[41.238696,37.727249],[41.238656,37.727647],[41.238587,37.728044],[41.23848,37.728467],[41.238345,37.728886],[41.23818,37.729311],[41.238,37.729711],[41.237794,37.730111],[41.237568,37.730505],[41.237324,37.730892],[41.237062,37.731272],[41.236788,37.731637],[41.236496,37.731994],[41.236188,37.732341],[41.235861,37.732677],[41.235498,37.733015],[41.235116,37.733341],[41.234721,37.733656],[41.234313,37.733961],[41.233893,37.734255],[41.233461,37.734536],[41.233015,37.734802],[41.232574,37.735037],[41.232119,37.735254],[41.231654,37.735455],[41.231177,37.735639],[41.23071,37.735796],[41.230235,37.735936],[41.229752,37.736057],[41.229262,37.736157],[41.228781,37.736232],[41.228295,37.736287],[41.227805,37.736326],[41.227313,37.73635],[41.226812,37.73636],[41.22631,37.736358],[41.225809,37.736345],[41.22531,37.73632],[41.224814,37.736284],[41.224322,37.736232],[41.223836,37.736163],[41.223359,37.736071],[41.22288,37.735949],[41.222411,37.735805],[41.221951,37.735643],[41.221498,37.735469],[41.220645,37.735121],[41.220216,37.734959],[41.219779,37.734818],[41.219276,37.734694],[41.218759,37.734602],[41.218159,37.734524],[41.217696,37.734478],[41.21661,37.734403],[41.21496,37.734331],[41.213304,37.73428],[41.212206,37.73426],[41.211122,37.734263],[41.21059,37.734282],[41.210069,37.734318],[41.209496,37.734392],[41.209076,37.734474],[41.208617,37.734615],[41.208224,37.734793],[41.207852,37.735009],[41.207495,37.735252],[41.206445,37.736048],[41.206083,37.736309],[41.205704,37.736554],[41.205267,37.736794],[41.204808,37.73701],[41.204331,37.737206],[41.203841,37.737384],[41.203339,37.737544],[41.202827,37.737685],[41.20235,37.737796],[41.201866,37.73789],[41.201378,37.737967],[41.200888,37.738027],[41.200391,37.738066],[41.199968,37.738082],[41.199399,37.73808],[41.198906,37.738049],[41.198431,37.737989],[41.197961,37.737902],[41.197497,37.737792],[41.197041,37.73766],[41.196563,37.737495],[41.196094,37.737313],[41.19563,37.737116],[41.195169,37.736911],[41.19332,37.736046],[41.192863,37.735839],[41.191937,37.735446],[41.191467,37.735261],[41.191001,37.735091],[41.19053,37.734932],[41.190054,37.734784],[41.189573,37.734649],[41.189093,37.734531],[41.188609,37.734425],[41.188121,37.734331],[41.187629,37.734248],[41.187137,37.734177],[41.186642,37.734117],[41.186146,37.734066],[41.185648,37.734027],[41.185149,37.733999],[41.18465,37.733982],[41.18415,37.733977],[41.18365,37.733982],[41.18309,37.734003],[41.182531,37.734035],[41.181412,37.734121],[41.180319,37.734222],[41.178182,37.734433],[41.176583,37.734604],[41.175529,37.734736],[41.175011,37.734814],[41.174503,37.734906],[41.174009,37.735016],[41.173535,37.735152],[41.17309,37.735323],[41.172707,37.735521],[41.172355,37.735753],[41.172034,37.736013],[41.171746,37.736299],[41.171478,37.736629],[41.171252,37.736981],[41.171069,37.737349],[41.170959,37.737664],[41.170857,37.738108],[41.170816,37.738492],[41.170803,37.738883],[41.170808,37.739278],[41.170863,37.740454],[41.170871,37.740848],[41.170864,37.741249],[41.170843,37.741651],[41.170809,37.742051],[41.17071,37.742848],[41.170646,37.743244],[41.170494,37.744032],[41.17031,37.744813],[41.170093,37.745589],[41.169971,37.745968],[41.169703,37.746722],[41.169403,37.747473],[41.169032,37.748302],[41.168893,37.748589],[41.168706,37.748951],[41.168506,37.749308],[41.168292,37.749659],[41.168057,37.75],[41.167796,37.750334],[41.167513,37.750657],[41.167209,37.750967],[41.166884,37.751264],[41.166494,37.75158],[41.166082,37.75188],[41.165654,37.752167],[41.165213,37.752442],[41.16476,37.752702],[41.164296,37.752945],[41.163821,37.753167],[41.163366,37.753349],[41.162902,37.753502],[41.162431,37.753623],[41.161953,37.753701],[41.161491,37.75373],[41.161029,37.753717],[41.160572,37.753663],[41.160126,37.753569],[41.159673,37.753424],[41.159239,37.753239],[41.158828,37.753019],[41.158445,37.752764],[41.15809,37.752475],[41.157763,37.752158],[41.157457,37.751822],[41.157169,37.75147],[41.156894,37.751103],[41.156377,37.750345],[41.155142,37.748395],[41.154888,37.748015],[41.154624,37.747642],[41.154349,37.747276],[41.154058,37.74692],[41.153754,37.746586],[41.153431,37.746268],[41.153086,37.745968],[41.152718,37.745691],[41.152319,37.74544],[41.151897,37.74522],[41.151454,37.74503],[41.150993,37.744877],[41.150537,37.744768],[41.150072,37.744694],[41.149602,37.744654],[41.149134,37.744649],[41.148674,37.74468],[41.148227,37.744749],[41.1478,37.744858],[41.147404,37.745013],[41.147018,37.745236],[41.146673,37.745506],[41.146364,37.745812],[41.146089,37.746144],[41.145853,37.746498],[41.14566,37.746869],[41.14552,37.747256],[41.145446,37.747631],[41.145418,37.748016],[41.145427,37.748314],[41.145475,37.748801],[41.145558,37.749241],[41.145667,37.749682],[41.146036,37.75101],[41.146144,37.751453],[41.146228,37.751896],[41.146274,37.7523],[41.146291,37.752702],[41.14628,37.753099],[41.146237,37.753488],[41.14616,37.753855],[41.146046,37.754207],[41.145865,37.754569],[41.145677,37.754837],[41.145396,37.755108],[41.14506,37.755341],[41.14468,37.755536],[41.144265,37.75569],[41.14383,37.755799],[41.143374,37.75587],[41.142905,37.755907],[41.142427,37.755911],[41.141945,37.755881],[41.141464,37.755821],[41.140987,37.755731],[41.14052,37.75561],[41.140165,37.75549],[41.140048,37.755451],[41.139589,37.755262],[41.139144,37.755048],[41.138713,37.754813],[41.138311,37.754567],[41.13792,37.754307],[41.13639,37.753221],[41.135998,37.752961],[41.135595,37.752719],[41.135183,37.752504],[41.134757,37.752314],[41.134317,37.75215],[41.133866,37.752016],[41.133393,37.751915],[41.132911,37.751848],[41.132424,37.751813],[41.131934,37.751811],[41.131452,37.751843],[41.130972,37.751906],[41.130497,37.751997],[41.130029,37.752116],[41.129575,37.752262],[41.129129,37.752429],[41.128688,37.752612],[41.128252,37.752807],[41.127388,37.753218],[41.12561,37.75409],[41.125146,37.754306],[41.124676,37.754514],[41.124216,37.754702],[41.123749,37.75488],[41.123277,37.755046],[41.122799,37.755201],[41.122318,37.755342],[41.121834,37.75547],[41.121345,37.755584],[41.120853,37.755683],[41.120367,37.755763],[41.119879,37.755824],[41.119761,37.755833],[41.119391,37.755863],[41.118904,37.755875],[41.118422,37.755857],[41.117945,37.755808],[41.117475,37.755729],[41.117016,37.755619],[41.116546,37.755466],[41.11609,37.755281],[41.115649,37.755069],[41.115223,37.754833],[41.114839,37.754592],[41.114468,37.754335],[41.114108,37.754064],[41.11376,37.753782],[41.113411,37.75348],[41.112738,37.752854],[41.111411,37.751569],[41.11107,37.751256],[41.110729,37.750959],[41.110378,37.750674],[41.110014,37.750403],[41.109634,37.750153],[41.109215,37.749916],[41.108777,37.749709],[41.108325,37.749536],[41.107858,37.749402],[41.107406,37.74932],[41.106949,37.749278],[41.106491,37.749276],[41.106037,37.749315],[41.105587,37.749401],[41.105152,37.74953],[41.104738,37.749699],[41.104352,37.749907],[41.103991,37.750163],[41.10366,37.750452],[41.103351,37.750766],[41.10306,37.751099],[41.102787,37.751441],[41.102526,37.751792],[41.102276,37.752151],[41.102036,37.752515],[41.101807,37.752883],[41.101593,37.753256],[41.101398,37.753632],[41.101228,37.754014],[41.10109,37.754395],[41.100984,37.754779],[41.100912,37.755166],[41.100879,37.755554],[41.100905,37.75605],[41.100953,37.756389],[41.101051,37.756801],[41.101186,37.757206],[41.101346,37.757579],[41.101538,37.75794],[41.101763,37.758287],[41.102024,37.758615],[41.102328,37.758923],[41.102667,37.759207],[41.103038,37.759469],[41.103436,37.759705],[41.10386,37.759915],[41.104305,37.760103],[41.104765,37.760273],[41.105239,37.760428],[41.105731,37.760571],[41.106735,37.760829],[41.109738,37.761516],[41.110683,37.761759],[41.111138,37.761895],[41.111577,37.762045],[41.111991,37.762213],[41.112373,37.762407],[41.112712,37.762634],[41.113004,37.762907],[41.113247,37.763215],[41.113447,37.763549],[41.113608,37.763905],[41.11373,37.764274],[41.113818,37.764655],[41.113876,37.765042],[41.113903,37.765433],[41.113897,37.765822],[41.113856,37.766208],[41.113776,37.766586],[41.11365,37.766953],[41.113473,37.767301],[41.113253,37.767633],[41.112998,37.767951],[41.112714,37.768252],[41.112481,37.768464],[41.11207,37.768792],[41.111711,37.769021],[41.111323,37.769213],[41.110906,37.769359],[41.110465,37.769468],[41.110005,37.769545],[41.109531,37.769596],[41.109044,37.769624],[41.10855,37.769635],[41.108051,37.769632],[41.107043,37.769602],[41.103999,37.769456],[41.102478,37.769408],[41.101465,37.769396],[41.100958,37.769398],[41.099946,37.769423],[41.099444,37.769449],[41.098948,37.769487],[41.098457,37.769538],[41.097972,37.769606],[41.097497,37.769694],[41.097024,37.769809],[41.096567,37.769952],[41.096128,37.770121],[41.095714,37.770321],[41.095335,37.770551],[41.094981,37.77081],[41.094651,37.771091],[41.094346,37.771393],[41.094046,37.771734],[41.093771,37.772091],[41.093517,37.772461],[41.093283,37.772842],[41.093068,37.773236],[41.092874,37.773639],[41.092702,37.774048],[41.092553,37.774463],[41.092438,37.774851],[41.092324,37.775338],[41.092265,37.775637],[41.092201,37.776034],[41.092151,37.776435],[41.092026,37.777639],[41.091975,37.778039],[41.091911,37.778434],[41.091826,37.778824],[41.091715,37.779206],[41.091558,37.779599],[41.091361,37.779977],[41.091125,37.780338],[41.090843,37.780676],[41.090531,37.78097],[41.090148,37.781271],[41.08975,37.781538],[41.089327,37.781787],[41.088892,37.782016],[41.088442,37.78223],[41.087979,37.78243],[41.087506,37.782613],[41.087032,37.782774],[41.086551,37.782914],[41.086063,37.783027],[41.08557,37.783107],[41.085053,37.783148],[41.084535,37.783152],[41.084021,37.783123],[41.083517,37.783061],[41.083029,37.782967],[41.082566,37.782834],[41.082138,37.782655],[41.081775,37.782438],[41.08145,37.782182],[41.081156,37.781895],[41.080895,37.781587],[41.080666,37.781261],[41.080475,37.780922],[41.080328,37.780572],[41.080237,37.780213],[41.080214,37.77979],[41.080252,37.779413],[41.080348,37.77901],[41.080492,37.77861],[41.080673,37.778229],[41.08088,37.777853],[41.081315,37.777101],[41.081514,37.776724],[41.081691,37.776343],[41.081834,37.775959],[41.081935,37.775571],[41.081982,37.775195],[41.081984,37.774818],[41.081945,37.77444],[41.081867,37.774065],[41.08174,37.773663],[41.081578,37.773266],[41.081389,37.772872],[41.08118,37.772481],[41.080945,37.772077],[41.080698,37.771676],[41.080182,37.770877],[41.078054,37.767686],[41.077515,37.766892],[41.076957,37.76611],[41.076663,37.76573],[41.076355,37.765361],[41.076056,37.765039],[41.075738,37.764734],[41.075399,37.764451],[41.075034,37.764195],[41.07465,37.763977],[41.074242,37.763792],[41.073814,37.763639],[41.073369,37.76352],[41.072901,37.763438],[41.072423,37.763391],[41.071938,37.763376],[41.071449,37.763392],[41.070967,37.763437],[41.070486,37.763508],[41.070006,37.763599],[41.069529,37.763707],[41.068997,37.763845],[41.068468,37.763997],[41.067941,37.764157],[41.066893,37.764494],[41.063246,37.765703],[41.059075,37.767064],[41.05804,37.767417],[41.0571,37.767765],[41.05664,37.76795],[41.056189,37.768148],[41.055735,37.768369],[41.055295,37.768605],[41.054874,37.768859],[41.054473,37.769131],[41.052859,37.77076],[41.052838,37.770792],[41.052664,37.77105],[41.052444,37.771434],[41.052258,37.771829],[41.052123,37.772195],[41.05202,37.772567],[41.051969,37.77285],[41.051967,37.772859],[41.051952,37.772943],[41.051921,37.773323],[41.051931,37.773708],[41.051977,37.774094],[41.052052,37.774479],[41.05215,37.774861],[41.052534,37.776077],[41.052634,37.776469],[41.052692,37.776846],[41.052698,37.777206],[41.05264,37.777541],[41.052501,37.77784],[41.052287,37.778078],[41.052003,37.778278],[41.051664,37.778443],[41.05128,37.778574],[41.050817,37.778677],[41.050565,37.778713],[41.050323,37.778748],[41.049972,37.77878],[41.049806,37.778795],[41.049275,37.778824],[41.048734,37.778842],[41.047634,37.778853],[41.046525,37.778845],[41.045416,37.778819],[41.044398,37.778773],[41.043892,37.778741],[41.043387,37.778702],[41.042887,37.778653],[41.042389,37.778595],[41.041896,37.778526],[41.041407,37.778442],[41.04092,37.77834],[41.04044,37.778222],[41.039968,37.778088],[41.039505,37.777937],[41.039034,37.777761],[41.038576,37.777566],[41.038129,37.777354],[41.037695,37.777125],[41.037245,37.77686],[41.03681,37.776579],[41.036384,37.776286],[41.035967,37.775985],[41.035556,37.775676],[41.034753,37.775041],[41.034055,37.774457],[41.033798,37.774235],[41.032333,37.772972],[41.031628,37.772398],[41.031268,37.772124],[41.030899,37.77186],[41.030518,37.771608],[41.030096,37.771357],[41.02966,37.771124],[41.02921,37.770913],[41.028745,37.770725],[41.028287,37.770572],[41.027817,37.770445],[41.027338,37.770343],[41.026851,37.770271],[41.026365,37.77023],[41.025876,37.770218],[41.025384,37.770233],[41.024893,37.770275],[41.024411,37.770344],[41.02393,37.770436],[41.023452,37.770547],[41.022977,37.770673],[41.022495,37.770815],[41.022017,37.770969],[41.021544,37.771131],[41.021076,37.771302],[41.020617,37.771481],[41.02017,37.77167],[41.01974,37.771869],[41.019332,37.772082],[41.018938,37.772324],[41.018588,37.772583],[41.018293,37.772862],[41.018071,37.77316],[41.017938,37.773475],[41.017891,37.773801],[41.017926,37.774127],[41.018047,37.774442],[41.018271,37.774751],[41.018375,37.774851],[41.018573,37.775041],[41.018931,37.775318],[41.019329,37.775584],[41.019754,37.775843],[41.020197,37.776097],[41.023321,37.777799],[41.02421,37.778299],[41.025089,37.778808],[41.025938,37.779315],[41.027161,37.780076],[41.027959,37.780598],[41.028733,37.781139],[41.029094,37.781412],[41.029444,37.781692],[41.029781,37.781982],[41.030102,37.782281],[41.030421,37.78261],[41.030721,37.78295],[41.031001,37.7833],[41.031261,37.78366],[41.031501,37.784034],[41.031717,37.784416],[41.031908,37.784807],[41.032071,37.785206],[41.032196,37.785593],[41.032297,37.785986],[41.032376,37.786383],[41.032436,37.786783],[41.032478,37.787185],[41.032501,37.787587],[41.032502,37.787989],[41.032475,37.788389],[41.032409,37.788819],[41.03231,37.789245],[41.032182,37.789665],[41.032026,37.790077],[41.03184,37.79048],[41.031621,37.790867],[41.031359,37.791234],[41.031054,37.791569],[41.03098,37.791637],[41.030709,37.791881],[41.030332,37.792172],[41.029927,37.792441],[41.0295,37.792686],[41.029054,37.792906],[41.028593,37.7931],[41.028118,37.793264],[41.027661,37.793385],[41.027197,37.793471],[41.026732,37.793519],[41.026269,37.793523],[41.025814,37.793477],[41.02537,37.793384],[41.024941,37.793249],[41.024534,37.793073],[41.024121,37.792834],[41.023733,37.792557],[41.023364,37.792253],[41.023009,37.79193],[41.022663,37.791593],[41.022325,37.791248],[41.021336,37.790186],[41.02037,37.789109],[41.019428,37.788022],[41.018825,37.787292],[41.017063,37.785083],[41.016469,37.784358],[41.016164,37.784003],[41.01587,37.783679],[41.015565,37.783368],[41.015242,37.783073],[41.014894,37.782802],[41.014509,37.782557],[41.014097,37.78234],[41.013663,37.782148],[41.013211,37.78198],[41.012744,37.781837],[41.012264,37.781716],[41.011775,37.781616],[41.011278,37.781537],[41.010787,37.781481],[41.010291,37.781444],[41.009793,37.781421],[41.009292,37.781412],[41.008731,37.781417],[41.00817,37.781436],[41.007612,37.781468],[41.007057,37.781514],[41.006507,37.781576],[41.005964,37.78166],[41.005432,37.781771],[41.004944,37.781905],[41.004465,37.782062],[41.003992,37.782237],[41.003524,37.782424],[41.001167,37.783429],[41.000154,37.783846],[40.991061,37.787382],[40.99107,37.787939],[40.991057,37.788769],[40.991034,37.789263],[40.990994,37.789784],[40.990933,37.790311],[40.990841,37.790863],[40.990729,37.791379],[40.990606,37.791835],[40.990205,37.793083],[40.989776,37.794328],[40.989332,37.79557],[40.988862,37.796801],[40.988521,37.79761],[40.988336,37.798008],[40.988138,37.7984],[40.987549,37.799474],[40.987379,37.799838],[40.987229,37.800246],[40.987109,37.800663],[40.987012,37.801087],[40.986932,37.801516],[40.986864,37.801949],[40.98675,37.802823],[40.986681,37.803497],[40.986615,37.804142],[40.986553,37.805021],[40.986537,37.805457],[40.986538,37.805889],[40.986559,37.806278],[40.986605,37.80666],[40.986683,37.807031],[40.986803,37.807388],[40.986981,37.807736],[40.987211,37.808061],[40.987489,37.808357],[40.987815,37.80862],[40.988181,37.808836],[40.988585,37.809019],[40.989017,37.809174],[40.989471,37.809303],[40.989936,37.809411],[40.991363,37.809691],[40.991834,37.809801],[40.992291,37.809929],[40.992729,37.810083],[40.99314,37.810268],[40.993524,37.810497],[40.99388,37.810758],[40.994215,37.811044],[40.994534,37.811348],[40.994845,37.81167],[40.995147,37.812002],[40.995735,37.812685],[40.99631,37.813382],[40.997156,37.81444],[40.997703,37.815152],[40.997968,37.815511],[40.998225,37.815877],[40.99847,37.816246],[40.9987,37.81662],[40.99891,37.817],[40.999085,37.817361],[40.999239,37.817728],[40.99937,37.8181],[40.999477,37.818477],[40.999567,37.818915],[40.99963,37.819357],[40.999673,37.819803],[40.999723,37.820701],[40.999753,37.822054],[40.999851,37.829274],[40.999852,37.829419],[40.999852,37.829479],[40.999858,37.830626],[40.999848,37.831501],[40.9998,37.83369],[40.999712,37.836927],[40.999712,37.836929],[40.99968,37.838074],[40.999623,37.839834],[40.999563,37.841157],[40.999506,37.842037],[40.999468,37.842475],[40.999367,37.843342],[40.999235,37.84411],[40.999157,37.844481],[40.999067,37.844866],[40.999063,37.844882],[40.998929,37.845456],[40.998892,37.845739],[40.998903,37.845999],[40.998982,37.846234],[40.999188,37.846474],[40.999493,37.846679],[40.999871,37.84686],[41.000302,37.847024],[41.000771,37.847175],[41.001265,37.847319],[41.002827,37.847738],[41.003884,37.848035],[41.004405,37.848198],[41.004925,37.848379],[41.005435,37.848573],[41.005936,37.84878],[41.006084,37.848846],[41.006425,37.848999],[41.006901,37.849232],[41.00736,37.849481],[41.007796,37.84975],[41.007859,37.849796],[41.008164,37.850013],[41.00851,37.850294],[41.008835,37.850591],[41.009137,37.850903],[41.009437,37.851254],[41.009716,37.851617],[41.00998,37.851989],[41.010233,37.852367],[41.01072,37.853137],[41.012133,37.855471],[41.012855,37.856632],[41.013876,37.858181],[41.015967,37.861262],[41.016498,37.862023],[41.017041,37.862766],[41.017322,37.863125],[41.017612,37.863471],[41.017916,37.863797],[41.018239,37.864098],[41.018588,37.864362],[41.018972,37.864579],[41.019394,37.864737],[41.019847,37.864852],[41.020319,37.864943],[41.021281,37.865111],[41.021749,37.865219],[41.022196,37.865365],[41.022593,37.865551],[41.022967,37.865777],[41.023321,37.866033],[41.023661,37.866313],[41.02399,37.866609],[41.024308,37.866919],[41.024618,37.86724],[41.02492,37.867568],[41.025207,37.867897],[41.025484,37.868233],[41.02575,37.868575],[41.026002,37.868924],[41.026256,37.869309],[41.026494,37.869701],[41.026939,37.870499],[41.027561,37.871713],[41.02815,37.872938],[41.028526,37.873774],[41.02926,37.87548],[41.029641,37.876326],[41.029833,37.87672],[41.030036,37.877109],[41.030255,37.877491],[41.030495,37.877864],[41.030774,37.878246],[41.031077,37.878618],[41.031238,37.878803],[41.031395,37.878983],[41.032064,37.8797],[41.032195,37.879833],[41.033106,37.880759],[41.034167,37.881808],[41.035246,37.882843],[41.035615,37.88318],[41.035991,37.88351],[41.036379,37.88383],[41.036782,37.884137],[41.037179,37.88441],[41.03759,37.88467],[41.038012,37.884919],[41.038445,37.88516],[41.039389,37.885646],[41.040352,37.886113],[41.044735,37.888163],[41.048139,37.889765],[41.049603,37.89044],[41.050589,37.890869],[41.050971,37.891024],[41.051088,37.891071],[41.051593,37.891259],[41.052108,37.891429],[41.052624,37.891574],[41.053149,37.891701],[41.05368,37.891815],[41.054754,37.892018],[41.056382,37.89229],[41.058562,37.892634],[41.060743,37.892964],[41.061833,37.893115],[41.062922,37.893243],[41.063466,37.893293],[41.064008,37.89333],[41.064549,37.893349],[41.0651,37.893346],[41.065984,37.893341],[41.066459,37.893354],[41.066938,37.893393],[41.067413,37.893459],[41.06788,37.893552],[41.068338,37.893672],[41.068788,37.893824],[41.069228,37.894],[41.069661,37.894195],[41.070088,37.894403],[41.07051,37.894622],[41.071347,37.895078],[41.072216,37.895575],[41.073122,37.896106],[41.074915,37.897184],[41.075787,37.897737],[41.076208,37.898022],[41.076613,37.898315],[41.076955,37.898587],[41.077276,37.89887],[41.077568,37.899167],[41.077824,37.89948],[41.07805,37.899832],[41.078232,37.900203],[41.078379,37.900587],[41.078491,37.900982],[41.078572,37.901379],[41.078751,37.902593],[41.078831,37.903018],[41.07893,37.90344],[41.07905,37.903858],[41.079195,37.904269],[41.07935,37.904632],[41.079529,37.904985],[41.079735,37.905326],[41.07997,37.905652],[41.080244,37.905967],[41.080293,37.906014],[41.080549,37.906261],[41.08088,37.906535],[41.081235,37.906786],[41.081614,37.90701],[41.082018,37.907202],[41.082477,37.907363],[41.08296,37.90749],[41.083461,37.907591],[41.083975,37.907672],[41.084497,37.907738],[41.085026,37.907793],[41.085599,37.907837],[41.086095,37.907874],[41.08717,37.907923],[41.089178,37.907948],[41.089674,37.907959],[41.090165,37.907983],[41.09065,37.908026],[41.091125,37.908094],[41.091605,37.908201],[41.092074,37.90834],[41.092529,37.908507],[41.092972,37.9087],[41.093424,37.90893],[41.093863,37.90918],[41.094292,37.909446],[41.094713,37.909723],[41.095127,37.910009],[41.095533,37.910301],[41.095931,37.910601],[41.096319,37.910907],[41.096694,37.911222],[41.097051,37.911547],[41.097384,37.911887],[41.097666,37.912215],[41.097927,37.912555],[41.098173,37.912904],[41.09863,37.91362],[41.098846,37.913984],[41.099259,37.914722],[41.099672,37.915514],[41.100071,37.91631],[41.101438,37.919106],[41.102005,37.920307],[41.10236,37.921112],[41.102523,37.921518],[41.102673,37.921926],[41.102812,37.922357],[41.102936,37.92279],[41.103155,37.923664],[41.103444,37.924983],[41.103713,37.926307],[41.104306,37.929364],[41.104483,37.930232],[41.104678,37.931093],[41.104789,37.931518],[41.104915,37.931937],[41.105062,37.932348],[41.105238,37.932747],[41.105453,37.93313],[41.105712,37.933488],[41.10601,37.93383],[41.106336,37.93416],[41.106683,37.934482],[41.107044,37.934799],[41.107794,37.93542],[41.108566,37.936032],[41.109351,37.936636],[41.110149,37.937228],[41.110557,37.937516],[41.110972,37.937798],[41.11139,37.938065],[41.111816,37.938324],[41.112687,37.938822],[41.113567,37.939289],[41.114462,37.939737],[41.114914,37.939953],[41.11537,37.940162],[41.115831,37.940362],[41.116297,37.940551],[41.116747,37.940717],[41.117203,37.940867],[41.117667,37.940999],[41.118139,37.941108],[41.11866,37.941198],[41.119189,37.941263],[41.119725,37.941311],[41.120264,37.941349],[41.121891,37.941436],[41.12243,37.941471],[41.122965,37.941517],[41.123494,37.94158],[41.124012,37.941666],[41.124487,37.941774],[41.124948,37.94191],[41.125391,37.942074],[41.125815,37.942266],[41.126207,37.942486],[41.126578,37.942732],[41.126931,37.942998],[41.127268,37.94328],[41.127602,37.943589],[41.127922,37.943908],[41.128231,37.944237],[41.128825,37.944917],[41.129388,37.945618],[41.129658,37.945974],[41.129921,37.946339],[41.130173,37.946708],[41.130412,37.947082],[41.130634,37.947462],[41.130844,37.947862],[41.131036,37.948267],[41.131216,37.948676],[41.131544,37.949497],[41.131992,37.950727],[41.132417,37.951963],[41.132814,37.953201],[41.133044,37.954029],[41.133141,37.954445],[41.133218,37.954863],[41.133274,37.955292],[41.133311,37.955722],[41.133333,37.956153],[41.133365,37.957817],[41.133397,37.958226],[41.133457,37.958652],[41.133541,37.959077],[41.133643,37.9595],[41.133758,37.959922],[41.134017,37.960764],[41.134306,37.961601],[41.134461,37.962018],[41.134798,37.962843],[41.134985,37.963251],[41.135195,37.963664],[41.135418,37.964074],[41.135652,37.96448],[41.136138,37.965287],[41.139673,37.970898],[41.140075,37.971544],[41.142176,37.974919],[41.142685,37.975719],[41.143212,37.976509],[41.143489,37.976895],[41.14378,37.977273],[41.14409,37.97764],[41.144388,37.977954],[41.144705,37.978255],[41.145041,37.978541],[41.145398,37.978811],[41.145795,37.979075],[41.146213,37.97932],[41.146647,37.979546],[41.147097,37.979753],[41.147539,37.979933],[41.148438,37.980272],[41.148883,37.980449],[41.149333,37.980648],[41.149769,37.980865],[41.150187,37.981101],[41.150584,37.981359],[41.150963,37.981646],[41.151321,37.981953],[41.151663,37.982274],[41.151993,37.982607],[41.152629,37.983293],[41.153242,37.983998],[41.153539,37.984354],[41.153827,37.984713],[41.154104,37.985075],[41.154364,37.985441],[41.1546,37.98581],[41.154803,37.986185],[41.154961,37.986566],[41.155057,37.986929],[41.155104,37.987296],[41.155104,37.987663],[41.155055,37.988029],[41.154943,37.988416],[41.15478,37.988795],[41.15457,37.989164],[41.154319,37.98952],[41.15405,37.989838],[41.153756,37.990146],[41.153468,37.990426],[41.153444,37.990449],[41.152461,37.991355],[41.151807,37.991971],[41.151481,37.992294],[41.150852,37.992954],[41.150248,37.993635],[41.14967,37.994334],[41.149392,37.994689],[41.148856,37.995414],[41.1486,37.995781],[41.148354,37.996153],[41.147879,37.996927],[41.147439,37.997714],[41.147227,37.998121],[41.146826,37.998942],[41.146637,37.999356],[41.146284,38.000191],[41.146128,38.000605],[41.145838,38.00144],[41.145432,38.0027],[41.14491,38.004387],[41.14454,38.005653],[41.144429,38.006074],[41.14433,38.006495],[41.144249,38.006915],[41.144192,38.007333],[41.144169,38.007748],[41.144187,38.008131],[41.144244,38.008509],[41.144342,38.008879],[41.144485,38.009239],[41.144699,38.009622],[41.144961,38.009993],[41.145257,38.010354],[41.145577,38.010708],[41.145914,38.011058],[41.146262,38.011404],[41.147341,38.012432],[41.15098,38.01584],[41.153502,38.018232],[41.154924,38.019608],[41.155617,38.020308],[41.155954,38.020661],[41.156615,38.021375],[41.15759,38.022456],[41.162419,38.027888],[41.167266,38.033315],[41.167896,38.034046],[41.168485,38.034769],[41.168757,38.035126],[41.169018,38.035488],[41.169263,38.035856],[41.169495,38.036238],[41.16971,38.036627],[41.169909,38.037021],[41.170092,38.03742],[41.170268,38.037845],[41.170584,38.038705],[41.170872,38.039574],[41.171149,38.040446],[41.171792,38.042545],[41.171952,38.043068],[41.172287,38.044276],[41.172469,38.045049],[41.172546,38.045442],[41.172666,38.04623],[41.172709,38.046625],[41.172739,38.047025],[41.172751,38.047363],[41.172754,38.047425],[41.172753,38.047825],[41.172736,38.048225],[41.172701,38.048614],[41.172653,38.049003],[41.172397,38.050559],[41.172343,38.050948],[41.172307,38.051337],[41.172295,38.051732],[41.17231,38.052126],[41.172351,38.052517],[41.172424,38.052904],[41.172536,38.053305],[41.172682,38.053699],[41.17286,38.054086],[41.173071,38.054462],[41.173305,38.054815],[41.173565,38.055158],[41.173847,38.055492],[41.174146,38.055819],[41.174478,38.056154],[41.174822,38.056482],[41.175176,38.056806],[41.1759,38.057446],[41.176675,38.058108],[41.178852,38.059967],[41.179598,38.06059],[41.180356,38.061202],[41.180744,38.0615],[41.181138,38.061791],[41.181539,38.062075],[41.182359,38.062628],[41.182753,38.06288],[41.183554,38.063373],[41.184368,38.06385],[41.184781,38.064083],[41.18562,38.064531],[41.186061,38.064749],[41.186508,38.064958],[41.186961,38.065159],[41.187421,38.06535],[41.187885,38.065529],[41.188355,38.065698],[41.18883,38.065858],[41.18931,38.066008],[41.18979,38.066147],[41.190275,38.066274],[41.190763,38.066391],[41.191256,38.066497],[41.191742,38.066587],[41.192231,38.066665],[41.192722,38.066732],[41.193217,38.066788],[41.195215,38.066959],[41.195713,38.067013],[41.196208,38.067078],[41.196699,38.067155],[41.197185,38.067246],[41.197671,38.067356],[41.198148,38.067483],[41.198615,38.067628],[41.199069,38.067792],[41.199528,38.067987],[41.19997,38.068205],[41.200393,38.068444],[41.200794,38.068704],[41.201149,38.068969],[41.201481,38.069253],[41.201792,38.069552],[41.202079,38.069867],[41.202374,38.070242],[41.202644,38.070631],[41.202897,38.071031],[41.203367,38.071849],[41.203814,38.072679],[41.205997,38.076847],[41.206225,38.077276],[41.208422,38.081411],[41.208988,38.082512],[41.209011,38.082556],[41.209064,38.082661],[41.209468,38.083501],[41.209838,38.084344],[41.210356,38.085621],[41.211126,38.087594],[41.211417,38.087638],[41.215546,38.088093],[41.218479,38.088093],[41.221421,38.088093],[41.224584,38.087099],[41.227115,38.084749],[41.231995,38.079327],[41.23796,38.068752],[41.24284,38.059263],[41.245371,38.05628],[41.251607,38.050948],[41.256307,38.047333],[41.26173,38.044169],[41.26417,38.043085],[41.266068,38.042543]]]}},{"type":"Feature","properties":{"id":"TR-D-72-002","parent_id":"TR-P-72","region_id":"TR-R-GDA","level":"district","municipality_type":null,"municipality_type_label":null,"is_metropolitan_municipality":null,"name":"Beşiri","name_ascii":"besiri","slug":"besiri-batman"},"geometry":{"type":"Polygon","coordinates":[[[41.46128,37.733957],[41.458194,37.738872],[41.454019,37.743139],[41.449658,37.747871],[41.447432,37.752139],[41.446875,37.756128],[41.445112,37.762066],[41.443164,37.764571],[41.441308,37.765591],[41.438154,37.768282],[41.434165,37.77088],[41.42767,37.773478],[41.415331,37.779322],[41.407259,37.782199],[41.398631,37.784982],[41.381931,37.791662],[41.373767,37.794167],[41.36987,37.795466],[41.359479,37.798713],[41.350109,37.801682],[41.339439,37.804465],[41.331646,37.806599],[41.317266,37.809846],[41.305761,37.813093],[41.292309,37.816712],[41.279227,37.822556],[41.273011,37.82534],[41.270135,37.826824],[41.261507,37.831927],[41.258167,37.83471],[41.2526,37.844916],[41.245178,37.8631],[41.238313,37.879429],[41.235529,37.885366],[41.231076,37.889912],[41.226623,37.895108],[41.223561,37.898726],[41.220685,37.902623],[41.220499,37.905777],[41.222262,37.90819],[41.226623,37.911901],[41.227801,37.912582],[41.225376,37.926514],[41.218523,37.939363],[41.214191,37.952908],[41.211129,37.955784],[41.208624,37.957825],[41.207418,37.959773],[41.206861,37.963485],[41.206583,37.966825],[41.20649,37.97035],[41.205562,37.973319],[41.203985,37.975638],[41.203336,37.977679],[41.203614,37.979906],[41.204913,37.981483],[41.209459,37.984638],[41.215489,37.98872],[41.221427,37.990019],[41.228942,37.990761],[41.235529,37.992431],[41.242951,37.994286],[41.24657,37.994936],[41.250095,37.997441],[41.251116,37.999575],[41.252322,38.003564],[41.252322,38.006162],[41.251487,38.00876],[41.246848,38.012192],[41.244621,38.014141],[41.242488,38.017388],[41.241281,38.020728],[41.241003,38.022676],[41.242395,38.026202],[41.245456,38.029356],[41.251023,38.033253],[41.252971,38.033809],[41.258538,38.0365],[41.261785,38.038634],[41.266068,38.042543],[41.271942,38.042271],[41.283782,38.042633],[41.293995,38.04426],[41.301586,38.046248],[41.304117,38.048146],[41.308726,38.050134],[41.312612,38.052484],[41.316047,38.052846],[41.318758,38.053388],[41.323006,38.053388],[41.325717,38.053569],[41.326712,38.053569],[41.329332,38.052846],[41.33105,38.052575],[41.332044,38.052575],[41.332948,38.052575],[41.333851,38.051761],[41.334846,38.051671],[41.335569,38.052032],[41.336472,38.052213],[41.338099,38.052303],[41.341714,38.052665],[41.343251,38.053388],[41.344064,38.05393],[41.344697,38.053478],[41.345058,38.052394],[41.345781,38.0514],[41.347137,38.051309],[41.348222,38.051309],[41.349035,38.050767],[41.353644,38.048327],[41.359067,38.048236],[41.367291,38.048056],[41.370003,38.049231],[41.373437,38.051761],[41.373889,38.052936],[41.373889,38.056009],[41.37407,38.060618],[41.37407,38.064053],[41.375245,38.071012],[41.377233,38.0777],[41.379131,38.081224],[41.383559,38.083303],[41.388349,38.084026],[41.392055,38.083394],[41.394947,38.082219],[41.399195,38.078875],[41.40516,38.073813],[41.411215,38.068752],[41.418445,38.062155],[41.423055,38.057817],[41.424772,38.055196],[41.42676,38.050767],[41.430195,38.04435],[41.433087,38.03947],[41.435527,38.03486],[41.437877,38.031245],[41.442034,38.024467],[41.44574,38.019767],[41.448602,38.016113],[41.447444,38.01555],[41.447265,38.015509],[41.447086,38.015469],[41.446015,38.014615],[41.443873,38.014294],[41.441625,38.01408],[41.44034,38.013223],[41.438627,38.011617],[41.437877,38.010332],[41.437663,38.008726],[41.436271,38.006478],[41.4352,38.005407],[41.434129,38.0053],[41.432952,38.005407],[41.431667,38.005942],[41.430596,38.006156],[41.429846,38.005514],[41.429739,38.004443],[41.429311,38.003265],[41.428561,38.002195],[41.426848,38.001659],[41.424814,38.001017],[41.422886,38.000695],[41.420745,38.000053],[41.419353,38.000053],[41.417533,37.999196],[41.41507,37.997269],[41.412714,37.99577],[41.410144,37.99502],[41.407896,37.994485],[41.407039,37.993736],[41.406932,37.992772],[41.406611,37.991808],[41.406076,37.991166],[41.405219,37.990844],[41.404362,37.99063],[41.40372,37.989667],[41.40372,37.988703],[41.40372,37.987953],[41.403184,37.987204],[41.402221,37.986347],[41.400293,37.985705],[41.398687,37.985491],[41.396867,37.985919],[41.395582,37.985705],[41.394511,37.985062],[41.393869,37.984206],[41.392798,37.983777],[41.390764,37.983563],[41.388622,37.9826],[41.385089,37.979816],[41.382626,37.97821],[41.378985,37.97564],[41.375559,37.972856],[41.373632,37.967395],[41.372561,37.96429],[41.372668,37.960649],[41.373525,37.95658],[41.375773,37.95219],[41.38102,37.947586],[41.38466,37.945016],[41.388943,37.94266],[41.393869,37.940091],[41.400293,37.935379],[41.40372,37.929918],[41.406076,37.924136],[41.408217,37.918783],[41.409181,37.917176],[41.413357,37.910216],[41.416997,37.906362],[41.420531,37.903471],[41.428776,37.899937],[41.441732,37.893513],[41.451262,37.889444],[41.45972,37.886124],[41.471178,37.882591],[41.485312,37.880449],[41.502122,37.880342],[41.510903,37.880664],[41.532104,37.880985],[41.547094,37.881734],[41.557159,37.88152],[41.578467,37.881199],[41.592066,37.880342],[41.596135,37.880664],[41.604487,37.881413],[41.608449,37.880878],[41.617229,37.879807],[41.623975,37.879486],[41.631791,37.877772],[41.641749,37.875096],[41.648602,37.872847],[41.657918,37.868671],[41.666055,37.862675],[41.67323,37.85882],[41.677727,37.856143],[41.692503,37.842009],[41.693788,37.84051],[41.697536,37.836441],[41.699463,37.834621],[41.701712,37.829695],[41.702461,37.824663],[41.702782,37.817275],[41.702461,37.814705],[41.70214,37.810101],[41.701283,37.807424],[41.696144,37.797037],[41.693895,37.791791],[41.691111,37.786437],[41.689505,37.782689],[41.686935,37.777764],[41.685543,37.772624],[41.684365,37.76984],[41.682331,37.762238],[41.679761,37.752708],[41.677405,37.742857],[41.675311,37.735436],[41.674694,37.733248],[41.674847,37.732895],[41.675938,37.730384],[41.668512,37.7306],[41.655663,37.737025],[41.63473,37.739659],[41.620234,37.74262],[41.580901,37.737266],[41.550492,37.738051],[41.544995,37.738123],[41.525936,37.736195],[41.520867,37.73541],[41.508161,37.731198],[41.468543,37.735053],[41.46128,37.733957]]]}},{"type":"Feature","properties":{"id":"TR-D-72-003","parent_id":"TR-P-72","region_id":"TR-R-GDA","level":"district","municipality_type":null,"municipality_type_label":null,"is_metropolitan_municipality":null,"name":"Gercüş","name_ascii":"gercus","slug":"gercus-batman"},"geometry":{"type":"Polygon","coordinates":[[[41.044383,37.734425],[41.047096,37.742252],[41.04911,37.749846],[41.051048,37.760696],[41.052443,37.767903],[41.052462,37.768027],[41.05259,37.768845],[41.05283,37.770382],[41.052859,37.77076],[41.054473,37.769131],[41.054874,37.768859],[41.055295,37.768605],[41.055735,37.768369],[41.056189,37.768148],[41.05664,37.76795],[41.0571,37.767765],[41.05804,37.767417],[41.059075,37.767064],[41.063246,37.765703],[41.066893,37.764494],[41.067941,37.764157],[41.068468,37.763997],[41.068997,37.763845],[41.069529,37.763707],[41.070006,37.763599],[41.070486,37.763508],[41.070967,37.763437],[41.071449,37.763392],[41.071938,37.763376],[41.072423,37.763391],[41.072901,37.763438],[41.073369,37.76352],[41.073814,37.763639],[41.074242,37.763792],[41.07465,37.763977],[41.075034,37.764195],[41.075399,37.764451],[41.075738,37.764734],[41.076056,37.765039],[41.076355,37.765361],[41.076663,37.76573],[41.076957,37.76611],[41.077515,37.766892],[41.078054,37.767686],[41.080182,37.770877],[41.080698,37.771676],[41.080945,37.772077],[41.08118,37.772481],[41.081389,37.772872],[41.081578,37.773266],[41.08174,37.773663],[41.081867,37.774065],[41.081945,37.77444],[41.081984,37.774818],[41.081982,37.775195],[41.081935,37.775571],[41.081834,37.775959],[41.081691,37.776343],[41.081514,37.776724],[41.081315,37.777101],[41.08088,37.777853],[41.080673,37.778229],[41.080492,37.77861],[41.080348,37.77901],[41.080252,37.779413],[41.080214,37.77979],[41.080237,37.780213],[41.080328,37.780572],[41.080475,37.780922],[41.080666,37.781261],[41.080895,37.781587],[41.081156,37.781895],[41.08145,37.782182],[41.081775,37.782438],[41.082138,37.782655],[41.082566,37.782834],[41.083029,37.782967],[41.083517,37.783061],[41.084021,37.783123],[41.084535,37.783152],[41.085053,37.783148],[41.08557,37.783107],[41.086063,37.783027],[41.086551,37.782914],[41.087032,37.782774],[41.087506,37.782613],[41.087979,37.78243],[41.088442,37.78223],[41.088892,37.782016],[41.089327,37.781787],[41.08975,37.781538],[41.090148,37.781271],[41.090531,37.78097],[41.090843,37.780676],[41.091125,37.780338],[41.091361,37.779977],[41.091558,37.779599],[41.091715,37.779206],[41.091826,37.778824],[41.091911,37.778434],[41.091975,37.778039],[41.092026,37.777639],[41.092151,37.776435],[41.092201,37.776034],[41.092265,37.775637],[41.092324,37.775338],[41.092438,37.774851],[41.092553,37.774463],[41.092702,37.774048],[41.092874,37.773639],[41.093068,37.773236],[41.093283,37.772842],[41.093517,37.772461],[41.093771,37.772091],[41.094046,37.771734],[41.094346,37.771393],[41.094651,37.771091],[41.094981,37.77081],[41.095335,37.770551],[41.095714,37.770321],[41.096128,37.770121],[41.096567,37.769952],[41.097024,37.769809],[41.097497,37.769694],[41.097972,37.769606],[41.098457,37.769538],[41.098948,37.769487],[41.099444,37.769449],[41.099946,37.769423],[41.100958,37.769398],[41.101465,37.769396],[41.102478,37.769408],[41.103999,37.769456],[41.107043,37.769602],[41.108051,37.769632],[41.10855,37.769635],[41.109044,37.769624],[41.109531,37.769596],[41.110005,37.769545],[41.110465,37.769468],[41.110906,37.769359],[41.111323,37.769213],[41.111711,37.769021],[41.11207,37.768792],[41.112481,37.768464],[41.112714,37.768252],[41.112998,37.767951],[41.113253,37.767633],[41.113473,37.767301],[41.11365,37.766953],[41.113776,37.766586],[41.113856,37.766208],[41.113897,37.765822],[41.113903,37.765433],[41.113876,37.765042],[41.113818,37.764655],[41.11373,37.764274],[41.113608,37.763905],[41.113447,37.763549],[41.113247,37.763215],[41.113004,37.762907],[41.112712,37.762634],[41.112373,37.762407],[41.111991,37.762213],[41.111577,37.762045],[41.111138,37.761895],[41.110683,37.761759],[41.109738,37.761516],[41.106735,37.760829],[41.105731,37.760571],[41.105239,37.760428],[41.104765,37.760273],[41.104305,37.760103],[41.10386,37.759915],[41.103436,37.759705],[41.103038,37.759469],[41.102667,37.759207],[41.102328,37.758923],[41.102024,37.758615],[41.101763,37.758287],[41.101538,37.75794],[41.101346,37.757579],[41.101186,37.757206],[41.101051,37.756801],[41.100953,37.756389],[41.100905,37.75605],[41.100879,37.755554],[41.100912,37.755166],[41.100984,37.754779],[41.10109,37.754395],[41.101228,37.754014],[41.101398,37.753632],[41.101593,37.753256],[41.101807,37.752883],[41.102036,37.752515],[41.102276,37.752151],[41.102526,37.751792],[41.102787,37.751441],[41.10306,37.751099],[41.103351,37.750766],[41.10366,37.750452],[41.103991,37.750163],[41.104352,37.749907],[41.104738,37.749699],[41.105152,37.74953],[41.105587,37.749401],[41.106037,37.749315],[41.106491,37.749276],[41.106949,37.749278],[41.107406,37.74932],[41.107858,37.749402],[41.108325,37.749536],[41.108777,37.749709],[41.109215,37.749916],[41.109634,37.750153],[41.110014,37.750403],[41.110378,37.750674],[41.110729,37.750959],[41.11107,37.751256],[41.111411,37.751569],[41.112738,37.752854],[41.113411,37.75348],[41.11376,37.753782],[41.114108,37.754064],[41.114468,37.754335],[41.114839,37.754592],[41.115223,37.754833],[41.115649,37.755069],[41.11609,37.755281],[41.116546,37.755466],[41.117016,37.755619],[41.117475,37.755729],[41.117945,37.755808],[41.118422,37.755857],[41.118904,37.755875],[41.119391,37.755863],[41.119761,37.755833],[41.119879,37.755824],[41.120367,37.755763],[41.120853,37.755683],[41.121345,37.755584],[41.121834,37.75547],[41.122318,37.755342],[41.122799,37.755201],[41.123277,37.755046],[41.123749,37.75488],[41.124216,37.754702],[41.124676,37.754514],[41.125146,37.754306],[41.12561,37.75409],[41.127388,37.753218],[41.128252,37.752807],[41.128688,37.752612],[41.129129,37.752429],[41.129575,37.752262],[41.130029,37.752116],[41.130497,37.751997],[41.130972,37.751906],[41.131452,37.751843],[41.131934,37.751811],[41.132424,37.751813],[41.132911,37.751848],[41.133393,37.751915],[41.133866,37.752016],[41.134317,37.75215],[41.134757,37.752314],[41.135183,37.752504],[41.135595,37.752719],[41.135998,37.752961],[41.13639,37.753221],[41.13792,37.754307],[41.138311,37.754567],[41.138713,37.754813],[41.139144,37.755048],[41.139589,37.755262],[41.140048,37.755451],[41.140165,37.75549],[41.14052,37.75561],[41.140987,37.755731],[41.141464,37.755821],[41.141945,37.755881],[41.142427,37.755911],[41.142905,37.755907],[41.143374,37.75587],[41.14383,37.755799],[41.144265,37.75569],[41.14468,37.755536],[41.14506,37.755341],[41.145396,37.755108],[41.145677,37.754837],[41.145865,37.754569],[41.146046,37.754207],[41.14616,37.753855],[41.146237,37.753488],[41.14628,37.753099],[41.146291,37.752702],[41.146274,37.7523],[41.146228,37.751896],[41.146144,37.751453],[41.146036,37.75101],[41.145667,37.749682],[41.145558,37.749241],[41.145475,37.748801],[41.145427,37.748314],[41.145418,37.748016],[41.145446,37.747631],[41.14552,37.747256],[41.14566,37.746869],[41.145853,37.746498],[41.146089,37.746144],[41.146364,37.745812],[41.146673,37.745506],[41.147018,37.745236],[41.147404,37.745013],[41.1478,37.744858],[41.148227,37.744749],[41.148674,37.74468],[41.149134,37.744649],[41.149602,37.744654],[41.150072,37.744694],[41.150537,37.744768],[41.150993,37.744877],[41.151454,37.74503],[41.151897,37.74522],[41.152319,37.74544],[41.152718,37.745691],[41.153086,37.745968],[41.153431,37.746268],[41.153754,37.746586],[41.154058,37.74692],[41.154349,37.747276],[41.154624,37.747642],[41.154888,37.748015],[41.155142,37.748395],[41.156377,37.750345],[41.156894,37.751103],[41.157169,37.75147],[41.157457,37.751822],[41.157763,37.752158],[41.15809,37.752475],[41.158445,37.752764],[41.158828,37.753019],[41.159239,37.753239],[41.159673,37.753424],[41.160126,37.753569],[41.160572,37.753663],[41.161029,37.753717],[41.161491,37.75373],[41.161953,37.753701],[41.162431,37.753623],[41.162902,37.753502],[41.163366,37.753349],[41.163821,37.753167],[41.164296,37.752945],[41.16476,37.752702],[41.165213,37.752442],[41.165654,37.752167],[41.166082,37.75188],[41.166494,37.75158],[41.166884,37.751264],[41.167209,37.750967],[41.167513,37.750657],[41.167796,37.750334],[41.168057,37.75],[41.168292,37.749659],[41.168506,37.749308],[41.168706,37.748951],[41.168893,37.748589],[41.169032,37.748302],[41.169403,37.747473],[41.169703,37.746722],[41.169971,37.745968],[41.170093,37.745589],[41.17031,37.744813],[41.170494,37.744032],[41.170646,37.743244],[41.17071,37.742848],[41.170809,37.742051],[41.170843,37.741651],[41.170864,37.741249],[41.170871,37.740848],[41.170863,37.740454],[41.170808,37.739278],[41.170803,37.738883],[41.170816,37.738492],[41.170857,37.738108],[41.170959,37.737664],[41.171069,37.737349],[41.171252,37.736981],[41.171478,37.736629],[41.171746,37.736299],[41.172034,37.736013],[41.172355,37.735753],[41.172707,37.735521],[41.17309,37.735323],[41.173535,37.735152],[41.174009,37.735016],[41.174503,37.734906],[41.175011,37.734814],[41.175529,37.734736],[41.176583,37.734604],[41.178182,37.734433],[41.180319,37.734222],[41.181412,37.734121],[41.182531,37.734035],[41.18309,37.734003],[41.18365,37.733982],[41.18415,37.733977],[41.18465,37.733982],[41.185149,37.733999],[41.185648,37.734027],[41.186146,37.734066],[41.186642,37.734117],[41.187137,37.734177],[41.187629,37.734248],[41.188121,37.734331],[41.188609,37.734425],[41.189093,37.734531],[41.189573,37.734649],[41.190054,37.734784],[41.19053,37.734932],[41.191001,37.735091],[41.191467,37.735261],[41.191937,37.735446],[41.192863,37.735839],[41.19332,37.736046],[41.195169,37.736911],[41.19563,37.737116],[41.196094,37.737313],[41.196563,37.737495],[41.197041,37.73766],[41.197497,37.737792],[41.197961,37.737902],[41.198431,37.737989],[41.198906,37.738049],[41.199399,37.73808],[41.199968,37.738082],[41.199376,37.732183],[41.198574,37.725702],[41.19771,37.719838],[41.197154,37.718171],[41.195673,37.715023],[41.195056,37.713295],[41.194932,37.710394],[41.196105,37.707122],[41.197895,37.704406],[41.200734,37.701567],[41.20271,37.69811],[41.204747,37.693666],[41.206969,37.689838],[41.209438,37.686999],[41.211907,37.685579],[41.215364,37.684715],[41.218203,37.6849],[41.220796,37.685456],[41.22382,37.68632],[41.229067,37.686382],[41.232277,37.684653],[41.235796,37.682431],[41.239808,37.67916],[41.243079,37.677555],[41.2474,37.675765],[41.252832,37.674036],[41.261227,37.672925],[41.263943,37.672802],[41.267276,37.673234],[41.269992,37.674221],[41.272153,37.675826],[41.277029,37.681505],[41.278634,37.68274],[41.282523,37.685271],[41.287029,37.687369],[41.292585,37.68774],[41.297523,37.688357],[41.301597,37.687616],[41.307461,37.687246],[41.312276,37.685579],[41.317214,37.683789],[41.324004,37.682678],[41.329374,37.68132],[41.333325,37.679283],[41.337584,37.677246],[41.338818,37.676505],[41.341288,37.672061],[41.341658,37.668481],[41.341967,37.666073],[41.344559,37.66095],[41.347892,37.654963],[41.350053,37.651938],[41.355238,37.647247],[41.358942,37.644592],[41.364435,37.643481],[41.369559,37.643173],[41.376287,37.643481],[41.38246,37.643975],[41.386657,37.645395],[41.390052,37.648543],[41.392892,37.651012],[41.396287,37.652679],[41.400175,37.653543],[41.403323,37.654839],[41.406965,37.656938],[41.411471,37.660518],[41.413632,37.662308],[41.41857,37.664715],[41.422768,37.666073],[41.42715,37.666197],[41.433632,37.666382],[41.438446,37.666197],[41.441656,37.666691],[41.444742,37.667864],[41.449187,37.670024],[41.452397,37.671567],[41.457026,37.672863],[41.462952,37.673851],[41.469989,37.676073],[41.474433,37.67737],[41.481285,37.678172],[41.487087,37.678604],[41.491964,37.679407],[41.496223,37.680086],[41.500729,37.680086],[41.503013,37.679468],[41.507951,37.677555],[41.511161,37.675086],[41.518136,37.669407],[41.52863,37.663049],[41.532951,37.659654],[41.538753,37.657123],[41.541839,37.656321],[41.566037,37.649654],[41.57832,37.645765],[41.583937,37.644407],[41.585234,37.644469],[41.587456,37.645333],[41.591283,37.646691],[41.593937,37.647494],[41.596592,37.649345],[41.599925,37.652061],[41.6019,37.653419],[41.607023,37.656444],[41.611715,37.65879],[41.613813,37.659777],[41.619492,37.662925],[41.623443,37.666259],[41.624924,37.668234],[41.626221,37.669654],[41.628813,37.671135],[41.631159,37.671876],[41.634369,37.672123],[41.638751,37.672184],[41.643689,37.671691],[41.645973,37.671691],[41.649245,37.672061],[41.653195,37.67237],[41.656035,37.67274],[41.660294,37.673357],[41.663751,37.674036],[41.666529,37.67416],[41.672331,37.674221],[41.677084,37.674221],[41.683751,37.674407],[41.687701,37.674283],[41.691528,37.673481],[41.694368,37.671876],[41.695417,37.670518],[41.695911,37.668234],[41.696281,37.666012],[41.697824,37.664469],[41.70017,37.661506],[41.701405,37.659345],[41.7037,37.657082],[41.703383,37.656513],[41.701485,37.651251],[41.700881,37.647628],[41.700536,37.643747],[41.699587,37.633395],[41.698293,37.626754],[41.697603,37.622441],[41.695447,37.618386],[41.692773,37.615195],[41.688546,37.611831],[41.686303,37.610709],[41.681904,37.610278],[41.679575,37.610709],[41.677332,37.613211],[41.675003,37.618128],[41.672415,37.622354],[41.670518,37.62546],[41.667757,37.62891],[41.665083,37.631325],[41.662496,37.632533],[41.659994,37.63236],[41.658269,37.630894],[41.656199,37.627789],[41.653783,37.623821],[41.651282,37.620457],[41.64809,37.61554],[41.645934,37.611831],[41.643346,37.604326],[41.639723,37.595614],[41.638084,37.591128],[41.63541,37.588109],[41.631787,37.583624],[41.628423,37.580605],[41.621781,37.577931],[41.610395,37.574135],[41.607031,37.57241],[41.603581,37.570426],[41.596852,37.565164],[41.593661,37.561973],[41.591159,37.557832],[41.589003,37.555331],[41.586242,37.553606],[41.581067,37.548516],[41.575719,37.543772],[41.569767,37.5392],[41.562607,37.535232],[41.556052,37.532645],[41.548471,37.530051],[41.546391,37.529712],[41.537592,37.529108],[41.534142,37.528763],[41.531899,37.527987],[41.52957,37.526348],[41.52543,37.524277],[41.519046,37.523415],[41.516114,37.523501],[41.51344,37.524364],[41.508523,37.526003],[41.505159,37.527642],[41.501018,37.528159],[41.495239,37.526865],[41.488942,37.525399],[41.48437,37.522639],[41.480316,37.519533],[41.473243,37.512374],[41.464789,37.506422],[41.460131,37.504697],[41.455818,37.50392],[41.447883,37.503662],[41.440464,37.502799],[41.429768,37.502971],[41.42166,37.504352],[41.418986,37.504955],[41.412689,37.505818],[41.404063,37.506767],[41.397248,37.507198],[41.390779,37.507284],[41.378185,37.506594],[41.367058,37.506508],[41.359381,37.506508],[41.350927,37.506767],[41.341611,37.507716],[41.333071,37.508751],[41.322979,37.509786],[41.315906,37.510649],[41.31211,37.510907],[41.309609,37.510821],[41.302277,37.511339],[41.29529,37.511597],[41.290632,37.511252],[41.281661,37.510476],[41.277693,37.509268],[41.275536,37.508837],[41.27338,37.507543],[41.26993,37.506163],[41.267773,37.505473],[41.264237,37.505214],[41.261821,37.505214],[41.258026,37.507112],[41.255007,37.509096],[41.250349,37.510476],[41.245432,37.510649],[41.241895,37.510476],[41.239739,37.510131],[41.23672,37.50901],[41.233787,37.508061],[41.228698,37.506077],[41.223953,37.505818],[41.21757,37.505818],[41.210928,37.505042],[41.204545,37.504265],[41.202475,37.503575],[41.19359,37.50185],[41.190312,37.501246],[41.185309,37.502281],[41.178064,37.505991],[41.17168,37.510045],[41.166419,37.514185],[41.162364,37.517808],[41.156671,37.523156],[41.152876,37.526175],[41.146751,37.528849],[41.139937,37.531178],[41.134071,37.533076],[41.132276,37.53357],[41.130621,37.534025],[41.12579,37.537389],[41.123979,37.539287],[41.122426,37.542306],[41.120874,37.54567],[41.120097,37.55119],[41.119666,37.554209],[41.118803,37.557832],[41.118717,37.563008],[41.119148,37.56758],[41.120615,37.576896],[41.120874,37.582071],[41.120615,37.58647],[41.120442,37.590525],[41.119925,37.592767],[41.119062,37.594406],[41.117596,37.597425],[41.115871,37.600272],[41.114663,37.603291],[41.114577,37.605793],[41.114835,37.608639],[41.115526,37.612089],[41.115784,37.614332],[41.115267,37.616489],[41.114145,37.619508],[41.11104,37.623303],[41.106813,37.626581],[41.103277,37.629083],[41.094651,37.633913],[41.092063,37.636415],[41.086111,37.642625],[41.082402,37.647197],[41.080332,37.649698],[41.079642,37.651941],[41.079814,37.655995],[41.080936,37.659618],[41.081971,37.664794],[41.082574,37.666605],[41.083265,37.67135],[41.08361,37.676266],[41.08361,37.677301],[41.082833,37.680321],[41.080936,37.683081],[41.078175,37.687135],[41.076364,37.688601],[41.072482,37.691707],[41.069463,37.693518],[41.067479,37.697055],[41.06308,37.702748],[41.057732,37.708182],[41.052384,37.717412],[41.049278,37.723623],[41.046863,37.729661],[41.044383,37.734425]]]}},{"type":"Feature","properties":{"id":"TR-D-72-004","parent_id":"TR-P-72","region_id":"TR-R-GDA","level":"district","municipality_type":null,"municipality_type_label":null,"is_metropolitan_municipality":null,"name":"Hasankeyf","name_ascii":"hasankeyf","slug":"hasankeyf-batman"},"geometry":{"type":"Polygon","coordinates":[[[41.724527,37.673508],[41.720289,37.671436],[41.717357,37.669452],[41.714941,37.667295],[41.712785,37.664966],[41.708989,37.662724],[41.705453,37.660222],[41.7037,37.657082],[41.701405,37.659345],[41.70017,37.661506],[41.697824,37.664469],[41.696281,37.666012],[41.695911,37.668234],[41.695417,37.670518],[41.694368,37.671876],[41.691528,37.673481],[41.687701,37.674283],[41.683751,37.674407],[41.677084,37.674221],[41.672331,37.674221],[41.666529,37.67416],[41.663751,37.674036],[41.660294,37.673357],[41.656035,37.67274],[41.653195,37.67237],[41.649245,37.672061],[41.645973,37.671691],[41.643689,37.671691],[41.638751,37.672184],[41.634369,37.672123],[41.631159,37.671876],[41.628813,37.671135],[41.626221,37.669654],[41.624924,37.668234],[41.623443,37.666259],[41.619492,37.662925],[41.613813,37.659777],[41.611715,37.65879],[41.607023,37.656444],[41.6019,37.653419],[41.599925,37.652061],[41.596592,37.649345],[41.593937,37.647494],[41.591283,37.646691],[41.587456,37.645333],[41.585234,37.644469],[41.583937,37.644407],[41.57832,37.645765],[41.566037,37.649654],[41.541839,37.656321],[41.538753,37.657123],[41.532951,37.659654],[41.52863,37.663049],[41.518136,37.669407],[41.511161,37.675086],[41.507951,37.677555],[41.503013,37.679468],[41.500729,37.680086],[41.496223,37.680086],[41.491964,37.679407],[41.487087,37.678604],[41.481285,37.678172],[41.474433,37.67737],[41.469989,37.676073],[41.462952,37.673851],[41.457026,37.672863],[41.452397,37.671567],[41.449187,37.670024],[41.444742,37.667864],[41.441656,37.666691],[41.438446,37.666197],[41.433632,37.666382],[41.42715,37.666197],[41.422768,37.666073],[41.41857,37.664715],[41.413632,37.662308],[41.411471,37.660518],[41.406965,37.656938],[41.403323,37.654839],[41.400175,37.653543],[41.396287,37.652679],[41.392892,37.651012],[41.390052,37.648543],[41.386657,37.645395],[41.38246,37.643975],[41.376287,37.643481],[41.369559,37.643173],[41.364435,37.643481],[41.358942,37.644592],[41.355238,37.647247],[41.350053,37.651938],[41.347892,37.654963],[41.344559,37.66095],[41.341967,37.666073],[41.341658,37.668481],[41.341288,37.672061],[41.338818,37.676505],[41.337584,37.677246],[41.333325,37.679283],[41.329374,37.68132],[41.324004,37.682678],[41.317214,37.683789],[41.312276,37.685579],[41.307461,37.687246],[41.301597,37.687616],[41.297523,37.688357],[41.292585,37.68774],[41.287029,37.687369],[41.282523,37.685271],[41.278634,37.68274],[41.277029,37.681505],[41.272153,37.675826],[41.269992,37.674221],[41.267276,37.673234],[41.263943,37.672802],[41.261227,37.672925],[41.252832,37.674036],[41.2474,37.675765],[41.243079,37.677555],[41.239808,37.67916],[41.235796,37.682431],[41.232277,37.684653],[41.229067,37.686382],[41.22382,37.68632],[41.220796,37.685456],[41.218203,37.6849],[41.215364,37.684715],[41.211907,37.685579],[41.209438,37.686999],[41.206969,37.689838],[41.204747,37.693666],[41.20271,37.69811],[41.200734,37.701567],[41.197895,37.704406],[41.196105,37.707122],[41.194932,37.710394],[41.195056,37.713295],[41.195673,37.715023],[41.197154,37.718171],[41.19771,37.719838],[41.198574,37.725702],[41.199376,37.732183],[41.199968,37.738082],[41.200391,37.738066],[41.200888,37.738027],[41.201378,37.737967],[41.201866,37.73789],[41.20235,37.737796],[41.202827,37.737685],[41.203339,37.737544],[41.203841,37.737384],[41.204331,37.737206],[41.204808,37.73701],[41.205267,37.736794],[41.205704,37.736554],[41.206083,37.736309],[41.206445,37.736048],[41.207495,37.735252],[41.207852,37.735009],[41.208224,37.734793],[41.208617,37.734615],[41.209076,37.734474],[41.209496,37.734392],[41.210069,37.734318],[41.21059,37.734282],[41.211122,37.734263],[41.212206,37.73426],[41.213304,37.73428],[41.21496,37.734331],[41.21661,37.734403],[41.217696,37.734478],[41.218159,37.734524],[41.218759,37.734602],[41.219276,37.734694],[41.219779,37.734818],[41.220216,37.734959],[41.220645,37.735121],[41.221498,37.735469],[41.221951,37.735643],[41.222411,37.735805],[41.22288,37.735949],[41.223359,37.736071],[41.223836,37.736163],[41.224322,37.736232],[41.224814,37.736284],[41.22531,37.73632],[41.225809,37.736345],[41.22631,37.736358],[41.226812,37.73636],[41.227313,37.73635],[41.227805,37.736326],[41.228295,37.736287],[41.228781,37.736232],[41.229262,37.736157],[41.229752,37.736057],[41.230235,37.735936],[41.23071,37.735796],[41.231177,37.735639],[41.231654,37.735455],[41.232119,37.735254],[41.232574,37.735037],[41.233015,37.734802],[41.233461,37.734536],[41.233893,37.734255],[41.234313,37.733961],[41.234721,37.733656],[41.235116,37.733341],[41.235498,37.733015],[41.235861,37.732677],[41.236188,37.732341],[41.236496,37.731994],[41.236788,37.731637],[41.237062,37.731272],[41.237324,37.730892],[41.237568,37.730505],[41.237794,37.730111],[41.238,37.729711],[41.23818,37.729311],[41.238345,37.728886],[41.23848,37.728467],[41.238587,37.728044],[41.238656,37.727647],[41.238696,37.727249],[41.238706,37.726852],[41.238683,37.726457],[41.238623,37.726074],[41.238527,37.725697],[41.238393,37.725329],[41.238217,37.724974],[41.237999,37.724636],[41.237743,37.724312],[41.237457,37.723998],[41.237146,37.723694],[41.236818,37.7234],[41.235786,37.72253],[41.235441,37.722224],[41.235107,37.721911],[41.234785,37.721591],[41.23448,37.721262],[41.234185,37.720911],[41.233915,37.720549],[41.233676,37.72018],[41.233473,37.719801],[41.233325,37.719435],[41.233199,37.718996],[41.233138,37.718592],[41.233137,37.718195],[41.233197,37.717835],[41.233317,37.717492],[41.233496,37.717175],[41.23374,37.716894],[41.234056,37.716655],[41.23443,37.716457],[41.234846,37.716297],[41.235295,37.716174],[41.235758,37.716089],[41.236236,37.716037],[41.236722,37.716017],[41.23721,37.716028],[41.23768,37.716073],[41.238143,37.716149],[41.238594,37.716258],[41.239028,37.716402],[41.239447,37.716587],[41.239845,37.716804],[41.240224,37.717048],[41.240584,37.717315],[41.240955,37.717627],[41.241307,37.717956],[41.241641,37.718298],[41.24196,37.718651],[41.242261,37.719013],[41.242543,37.719384],[41.2428,37.719766],[41.243007,37.720119],[41.243193,37.72048],[41.243362,37.720848],[41.243516,37.72122],[41.243657,37.721596],[41.243903,37.722358],[41.24411,37.723134],[41.244282,37.72392],[41.244426,37.724709],[41.244542,37.725499],[41.244585,37.725894],[41.244615,37.726288],[41.244633,37.726683],[41.244635,37.727077],[41.244621,37.72747],[41.244587,37.727883],[41.244445,37.729036],[41.244361,37.729828],[41.244334,37.730225],[41.244322,37.730622],[41.244328,37.731044],[41.244349,37.731467],[41.244378,37.731783],[41.244426,37.732314],[41.244593,37.733589],[41.24473,37.734438],[41.244809,37.73486],[41.244898,37.735278],[41.245002,37.73569],[41.245125,37.736094],[41.245275,37.736484],[41.245461,37.736855],[41.245688,37.737195],[41.245958,37.737505],[41.246268,37.73778],[41.246619,37.738008],[41.246645,37.73802],[41.252521,37.741761],[41.261587,37.742475],[41.267654,37.741903],[41.271366,37.740761],[41.27515,37.739833],[41.284501,37.732338],[41.290112,37.728905],[41.296768,37.723271],[41.300551,37.719821],[41.311986,37.716357],[41.323666,37.715715],[41.329252,37.715408],[41.335924,37.715852],[41.345785,37.71774],[41.359319,37.714966],[41.362874,37.714769],[41.376526,37.707527],[41.384106,37.706701],[41.393246,37.706194],[41.399339,37.705855],[41.411159,37.706818],[41.427763,37.709945],[41.438276,37.71341],[41.439165,37.715983],[41.441023,37.721364],[41.444977,37.725424],[41.44661,37.725804],[41.452037,37.727084],[41.458,37.728504],[41.459628,37.728883],[41.460716,37.729123],[41.461263,37.729235],[41.461811,37.729339],[41.462362,37.729432],[41.462856,37.729502],[41.463352,37.729563],[41.463923,37.729624],[41.462213,37.732472],[41.46128,37.733957],[41.468543,37.735053],[41.508161,37.731198],[41.520867,37.73541],[41.525936,37.736195],[41.544995,37.738123],[41.550492,37.738051],[41.580901,37.737266],[41.620234,37.74262],[41.63473,37.739659],[41.655663,37.737025],[41.668512,37.7306],[41.675938,37.730384],[41.677882,37.725912],[41.678363,37.726032],[41.678951,37.726738],[41.679069,37.727562],[41.679893,37.727915],[41.682012,37.729092],[41.683895,37.729328],[41.686249,37.729328],[41.689074,37.728739],[41.692605,37.728269],[41.696372,37.727798],[41.697902,37.726268],[41.700138,37.724031],[41.700844,37.722266],[41.70108,37.7205],[41.701668,37.717675],[41.702374,37.715556],[41.703434,37.714968],[41.705199,37.714732],[41.70826,37.714262],[41.710261,37.713673],[41.711085,37.713202],[41.711555,37.711908],[41.711673,37.710848],[41.711673,37.709907],[41.712732,37.708965],[41.714263,37.708376],[41.716264,37.708023],[41.717337,37.708448],[41.717356,37.70845],[41.718283,37.708591],[41.720118,37.706757],[41.72026,37.706367],[41.721206,37.703766],[41.722293,37.699757],[41.723244,37.693029],[41.722701,37.689903],[41.722972,37.687049],[41.722701,37.68501],[41.722701,37.680185],[41.722905,37.677127],[41.723584,37.674545],[41.724527,37.673508]]]}},{"type":"Feature","properties":{"id":"TR-D-72-005","parent_id":"TR-P-72","region_id":"TR-R-GDA","level":"district","municipality_type":null,"municipality_type_label":null,"is_metropolitan_municipality":null,"name":"Kozluk","name_ascii":"kozluk","slug":"kozluk-batman"},"geometry":{"type":"Polygon","coordinates":[[[41.180025,38.257399],[41.180282,38.259355],[41.180518,38.261107],[41.180707,38.262421],[41.181588,38.268027],[41.182565,38.274243],[41.182785,38.275555],[41.18295,38.276426],[41.183043,38.27686],[41.183059,38.276928],[41.188005,38.277323],[41.193367,38.277384],[41.201288,38.278663],[41.206954,38.279943],[41.212986,38.281649],[41.2178,38.28171],[41.223283,38.28238],[41.225355,38.282319],[41.233763,38.281588],[41.241988,38.27976],[41.245888,38.278359],[41.248447,38.275129],[41.252224,38.271169],[41.256063,38.268366],[41.25917,38.265807],[41.263862,38.263309],[41.26831,38.262274],[41.272879,38.261908],[41.278363,38.261603],[41.282445,38.261055],[41.287319,38.259471],[41.295301,38.257095],[41.301759,38.255023],[41.315347,38.25155],[41.316321,38.25155],[41.322414,38.251672],[41.32741,38.251794],[41.330822,38.252281],[41.335209,38.253134],[41.340327,38.253683],[41.345323,38.254414],[41.351721,38.256242],[41.357997,38.259593],[41.36019,38.260933],[41.369939,38.266234],[41.375788,38.269951],[41.380845,38.272875],[41.390167,38.277688],[41.394006,38.279516],[41.397418,38.28171],[41.404729,38.286097],[41.411797,38.289326],[41.420083,38.293591],[41.425749,38.297003],[41.434767,38.301146],[41.442078,38.304375],[41.449938,38.309371],[41.454386,38.312662],[41.462429,38.319059],[41.468582,38.32436],[41.471446,38.330026],[41.472543,38.332768],[41.474553,38.335997],[41.477478,38.339958],[41.483083,38.344893],[41.486739,38.346843],[41.492162,38.348731],[41.498438,38.351351],[41.502885,38.352875],[41.505444,38.353849],[41.51501,38.358358],[41.526404,38.364268],[41.533106,38.367863],[41.542367,38.371823],[41.553091,38.376576],[41.567104,38.381572],[41.577929,38.384497],[41.590521,38.384822],[41.595883,38.385065],[41.600757,38.38604],[41.606281,38.388315],[41.609856,38.390102],[41.619848,38.392864],[41.627566,38.394002],[41.635229,38.394634],[41.63495,38.393647],[41.635049,38.39128],[41.636726,38.377175],[41.637155,38.366794],[41.636821,38.355863],[41.637267,38.348613],[41.637602,38.342143],[41.639163,38.335004],[41.641506,38.326639],[41.642398,38.315707],[41.644294,38.302099],[41.645298,38.298195],[41.648716,38.291849],[41.652404,38.284592],[41.657282,38.276145],[41.661327,38.267936],[41.661166,38.261056],[41.659423,38.258894],[41.657282,38.256752],[41.653713,38.254016],[41.649173,38.250967],[41.645937,38.247636],[41.642987,38.24459],[41.640417,38.24183],[41.638418,38.23669],[41.636514,38.233169],[41.633945,38.229171],[41.631851,38.225459],[41.629662,38.218511],[41.629471,38.215656],[41.630233,38.213372],[41.63166,38.210897],[41.634611,38.206424],[41.638799,38.201189],[41.642225,38.195383],[41.644795,38.189101],[41.647365,38.183962],[41.651838,38.173587],[41.653551,38.167781],[41.654598,38.164164],[41.654694,38.160643],[41.655836,38.158263],[41.656692,38.155408],[41.656216,38.151506],[41.655265,38.149126],[41.652695,38.144082],[41.65022,38.139704],[41.647079,38.135801],[41.641749,38.13228],[41.637086,38.129615],[41.63147,38.127521],[41.623665,38.125046],[41.619953,38.123143],[41.616432,38.120382],[41.613672,38.117527],[41.612434,38.114005],[41.612625,38.111055],[41.61272,38.108104],[41.613005,38.104678],[41.614338,38.1003],[41.616812,38.096397],[41.619287,38.09259],[41.621476,38.090401],[41.622047,38.087831],[41.621571,38.085737],[41.619953,38.083548],[41.617574,38.081454],[41.614719,38.080693],[41.611673,38.080693],[41.607675,38.080788],[41.60501,38.080978],[41.600347,38.081074],[41.598253,38.081074],[41.593399,38.081454],[41.58864,38.081264],[41.582834,38.081169],[41.579027,38.080978],[41.577218,38.080693],[41.574458,38.078885],[41.570556,38.076505],[41.566939,38.073745],[41.563703,38.071175],[41.560277,38.068796],[41.555518,38.067463],[41.550854,38.065845],[41.546571,38.063846],[41.537993,38.061622],[41.53296,38.060551],[41.528142,38.058731],[41.52054,38.056268],[41.513044,38.055411],[41.507797,38.054983],[41.502122,38.053698],[41.497839,38.051985],[41.493128,38.048665],[41.491368,38.04666],[41.490811,38.046138],[41.48942,38.044946],[41.48803,38.043092],[41.486441,38.041702],[41.485183,38.04104],[41.484653,38.04051],[41.48419,38.039848],[41.484058,38.039186],[41.483859,38.039054],[41.48366,38.038921],[41.482998,38.038921],[41.482667,38.039021],[41.482336,38.03912],[41.481542,38.039385],[41.480284,38.03912],[41.478959,38.038656],[41.478033,38.037663],[41.47737,38.036472],[41.476775,38.034816],[41.476179,38.033558],[41.47598,38.031903],[41.475715,38.03091],[41.475318,38.030248],[41.474126,38.029387],[41.472471,38.029056],[41.471412,38.028526],[41.470683,38.0276],[41.470154,38.026408],[41.468697,38.025481],[41.467373,38.023495],[41.46638,38.022965],[41.466016,38.022899],[41.465651,38.022833],[41.464725,38.022766],[41.464526,38.022535],[41.464327,38.022303],[41.464195,38.02131],[41.463334,38.020052],[41.462209,38.019323],[41.460818,38.018463],[41.459759,38.017536],[41.458368,38.017139],[41.457309,38.016807],[41.456117,38.016874],[41.455389,38.01747],[41.453668,38.017867],[41.451946,38.01747],[41.449894,38.016741],[41.448602,38.016113],[41.44574,38.019767],[41.442034,38.024467],[41.437877,38.031245],[41.435527,38.03486],[41.433087,38.03947],[41.430195,38.04435],[41.42676,38.050767],[41.424772,38.055196],[41.423055,38.057817],[41.418445,38.062155],[41.411215,38.068752],[41.40516,38.073813],[41.399195,38.078875],[41.394947,38.082219],[41.392055,38.083394],[41.388349,38.084026],[41.383559,38.083303],[41.379131,38.081224],[41.377233,38.0777],[41.375245,38.071012],[41.37407,38.064053],[41.37407,38.060618],[41.373889,38.056009],[41.373889,38.052936],[41.373437,38.051761],[41.370003,38.049231],[41.367291,38.048056],[41.359067,38.048236],[41.353644,38.048327],[41.349035,38.050767],[41.348222,38.051309],[41.347137,38.051309],[41.345781,38.0514],[41.345058,38.052394],[41.344697,38.053478],[41.344064,38.05393],[41.343251,38.053388],[41.341714,38.052665],[41.338099,38.052303],[41.336472,38.052213],[41.335569,38.052032],[41.334846,38.051671],[41.333851,38.051761],[41.332948,38.052575],[41.332044,38.052575],[41.33105,38.052575],[41.329332,38.052846],[41.326712,38.053569],[41.325717,38.053569],[41.323006,38.053388],[41.318758,38.053388],[41.316047,38.052846],[41.312612,38.052484],[41.308726,38.050134],[41.304117,38.048146],[41.301586,38.046248],[41.293995,38.04426],[41.283782,38.042633],[41.271942,38.042271],[41.266068,38.042543],[41.26417,38.043085],[41.26173,38.044169],[41.256307,38.047333],[41.251607,38.050948],[41.245371,38.05628],[41.24284,38.059263],[41.23796,38.068752],[41.231995,38.079327],[41.227115,38.084749],[41.224584,38.087099],[41.221421,38.088093],[41.218479,38.088093],[41.215546,38.088093],[41.211417,38.087638],[41.211126,38.087594],[41.212023,38.089894],[41.213369,38.093315],[41.213849,38.0946],[41.213995,38.095029],[41.214128,38.09546],[41.214243,38.095891],[41.214324,38.096272],[41.214382,38.096654],[41.214415,38.097036],[41.214418,38.097418],[41.214378,38.097847],[41.214302,38.098275],[41.214199,38.098702],[41.214077,38.099128],[41.213793,38.099977],[41.213337,38.101219],[41.213206,38.101629],[41.213103,38.102043],[41.21304,38.102455],[41.21301,38.10287],[41.213008,38.103288],[41.213028,38.103706],[41.21307,38.104125],[41.213133,38.104543],[41.213211,38.104931],[41.213306,38.105318],[41.213414,38.105703],[41.213534,38.106087],[41.213805,38.106839],[41.214116,38.107581],[41.214305,38.107985],[41.214506,38.108384],[41.214718,38.108781],[41.214942,38.109173],[41.215177,38.109557],[41.215424,38.109937],[41.215682,38.110312],[41.215951,38.110682],[41.216224,38.111036],[41.216508,38.111386],[41.217104,38.112071],[41.217719,38.11272],[41.218978,38.113994],[41.21928,38.114316],[41.219568,38.114645],[41.219864,38.115015],[41.220138,38.115393],[41.220391,38.115779],[41.220621,38.116171],[41.220823,38.116569],[41.220992,38.116973],[41.221117,38.117384],[41.221183,38.117762],[41.22121,38.118144],[41.221203,38.11853],[41.221163,38.118916],[41.221095,38.119298],[41.221004,38.119678],[41.220894,38.120059],[41.22077,38.120438],[41.220493,38.121186],[41.220188,38.12193],[41.219074,38.124446],[41.218717,38.125288],[41.218376,38.126133],[41.217889,38.127406],[41.217437,38.128689],[41.217153,38.129548],[41.21688,38.130409],[41.216625,38.131272],[41.216509,38.131705],[41.216404,38.13214],[41.216316,38.132575],[41.216254,38.13297],[41.216208,38.133366],[41.21618,38.133763],[41.216169,38.13416],[41.216179,38.134558],[41.216207,38.134955],[41.216256,38.135351],[41.216325,38.135746],[41.216414,38.136128],[41.216522,38.136509],[41.216643,38.136886],[41.216777,38.137262],[41.217089,38.138078],[41.217232,38.138485],[41.21735,38.138892],[41.21743,38.139298],[41.217468,38.139703],[41.217459,38.140105],[41.217394,38.140498],[41.21727,38.14087],[41.217093,38.141232],[41.216871,38.141581],[41.216609,38.141918],[41.216323,38.142223],[41.216221,38.142319],[41.21601,38.142516],[41.215674,38.142799],[41.21532,38.14307],[41.214955,38.143329],[41.214576,38.143577],[41.214186,38.143814],[41.213783,38.14404],[41.213346,38.144262],[41.212898,38.144469],[41.21244,38.144664],[41.211972,38.144845],[41.211504,38.145011],[41.210076,38.145472],[41.20912,38.145793],[41.20818,38.14614],[41.207709,38.14633],[41.207246,38.146529],[41.20679,38.146739],[41.206343,38.146959],[41.205919,38.147184],[41.205504,38.147419],[41.2051,38.147663],[41.204708,38.147916],[41.204329,38.148178],[41.203967,38.148451],[41.203628,38.148737],[41.203318,38.149039],[41.20303,38.149379],[41.202781,38.149738],[41.202571,38.150113],[41.202402,38.150502],[41.202275,38.15091],[41.202184,38.151329],[41.202121,38.151754],[41.202079,38.152184],[41.20223,38.156115],[41.202272,38.156634],[41.202304,38.157184],[41.202335,38.15836],[41.202622,38.169368],[41.200972,38.169667],[41.199569,38.169923],[41.197526,38.170315],[41.195857,38.170657],[41.194776,38.170892],[41.194241,38.171016],[41.193712,38.171145],[41.193191,38.171284],[41.192683,38.171437],[41.192193,38.171607],[41.191727,38.171803],[41.191293,38.172033],[41.19092,38.172289],[41.190576,38.172576],[41.190254,38.172886],[41.189948,38.173213],[41.189654,38.173551],[41.189089,38.174252],[41.188546,38.174971],[41.188017,38.175701],[41.18698,38.177181],[41.186442,38.177909],[41.186158,38.178264],[41.185859,38.17861],[41.185547,38.178939],[41.185219,38.179259],[41.184879,38.17957],[41.184529,38.179875],[41.184171,38.180173],[41.183805,38.180463],[41.183431,38.180744],[41.183047,38.181015],[41.182652,38.181271],[41.182243,38.181507],[41.181815,38.181719],[41.181362,38.181901],[41.18089,38.182057],[41.180405,38.182194],[41.179909,38.182317],[41.179406,38.182428],[41.178385,38.182624],[41.17735,38.182794],[41.176829,38.182867],[41.175761,38.182995],[41.173617,38.183226],[41.173084,38.183291],[41.172554,38.183365],[41.172016,38.183454],[41.171483,38.183556],[41.170958,38.183673],[41.170442,38.183809],[41.169939,38.183968],[41.169466,38.184147],[41.169006,38.184349],[41.168557,38.184568],[41.168119,38.184801],[41.167692,38.185047],[41.167278,38.185306],[41.16688,38.185578],[41.166503,38.185866],[41.166149,38.186173],[41.16582,38.186497],[41.165516,38.186833],[41.165237,38.187181],[41.164988,38.187541],[41.164776,38.187914],[41.164605,38.188309],[41.164476,38.188716],[41.164389,38.189131],[41.164342,38.189543],[41.164326,38.18996],[41.164333,38.19038],[41.164359,38.190802],[41.164399,38.191224],[41.164452,38.191646],[41.164518,38.192068],[41.164585,38.192419],[41.164649,38.193782],[41.164857,38.198219],[41.16495,38.200182],[41.165053,38.200213],[41.165311,38.200322],[41.165679,38.200506],[41.166114,38.200764],[41.166572,38.201093],[41.167014,38.201493],[41.167413,38.201944],[41.167755,38.202423],[41.168026,38.202903],[41.168198,38.203305],[41.168316,38.203681],[41.168515,38.20444],[41.168691,38.205206],[41.168878,38.206077],[41.16959,38.209528],[41.16996,38.211315],[41.170566,38.214221],[41.171325,38.217855],[41.171606,38.219162],[41.171904,38.220466],[41.172121,38.221331],[41.172465,38.222626],[41.174945,38.231676],[41.175641,38.234264],[41.17618,38.236393],[41.176353,38.237093],[41.177763,38.242787],[41.178072,38.244067],[41.178358,38.245349],[41.178443,38.245778],[41.178593,38.24665],[41.178785,38.247962],[41.180025,38.257399]]]}},{"type":"Feature","properties":{"id":"TR-D-72-006","parent_id":"TR-P-72","region_id":"TR-R-GDA","level":"district","municipality_type":null,"municipality_type_label":null,"is_metropolitan_municipality":null,"name":"Sason","name_ascii":"sason","slug":"sason-batman"},"geometry":{"type":"Polygon","coordinates":[[[41.50842,38.55517],[41.517085,38.549288],[41.524778,38.543272],[41.534444,38.536367],[41.543025,38.52897],[41.549535,38.523348],[41.558313,38.518712],[41.567683,38.515556],[41.572122,38.513583],[41.578829,38.511019],[41.592539,38.507172],[41.604572,38.505693],[41.611476,38.504904],[41.619564,38.504312],[41.62558,38.504213],[41.628145,38.503523],[41.629526,38.502734],[41.631301,38.499578],[41.632583,38.496914],[41.636923,38.485473],[41.641263,38.472454],[41.642545,38.467719],[41.643334,38.46338],[41.643235,38.461506],[41.642644,38.458251],[41.641953,38.455489],[41.642446,38.446119],[41.642348,38.434678],[41.642841,38.424716],[41.643137,38.42008],[41.641657,38.411401],[41.640474,38.404595],[41.637613,38.400156],[41.636035,38.397493],[41.635229,38.394634],[41.627566,38.394002],[41.619848,38.392864],[41.609856,38.390102],[41.606281,38.388315],[41.600757,38.38604],[41.595883,38.385065],[41.590521,38.384822],[41.577929,38.384497],[41.567104,38.381572],[41.553091,38.376576],[41.542367,38.371823],[41.533106,38.367863],[41.526404,38.364268],[41.51501,38.358358],[41.505444,38.353849],[41.502885,38.352875],[41.498438,38.351351],[41.492162,38.348731],[41.486739,38.346843],[41.483083,38.344893],[41.477478,38.339958],[41.474553,38.335997],[41.472543,38.332768],[41.471446,38.330026],[41.468582,38.32436],[41.462429,38.319059],[41.454386,38.312662],[41.449938,38.309371],[41.442078,38.304375],[41.434767,38.301146],[41.425749,38.297003],[41.420083,38.293591],[41.411797,38.289326],[41.404729,38.286097],[41.397418,38.28171],[41.394006,38.279516],[41.390167,38.277688],[41.380845,38.272875],[41.375788,38.269951],[41.369939,38.266234],[41.36019,38.260933],[41.357997,38.259593],[41.351721,38.256242],[41.345323,38.254414],[41.340327,38.253683],[41.335209,38.253134],[41.330822,38.252281],[41.32741,38.251794],[41.322414,38.251672],[41.316321,38.25155],[41.315347,38.25155],[41.301759,38.255023],[41.295301,38.257095],[41.287319,38.259471],[41.282445,38.261055],[41.278363,38.261603],[41.272879,38.261908],[41.26831,38.262274],[41.263862,38.263309],[41.25917,38.265807],[41.256063,38.268366],[41.252224,38.271169],[41.248447,38.275129],[41.245888,38.278359],[41.241988,38.27976],[41.233763,38.281588],[41.225355,38.282319],[41.223283,38.28238],[41.2178,38.28171],[41.212986,38.281649],[41.206954,38.279943],[41.201288,38.278663],[41.193367,38.277384],[41.188005,38.277323],[41.183059,38.276928],[41.183062,38.276939],[41.183147,38.277293],[41.183263,38.277722],[41.18339,38.278149],[41.183664,38.279],[41.184257,38.280695],[41.185482,38.284083],[41.185913,38.285357],[41.186041,38.285783],[41.186155,38.286209],[41.186242,38.28659],[41.18631,38.286972],[41.186341,38.287235],[41.186355,38.287354],[41.186372,38.287736],[41.18635,38.288173],[41.186292,38.28861],[41.186205,38.289046],[41.186094,38.28948],[41.185962,38.289911],[41.185809,38.290339],[41.185632,38.290762],[41.185436,38.29117],[41.18522,38.291574],[41.184755,38.292372],[41.18378,38.293957],[41.183312,38.294756],[41.183203,38.294957],[41.182882,38.295574],[41.182682,38.295992],[41.182491,38.296412],[41.182125,38.297258],[41.181422,38.298959],[41.181298,38.299263],[41.181255,38.29937],[41.179514,38.303653],[41.179175,38.304512],[41.179053,38.304836],[41.178999,38.30498],[41.17885,38.305376],[41.178699,38.305811],[41.178432,38.306655],[41.178073,38.307933],[41.177855,38.30879],[41.177755,38.309218],[41.177665,38.309644],[41.177584,38.310093],[41.17758,38.31012],[41.177529,38.310484],[41.177496,38.310882],[41.177488,38.311266],[41.177506,38.311632],[41.177556,38.31197],[41.177624,38.3122],[41.177626,38.312204],[41.177636,38.312237],[41.177889,38.312607],[41.178286,38.31279],[41.178647,38.312813],[41.179058,38.312783],[41.179504,38.312718],[41.179976,38.312629],[41.180967,38.312424],[41.181443,38.312333],[41.181922,38.312257],[41.182404,38.312203],[41.182886,38.312183],[41.183411,38.312208],[41.183935,38.312274],[41.184459,38.312371],[41.184981,38.31249],[41.185502,38.312625],[41.186542,38.312925],[41.18758,38.313247],[41.188616,38.313579],[41.190165,38.314084],[41.191192,38.314428],[41.192204,38.314787],[41.1927,38.314978],[41.193187,38.315181],[41.193659,38.3154],[41.1941,38.315632],[41.194524,38.315884],[41.194929,38.316153],[41.195313,38.316441],[41.195662,38.316736],[41.195993,38.317046],[41.196309,38.317366],[41.196614,38.317695],[41.196913,38.318037],[41.197486,38.318737],[41.198032,38.319455],[41.198553,38.320187],[41.198804,38.320557],[41.199305,38.321336],[41.200265,38.322909],[41.21111,38.341004],[41.212078,38.342633],[41.212781,38.343862],[41.213005,38.344275],[41.213425,38.345095],[41.214222,38.34675],[41.215965,38.35049],[41.216341,38.351324],[41.2167,38.352161],[41.216869,38.352582],[41.217026,38.353006],[41.217167,38.353432],[41.217282,38.353831],[41.217475,38.354637],[41.217802,38.356262],[41.217982,38.357105],[41.218197,38.357971],[41.21832,38.358399],[41.218459,38.358822],[41.218618,38.359237],[41.218805,38.359641],[41.219019,38.360018],[41.219264,38.360379],[41.219541,38.360723],[41.219582,38.360766],[41.219852,38.361048],[41.220199,38.361347],[41.220577,38.361623],[41.220981,38.361877],[41.22141,38.362109],[41.221839,38.362307],[41.222283,38.362489],[41.222737,38.362662],[41.227224,38.364273],[41.228727,38.364829],[41.230219,38.3654],[41.230713,38.365596],[41.231681,38.365997],[41.233125,38.366617],[41.236013,38.367876],[41.237437,38.368521],[41.237898,38.368744],[41.238345,38.368974],[41.238772,38.369213],[41.239171,38.369467],[41.23953,38.36974],[41.239834,38.370038],[41.240072,38.370374],[41.240242,38.370736],[41.240348,38.371116],[41.240388,38.371508],[41.240361,38.371894],[41.240281,38.372284],[41.240157,38.372676],[41.239968,38.373122],[41.23994,38.373179],[41.239935,38.373189],[41.239803,38.373454],[41.239585,38.373839],[41.239348,38.374222],[41.239097,38.3746],[41.238837,38.374972],[41.238293,38.375706],[41.23773,38.376425],[41.237266,38.377007],[41.237236,38.377044],[41.2366,38.377842],[41.236063,38.37856],[41.235811,38.378925],[41.235577,38.379287],[41.235141,38.380022],[41.234741,38.38077],[41.234554,38.381147],[41.234376,38.381528],[41.234209,38.381911],[41.23406,38.382289],[41.233923,38.382669],[41.233796,38.383052],[41.233681,38.383437],[41.233577,38.383823],[41.233485,38.384211],[41.233403,38.384601],[41.233335,38.384992],[41.23328,38.385384],[41.233238,38.385778],[41.23321,38.386172],[41.233196,38.386566],[41.233202,38.387086],[41.235653,38.396224],[41.236574,38.398183],[41.236594,38.398224],[41.237616,38.400396],[41.239203,38.403817],[41.239226,38.403865],[41.239753,38.405002],[41.240153,38.405832],[41.240362,38.406242],[41.240579,38.406647],[41.240809,38.407044],[41.241036,38.407395],[41.241038,38.407399],[41.241047,38.407413],[41.241332,38.4078],[41.241642,38.408148],[41.241979,38.408455],[41.24231,38.408713],[41.242317,38.408718],[41.24233,38.408727],[41.242744,38.409012],[41.24316,38.409268],[41.243599,38.409516],[41.244508,38.409987],[41.24544,38.41044],[41.248273,38.411772],[41.250168,38.412647],[41.251125,38.413066],[41.251609,38.413265],[41.252073,38.413444],[41.252543,38.413612],[41.253019,38.413767],[41.253503,38.413905],[41.254042,38.414034],[41.25459,38.414144],[41.255144,38.41424],[41.255702,38.414326],[41.256829,38.414471],[41.257946,38.41459],[41.26069,38.414825],[41.261709,38.414921],[41.26218,38.414982],[41.262635,38.415065],[41.263069,38.415182],[41.263493,38.41535],[41.263889,38.41556],[41.264257,38.415806],[41.264593,38.416084],[41.264909,38.416403],[41.265196,38.416747],[41.265462,38.417108],[41.265711,38.417481],[41.266138,38.41819],[41.266532,38.418915],[41.26689,38.419653],[41.267051,38.420027],[41.267196,38.420404],[41.267322,38.420788],[41.267432,38.421175],[41.267528,38.421565],[41.267694,38.422349],[41.26798,38.423925],[41.268059,38.424318],[41.268151,38.424707],[41.268264,38.425092],[41.268412,38.425491],[41.268584,38.425884],[41.268775,38.426273],[41.269195,38.427044],[41.269878,38.428187],[41.270604,38.429315],[41.271117,38.430053],[41.271389,38.430414],[41.271676,38.430767],[41.271995,38.431128],[41.27233,38.43148],[41.272676,38.431826],[41.273362,38.432481],[41.273376,38.432494],[41.274489,38.433515],[41.278073,38.436767],[41.278077,38.43677],[41.280756,38.439201],[41.281505,38.43986],[41.281885,38.440184],[41.282273,38.440501],[41.282669,38.44081],[41.283079,38.441108],[41.283502,38.44139],[41.283937,38.441661],[41.284834,38.44218],[41.28575,38.442682],[41.286546,38.443107],[41.286636,38.443154],[41.286655,38.443165],[41.293106,38.446565],[41.293129,38.446577],[41.293156,38.446591],[41.29412,38.44709],[41.295053,38.447559],[41.296451,38.44824],[41.297856,38.448912],[41.298794,38.449355],[41.299734,38.449785],[41.300677,38.450189],[41.301151,38.450371],[41.301605,38.450527],[41.302061,38.450659],[41.302521,38.450757],[41.302986,38.450811],[41.303446,38.450813],[41.30391,38.450774],[41.304377,38.450702],[41.304846,38.450608],[41.306298,38.450258],[41.306792,38.450149],[41.307271,38.450061],[41.307755,38.449988],[41.308244,38.44993],[41.308736,38.449887],[41.309236,38.449859],[41.309737,38.449845],[41.31024,38.449844],[41.310743,38.449855],[41.311244,38.449878],[41.311744,38.449912],[41.312243,38.449956],[41.31274,38.450011],[41.313237,38.450076],[41.313729,38.450152],[41.314217,38.450242],[41.314697,38.450348],[41.315211,38.450484],[41.315714,38.45064],[41.316206,38.450813],[41.316685,38.451003],[41.317148,38.451212],[41.317589,38.451442],[41.318002,38.451698],[41.318363,38.451971],[41.318697,38.452268],[41.319008,38.452584],[41.319299,38.452916],[41.31958,38.453272],[41.319845,38.45364],[41.320095,38.454016],[41.320332,38.454399],[41.320756,38.455147],[41.321761,38.45704],[41.322201,38.457802],[41.322443,38.458184],[41.3227,38.458558],[41.322974,38.458923],[41.323257,38.459259],[41.32356,38.459584],[41.323883,38.459896],[41.324227,38.460192],[41.324607,38.460482],[41.325008,38.460754],[41.325427,38.461011],[41.325862,38.461253],[41.326298,38.461473],[41.326745,38.461681],[41.327201,38.461878],[41.327665,38.462066],[41.328132,38.462243],[41.328605,38.462411],[41.329084,38.46257],[41.329567,38.462718],[41.330103,38.462868],[41.330643,38.463005],[41.331187,38.46313],[41.331735,38.463242],[41.332284,38.46334],[41.332835,38.463418],[41.333389,38.463472],[41.333882,38.463494],[41.334376,38.463492],[41.334868,38.463467],[41.335359,38.463419],[41.335843,38.463348],[41.336323,38.463257],[41.336801,38.46315],[41.337275,38.46303],[41.337745,38.462898],[41.338211,38.462756],[41.338671,38.462603],[41.339126,38.462438],[41.339598,38.46225],[41.340063,38.462049],[41.340522,38.461839],[41.341429,38.461397],[41.34367,38.460233],[41.344574,38.459775],[41.345027,38.459558],[41.345485,38.45935],[41.345949,38.459154],[41.346422,38.458974],[41.346887,38.458819],[41.347361,38.458682],[41.347842,38.458565],[41.34833,38.45847],[41.348818,38.458399],[41.349312,38.458349],[41.349809,38.458318],[41.350308,38.458306],[41.350807,38.458313],[41.351305,38.458337],[41.351801,38.458379],[41.352292,38.458438],[41.35278,38.458517],[41.353258,38.458616],[41.353724,38.458736],[41.354173,38.458881],[41.35462,38.459062],[41.355038,38.459273],[41.355423,38.459514],[41.355767,38.459785],[41.356051,38.460078],[41.356291,38.460397],[41.35649,38.460736],[41.356647,38.461093],[41.356761,38.461465],[41.356843,38.461847],[41.356901,38.462237],[41.357062,38.463832],[41.357113,38.464232],[41.357187,38.464676],[41.357277,38.465118],[41.35738,38.465559],[41.357618,38.466435],[41.357896,38.467302],[41.358051,38.46773],[41.358215,38.468155],[41.35856,38.469001],[41.359104,38.470264],[41.359673,38.471517],[41.360082,38.472341],[41.360303,38.472746],[41.360541,38.473143],[41.360803,38.473529],[41.361083,38.473888],[41.361385,38.474238],[41.361703,38.47458],[41.362374,38.475248],[41.363072,38.475901],[41.36379,38.476536],[41.364157,38.476844],[41.364532,38.477141],[41.364915,38.477423],[41.365311,38.477686],[41.365723,38.47792],[41.366159,38.478118],[41.366614,38.478267],[41.367091,38.478374],[41.367584,38.478442],[41.368087,38.478474],[41.368576,38.478471],[41.370065,38.478388],[41.370565,38.478376],[41.371063,38.478383],[41.371554,38.47841],[41.37208,38.47847],[41.372129,38.478479],[41.372493,38.478543],[41.372928,38.478662],[41.373347,38.478834],[41.373725,38.47905],[41.374054,38.479306],[41.374324,38.4796],[41.374519,38.479916],[41.374663,38.48026],[41.374765,38.480624],[41.374836,38.481003],[41.374885,38.481437],[41.374912,38.481879],[41.374923,38.482328],[41.37492,38.483085],[41.379018,38.484326],[41.382813,38.485475],[41.387023,38.485244],[41.392771,38.483903],[41.395511,38.484185],[41.412637,38.488059],[41.425269,38.494181],[41.431546,38.497746],[41.439915,38.500536],[41.444952,38.502628],[41.448052,38.503558],[41.455259,38.505263],[41.460606,38.506503],[41.472308,38.510378],[41.480445,38.513865],[41.484552,38.51557],[41.488969,38.518127],[41.498889,38.528821],[41.503306,38.539051],[41.507258,38.551527],[41.50842,38.55517]]]}}]}