{"type":"FeatureCollection","province":"Bayburt","province_id":"TR-P-69","features":[{"type":"Feature","properties":{"id":"TR-D-69-001","parent_id":"TR-P-69","region_id":"TR-R-KAR","level":"district","municipality_type":null,"municipality_type_label":null,"is_metropolitan_municipality":null,"name":"Aydıntepe","name_ascii":"aydintepe","slug":"aydintepe-bayburt"},"geometry":{"type":"Polygon","coordinates":[[[40.128835,40.573844],[40.131408,40.573287],[40.13512,40.572621],[40.138737,40.572621],[40.143591,40.572431],[40.148255,40.571859],[40.154918,40.570432],[40.161009,40.567862],[40.168909,40.565007],[40.176523,40.562437],[40.184423,40.559201],[40.19337,40.554823],[40.19889,40.553966],[40.201936,40.553871],[40.206695,40.553776],[40.212691,40.553204],[40.217355,40.551586],[40.222589,40.549207],[40.226397,40.546732],[40.229918,40.542925],[40.235153,40.537215],[40.238389,40.53474],[40.24667,40.528173],[40.253332,40.523509],[40.259804,40.519797],[40.266371,40.516846],[40.270655,40.515609],[40.276936,40.514277],[40.283123,40.514277],[40.288167,40.514562],[40.293117,40.514943],[40.294677,40.515147],[40.294814,40.5102],[40.294992,40.506637],[40.294814,40.504053],[40.294012,40.502271],[40.291874,40.500044],[40.288934,40.497283],[40.284836,40.493095],[40.28252,40.490868],[40.279402,40.48775],[40.277264,40.485078],[40.276284,40.483207],[40.276017,40.481692],[40.275482,40.47893],[40.27468,40.475991],[40.273879,40.474743],[40.273077,40.473229],[40.272364,40.471536],[40.272275,40.469309],[40.27272,40.467616],[40.273077,40.465389],[40.27379,40.463518],[40.274591,40.460935],[40.275037,40.459242],[40.275126,40.45746],[40.27468,40.453451],[40.274324,40.448908],[40.27379,40.445612],[40.273255,40.44187],[40.272453,40.438663],[40.271473,40.434565],[40.269959,40.43207],[40.269068,40.429487],[40.266395,40.424587],[40.265148,40.422449],[40.262386,40.420133],[40.260159,40.418173],[40.259357,40.417015],[40.258377,40.414877],[40.257397,40.411669],[40.255705,40.408017],[40.254457,40.404631],[40.253121,40.402048],[40.251518,40.40089],[40.24742,40.398128],[40.245371,40.397237],[40.242342,40.396792],[40.238511,40.397415],[40.236373,40.399732],[40.235036,40.404988],[40.235215,40.408551],[40.235838,40.412738],[40.236284,40.415322],[40.236195,40.417549],[40.235838,40.418796],[40.235215,40.420311],[40.23468,40.422449],[40.234146,40.424498],[40.233967,40.42628],[40.234324,40.428685],[40.234858,40.431625],[40.234502,40.433763],[40.2337,40.436168],[40.230671,40.439999],[40.228711,40.442048],[40.227286,40.44285],[40.224257,40.442761],[40.220871,40.442405],[40.218733,40.441959],[40.217486,40.440801],[40.215793,40.43893],[40.214814,40.437059],[40.213923,40.435099],[40.212675,40.433318],[40.211695,40.431269],[40.211072,40.42824],[40.211072,40.424676],[40.21125,40.42236],[40.211874,40.4204],[40.213834,40.417282],[40.214457,40.415055],[40.214546,40.412382],[40.214814,40.4106],[40.215437,40.408551],[40.216239,40.406057],[40.216863,40.403651],[40.217308,40.401602],[40.217575,40.39893],[40.217664,40.396079],[40.217575,40.393406],[40.218021,40.389843],[40.218644,40.384587],[40.219179,40.379865],[40.220248,40.374787],[40.22203,40.367749],[40.222208,40.361602],[40.22105,40.355544],[40.22084,40.354003],[40.219975,40.349218],[40.216648,40.348802],[40.214949,40.348697],[40.213212,40.348571],[40.210317,40.348328],[40.208588,40.348158],[40.207444,40.348016],[40.206878,40.347929],[40.206318,40.347826],[40.205787,40.347708],[40.205262,40.347576],[40.20474,40.347432],[40.203706,40.347123],[40.202677,40.346796],[40.201654,40.346458],[40.20013,40.345931],[40.19913,40.345558],[40.198639,40.34536],[40.198145,40.345147],[40.197658,40.344925],[40.197175,40.344697],[40.196219,40.344228],[40.194797,40.343508],[40.191017,40.34157],[40.190067,40.341092],[40.1891,40.340621],[40.188119,40.34017],[40.18762,40.339956],[40.187123,40.339758],[40.18662,40.339571],[40.186111,40.339393],[40.185596,40.339224],[40.184545,40.338914],[40.182946,40.338487],[40.179725,40.33768],[40.178647,40.337421],[40.177565,40.337176],[40.177022,40.337063],[40.176475,40.336959],[40.175958,40.336872],[40.174917,40.336723],[40.173869,40.3366],[40.173343,40.336547],[40.172288,40.336463],[40.171162,40.336408],[40.169467,40.336364],[40.16664,40.336327],[40.164378,40.336313],[40.163247,40.33632],[40.162123,40.336347],[40.161005,40.336395],[40.159887,40.336454],[40.157651,40.336587],[40.155977,40.336698],[40.154865,40.336789],[40.154312,40.336843],[40.153761,40.336907],[40.153214,40.336985],[40.152707,40.337072],[40.152204,40.337173],[40.151704,40.337285],[40.151209,40.337409],[40.150719,40.337543],[40.150235,40.33769],[40.149761,40.337848],[40.148828,40.338193],[40.147907,40.338562],[40.146877,40.338993],[40.137654,40.342945],[40.136916,40.34327],[40.126112,40.353523],[40.126439,40.357139],[40.126973,40.359642],[40.127597,40.362938],[40.127508,40.365166],[40.126884,40.366502],[40.124746,40.368195],[40.122608,40.370511],[40.118599,40.373362],[40.115303,40.374698],[40.111828,40.374876],[40.105681,40.374431],[40.102118,40.373807],[40.099445,40.372738],[40.095971,40.371313],[40.091605,40.371134],[40.087596,40.370867],[40.084478,40.371847],[40.080291,40.373718],[40.077351,40.37452],[40.074055,40.375143],[40.070313,40.3755],[40.065414,40.376391],[40.059712,40.378351],[40.057128,40.379865],[40.055703,40.382003],[40.052763,40.386458],[40.050625,40.389754],[40.047151,40.392783],[40.045636,40.394386],[40.044389,40.394743],[40.038687,40.396703],[40.033431,40.398841],[40.030046,40.400622],[40.026126,40.403295],[40.023364,40.405077],[40.018554,40.407839],[40.015257,40.40962],[40.009378,40.41256],[40.005992,40.413718],[39.9994,40.416569],[39.992896,40.419687],[39.988887,40.422093],[39.987284,40.423251],[39.98078,40.426903],[39.97499,40.430467],[39.969199,40.432783],[39.966437,40.433941],[39.960201,40.435456],[39.955301,40.436347],[39.949511,40.436525],[39.94274,40.437594],[39.94078,40.437861],[39.938375,40.438039],[39.934455,40.438039],[39.931426,40.438396],[39.928486,40.439019],[39.926081,40.440712],[39.924566,40.442405],[39.923586,40.444008],[39.922072,40.446859],[39.920201,40.449175],[39.918152,40.451759],[39.91539,40.455857],[39.913341,40.460044],[39.911961,40.4628],[39.913742,40.462949],[39.917549,40.464376],[39.919358,40.466185],[39.920309,40.467993],[39.921547,40.470372],[39.92326,40.472847],[39.925068,40.474656],[39.928875,40.477511],[39.932587,40.4797],[39.93687,40.480461],[39.940773,40.480747],[39.944009,40.481604],[39.946674,40.482746],[39.951718,40.484078],[39.958381,40.486077],[39.963711,40.488742],[39.970944,40.491121],[39.977131,40.493215],[39.983603,40.494072],[39.985887,40.494072],[39.991884,40.49293],[39.996452,40.492359],[39.998736,40.492359],[40.002639,40.49293],[40.008825,40.493786],[40.012157,40.494738],[40.018058,40.495595],[40.022721,40.4955],[40.026529,40.495404],[40.031097,40.495595],[40.034619,40.496642],[40.037664,40.498165],[40.04052,40.501401],[40.042804,40.504256],[40.045088,40.505493],[40.049181,40.50635],[40.053845,40.507207],[40.05927,40.507302],[40.063648,40.507778],[40.068122,40.508634],[40.070311,40.509681],[40.075355,40.511965],[40.078972,40.513298],[40.082874,40.515582],[40.090298,40.520246],[40.093629,40.523292],[40.094867,40.525576],[40.09658,40.529002],[40.097056,40.530906],[40.097151,40.533952],[40.097436,40.53576],[40.098959,40.537283],[40.102481,40.539662],[40.106954,40.542708],[40.111999,40.544326],[40.115425,40.545373],[40.118852,40.546896],[40.120374,40.54918],[40.121136,40.551084],[40.121707,40.555367],[40.122468,40.558793],[40.123325,40.561934],[40.124658,40.565646],[40.126847,40.570215],[40.128835,40.573844]]]}},{"type":"Feature","properties":{"id":"TR-D-69-002","parent_id":"TR-P-69","region_id":"TR-R-KAR","level":"district","municipality_type":null,"municipality_type_label":null,"is_metropolitan_municipality":null,"name":"Bayburt","name_ascii":"bayburt","slug":"bayburt-bayburt"},"geometry":{"type":"Polygon","coordinates":[[[40.308018,40.014369],[40.29771,40.021038],[40.29533,40.02237],[40.291904,40.02494],[40.288572,40.027224],[40.284765,40.029889],[40.279721,40.033792],[40.274772,40.037313],[40.270108,40.039978],[40.262969,40.043785],[40.256973,40.046546],[40.252785,40.048639],[40.249073,40.049686],[40.245266,40.050258],[40.243934,40.050258],[40.242696,40.050162],[40.238223,40.049401],[40.234416,40.048354],[40.228515,40.046546],[40.225279,40.045499],[40.224302,40.045037],[40.221852,40.043881],[40.217569,40.041787],[40.21262,40.039693],[40.206624,40.038265],[40.199105,40.037408],[40.19368,40.037408],[40.190063,40.037408],[40.185494,40.037599],[40.179117,40.037694],[40.175596,40.038075],[40.172931,40.037789],[40.170075,40.037123],[40.168077,40.036266],[40.163698,40.035029],[40.158368,40.033601],[40.155513,40.032459],[40.153609,40.030936],[40.15104,40.029128],[40.147899,40.028176],[40.146281,40.028081],[40.140665,40.029509],[40.138095,40.030556],[40.135621,40.032649],[40.134003,40.034839],[40.132575,40.036933],[40.131528,40.038455],[40.130196,40.040073],[40.129244,40.04093],[40.121439,40.045689],[40.116014,40.049401],[40.113254,40.051209],[40.111541,40.052161],[40.108971,40.052542],[40.104022,40.053303],[40.098977,40.053303],[40.09536,40.053398],[40.093076,40.053684],[40.090887,40.05435],[40.085747,40.056634],[40.081179,40.058062],[40.072042,40.061013],[40.066426,40.063011],[40.059383,40.065867],[40.058241,40.066533],[40.056623,40.068151],[40.054909,40.07034],[40.053006,40.073386],[40.048913,40.078716],[40.0472,40.079858],[40.045011,40.080715],[40.043012,40.080715],[40.040823,40.080334],[40.037397,40.079477],[40.033304,40.07805],[40.026927,40.076241],[40.021692,40.074718],[40.014649,40.072624],[40.008653,40.071006],[39.999611,40.069198],[39.992377,40.06758],[39.987999,40.066723],[39.983335,40.065581],[39.978576,40.064249],[39.976292,40.063107],[39.975813,40.062602],[39.974311,40.065248],[39.973168,40.067818],[39.972217,40.069055],[39.971074,40.070578],[39.970408,40.071815],[39.969742,40.074195],[39.969456,40.078002],[39.968124,40.081904],[39.967172,40.084379],[39.965935,40.086187],[39.964126,40.088281],[39.962033,40.09028],[39.960319,40.091898],[39.958035,40.092374],[39.955846,40.092945],[39.953371,40.093611],[39.951373,40.094848],[39.948041,40.097418],[39.945567,40.100654],[39.944139,40.10351],[39.943378,40.105889],[39.943187,40.107317],[39.943949,40.10884],[39.946804,40.111695],[39.950897,40.11417],[39.957083,40.118357],[39.961842,40.120832],[39.968981,40.123973],[39.97393,40.126162],[39.975072,40.127114],[39.975833,40.128541],[39.976214,40.13035],[39.976404,40.133015],[39.975833,40.136156],[39.975453,40.140724],[39.974977,40.145007],[39.974691,40.146816],[39.974691,40.150052],[39.974691,40.152241],[39.974025,40.154049],[39.973264,40.156048],[39.971741,40.158808],[39.970123,40.160807],[39.969361,40.162806],[39.969361,40.165756],[39.970599,40.168136],[39.97155,40.169563],[39.973644,40.17061],[39.975548,40.170991],[39.978689,40.171181],[39.981259,40.171086],[39.986684,40.17023],[39.990586,40.169754],[39.993727,40.169563],[39.997344,40.169944],[39.999914,40.170801],[40.002769,40.173085],[40.003816,40.176036],[40.004768,40.179367],[40.004863,40.184792],[40.003721,40.188218],[40.002007,40.192025],[39.999247,40.195166],[39.995535,40.197451],[39.991443,40.200306],[39.989825,40.201163],[39.982686,40.204018],[39.970503,40.207825],[39.956036,40.211537],[39.950801,40.212108],[39.946709,40.212394],[39.942616,40.212489],[39.939666,40.213155],[39.93405,40.215439],[39.925389,40.219722],[39.919488,40.225528],[39.915205,40.230382],[39.910827,40.234285],[39.902546,40.239424],[39.892743,40.244183],[39.887413,40.246563],[39.883891,40.248086],[39.875896,40.250084],[39.869805,40.251131],[39.860731,40.252686],[39.856924,40.25497],[39.855274,40.256747],[39.854005,40.259793],[39.851721,40.264107],[39.849436,40.266265],[39.845756,40.26728],[39.841441,40.267153],[39.832269,40.266976],[39.831984,40.269451],[39.830366,40.271735],[39.827796,40.274495],[39.826463,40.275637],[39.825988,40.278207],[39.826368,40.281919],[39.826749,40.28487],[39.826939,40.286773],[39.827035,40.290295],[39.826463,40.292198],[39.825036,40.294483],[39.823227,40.296672],[39.822276,40.299527],[39.822085,40.301621],[39.821419,40.304191],[39.820087,40.307998],[39.818468,40.312186],[39.817897,40.315517],[39.817993,40.319705],[39.818088,40.323893],[39.820372,40.328747],[39.822085,40.332744],[39.824274,40.336742],[39.825892,40.339217],[39.826844,40.340359],[39.829414,40.341596],[39.833031,40.342929],[39.837219,40.344356],[39.842168,40.346545],[39.847688,40.352066],[39.8514,40.355016],[39.854922,40.358538],[39.857587,40.361488],[39.859014,40.363677],[39.860061,40.366818],[39.861489,40.369579],[39.862822,40.371006],[39.864249,40.372148],[39.866248,40.373481],[39.867771,40.375289],[39.868628,40.376527],[39.869484,40.378335],[39.870721,40.38119],[39.871673,40.383665],[39.872435,40.387377],[39.872435,40.3889],[39.872054,40.392326],[39.870246,40.395848],[39.868723,40.399274],[39.867295,40.402415],[39.866343,40.406222],[39.865201,40.4106],[39.864916,40.414408],[39.864916,40.416501],[39.865296,40.420309],[39.867295,40.425543],[39.868342,40.430398],[39.868723,40.431825],[39.869103,40.434109],[39.870341,40.43706],[39.871007,40.438773],[39.876432,40.443723],[39.882048,40.446197],[39.884713,40.447339],[39.887663,40.448672],[39.890328,40.451432],[39.891946,40.452955],[39.894231,40.455334],[39.897371,40.458666],[39.901274,40.461045],[39.903177,40.461616],[39.906794,40.462092],[39.911458,40.462758],[39.911793,40.462786],[39.911961,40.4628],[39.913341,40.460044],[39.91539,40.455857],[39.918152,40.451759],[39.920201,40.449175],[39.922072,40.446859],[39.923586,40.444008],[39.924566,40.442405],[39.926081,40.440712],[39.928486,40.439019],[39.931426,40.438396],[39.934455,40.438039],[39.938375,40.438039],[39.94078,40.437861],[39.94274,40.437594],[39.949511,40.436525],[39.955301,40.436347],[39.960201,40.435456],[39.966437,40.433941],[39.969199,40.432783],[39.97499,40.430467],[39.98078,40.426903],[39.987284,40.423251],[39.988887,40.422093],[39.992896,40.419687],[39.9994,40.416569],[40.005992,40.413718],[40.009378,40.41256],[40.015257,40.40962],[40.018554,40.407839],[40.023364,40.405077],[40.026126,40.403295],[40.030046,40.400622],[40.033431,40.398841],[40.038687,40.396703],[40.044389,40.394743],[40.045636,40.394386],[40.047151,40.392783],[40.050625,40.389754],[40.052763,40.386458],[40.055703,40.382003],[40.057128,40.379865],[40.059712,40.378351],[40.065414,40.376391],[40.070313,40.3755],[40.074055,40.375143],[40.077351,40.37452],[40.080291,40.373718],[40.084478,40.371847],[40.087596,40.370867],[40.091605,40.371134],[40.095971,40.371313],[40.099445,40.372738],[40.102118,40.373807],[40.105681,40.374431],[40.111828,40.374876],[40.115303,40.374698],[40.118599,40.373362],[40.122608,40.370511],[40.124746,40.368195],[40.126884,40.366502],[40.127508,40.365166],[40.127597,40.362938],[40.126973,40.359642],[40.126439,40.357139],[40.126112,40.353523],[40.136916,40.34327],[40.137654,40.342945],[40.146877,40.338993],[40.147907,40.338562],[40.148828,40.338193],[40.149761,40.337848],[40.150235,40.33769],[40.150719,40.337543],[40.151209,40.337409],[40.151704,40.337285],[40.152204,40.337173],[40.152707,40.337072],[40.153214,40.336985],[40.153761,40.336907],[40.154312,40.336843],[40.154865,40.336789],[40.155977,40.336698],[40.157651,40.336587],[40.159887,40.336454],[40.161005,40.336395],[40.162123,40.336347],[40.163247,40.33632],[40.164378,40.336313],[40.16664,40.336327],[40.169467,40.336364],[40.171162,40.336408],[40.172288,40.336463],[40.173343,40.336547],[40.173869,40.3366],[40.174917,40.336723],[40.175958,40.336872],[40.176475,40.336959],[40.177022,40.337063],[40.177565,40.337176],[40.178647,40.337421],[40.179725,40.33768],[40.182946,40.338487],[40.184545,40.338914],[40.185596,40.339224],[40.186111,40.339393],[40.18662,40.339571],[40.187123,40.339758],[40.18762,40.339956],[40.188119,40.34017],[40.1891,40.340621],[40.190067,40.341092],[40.191017,40.34157],[40.194797,40.343508],[40.196219,40.344228],[40.197175,40.344697],[40.197658,40.344925],[40.198145,40.345147],[40.198639,40.34536],[40.19913,40.345558],[40.20013,40.345931],[40.201654,40.346458],[40.202677,40.346796],[40.203706,40.347123],[40.20474,40.347432],[40.205262,40.347576],[40.205787,40.347708],[40.206318,40.347826],[40.206878,40.347929],[40.207444,40.348016],[40.208588,40.348158],[40.210317,40.348328],[40.213212,40.348571],[40.214949,40.348697],[40.216648,40.348802],[40.219975,40.349218],[40.22084,40.354003],[40.22105,40.355544],[40.222208,40.361602],[40.22203,40.367749],[40.220248,40.374787],[40.219179,40.379865],[40.218644,40.384587],[40.218021,40.389843],[40.217575,40.393406],[40.217664,40.396079],[40.217575,40.39893],[40.217308,40.401602],[40.216863,40.403651],[40.216239,40.406057],[40.215437,40.408551],[40.214814,40.4106],[40.214546,40.412382],[40.214457,40.415055],[40.213834,40.417282],[40.211874,40.4204],[40.21125,40.42236],[40.211072,40.424676],[40.211072,40.42824],[40.211695,40.431269],[40.212675,40.433318],[40.213923,40.435099],[40.214814,40.437059],[40.215793,40.43893],[40.217486,40.440801],[40.218733,40.441959],[40.220871,40.442405],[40.224257,40.442761],[40.227286,40.44285],[40.228711,40.442048],[40.230671,40.439999],[40.2337,40.436168],[40.234502,40.433763],[40.234858,40.431625],[40.234324,40.428685],[40.233967,40.42628],[40.234146,40.424498],[40.23468,40.422449],[40.235215,40.420311],[40.235838,40.418796],[40.236195,40.417549],[40.236284,40.415322],[40.235838,40.412738],[40.235215,40.408551],[40.235036,40.404988],[40.236373,40.399732],[40.238511,40.397415],[40.242342,40.396792],[40.245371,40.397237],[40.24742,40.398128],[40.251518,40.40089],[40.253121,40.402048],[40.254457,40.404631],[40.255705,40.408017],[40.257397,40.411669],[40.258377,40.414877],[40.259357,40.417015],[40.260159,40.418173],[40.262386,40.420133],[40.265148,40.422449],[40.266395,40.424587],[40.269068,40.429487],[40.269959,40.43207],[40.271473,40.434565],[40.272453,40.438663],[40.273255,40.44187],[40.27379,40.445612],[40.274324,40.448908],[40.27468,40.453451],[40.275126,40.45746],[40.275037,40.459242],[40.274591,40.460935],[40.27379,40.463518],[40.273077,40.465389],[40.27272,40.467616],[40.272275,40.469309],[40.272364,40.471536],[40.273077,40.473229],[40.273879,40.474743],[40.27468,40.475991],[40.275482,40.47893],[40.276017,40.481692],[40.276284,40.483207],[40.277264,40.485078],[40.279402,40.48775],[40.28252,40.490868],[40.284836,40.493095],[40.288934,40.497283],[40.291874,40.500044],[40.294012,40.502271],[40.294814,40.504053],[40.294992,40.506637],[40.294814,40.5102],[40.294677,40.515147],[40.298923,40.515704],[40.306537,40.516561],[40.315959,40.517608],[40.323859,40.518464],[40.330331,40.51894],[40.336518,40.519892],[40.344037,40.520082],[40.34832,40.519797],[40.352508,40.51894],[40.357648,40.519131],[40.361169,40.520082],[40.365357,40.521605],[40.36945,40.522462],[40.373638,40.522081],[40.377921,40.521129],[40.381157,40.519131],[40.38582,40.517703],[40.39353,40.515609],[40.40181,40.51342],[40.406093,40.51323],[40.408854,40.513705],[40.412661,40.515038],[40.417039,40.517132],[40.420751,40.518464],[40.426271,40.518845],[40.430935,40.51856],[40.435694,40.517988],[40.440929,40.517227],[40.44407,40.517322],[40.449304,40.518274],[40.45492,40.51856],[40.459869,40.51875],[40.463772,40.520463],[40.468435,40.523699],[40.472433,40.525888],[40.476409,40.527736],[40.477551,40.526213],[40.479169,40.524405],[40.480407,40.523548],[40.482881,40.522311],[40.485261,40.521169],[40.48745,40.520693],[40.489258,40.520122],[40.492209,40.51917],[40.497348,40.518123],[40.501346,40.516981],[40.504867,40.516886],[40.507628,40.517076],[40.510959,40.517742],[40.516765,40.518504],[40.520191,40.518789],[40.524569,40.518694],[40.527044,40.518409],[40.531613,40.51917],[40.533897,40.519932],[40.536562,40.520503],[40.53837,40.520598],[40.542368,40.520503],[40.549696,40.520503],[40.558072,40.521359],[40.564164,40.523834],[40.576537,40.529925],[40.586377,40.535417],[40.586565,40.529952],[40.586094,40.522319],[40.585906,40.515723],[40.584775,40.508939],[40.582796,40.496595],[40.581854,40.490658],[40.579121,40.485193],[40.574316,40.480576],[40.571489,40.476901],[40.570264,40.474451],[40.568662,40.470776],[40.56772,40.468043],[40.566589,40.464651],[40.566023,40.463426],[40.564421,40.461353],[40.564421,40.458903],[40.564987,40.455134],[40.564893,40.450423],[40.564516,40.448632],[40.562443,40.444015],[40.560275,40.439681],[40.558768,40.435723],[40.557731,40.43299],[40.55547,40.429033],[40.555281,40.425923],[40.557072,40.420269],[40.562725,40.411883],[40.571394,40.404439],[40.575917,40.400104],[40.580535,40.393979],[40.581571,40.389456],[40.583079,40.384368],[40.584492,40.377018],[40.584775,40.372495],[40.583927,40.367595],[40.582231,40.36147],[40.579875,40.358549],[40.570829,40.351671],[40.559239,40.347525],[40.553302,40.346771],[40.548874,40.347336],[40.545953,40.347148],[40.539168,40.345452],[40.534928,40.344321],[40.532101,40.342813],[40.529086,40.340363],[40.526259,40.337065],[40.525316,40.333579],[40.525882,40.329244],[40.528803,40.32491],[40.533514,40.315392],[40.537472,40.307477],[40.53898,40.303802],[40.541901,40.296264],[40.545293,40.288349],[40.546612,40.286464],[40.550853,40.283543],[40.556318,40.281187],[40.560275,40.280151],[40.564704,40.277512],[40.568944,40.273366],[40.573279,40.268184],[40.575352,40.266393],[40.578273,40.265074],[40.583173,40.263661],[40.586942,40.261211],[40.589109,40.258855],[40.591748,40.255934],[40.594198,40.253767],[40.599004,40.251599],[40.603998,40.249244],[40.608898,40.245569],[40.612667,40.242271],[40.617001,40.23803],[40.620582,40.235298],[40.62567,40.232094],[40.628026,40.230209],[40.632172,40.22531],[40.635847,40.222012],[40.642443,40.220315],[40.650829,40.219562],[40.659122,40.220975],[40.664681,40.225027],[40.667885,40.226723],[40.677402,40.230021],[40.682867,40.231811],[40.687956,40.232094],[40.693327,40.231152],[40.702373,40.226817],[40.707744,40.222954],[40.709723,40.21909],[40.709963,40.218582],[40.712078,40.214096],[40.712644,40.210139],[40.712549,40.203072],[40.7101,40.196947],[40.708498,40.192989],[40.705859,40.18856],[40.703975,40.183849],[40.699263,40.172259],[40.697096,40.163213],[40.695211,40.155957],[40.692479,40.15068],[40.690217,40.14644],[40.687108,40.140692],[40.683433,40.135698],[40.680417,40.131081],[40.677591,40.1275],[40.674292,40.124296],[40.667979,40.119773],[40.664022,40.117983],[40.659687,40.117135],[40.656201,40.116569],[40.652054,40.116192],[40.648851,40.115156],[40.643103,40.113837],[40.637826,40.11035],[40.621053,40.102812],[40.612101,40.098006],[40.611206,40.0976],[40.596742,40.091033],[40.574692,40.081328],[40.56395,40.077653],[40.554151,40.075109],[40.548026,40.07313],[40.542749,40.071716],[40.531536,40.070209],[40.525316,40.068795],[40.520417,40.067099],[40.516553,40.065591],[40.511559,40.062953],[40.508544,40.059938],[40.506942,40.057394],[40.506282,40.053153],[40.503267,40.049101],[40.498273,40.042317],[40.491488,40.03214],[40.484798,40.028465],[40.479144,40.025638],[40.474339,40.020927],[40.469816,40.016498],[40.460487,40.012541],[40.449556,40.0083],[40.442772,40.006133],[40.429486,40.005002],[40.41667,40.002741],[40.411111,40.001893],[40.399144,40.002552],[40.389344,40.004531],[40.378319,40.0083],[40.372571,40.010468],[40.367695,40.01199],[40.357511,40.015036],[40.34609,40.017605],[40.339047,40.018557],[40.337333,40.017796],[40.334192,40.015226],[40.330766,40.013322],[40.32772,40.013513],[40.326007,40.014274],[40.323342,40.014845],[40.320296,40.015226],[40.315442,40.01494],[40.308018,40.014369]]]}},{"type":"Feature","properties":{"id":"TR-D-69-003","parent_id":"TR-P-69","region_id":"TR-R-KAR","level":"district","municipality_type":null,"municipality_type_label":null,"is_metropolitan_municipality":null,"name":"Demirözü","name_ascii":"demirozu","slug":"demirozu-bayburt"},"geometry":{"type":"Polygon","coordinates":[[[39.832269,40.266976],[39.841441,40.267153],[39.845756,40.26728],[39.849436,40.266265],[39.851721,40.264107],[39.854005,40.259793],[39.855274,40.256747],[39.856924,40.25497],[39.860731,40.252686],[39.869805,40.251131],[39.875896,40.250084],[39.883891,40.248086],[39.887413,40.246563],[39.892743,40.244183],[39.902546,40.239424],[39.910827,40.234285],[39.915205,40.230382],[39.919488,40.225528],[39.925389,40.219722],[39.93405,40.215439],[39.939666,40.213155],[39.942616,40.212489],[39.946709,40.212394],[39.950801,40.212108],[39.956036,40.211537],[39.970503,40.207825],[39.982686,40.204018],[39.989825,40.201163],[39.991443,40.200306],[39.995535,40.197451],[39.999247,40.195166],[40.002007,40.192025],[40.003721,40.188218],[40.004863,40.184792],[40.004768,40.179367],[40.003816,40.176036],[40.002769,40.173085],[39.999914,40.170801],[39.997344,40.169944],[39.993727,40.169563],[39.990586,40.169754],[39.986684,40.17023],[39.981259,40.171086],[39.978689,40.171181],[39.975548,40.170991],[39.973644,40.17061],[39.97155,40.169563],[39.970599,40.168136],[39.969361,40.165756],[39.969361,40.162806],[39.970123,40.160807],[39.971741,40.158808],[39.973264,40.156048],[39.974025,40.154049],[39.974691,40.152241],[39.974691,40.150052],[39.974691,40.146816],[39.974977,40.145007],[39.975453,40.140724],[39.975833,40.136156],[39.976404,40.133015],[39.976214,40.13035],[39.975833,40.128541],[39.975072,40.127114],[39.97393,40.126162],[39.968981,40.123973],[39.961842,40.120832],[39.957083,40.118357],[39.950897,40.11417],[39.946804,40.111695],[39.943949,40.10884],[39.943187,40.107317],[39.943378,40.105889],[39.944139,40.10351],[39.945567,40.100654],[39.948041,40.097418],[39.951373,40.094848],[39.953371,40.093611],[39.955846,40.092945],[39.958035,40.092374],[39.960319,40.091898],[39.962033,40.09028],[39.964126,40.088281],[39.965935,40.086187],[39.967172,40.084379],[39.968124,40.081904],[39.969456,40.078002],[39.969742,40.074195],[39.970408,40.071815],[39.971074,40.070578],[39.972217,40.069055],[39.973168,40.067818],[39.974311,40.065248],[39.975813,40.062602],[39.974484,40.061203],[39.973722,40.059395],[39.972866,40.05711],[39.971628,40.055587],[39.970486,40.054255],[39.968773,40.053208],[39.96706,40.052256],[39.966203,40.051685],[39.965347,40.050733],[39.964014,40.049115],[39.960968,40.046736],[39.958589,40.045308],[39.954115,40.043119],[39.950975,40.041787],[39.946406,40.04093],[39.943265,40.039883],[39.93784,40.037979],[39.933938,40.036552],[39.931844,40.035124],[39.930416,40.033887],[39.929274,40.032269],[39.927656,40.029128],[39.926038,40.025226],[39.924039,40.021514],[39.920708,40.018182],[39.917281,40.015422],[39.914045,40.012472],[39.910809,40.009902],[39.90605,40.006571],[39.903861,40.004953],[39.901101,40.002573],[39.897484,40.000194],[39.894439,39.998766],[39.890156,39.997909],[39.884159,39.997053],[39.87902,39.996482],[39.87645,39.996196],[39.873785,39.995149],[39.872167,39.994102],[39.869597,39.992199],[39.868074,39.990866],[39.866742,39.989534],[39.865219,39.987535],[39.864077,39.986298],[39.862744,39.984965],[39.859889,39.982966],[39.85789,39.981729],[39.856653,39.980968],[39.85513,39.980111],[39.853988,39.97935],[39.853226,39.978303],[39.852084,39.976494],[39.851596,39.975593],[39.850847,39.97421],[39.849419,39.970974],[39.848182,39.968499],[39.84742,39.966405],[39.845898,39.965073],[39.843899,39.964121],[39.841424,39.963074],[39.837332,39.961932],[39.834191,39.961456],[39.83143,39.960504],[39.82848,39.958791],[39.8261,39.957554],[39.824387,39.955936],[39.823055,39.953556],[39.822103,39.95032],[39.82077,39.947941],[39.819819,39.945942],[39.817534,39.943372],[39.815821,39.94223],[39.813918,39.941088],[39.810301,39.940231],[39.808588,39.939565],[39.806113,39.936424],[39.803543,39.931951],[39.80183,39.929666],[39.799736,39.927097],[39.798023,39.925574],[39.795834,39.924622],[39.792217,39.923099],[39.791841,39.923027],[39.791653,39.922992],[39.7902,39.926237],[39.789534,39.927951],[39.788868,39.930996],[39.788678,39.934899],[39.788582,39.93842],[39.788011,39.940514],[39.787631,39.943084],[39.786489,39.945463],[39.784966,39.948128],[39.783252,39.950222],[39.779731,39.955076],[39.776114,39.960597],[39.771831,39.965546],[39.770974,39.966593],[39.7685,39.96745],[39.765073,39.968592],[39.761361,39.969353],[39.760124,39.97021],[39.757174,39.97316],[39.754699,39.976016],[39.753271,39.978205],[39.750701,39.980775],[39.748417,39.982107],[39.741374,39.984106],[39.723861,39.98896],[39.719959,39.989721],[39.714534,39.990959],[39.710726,39.992957],[39.706919,39.994766],[39.70473,39.996669],[39.701113,40.000286],[39.697592,40.002475],[39.692072,40.005045],[39.68836,40.006568],[39.682554,40.009518],[39.677224,40.014277],[39.674654,40.016752],[39.672179,40.019512],[39.670561,40.023224],[39.670085,40.026936],[39.669705,40.032932],[39.66999,40.035883],[39.669514,40.0395],[39.669419,40.04207],[39.668753,40.045686],[39.667515,40.049113],[39.665707,40.054252],[39.662757,40.061486],[39.65952,40.064627],[39.65676,40.067006],[39.653429,40.070623],[39.651906,40.072812],[39.651526,40.07443],[39.651526,40.077666],[39.652192,40.080331],[39.652763,40.08233],[39.653144,40.084424],[39.654095,40.08747],[39.654952,40.089088],[39.655999,40.090801],[39.65657,40.092324],[39.657236,40.094418],[39.657331,40.097273],[39.657522,40.100604],[39.657712,40.103364],[39.658283,40.105839],[39.660092,40.110503],[39.662566,40.11726],[39.666183,40.123257],[39.670561,40.12754],[39.676367,40.13011],[39.67687,40.130438],[39.678556,40.131537],[39.680269,40.133441],[39.681412,40.135535],[39.681792,40.137724],[39.68341,40.142959],[39.684457,40.144006],[39.686266,40.144957],[39.689787,40.145528],[39.695212,40.145909],[39.700162,40.145909],[39.706253,40.146004],[39.713296,40.1461],[39.717294,40.146766],[39.721862,40.149336],[39.725574,40.151334],[39.730619,40.152952],[39.734331,40.154856],[39.738709,40.154856],[39.7448,40.154856],[39.751748,40.154856],[39.759363,40.155046],[39.764217,40.155332],[39.770118,40.156284],[39.780873,40.157426],[39.786584,40.158378],[39.791533,40.159329],[39.797434,40.159996],[39.799433,40.160567],[39.802098,40.161899],[39.804572,40.165135],[39.80619,40.167515],[39.807713,40.171227],[39.809427,40.175319],[39.811996,40.179126],[39.815042,40.182838],[39.817231,40.185408],[39.819706,40.187978],[39.8218,40.190738],[39.823894,40.194165],[39.825417,40.197781],[39.826463,40.200351],[39.827891,40.204158],[39.829795,40.21025],[39.831698,40.215961],[39.83246,40.221291],[39.833221,40.22881],[39.833316,40.2369],[39.833126,40.246132],[39.83284,40.252985],[39.832365,40.25822],[39.832269,40.262598],[39.832269,40.266976]]]}}]}