{"type":"FeatureCollection","province":"Bilecik","province_id":"TR-P-11","features":[{"type":"Feature","properties":{"id":"TR-D-11-001","parent_id":"TR-P-11","region_id":"TR-R-MAR","level":"district","municipality_type":null,"municipality_type_label":null,"is_metropolitan_municipality":null,"name":"Bilecik","name_ascii":"bilecik","slug":"bilecik-bilecik"},"geometry":{"type":"Polygon","coordinates":[[[29.753668,40.075615],[29.753716,40.075742],[29.753811,40.075997],[29.75359,40.07835],[29.752855,40.080997],[29.751973,40.082027],[29.74837,40.084674],[29.743884,40.087321],[29.739766,40.089233],[29.737633,40.090115],[29.733442,40.091071],[29.731089,40.091733],[29.726971,40.092836],[29.722853,40.095042],[29.718809,40.098278],[29.716897,40.100043],[29.714838,40.103205],[29.714249,40.107028],[29.713514,40.112543],[29.713735,40.115779],[29.714544,40.119309],[29.7155,40.121662],[29.715794,40.122397],[29.715794,40.124015],[29.715353,40.125927],[29.714176,40.128206],[29.712043,40.131883],[29.710646,40.13431],[29.709911,40.136957],[29.709911,40.139147],[29.709911,40.139678],[29.710352,40.142987],[29.711676,40.146664],[29.713073,40.149752],[29.716161,40.155194],[29.718073,40.160929],[29.720573,40.165268],[29.723735,40.169239],[29.730354,40.175268],[29.73256,40.176298],[29.738957,40.177916],[29.744987,40.177842],[29.750796,40.176666],[29.757267,40.175342],[29.762047,40.174607],[29.765503,40.175048],[29.771459,40.17696],[29.77521,40.179313],[29.77793,40.182107],[29.78271,40.188799],[29.785137,40.193284],[29.786313,40.196079],[29.787269,40.201079],[29.78749,40.205491],[29.787784,40.209756],[29.78874,40.215124],[29.789622,40.220051],[29.791828,40.22461],[29.793887,40.227993],[29.795432,40.230199],[29.797491,40.232993],[29.800211,40.234905],[29.803226,40.236155],[29.808374,40.239464],[29.812198,40.242479],[29.815507,40.24645],[29.81786,40.249318],[29.820654,40.252847],[29.822934,40.256304],[29.823816,40.260569],[29.824257,40.264392],[29.824772,40.271084],[29.824772,40.274908],[29.826169,40.280276],[29.827052,40.282114],[29.82889,40.286526],[29.828816,40.290129],[29.828302,40.29285],[29.828375,40.294027],[29.828743,40.295498],[29.829625,40.297189],[29.831464,40.299542],[29.832861,40.301674],[29.833104,40.302458],[29.837978,40.302177],[29.841913,40.301882],[29.846832,40.301882],[29.855097,40.302374],[29.862771,40.303161],[29.867691,40.302965],[29.874086,40.302669],[29.8793,40.302571],[29.885892,40.302079],[29.890713,40.30139],[29.894944,40.300308],[29.898683,40.299423],[29.902421,40.298636],[29.907439,40.29775],[29.909899,40.297455],[29.919836,40.29716],[29.92692,40.29716],[29.93243,40.297061],[29.938136,40.297357],[29.941973,40.298045],[29.947188,40.299324],[29.951517,40.300505],[29.953976,40.301095],[29.956928,40.301095],[29.961651,40.300505],[29.965783,40.299029],[29.969226,40.297652],[29.975228,40.29529],[29.98123,40.293224],[29.988904,40.291552],[29.995004,40.290765],[30.00504,40.289682],[30.01537,40.288994],[30.01842,40.289781],[30.024668,40.29229],[30.03035,40.29347],[30.033375,40.294061],[30.041713,40.293544],[30.048281,40.293175],[30.051528,40.292363],[30.055586,40.291035],[30.055835,40.290966],[30.055628,40.289086],[30.063537,40.283047],[30.070526,40.278242],[30.075258,40.272809],[30.075532,40.271836],[30.075865,40.270529],[30.076834,40.266606],[30.077815,40.262689],[30.078697,40.259209],[30.079812,40.254858],[30.080126,40.253551],[30.080303,40.252679],[30.080372,40.252241],[30.080421,40.251803],[30.080444,40.251408],[30.08045,40.251012],[30.080441,40.250616],[30.080418,40.250219],[30.080383,40.249823],[30.080335,40.249428],[30.080211,40.24864],[30.080056,40.247853],[30.079875,40.247076],[30.079567,40.245914],[30.07922,40.244763],[30.07884,40.24362],[30.078427,40.242489],[30.078132,40.241744],[30.077976,40.241375],[30.077642,40.240647],[30.077459,40.24029],[30.077266,40.239946],[30.077057,40.23961],[30.07683,40.239284],[30.07658,40.238971],[30.076302,40.238677],[30.075961,40.238378],[30.075585,40.238104],[30.075179,40.237852],[30.074747,40.237623],[30.074318,40.237427],[30.073872,40.237247],[30.07203,40.236568],[30.071576,40.236387],[30.071135,40.236193],[30.070691,40.235972],[30.07027,40.235731],[30.069874,40.23547],[30.069509,40.235187],[30.069213,40.234911],[30.068945,40.234619],[30.068702,40.234312],[30.068484,40.233994],[30.068291,40.233664],[30.068116,40.233306],[30.067968,40.232939],[30.067844,40.232565],[30.067745,40.232187],[30.067672,40.231804],[30.067626,40.231412],[30.067607,40.231019],[30.067613,40.230625],[30.067643,40.230231],[30.067701,40.22984],[30.067786,40.229461],[30.067896,40.229086],[30.068026,40.228714],[30.068174,40.228346],[30.06834,40.227982],[30.06852,40.22763],[30.068716,40.227284],[30.068929,40.226944],[30.069159,40.226612],[30.069409,40.226288],[30.069706,40.225946],[30.070666,40.224947],[30.071321,40.224226],[30.07195,40.223488],[30.072562,40.22274],[30.073763,40.221232],[30.074945,40.219717],[30.075808,40.218571],[30.076356,40.217798],[30.076614,40.217405],[30.076861,40.217004],[30.077095,40.216598],[30.077542,40.215779],[30.078393,40.214124],[30.080892,40.209139],[30.081291,40.208371],[30.081674,40.207666],[30.082078,40.206969],[30.082506,40.2063],[30.082968,40.205644],[30.083214,40.205323],[30.083524,40.204945],[30.083849,40.204573],[30.084185,40.204207],[30.084531,40.203847],[30.084881,40.203498],[30.085238,40.203153],[30.085971,40.202474],[30.086722,40.201811],[30.087105,40.201485],[30.087496,40.201165],[30.087887,40.200857],[30.088287,40.200557],[30.088696,40.200264],[30.089115,40.19998],[30.089531,40.199717],[30.089956,40.199464],[30.09039,40.19922],[30.090832,40.198985],[30.091274,40.198763],[30.092178,40.198344],[30.092638,40.198145],[30.09356,40.197772],[30.094496,40.19742],[30.095438,40.197087],[30.096387,40.196768],[30.097338,40.19646],[30.099373,40.195823],[30.109112,40.192817],[30.11722,40.190295],[30.118305,40.18997],[30.119398,40.189664],[30.119948,40.189523],[30.120504,40.189395],[30.121044,40.189286],[30.122135,40.189099],[30.123236,40.188937],[30.126005,40.188571],[30.128223,40.188298],[30.129331,40.188179],[30.129883,40.18813],[30.130434,40.188091],[30.130984,40.188069],[30.131531,40.188067],[30.132074,40.188094],[30.132611,40.188154],[30.133145,40.188244],[30.133676,40.188354],[30.134205,40.188479],[30.134733,40.188615],[30.137358,40.189337],[30.137878,40.189467],[30.138395,40.189584],[30.138908,40.189681],[30.139414,40.189748],[30.139912,40.189776],[30.140399,40.18975],[30.140889,40.189654],[30.141367,40.1895],[30.141836,40.189305],[30.142299,40.189079],[30.142757,40.188833],[30.143666,40.188301],[30.145471,40.187174],[30.146818,40.186316],[30.147706,40.185739],[30.148573,40.18515],[30.148994,40.184847],[30.1494,40.184536],[30.149788,40.184212],[30.150091,40.183933],[30.150382,40.183645],[30.151903,40.182049],[30.152943,40.180992],[30.15435,40.179592],[30.158598,40.175396],[30.160027,40.174008],[30.160755,40.173335],[30.161131,40.173004],[30.161513,40.172686],[30.1619,40.172383],[30.162294,40.172101],[30.162695,40.171847],[30.163105,40.171631],[30.163527,40.171466],[30.163915,40.171367],[30.164696,40.171217],[30.165074,40.171112],[30.165464,40.170941],[30.165837,40.170718],[30.166196,40.170455],[30.166545,40.170164],[30.166887,40.169851],[30.167558,40.169185],[30.168218,40.168488],[30.173483,40.162765],[30.174115,40.162042],[30.174417,40.161675],[30.174703,40.161303],[30.174967,40.160925],[30.175169,40.160595],[30.17535,40.160259],[30.175508,40.159917],[30.175641,40.159571],[30.175745,40.159219],[30.175826,40.158797],[30.175871,40.158369],[30.17589,40.157936],[30.17589,40.157501],[30.175878,40.157064],[30.175798,40.155747],[30.175521,40.152226],[30.175194,40.147827],[30.175119,40.146953],[30.175049,40.14614],[30.172257,40.145735],[30.171165,40.145436],[30.169733,40.145035],[30.168712,40.144488],[30.167602,40.143846],[30.166993,40.143422],[30.165632,40.142361],[30.163607,40.140275],[30.162871,40.138925],[30.162074,40.136594],[30.161276,40.135245],[30.159988,40.13414],[30.158393,40.132913],[30.156123,40.131441],[30.153117,40.129846],[30.149988,40.128619],[30.145387,40.12684],[30.142135,40.125122],[30.13763,40.1218],[30.133082,40.118196],[30.126389,40.113219],[30.118494,40.10807],[30.113003,40.104209],[30.108884,40.101206],[30.102877,40.097344],[30.099702,40.095285],[30.092408,40.088677],[30.08949,40.08473],[30.08786,40.081727],[30.087603,40.07838],[30.087088,40.073317],[30.087345,40.070657],[30.088976,40.067396],[30.090349,40.063363],[30.090692,40.059244],[30.090349,40.05564],[30.089576,40.049805],[30.087259,40.046029],[30.085886,40.043884],[30.084599,40.042597],[30.081939,40.039079],[30.078764,40.035732],[30.076533,40.031442],[30.076104,40.028267],[30.075932,40.023719],[30.076276,40.018656],[30.07679,40.011105],[30.077391,40.002953],[30.077305,40.001751],[30.077992,39.996603],[30.079794,39.991282],[30.080909,39.98579],[30.082111,39.980728],[30.082197,39.978668],[30.082074,39.975942],[30.081466,39.976279],[30.072351,39.978028],[30.061855,39.979961],[30.052739,39.983921],[30.047675,39.98567],[30.039481,39.990458],[30.034969,39.994693],[30.032987,39.996802],[30.032092,39.997755],[30.030227,39.999274],[30.02712,40.002105],[30.023322,40.00466],[30.020974,40.0063],[30.019731,40.007233],[30.017814,40.008735],[30.015328,40.010496],[30.012946,40.012619],[30.009165,40.015001],[30.008031,40.015531],[30.002875,40.016912],[29.997811,40.017833],[29.993208,40.018569],[29.989985,40.019306],[29.979949,40.0217],[29.968808,40.027224],[29.964941,40.030539],[29.96089,40.034038],[29.954863,40.042043],[29.95189,40.046236],[29.948765,40.051267],[29.94564,40.056679],[29.944115,40.058051],[29.94099,40.060033],[29.937636,40.061253],[29.932909,40.062397],[29.925286,40.062778],[29.920255,40.063159],[29.915301,40.063235],[29.909126,40.063235],[29.895329,40.064531],[29.889154,40.065979],[29.88298,40.068266],[29.879168,40.069714],[29.876271,40.07223],[29.872841,40.075432],[29.869944,40.081835],[29.865371,40.087095],[29.861635,40.09022],[29.857672,40.092964],[29.853022,40.09609],[29.847381,40.10074],[29.843264,40.102417],[29.838995,40.102874],[29.834727,40.102645],[29.827104,40.10074],[29.822301,40.099672],[29.81727,40.098758],[29.810943,40.097614],[29.803473,40.095404],[29.800043,40.093879],[29.795774,40.092126],[29.789523,40.090677],[29.785407,40.089382],[29.77847,40.086866],[29.772448,40.083207],[29.768179,40.080539],[29.764368,40.078481],[29.758193,40.076575],[29.753668,40.075615]]]}},{"type":"Feature","properties":{"id":"TR-D-11-002","parent_id":"TR-P-11","region_id":"TR-R-MAR","level":"district","municipality_type":null,"municipality_type_label":null,"is_metropolitan_municipality":null,"name":"Bozüyük","name_ascii":"bozuyuk","slug":"bozuyuk-bilecik"},"geometry":{"type":"Polygon","coordinates":[[[30.231669,39.848498],[30.225894,39.850083],[30.219666,39.849517],[30.214458,39.849517],[30.208796,39.851442],[30.20438,39.852008],[30.199625,39.852121],[30.196228,39.852234],[30.191585,39.8528],[30.185244,39.85348],[30.178451,39.854386],[30.177205,39.855518],[30.173582,39.856311],[30.167241,39.856424],[30.157503,39.855971],[30.151615,39.855405],[30.146067,39.854952],[30.140179,39.854612],[30.135083,39.8528],[30.128176,39.848611],[30.122968,39.846346],[30.117872,39.845214],[30.104964,39.841364],[30.093415,39.837401],[30.087753,39.835137],[30.081978,39.833891],[30.076317,39.831853],[30.071335,39.829928],[30.067372,39.827437],[30.063295,39.825059],[30.060238,39.8237],[30.055483,39.81985],[30.053897,39.817133],[30.05101,39.811132],[30.049057,39.806121],[30.047783,39.801451],[30.046254,39.798393],[30.044556,39.796695],[30.042348,39.795336],[30.039376,39.794827],[30.03479,39.793723],[30.032582,39.793298],[30.030119,39.792279],[30.027147,39.790411],[30.022816,39.788288],[30.020013,39.787014],[30.017465,39.78557],[30.014238,39.783872],[30.012795,39.782513],[30.011011,39.779116],[30.008549,39.774021],[30.00651,39.769774],[30.005831,39.767142],[30.004982,39.761112],[30.004557,39.757291],[30.003623,39.751941],[30.002774,39.745996],[30.00184,39.741155],[30.000736,39.732069],[30.000311,39.730031],[29.999207,39.725275],[29.997264,39.721666],[29.99653,39.71963],[29.995152,39.7161],[29.993718,39.712184],[29.992118,39.708544],[29.99074,39.703857],[29.990353,39.701099],[29.989967,39.698342],[29.989581,39.695363],[29.990188,39.693764],[29.993056,39.690841],[29.996806,39.688635],[30.001549,39.685933],[30.006016,39.684002],[30.009876,39.682577],[30.010645,39.682292],[30.015512,39.680011],[30.022396,39.674792],[30.024748,39.672018],[30.026202,39.669001],[30.026477,39.666519],[30.026399,39.665378],[30.026312,39.664093],[30.025319,39.662273],[30.02372,39.660177],[30.022429,39.659176],[30.021017,39.658081],[30.019253,39.657144],[30.012054,39.654947],[30.008829,39.654166],[30.00177,39.653835],[29.993001,39.655489],[29.986603,39.657254],[29.980151,39.658633],[29.971915,39.658982],[29.965297,39.65935],[29.960223,39.659938],[29.956252,39.661188],[29.95184,39.6631],[29.950222,39.664203],[29.946545,39.668027],[29.941545,39.671998],[29.938015,39.676557],[29.935074,39.68266],[29.931544,39.68744],[29.926029,39.693617],[29.921764,39.698617],[29.919632,39.700897],[29.914264,39.703985],[29.90941,39.705824],[29.905954,39.707368],[29.898454,39.709795],[29.891909,39.712074],[29.883967,39.715383],[29.878085,39.717442],[29.874702,39.718692],[29.868672,39.719428],[29.860436,39.720384],[29.852862,39.720604],[29.847935,39.720236],[29.841464,39.718545],[29.83624,39.716073],[29.831684,39.714207],[29.827787,39.713324],[29.821757,39.711854],[29.814404,39.710236],[29.809109,39.709721],[29.801756,39.709942],[29.792858,39.710309],[29.788005,39.711118],[29.781092,39.712295],[29.775136,39.714574],[29.769474,39.715383],[29.759106,39.716927],[29.75109,39.719942],[29.750039,39.721184],[29.747984,39.723613],[29.747267,39.726855],[29.747487,39.731781],[29.745502,39.736488],[29.744399,39.739135],[29.743516,39.742444],[29.743296,39.749797],[29.744105,39.756342],[29.744325,39.761122],[29.745134,39.765681],[29.74609,39.769358],[29.748517,39.777446],[29.747708,39.783256],[29.746678,39.787888],[29.744105,39.794139],[29.741531,39.798477],[29.739325,39.800095],[29.735795,39.801345],[29.731971,39.802595],[29.729986,39.803772],[29.725059,39.808331],[29.722485,39.810758],[29.718294,39.81539],[29.714029,39.820464],[29.709176,39.826126],[29.703293,39.835245],[29.699984,39.841421],[29.699101,39.844363],[29.699101,39.847231],[29.700572,39.851055],[29.701837,39.855802],[29.702778,39.85804],[29.703808,39.860614],[29.704456,39.86117],[29.707411,39.863702],[29.713882,39.866717],[29.718662,39.868703],[29.722044,39.869585],[29.725353,39.871056],[29.727633,39.872306],[29.730574,39.876203],[29.733589,39.880101],[29.736898,39.886939],[29.738737,39.890101],[29.740134,39.89319],[29.741751,39.895322],[29.748002,39.902529],[29.752855,39.910838],[29.754179,39.916721],[29.754546,39.919736],[29.756091,39.924221],[29.758591,39.931869],[29.758914,39.936335],[29.762381,39.935677],[29.768559,39.934819],[29.774051,39.934304],[29.776883,39.933703],[29.780144,39.931816],[29.784348,39.929413],[29.788124,39.926495],[29.792071,39.92435],[29.794302,39.923664],[29.799966,39.922891],[29.813438,39.922634],[29.818587,39.922806],[29.823564,39.92332],[29.826481,39.924178],[29.832488,39.926324],[29.835835,39.927868],[29.84167,39.92907],[29.84536,39.929756],[29.850851,39.9307],[29.853426,39.931558],[29.857631,39.933017],[29.860891,39.934819],[29.862693,39.936106],[29.866297,39.936964],[29.869816,39.937222],[29.872991,39.936793],[29.876852,39.935935],[29.882344,39.933875],[29.888522,39.931043],[29.893156,39.929499],[29.896159,39.928984],[29.908259,39.928469],[29.91315,39.929327],[29.918299,39.930271],[29.929111,39.931901],[29.931685,39.932245],[29.934774,39.93336],[29.937777,39.935334],[29.940094,39.937737],[29.943784,39.940912],[29.950048,39.945374],[29.954253,39.947776],[29.959058,39.950007],[29.963692,39.951981],[29.970557,39.956014],[29.97399,39.956701],[29.978537,39.956958],[29.981369,39.957473],[29.986003,39.958588],[29.996472,39.960991],[30.00368,39.963566],[30.007713,39.964853],[30.011489,39.96674],[30.01432,39.970774],[30.017924,39.976094],[30.020156,39.97944],[30.022901,39.983903],[30.025819,39.987678],[30.029681,39.992055],[30.032987,39.996802],[30.034969,39.994693],[30.039481,39.990458],[30.047675,39.98567],[30.052739,39.983921],[30.061855,39.979961],[30.072351,39.978028],[30.081466,39.976279],[30.082074,39.975942],[30.085794,39.973885],[30.091318,39.969465],[30.096658,39.967462],[30.102804,39.964148],[30.108122,39.961869],[30.111782,39.961109],[30.115994,39.960626],[30.123452,39.960764],[30.125938,39.960833],[30.131808,39.959383],[30.137954,39.956759],[30.144514,39.953928],[30.150936,39.952201],[30.156944,39.95013],[30.162952,39.948748],[30.165645,39.948265],[30.169857,39.946055],[30.176349,39.941636],[30.178766,39.939288],[30.180699,39.936042],[30.182356,39.931623],[30.182978,39.929482],[30.184566,39.926651],[30.186569,39.924234],[30.190919,39.920021],[30.194441,39.916707],[30.194786,39.915878],[30.195063,39.914013],[30.194994,39.90987],[30.195339,39.905796],[30.19748,39.901514],[30.199482,39.898959],[30.203833,39.896681],[30.204799,39.896197],[30.206664,39.893987],[30.207562,39.89233],[30.208045,39.889499],[30.208321,39.886944],[30.209219,39.884181],[30.210393,39.880383],[30.21281,39.87624],[30.216125,39.873133],[30.218403,39.871199],[30.220613,39.86747],[30.222201,39.86457],[30.224756,39.860219],[30.227864,39.855178],[30.231669,39.848498]]]}},{"type":"Feature","properties":{"id":"TR-D-11-003","parent_id":"TR-P-11","region_id":"TR-R-MAR","level":"district","municipality_type":null,"municipality_type_label":null,"is_metropolitan_municipality":null,"name":"Gölpazarı","name_ascii":"golpazari","slug":"golpazari-bilecik"},"geometry":{"type":"Polygon","coordinates":[[[30.559918,40.294266],[30.560488,40.291201],[30.561344,40.289062],[30.563411,40.283716],[30.56448,40.281649],[30.560316,40.277476],[30.557876,40.275951],[30.553454,40.274732],[30.548194,40.274122],[30.544458,40.27435],[30.540265,40.275799],[30.538054,40.276714],[30.537139,40.276714],[30.533785,40.27618],[30.528219,40.275494],[30.521662,40.27374],[30.515792,40.271911],[30.512056,40.269928],[30.508168,40.267641],[30.502755,40.264744],[30.499858,40.263143],[30.495741,40.26017],[30.492082,40.258493],[30.484686,40.255214],[30.478968,40.25308],[30.474165,40.251174],[30.467914,40.248276],[30.462196,40.244846],[30.459451,40.242558],[30.45724,40.239661],[30.454419,40.23684],[30.452361,40.234706],[30.44771,40.23158],[30.444127,40.230513],[30.44062,40.230589],[30.437189,40.23097],[30.432615,40.231809],[30.427125,40.233867],[30.419883,40.236307],[30.415766,40.237527],[30.411573,40.237527],[30.409599,40.236892],[30.4054,40.23586],[30.399894,40.23407],[30.395833,40.232556],[30.391221,40.230216],[30.387986,40.228289],[30.386059,40.226499],[30.383237,40.223952],[30.381379,40.221474],[30.379176,40.218928],[30.376973,40.214591],[30.376147,40.211976],[30.374702,40.208465],[30.372981,40.204473],[30.371536,40.201582],[30.369608,40.196558],[30.368507,40.190294],[30.368507,40.184581],[30.368645,40.179832],[30.368851,40.174876],[30.369264,40.171985],[30.369815,40.169782],[30.371467,40.166066],[30.372362,40.162693],[30.373876,40.158494],[30.375528,40.15285],[30.376492,40.150234],[30.377386,40.147963],[30.380002,40.143902],[30.382136,40.141149],[30.383156,40.139853],[30.382417,40.139743],[30.378163,40.139498],[30.372519,40.139171],[30.368348,40.139253],[30.364503,40.139089],[30.361068,40.139007],[30.357714,40.137535],[30.351661,40.133609],[30.346508,40.131236],[30.341354,40.130091],[30.33342,40.129764],[30.326631,40.129601],[30.321723,40.130255],[30.317551,40.131482],[30.31387,40.1332],[30.311253,40.134345],[30.30888,40.134917],[30.304545,40.136063],[30.301519,40.136799],[30.298574,40.138189],[30.294566,40.140643],[30.290885,40.143015],[30.287531,40.144979],[30.283932,40.146696],[30.272808,40.151359],[30.262746,40.154958],[30.251376,40.157903],[30.245405,40.159948],[30.234526,40.159866],[30.228228,40.15823],[30.226592,40.158148],[30.218576,40.156839],[30.212195,40.154876],[30.205406,40.153322],[30.198617,40.151277],[30.187492,40.148578],[30.182912,40.147269],[30.177758,40.146533],[30.175049,40.14614],[30.175119,40.146953],[30.175194,40.147827],[30.175521,40.152226],[30.175798,40.155747],[30.175878,40.157064],[30.17589,40.157501],[30.17589,40.157936],[30.175871,40.158369],[30.175826,40.158797],[30.175745,40.159219],[30.175641,40.159571],[30.175508,40.159917],[30.17535,40.160259],[30.175169,40.160595],[30.174967,40.160925],[30.174703,40.161303],[30.174417,40.161675],[30.174115,40.162042],[30.173483,40.162765],[30.168218,40.168488],[30.167558,40.169185],[30.166887,40.169851],[30.166545,40.170164],[30.166196,40.170455],[30.165837,40.170718],[30.165464,40.170941],[30.165074,40.171112],[30.164696,40.171217],[30.163915,40.171367],[30.163527,40.171466],[30.163105,40.171631],[30.162695,40.171847],[30.162294,40.172101],[30.1619,40.172383],[30.161513,40.172686],[30.161131,40.173004],[30.160755,40.173335],[30.160027,40.174008],[30.158598,40.175396],[30.15435,40.179592],[30.152943,40.180992],[30.151903,40.182049],[30.150382,40.183645],[30.150091,40.183933],[30.149788,40.184212],[30.1494,40.184536],[30.148994,40.184847],[30.148573,40.18515],[30.147706,40.185739],[30.146818,40.186316],[30.145471,40.187174],[30.143666,40.188301],[30.142757,40.188833],[30.142299,40.189079],[30.141836,40.189305],[30.141367,40.1895],[30.140889,40.189654],[30.140399,40.18975],[30.139912,40.189776],[30.139414,40.189748],[30.138908,40.189681],[30.138395,40.189584],[30.137878,40.189467],[30.137358,40.189337],[30.134733,40.188615],[30.134205,40.188479],[30.133676,40.188354],[30.133145,40.188244],[30.132611,40.188154],[30.132074,40.188094],[30.131531,40.188067],[30.130984,40.188069],[30.130434,40.188091],[30.129883,40.18813],[30.129331,40.188179],[30.128223,40.188298],[30.126005,40.188571],[30.123236,40.188937],[30.122135,40.189099],[30.121044,40.189286],[30.120504,40.189395],[30.119948,40.189523],[30.119398,40.189664],[30.118305,40.18997],[30.11722,40.190295],[30.109112,40.192817],[30.099373,40.195823],[30.097338,40.19646],[30.096387,40.196768],[30.095438,40.197087],[30.094496,40.19742],[30.09356,40.197772],[30.092638,40.198145],[30.092178,40.198344],[30.091274,40.198763],[30.090832,40.198985],[30.09039,40.19922],[30.089956,40.199464],[30.089531,40.199717],[30.089115,40.19998],[30.088696,40.200264],[30.088287,40.200557],[30.087887,40.200857],[30.087496,40.201165],[30.087105,40.201485],[30.086722,40.201811],[30.085971,40.202474],[30.085238,40.203153],[30.084881,40.203498],[30.084531,40.203847],[30.084185,40.204207],[30.083849,40.204573],[30.083524,40.204945],[30.083214,40.205323],[30.082968,40.205644],[30.082506,40.2063],[30.082078,40.206969],[30.081674,40.207666],[30.081291,40.208371],[30.080892,40.209139],[30.078393,40.214124],[30.077542,40.215779],[30.077095,40.216598],[30.076861,40.217004],[30.076614,40.217405],[30.076356,40.217798],[30.075808,40.218571],[30.074945,40.219717],[30.073763,40.221232],[30.072562,40.22274],[30.07195,40.223488],[30.071321,40.224226],[30.070666,40.224947],[30.069706,40.225946],[30.069409,40.226288],[30.069159,40.226612],[30.068929,40.226944],[30.068716,40.227284],[30.06852,40.22763],[30.06834,40.227982],[30.068174,40.228346],[30.068026,40.228714],[30.067896,40.229086],[30.067786,40.229461],[30.067701,40.22984],[30.067643,40.230231],[30.067613,40.230625],[30.067607,40.231019],[30.067626,40.231412],[30.067672,40.231804],[30.067745,40.232187],[30.067844,40.232565],[30.067968,40.232939],[30.068116,40.233306],[30.068291,40.233664],[30.068484,40.233994],[30.068702,40.234312],[30.068945,40.234619],[30.069213,40.234911],[30.069509,40.235187],[30.069874,40.23547],[30.07027,40.235731],[30.070691,40.235972],[30.071135,40.236193],[30.071576,40.236387],[30.07203,40.236568],[30.073872,40.237247],[30.074318,40.237427],[30.074747,40.237623],[30.075179,40.237852],[30.075585,40.238104],[30.075961,40.238378],[30.076302,40.238677],[30.07658,40.238971],[30.07683,40.239284],[30.077057,40.23961],[30.077266,40.239946],[30.077459,40.24029],[30.077642,40.240647],[30.077976,40.241375],[30.078132,40.241744],[30.078427,40.242489],[30.07884,40.24362],[30.07922,40.244763],[30.079567,40.245914],[30.079875,40.247076],[30.080056,40.247853],[30.080211,40.24864],[30.080335,40.249428],[30.080383,40.249823],[30.080418,40.250219],[30.080441,40.250616],[30.08045,40.251012],[30.080444,40.251408],[30.080421,40.251803],[30.080372,40.252241],[30.080303,40.252679],[30.080126,40.253551],[30.079812,40.254858],[30.078697,40.259209],[30.077815,40.262689],[30.076834,40.266606],[30.075865,40.270529],[30.075532,40.271836],[30.075258,40.272809],[30.070526,40.278242],[30.063537,40.283047],[30.055628,40.289086],[30.055835,40.290966],[30.060087,40.289781],[30.06326,40.289707],[30.067393,40.290371],[30.070418,40.291773],[30.07455,40.293839],[30.078904,40.294651],[30.083553,40.294429],[30.086135,40.294282],[30.090415,40.29347],[30.095285,40.292954],[30.097868,40.292068],[30.103771,40.290445],[30.107608,40.288969],[30.112183,40.28587],[30.114471,40.283804],[30.116758,40.281],[30.118087,40.280335],[30.119563,40.280114],[30.122957,40.279745],[30.125982,40.280409],[30.129155,40.281885],[30.132845,40.283656],[30.135132,40.285353],[30.14074,40.290961],[30.146422,40.296274],[30.149521,40.299595],[30.151145,40.301218],[30.153728,40.302694],[30.157565,40.304096],[30.164058,40.305055],[30.183244,40.309114],[30.185605,40.310073],[30.190475,40.31273],[30.196157,40.317378],[30.199552,40.320699],[30.202725,40.323577],[30.207964,40.328521],[30.209439,40.33162],[30.210325,40.334793],[30.210894,40.337546],[30.211468,40.338766],[30.211474,40.338778],[30.213039,40.338139],[30.214614,40.337511],[30.21464,40.337501],[30.215213,40.33728],[30.215669,40.337104],[30.216198,40.33691],[30.216729,40.336725],[30.217261,40.336556],[30.217795,40.336408],[30.218331,40.336292],[30.21887,40.336219],[30.219372,40.336201],[30.219384,40.3362],[30.219896,40.336228],[30.22033,40.336289],[30.2204,40.336298],[30.220491,40.336319],[30.220891,40.33641],[30.22136,40.336567],[30.221812,40.336775],[30.222113,40.33695],[30.22224,40.337023],[30.222651,40.3373],[30.222866,40.337461],[30.223039,40.33759],[30.223048,40.337598],[30.223435,40.337911],[30.223812,40.338235],[30.224181,40.338568],[30.224542,40.338908],[30.224899,40.339262],[30.225591,40.339985],[30.226257,40.340721],[30.226891,40.34147],[30.22719,40.341852],[30.227429,40.34218],[30.227656,40.342512],[30.227871,40.342848],[30.228074,40.343188],[30.228251,40.343509],[30.228264,40.343532],[30.228443,40.343891],[30.228505,40.344029],[30.228606,40.344254],[30.228665,40.344402],[30.228753,40.344621],[30.228884,40.344992],[30.228976,40.3453],[30.228996,40.345365],[30.229088,40.345754],[30.229119,40.345923],[30.229161,40.346146],[30.229215,40.34654],[30.229251,40.346935],[30.22927,40.347331],[30.229269,40.347727],[30.22925,40.348123],[30.229249,40.34814],[30.229214,40.348518],[30.229177,40.348785],[30.22916,40.34891],[30.229098,40.349238],[30.229086,40.3493],[30.228997,40.349669],[30.228802,40.3504],[30.228718,40.350762],[30.228657,40.351123],[30.228632,40.351472],[30.228643,40.351817],[30.22869,40.352156],[30.228778,40.352487],[30.228856,40.352669],[30.228915,40.352805],[30.229131,40.353145],[30.229401,40.353469],[30.229712,40.35378],[30.230052,40.354083],[30.230414,40.354379],[30.230782,40.35466],[30.230788,40.354665],[30.230793,40.354669],[30.231183,40.354954],[30.231991,40.355509],[30.232407,40.355778],[30.232469,40.355817],[30.232832,40.35604],[30.233094,40.356192],[30.233266,40.356292],[30.233538,40.356438],[30.233738,40.356545],[30.23398,40.356668],[30.234219,40.356789],[30.234384,40.356868],[30.234708,40.357024],[30.235436,40.357357],[30.236196,40.357705],[30.238704,40.358803],[30.239758,40.359248],[30.240203,40.359437],[30.241207,40.359846],[30.242668,40.360441],[30.245635,40.361629],[30.247129,40.362202],[30.24814,40.362556],[30.248569,40.362693],[30.248652,40.362719],[30.249181,40.362871],[30.250253,40.363144],[30.251338,40.363393],[30.252394,40.363623],[30.252402,40.363624],[30.252429,40.36363],[30.252893,40.363727],[30.253015,40.363753],[30.253294,40.363811],[30.254071,40.363973],[30.255169,40.364193],[30.256118,40.364371],[30.25627,40.3644],[30.257377,40.364584],[30.257942,40.364663],[30.259078,40.364799],[30.26079,40.364973],[30.261092,40.365001],[30.267055,40.365549],[30.268266,40.365661],[30.268328,40.365666],[30.268348,40.365668],[30.268798,40.36571],[30.271633,40.365956],[30.273294,40.366088],[30.273438,40.3661],[30.277229,40.366402],[30.277308,40.36641],[30.278899,40.366554],[30.27968,40.366646],[30.279967,40.36668],[30.280001,40.366684],[30.280142,40.366705],[30.280544,40.366765],[30.28108,40.366863],[30.281606,40.366983],[30.282133,40.367136],[30.28265,40.367312],[30.283159,40.367505],[30.283662,40.367711],[30.283742,40.367747],[30.284659,40.368147],[30.28538,40.368479],[30.286141,40.368829],[30.291069,40.371133],[30.299575,40.375085],[30.304724,40.377477],[30.305028,40.377615],[30.305695,40.377919],[30.306264,40.378169],[30.306674,40.378348],[30.306689,40.378355],[30.3067,40.378359],[30.307169,40.378555],[30.307668,40.378752],[30.308175,40.378937],[30.308496,40.379044],[30.308708,40.379114],[30.309044,40.379216],[30.309248,40.379278],[30.309794,40.379433],[30.310043,40.379498],[30.31145,40.379866],[30.315234,40.380794],[30.319245,40.381777],[30.324286,40.383022],[30.326116,40.383474],[30.326479,40.383564],[30.328154,40.383953],[30.328503,40.384028],[30.328704,40.38407],[30.328715,40.384073],[30.32912,40.384152],[30.329279,40.384183],[30.329846,40.384282],[30.330156,40.384327],[30.330421,40.384366],[30.330872,40.384422],[30.331,40.384437],[30.331216,40.38446],[30.332163,40.384557],[30.333332,40.384658],[30.33632,40.384895],[30.339782,40.38517],[30.340422,40.385217],[30.341539,40.385299],[30.341809,40.385314],[30.341816,40.385314],[30.341839,40.385315],[30.342704,40.385362],[30.343015,40.38537],[30.343283,40.385377],[30.343858,40.385376],[30.344427,40.385351],[30.344821,40.385311],[30.344989,40.385294],[30.345129,40.385269],[30.345526,40.3852],[30.346055,40.385075],[30.346579,40.384927],[30.347098,40.384762],[30.347614,40.384585],[30.348128,40.384399],[30.348639,40.384206],[30.349652,40.383802],[30.35065,40.383376],[30.351141,40.383151],[30.351565,40.382946],[30.352401,40.382519],[30.354079,40.381628],[30.354524,40.381399],[30.354974,40.38118],[30.355435,40.380976],[30.355938,40.38078],[30.356454,40.380601],[30.356978,40.380435],[30.357509,40.380279],[30.358583,40.379986],[30.360214,40.379577],[30.361309,40.379325],[30.36186,40.379208],[30.362412,40.3791],[30.362969,40.379005],[30.363458,40.378933],[30.364445,40.378819],[30.365088,40.378761],[30.365439,40.378729],[30.365694,40.378711],[30.366153,40.378678],[30.366499,40.378653],[30.368189,40.378554],[30.370444,40.378438],[30.370888,40.378419],[30.372134,40.378367],[30.373256,40.378342],[30.373816,40.378343],[30.374016,40.378348],[30.374374,40.378358],[30.374929,40.37839],[30.375504,40.378449],[30.375573,40.378458],[30.376077,40.378526],[30.376216,40.378549],[30.376307,40.378564],[30.376648,40.378619],[30.376853,40.378656],[30.377217,40.378721],[30.378353,40.378946],[30.37925,40.379134],[30.379488,40.379184],[30.380004,40.379291],[30.384464,40.380216],[30.384474,40.380218],[30.384475,40.380218],[30.388558,40.381124],[30.388799,40.381177],[30.390437,40.381534],[30.390727,40.381598],[30.391806,40.381845],[30.392877,40.382109],[30.393408,40.382251],[30.393945,40.382405],[30.39501,40.382735],[30.396066,40.383081],[30.397645,40.383613],[30.407102,40.386839],[30.407334,40.386919],[30.4092,40.387563],[30.411271,40.388296],[30.416954,40.390332],[30.418499,40.390895],[30.419206,40.391163],[30.41952,40.391282],[30.420099,40.391514],[30.420528,40.391687],[30.421023,40.391902],[30.421506,40.392125],[30.421984,40.392356],[30.422926,40.392837],[30.425726,40.39432],[30.426692,40.394805],[30.427191,40.395042],[30.427694,40.395271],[30.428202,40.395487],[30.42856,40.395627],[30.428718,40.395688],[30.429242,40.395868],[30.429779,40.396019],[30.430296,40.396129],[30.430824,40.396211],[30.431221,40.396256],[30.431359,40.396271],[30.431899,40.396313],[30.432442,40.396339],[30.432987,40.396348],[30.433336,40.396343],[30.433532,40.396339],[30.434076,40.39631],[30.434648,40.396253],[30.435218,40.396174],[30.435785,40.39608],[30.436351,40.395973],[30.437479,40.395735],[30.438603,40.395474],[30.440842,40.39493],[30.444197,40.394105],[30.445584,40.389014],[30.445389,40.387601],[30.445075,40.385313],[30.444665,40.384423],[30.445116,40.383143],[30.445186,40.382946],[30.44578,40.381312],[30.445881,40.381034],[30.446374,40.380337],[30.446924,40.379557],[30.447619,40.378167],[30.449791,40.376603],[30.452224,40.375386],[30.454917,40.374344],[30.457003,40.372954],[30.460131,40.371129],[30.462216,40.369739],[30.462994,40.369138],[30.464128,40.368262],[30.464997,40.367045],[30.465051,40.36689],[30.465518,40.365568],[30.465798,40.364589],[30.466039,40.363743],[30.466387,40.361919],[30.466734,40.360181],[30.468907,40.358356],[30.470471,40.356966],[30.472469,40.354794],[30.473599,40.353403],[30.474468,40.352187],[30.475684,40.350884],[30.476814,40.348538],[30.478378,40.346018],[30.479333,40.344193],[30.479681,40.342282],[30.47942,40.340891],[30.47942,40.339414],[30.479594,40.338024],[30.479942,40.335765],[30.479942,40.33525],[30.479942,40.33394],[30.479942,40.332202],[30.480029,40.330378],[30.479942,40.328379],[30.479768,40.326468],[30.479768,40.325077],[30.479768,40.3236],[30.479681,40.321949],[30.479681,40.320299],[30.480463,40.317866],[30.48194,40.316562],[30.483504,40.315085],[30.485763,40.313695],[30.488891,40.312044],[30.491411,40.311001],[30.494974,40.310393],[30.496364,40.309611],[30.497667,40.308655],[30.498797,40.308047],[30.500534,40.306744],[30.501925,40.305962],[30.503576,40.304832],[30.504792,40.303703],[30.506269,40.302312],[30.507659,40.301009],[30.509223,40.299966],[30.512004,40.298489],[30.515132,40.297533],[30.518086,40.296491],[30.520085,40.295883],[30.52217,40.295014],[30.523821,40.294319],[30.527905,40.29371],[30.532075,40.292407],[30.535899,40.292407],[30.539982,40.292841],[30.543284,40.293276],[30.546065,40.29345],[30.549106,40.293363],[30.551104,40.293363],[30.553276,40.293971],[30.555449,40.294058],[30.558403,40.294058],[30.559918,40.294266]]]}},{"type":"Feature","properties":{"id":"TR-D-11-004","parent_id":"TR-P-11","region_id":"TR-R-MAR","level":"district","municipality_type":null,"municipality_type_label":null,"is_metropolitan_municipality":null,"name":"İnhisar","name_ascii":"inhisar","slug":"inhisar-bilecik"},"geometry":{"type":"Polygon","coordinates":[[[30.549853,40.12323],[30.546159,40.120555],[30.540809,40.116478],[30.537879,40.113485],[30.534312,40.107752],[30.531828,40.102912],[30.530363,40.098772],[30.529026,40.095078],[30.527815,40.091957],[30.524567,40.085779],[30.523803,40.083613],[30.521828,40.08062],[30.519281,40.078072],[30.517688,40.076098],[30.515905,40.073295],[30.514822,40.070939],[30.51272,40.067435],[30.509281,40.062213],[30.507498,40.059665],[30.50616,40.05699],[30.504504,40.05527],[30.501447,40.052277],[30.49909,40.049283],[30.495778,40.04629],[30.494887,40.045589],[30.493931,40.043105],[30.492212,40.037691],[30.491638,40.034125],[30.491575,40.03266],[30.491638,40.031895],[30.490747,40.029475],[30.4896,40.027437],[30.487562,40.02559],[30.485078,40.024125],[30.483486,40.02317],[30.48062,40.022469],[30.477881,40.022469],[30.475269,40.022405],[30.471448,40.022023],[30.469155,40.022087],[30.465652,40.020877],[30.46183,40.019539],[30.458009,40.017501],[30.455206,40.015272],[30.452022,40.014189],[30.448519,40.013361],[30.442532,40.011896],[30.440111,40.011705],[30.436799,40.012087],[30.432787,40.012151],[30.426099,40.012087],[30.424507,40.012278],[30.418456,40.013106],[30.41266,40.013552],[30.407629,40.013743],[30.401514,40.013743],[30.398266,40.013679],[30.394699,40.013042],[30.387948,40.012724],[30.38489,40.01266],[30.382789,40.01266],[30.379859,40.010622],[30.379286,40.009094],[30.378139,40.005081],[30.377502,40.000495],[30.377502,39.999667],[30.377247,39.997947],[30.376101,39.992788],[30.375719,39.989731],[30.375018,39.986356],[30.374537,39.982109],[30.374311,39.974976],[30.374846,39.971052],[30.371857,39.97039],[30.365123,39.970449],[30.35957,39.971512],[30.351358,39.97417],[30.347341,39.975825],[30.345569,39.977124],[30.344033,39.979605],[30.342024,39.982382],[30.339661,39.985395],[30.337889,39.986222],[30.329619,39.98758],[30.324007,39.988644],[30.320573,39.99077],[30.316691,39.993391],[30.311255,39.998924],[30.307372,40.003486],[30.303975,40.009407],[30.302616,40.011543],[30.300869,40.018726],[30.299704,40.02387],[30.299801,40.026685],[30.29951,40.032412],[30.29951,40.037168],[30.299995,40.04076],[30.300577,40.044254],[30.301548,40.048622],[30.303004,40.053282],[30.305528,40.056776],[30.30776,40.059688],[30.30844,40.061241],[30.310284,40.063474],[30.316011,40.067842],[30.321932,40.071724],[30.325524,40.074831],[30.328436,40.077549],[30.330863,40.082887],[30.333386,40.088323],[30.335231,40.093856],[30.336492,40.09968],[30.336881,40.104533],[30.33756,40.106572],[30.339599,40.112007],[30.341734,40.117249],[30.343093,40.122782],[30.34552,40.128218],[30.346508,40.131236],[30.351661,40.133609],[30.357714,40.137535],[30.361068,40.139007],[30.364503,40.139089],[30.368348,40.139253],[30.372519,40.139171],[30.378163,40.139498],[30.382417,40.139743],[30.383156,40.139853],[30.386834,40.140398],[30.392805,40.141788],[30.39984,40.143915],[30.405647,40.145633],[30.4117,40.14686],[30.414727,40.147105],[30.417426,40.14686],[30.421762,40.146451],[30.426261,40.145715],[30.43305,40.144079],[30.438612,40.142197],[30.444011,40.139007],[30.447937,40.136881],[30.45219,40.134427],[30.458816,40.132136],[30.466178,40.130909],[30.473622,40.131809],[30.481965,40.130746],[30.487364,40.130009],[30.494071,40.129355],[30.501187,40.129764],[30.504787,40.129519],[30.507977,40.129355],[30.51223,40.128619],[30.515584,40.12821],[30.521555,40.126656],[30.525563,40.126001],[30.532761,40.125838],[30.541268,40.126083],[30.54454,40.125347],[30.548139,40.123793],[30.549853,40.12323]]]}},{"type":"Feature","properties":{"id":"TR-D-11-005","parent_id":"TR-P-11","region_id":"TR-R-MAR","level":"district","municipality_type":null,"municipality_type_label":null,"is_metropolitan_municipality":null,"name":"Osmaneli","name_ascii":"osmaneli","slug":"osmaneli-bilecik"},"geometry":{"type":"Polygon","coordinates":[[[29.938233,40.520023],[29.942207,40.520955],[29.946913,40.520734],[29.950957,40.52066],[29.955811,40.519925],[29.957355,40.519498],[29.961399,40.518381],[29.963287,40.518007],[29.968459,40.516984],[29.972871,40.515072],[29.975738,40.513675],[29.979342,40.511101],[29.98346,40.508601],[29.988239,40.505145],[29.991401,40.502792],[29.9946,40.499958],[29.993361,40.49605],[29.993075,40.493572],[29.993361,40.490141],[29.993647,40.484423],[29.993932,40.480611],[29.995553,40.471842],[29.996887,40.466696],[29.997364,40.463741],[29.998888,40.460024],[30.000127,40.458213],[30.00232,40.454782],[30.004797,40.449445],[30.006322,40.445538],[30.007943,40.440868],[30.010325,40.436388],[30.014328,40.432195],[30.017283,40.431527],[30.023001,40.42924],[30.029482,40.428954],[30.032818,40.430479],[30.03825,40.433815],[30.042634,40.436579],[30.044255,40.439343],[30.046447,40.442392],[30.049401,40.44487],[30.054688,40.447762],[30.055501,40.448206],[30.061477,40.45038],[30.061486,40.450383],[30.063888,40.451256],[30.06932,40.451351],[30.073228,40.448016],[30.07573,40.444966],[30.076278,40.444299],[30.077235,40.442774],[30.078851,40.4402],[30.080757,40.435149],[30.082187,40.431337],[30.082949,40.426762],[30.08476,40.417899],[30.087524,40.41218],[30.089394,40.409964],[30.09161,40.408249],[30.097543,40.404174],[30.101189,40.400314],[30.103833,40.395096],[30.106192,40.388949],[30.11141,40.379371],[30.113885,40.375903],[30.1167,40.373664],[30.119386,40.372513],[30.122201,40.370786],[30.126934,40.369123],[30.13058,40.368099],[30.133692,40.367269],[30.134418,40.367076],[30.138192,40.365988],[30.138286,40.365944],[30.142222,40.364069],[30.145083,40.362115],[30.14606,40.361447],[30.146773,40.360972],[30.148555,40.359784],[30.151305,40.357417],[30.154312,40.35601],[30.156806,40.355818],[30.157958,40.355754],[30.160005,40.356074],[30.162052,40.356394],[30.163075,40.356394],[30.167873,40.356969],[30.173374,40.357673],[30.174937,40.357631],[30.178107,40.357545],[30.179473,40.357247],[30.181625,40.356777],[30.18262,40.356313],[30.183544,40.355882],[30.184887,40.35505],[30.18719,40.353323],[30.189807,40.352451],[30.190069,40.352364],[30.191732,40.35134],[30.192947,40.350212],[30.193393,40.349954],[30.193616,40.349825],[30.194938,40.348915],[30.196759,40.34766],[30.198389,40.345498],[30.198926,40.34534],[30.199358,40.345145],[30.199681,40.34494],[30.19998,40.344705],[30.200851,40.343929],[30.201206,40.34365],[30.201585,40.343382],[30.201984,40.343124],[30.202398,40.342876],[30.20282,40.34264],[30.203693,40.342189],[30.204617,40.341748],[30.206071,40.341095],[30.207771,40.340357],[30.208028,40.340246],[30.208349,40.340108],[30.210485,40.339193],[30.211474,40.338778],[30.211468,40.338766],[30.210894,40.337546],[30.210325,40.334793],[30.209439,40.33162],[30.207964,40.328521],[30.202725,40.323577],[30.199552,40.320699],[30.196157,40.317378],[30.190475,40.31273],[30.185605,40.310073],[30.183244,40.309114],[30.164058,40.305055],[30.157565,40.304096],[30.153728,40.302694],[30.151145,40.301218],[30.149521,40.299595],[30.146422,40.296274],[30.14074,40.290961],[30.135132,40.285353],[30.132845,40.283656],[30.129155,40.281885],[30.125982,40.280409],[30.122957,40.279745],[30.119563,40.280114],[30.118087,40.280335],[30.116758,40.281],[30.114471,40.283804],[30.112183,40.28587],[30.107608,40.288969],[30.103771,40.290445],[30.097868,40.292068],[30.095285,40.292954],[30.090415,40.29347],[30.086135,40.294282],[30.083553,40.294429],[30.078904,40.294651],[30.07455,40.293839],[30.070418,40.291773],[30.067393,40.290371],[30.06326,40.289707],[30.060087,40.289781],[30.055835,40.290966],[30.055586,40.291035],[30.051528,40.292363],[30.048281,40.293175],[30.041713,40.293544],[30.033375,40.294061],[30.03035,40.29347],[30.024668,40.29229],[30.01842,40.289781],[30.01537,40.288994],[30.00504,40.289682],[29.995004,40.290765],[29.988904,40.291552],[29.98123,40.293224],[29.975228,40.29529],[29.969226,40.297652],[29.965783,40.299029],[29.961651,40.300505],[29.956928,40.301095],[29.953976,40.301095],[29.951517,40.300505],[29.947188,40.299324],[29.941973,40.298045],[29.938136,40.297357],[29.93243,40.297061],[29.92692,40.29716],[29.919836,40.29716],[29.909899,40.297455],[29.907439,40.29775],[29.902421,40.298636],[29.898683,40.299423],[29.894944,40.300308],[29.890713,40.30139],[29.885892,40.302079],[29.8793,40.302571],[29.874086,40.302669],[29.867691,40.302965],[29.862771,40.303161],[29.855097,40.302374],[29.846832,40.301882],[29.841913,40.301882],[29.837978,40.302177],[29.833104,40.302458],[29.833523,40.303807],[29.833817,40.307484],[29.834184,40.309322],[29.834111,40.312778],[29.83389,40.317411],[29.833743,40.319543],[29.833817,40.321896],[29.834258,40.323514],[29.83514,40.326161],[29.835729,40.328294],[29.835949,40.330353],[29.836023,40.333],[29.835876,40.336236],[29.835582,40.338589],[29.834993,40.340795],[29.834184,40.343074],[29.83264,40.346163],[29.83014,40.349251],[29.828155,40.350943],[29.82536,40.352781],[29.822272,40.354031],[29.819036,40.354619],[29.814992,40.355722],[29.81308,40.35609],[29.811021,40.357855],[29.809403,40.360208],[29.80808,40.363443],[29.806903,40.367267],[29.806756,40.370723],[29.807124,40.372782],[29.807638,40.373665],[29.81183,40.377047],[29.814624,40.378371],[29.81911,40.380651],[29.822198,40.382195],[29.825949,40.383665],[29.830066,40.385136],[29.836023,40.388078],[29.840214,40.390137],[29.844626,40.392857],[29.854039,40.401534],[29.855583,40.40352],[29.858598,40.405873],[29.862569,40.409256],[29.872349,40.413079],[29.879482,40.414624],[29.885806,40.416094],[29.89088,40.420139],[29.89338,40.423742],[29.894703,40.427639],[29.895218,40.432934],[29.893968,40.438375],[29.892424,40.440508],[29.890144,40.443081],[29.885291,40.447494],[29.880585,40.450729],[29.877276,40.453597],[29.873672,40.456832],[29.869996,40.459921],[29.868452,40.461833],[29.867569,40.464112],[29.866098,40.467936],[29.86529,40.471319],[29.864995,40.474848],[29.864995,40.477422],[29.864995,40.479628],[29.865069,40.482275],[29.867569,40.487202],[29.871246,40.489849],[29.876761,40.493158],[29.882202,40.4961],[29.889997,40.500144],[29.894409,40.501909],[29.898601,40.504115],[29.901836,40.506468],[29.904851,40.507792],[29.912719,40.510071],[29.918234,40.51213],[29.922646,40.513969],[29.927941,40.516175],[29.931691,40.517719],[29.93625,40.519557],[29.938233,40.520023]]]}},{"type":"Feature","properties":{"id":"TR-D-11-006","parent_id":"TR-P-11","region_id":"TR-R-MAR","level":"district","municipality_type":null,"municipality_type_label":null,"is_metropolitan_municipality":null,"name":"Pazaryeri","name_ascii":"pazaryeri","slug":"pazaryeri-bilecik"},"geometry":{"type":"Polygon","coordinates":[[[30.032987,39.996802],[30.029681,39.992055],[30.025819,39.987678],[30.022901,39.983903],[30.020156,39.97944],[30.017924,39.976094],[30.01432,39.970774],[30.011489,39.96674],[30.007713,39.964853],[30.00368,39.963566],[29.996472,39.960991],[29.986003,39.958588],[29.981369,39.957473],[29.978537,39.956958],[29.97399,39.956701],[29.970557,39.956014],[29.963692,39.951981],[29.959058,39.950007],[29.954253,39.947776],[29.950048,39.945374],[29.943784,39.940912],[29.940094,39.937737],[29.937777,39.935334],[29.934774,39.93336],[29.931685,39.932245],[29.929111,39.931901],[29.918299,39.930271],[29.91315,39.929327],[29.908259,39.928469],[29.896159,39.928984],[29.893156,39.929499],[29.888522,39.931043],[29.882344,39.933875],[29.876852,39.935935],[29.872991,39.936793],[29.869816,39.937222],[29.866297,39.936964],[29.862693,39.936106],[29.860891,39.934819],[29.857631,39.933017],[29.853426,39.931558],[29.850851,39.9307],[29.84536,39.929756],[29.84167,39.92907],[29.835835,39.927868],[29.832488,39.926324],[29.826481,39.924178],[29.823564,39.92332],[29.818587,39.922806],[29.813438,39.922634],[29.799966,39.922891],[29.794302,39.923664],[29.792071,39.92435],[29.788124,39.926495],[29.784348,39.929413],[29.780144,39.931816],[29.776883,39.933703],[29.774051,39.934304],[29.768559,39.934819],[29.762381,39.935677],[29.758914,39.936335],[29.758959,39.936943],[29.758738,39.942899],[29.757708,39.948047],[29.757194,39.953562],[29.757047,39.9554],[29.755944,39.96143],[29.755502,39.965254],[29.754546,39.968489],[29.753738,39.971945],[29.752855,39.975696],[29.751752,39.980622],[29.750723,39.98599],[29.750649,39.987388],[29.750796,39.991285],[29.751973,39.997756],[29.753149,40.003786],[29.755135,40.009301],[29.755944,40.012095],[29.75712,40.015257],[29.757929,40.01864],[29.758297,40.022537],[29.757708,40.025846],[29.757635,40.026655],[29.757047,40.028126],[29.754546,40.031435],[29.750576,40.037391],[29.748958,40.040112],[29.747561,40.045112],[29.746972,40.048274],[29.746384,40.051583],[29.746531,40.055775],[29.748517,40.060555],[29.750943,40.068055],[29.752708,40.073055],[29.753668,40.075615],[29.758193,40.076575],[29.764368,40.078481],[29.768179,40.080539],[29.772448,40.083207],[29.77847,40.086866],[29.785407,40.089382],[29.789523,40.090677],[29.795774,40.092126],[29.800043,40.093879],[29.803473,40.095404],[29.810943,40.097614],[29.81727,40.098758],[29.822301,40.099672],[29.827104,40.10074],[29.834727,40.102645],[29.838995,40.102874],[29.843264,40.102417],[29.847381,40.10074],[29.853022,40.09609],[29.857672,40.092964],[29.861635,40.09022],[29.865371,40.087095],[29.869944,40.081835],[29.872841,40.075432],[29.876271,40.07223],[29.879168,40.069714],[29.88298,40.068266],[29.889154,40.065979],[29.895329,40.064531],[29.909126,40.063235],[29.915301,40.063235],[29.920255,40.063159],[29.925286,40.062778],[29.932909,40.062397],[29.937636,40.061253],[29.94099,40.060033],[29.944115,40.058051],[29.94564,40.056679],[29.948765,40.051267],[29.95189,40.046236],[29.954863,40.042043],[29.96089,40.034038],[29.964941,40.030539],[29.968808,40.027224],[29.979949,40.0217],[29.989985,40.019306],[29.993208,40.018569],[29.997811,40.017833],[30.002875,40.016912],[30.008031,40.015531],[30.009165,40.015001],[30.012946,40.012619],[30.015328,40.010496],[30.017814,40.008735],[30.019731,40.007233],[30.020974,40.0063],[30.023322,40.00466],[30.02712,40.002105],[30.030227,39.999274],[30.032092,39.997755],[30.032987,39.996802]]]}},{"type":"Feature","properties":{"id":"TR-D-11-007","parent_id":"TR-P-11","region_id":"TR-R-MAR","level":"district","municipality_type":null,"municipality_type_label":null,"is_metropolitan_municipality":null,"name":"Söğüt","name_ascii":"sogut","slug":"sogut-bilecik"},"geometry":{"type":"Polygon","coordinates":[[[30.258638,39.840397],[30.258051,39.840232],[30.253296,39.839666],[30.248767,39.840119],[30.245256,39.840572],[30.241265,39.842919],[30.236764,39.845101],[30.23348,39.847592],[30.231669,39.848498],[30.227864,39.855178],[30.224756,39.860219],[30.222201,39.86457],[30.220613,39.86747],[30.218403,39.871199],[30.216125,39.873133],[30.21281,39.87624],[30.210393,39.880383],[30.209219,39.884181],[30.208321,39.886944],[30.208045,39.889499],[30.207562,39.89233],[30.206664,39.893987],[30.204799,39.896197],[30.203833,39.896681],[30.199482,39.898959],[30.19748,39.901514],[30.195339,39.905796],[30.194994,39.90987],[30.195063,39.914013],[30.194786,39.915878],[30.194441,39.916707],[30.190919,39.920021],[30.186569,39.924234],[30.184566,39.926651],[30.182978,39.929482],[30.182356,39.931623],[30.180699,39.936042],[30.178766,39.939288],[30.176349,39.941636],[30.169857,39.946055],[30.165645,39.948265],[30.162952,39.948748],[30.156944,39.95013],[30.150936,39.952201],[30.144514,39.953928],[30.137954,39.956759],[30.131808,39.959383],[30.125938,39.960833],[30.123452,39.960764],[30.115994,39.960626],[30.111782,39.961109],[30.108122,39.961869],[30.102804,39.964148],[30.096658,39.967462],[30.091318,39.969465],[30.085794,39.973885],[30.082074,39.975942],[30.082197,39.978668],[30.082111,39.980728],[30.080909,39.98579],[30.079794,39.991282],[30.077992,39.996603],[30.077305,40.001751],[30.077391,40.002953],[30.07679,40.011105],[30.076276,40.018656],[30.075932,40.023719],[30.076104,40.028267],[30.076533,40.031442],[30.078764,40.035732],[30.081939,40.039079],[30.084599,40.042597],[30.085886,40.043884],[30.087259,40.046029],[30.089576,40.049805],[30.090349,40.05564],[30.090692,40.059244],[30.090349,40.063363],[30.088976,40.067396],[30.087345,40.070657],[30.087088,40.073317],[30.087603,40.07838],[30.08786,40.081727],[30.08949,40.08473],[30.092408,40.088677],[30.099702,40.095285],[30.102877,40.097344],[30.108884,40.101206],[30.113003,40.104209],[30.118494,40.10807],[30.126389,40.113219],[30.133082,40.118196],[30.13763,40.1218],[30.142135,40.125122],[30.145387,40.12684],[30.149988,40.128619],[30.153117,40.129846],[30.156123,40.131441],[30.158393,40.132913],[30.159988,40.13414],[30.161276,40.135245],[30.162074,40.136594],[30.162871,40.138925],[30.163607,40.140275],[30.165632,40.142361],[30.166993,40.143422],[30.167602,40.143846],[30.168712,40.144488],[30.169733,40.145035],[30.171165,40.145436],[30.172257,40.145735],[30.175049,40.14614],[30.177758,40.146533],[30.182912,40.147269],[30.187492,40.148578],[30.198617,40.151277],[30.205406,40.153322],[30.212195,40.154876],[30.218576,40.156839],[30.226592,40.158148],[30.228228,40.15823],[30.234526,40.159866],[30.245405,40.159948],[30.251376,40.157903],[30.262746,40.154958],[30.272808,40.151359],[30.283932,40.146696],[30.287531,40.144979],[30.290885,40.143015],[30.294566,40.140643],[30.298574,40.138189],[30.301519,40.136799],[30.304545,40.136063],[30.30888,40.134917],[30.311253,40.134345],[30.31387,40.1332],[30.317551,40.131482],[30.321723,40.130255],[30.326631,40.129601],[30.33342,40.129764],[30.341354,40.130091],[30.346508,40.131236],[30.34552,40.128218],[30.343093,40.122782],[30.341734,40.117249],[30.339599,40.112007],[30.33756,40.106572],[30.336881,40.104533],[30.336492,40.09968],[30.335231,40.093856],[30.333386,40.088323],[30.330863,40.082887],[30.328436,40.077549],[30.325524,40.074831],[30.321932,40.071724],[30.316011,40.067842],[30.310284,40.063474],[30.30844,40.061241],[30.30776,40.059688],[30.305528,40.056776],[30.303004,40.053282],[30.301548,40.048622],[30.300577,40.044254],[30.299995,40.04076],[30.29951,40.037168],[30.29951,40.032412],[30.299801,40.026685],[30.299704,40.02387],[30.300869,40.018726],[30.302616,40.011543],[30.303975,40.009407],[30.307372,40.003486],[30.311255,39.998924],[30.316691,39.993391],[30.320573,39.99077],[30.324007,39.988644],[30.329619,39.98758],[30.337889,39.986222],[30.339661,39.985395],[30.342024,39.982382],[30.344033,39.979605],[30.345569,39.977124],[30.347341,39.975825],[30.351358,39.97417],[30.35957,39.971512],[30.365123,39.970449],[30.371857,39.97039],[30.374846,39.971052],[30.37533,39.967503],[30.376122,39.963879],[30.376009,39.960143],[30.374311,39.956859],[30.372159,39.954594],[30.369413,39.952386],[30.365592,39.94814],[30.358713,39.941941],[30.354042,39.940243],[30.349626,39.939478],[30.344106,39.939903],[30.33519,39.939988],[30.324319,39.941007],[30.317356,39.941007],[30.313619,39.940497],[30.310732,39.940073],[30.309118,39.939393],[30.306401,39.936676],[30.304108,39.934128],[30.302324,39.931241],[30.300541,39.928268],[30.298503,39.924362],[30.296635,39.918332],[30.296295,39.916294],[30.295361,39.913237],[30.294427,39.909416],[30.294087,39.905509],[30.294766,39.902707],[30.296804,39.895403],[30.298503,39.890563],[30.299522,39.887845],[30.299947,39.886486],[30.299947,39.883514],[30.299522,39.880202],[30.298588,39.876211],[30.297144,39.874088],[30.29604,39.871965],[30.295616,39.870691],[30.294851,39.869162],[30.293153,39.867209],[30.292304,39.864916],[30.29086,39.861774],[30.288652,39.859226],[30.283047,39.856509],[30.280499,39.855405],[30.277867,39.852942],[30.275319,39.850649],[30.268582,39.845327],[30.265411,39.843516],[30.261675,39.841251],[30.258638,39.840397]]]}},{"type":"Feature","properties":{"id":"TR-D-11-008","parent_id":"TR-P-11","region_id":"TR-R-MAR","level":"district","municipality_type":null,"municipality_type_label":null,"is_metropolitan_municipality":null,"name":"Yenipazar","name_ascii":"yenipazar","slug":"yenipazar-bilecik"},"geometry":{"type":"Polygon","coordinates":[[[30.383156,40.139853],[30.382136,40.141149],[30.380002,40.143902],[30.377386,40.147963],[30.376492,40.150234],[30.375528,40.15285],[30.373876,40.158494],[30.372362,40.162693],[30.371467,40.166066],[30.369815,40.169782],[30.369264,40.171985],[30.368851,40.174876],[30.368645,40.179832],[30.368507,40.184581],[30.368507,40.190294],[30.369608,40.196558],[30.371536,40.201582],[30.372981,40.204473],[30.374702,40.208465],[30.376147,40.211976],[30.376973,40.214591],[30.379176,40.218928],[30.381379,40.221474],[30.383237,40.223952],[30.386059,40.226499],[30.387986,40.228289],[30.391221,40.230216],[30.395833,40.232556],[30.399894,40.23407],[30.4054,40.23586],[30.409599,40.236892],[30.411573,40.237527],[30.415766,40.237527],[30.419883,40.236307],[30.427125,40.233867],[30.432615,40.231809],[30.437189,40.23097],[30.44062,40.230589],[30.444127,40.230513],[30.44771,40.23158],[30.452361,40.234706],[30.454419,40.23684],[30.45724,40.239661],[30.459451,40.242558],[30.462196,40.244846],[30.467914,40.248276],[30.474165,40.251174],[30.478968,40.25308],[30.484686,40.255214],[30.492082,40.258493],[30.495741,40.26017],[30.499858,40.263143],[30.502755,40.264744],[30.508168,40.267641],[30.512056,40.269928],[30.515792,40.271911],[30.521662,40.27374],[30.528219,40.275494],[30.533785,40.27618],[30.537139,40.276714],[30.538054,40.276714],[30.540265,40.275799],[30.544458,40.27435],[30.548194,40.274122],[30.553454,40.274732],[30.557876,40.275951],[30.560316,40.277476],[30.56448,40.281649],[30.567046,40.278797],[30.570254,40.275376],[30.57282,40.269673],[30.574103,40.265966],[30.574959,40.26454],[30.57724,40.261689],[30.57945,40.258838],[30.583727,40.256343],[30.590142,40.253492],[30.594205,40.252565],[30.600478,40.250284],[30.605753,40.24786],[30.608676,40.246149],[30.609531,40.244724],[30.610529,40.241017],[30.609959,40.237453],[30.609389,40.233603],[30.608177,40.229398],[30.606537,40.225335],[30.605254,40.222198],[30.605112,40.219062],[30.605753,40.215711],[30.60668,40.214286],[30.609674,40.212789],[30.611812,40.212005],[30.618014,40.210222],[30.622933,40.209296],[30.626996,40.207585],[30.628564,40.205375],[30.629847,40.201597],[30.630204,40.198176],[30.630275,40.191831],[30.630703,40.183848],[30.62999,40.176149],[30.630489,40.173012],[30.631415,40.17009],[30.63334,40.167452],[30.636476,40.164031],[30.643035,40.1579],[30.649022,40.153409],[30.651731,40.150986],[30.652943,40.149418],[30.651357,40.14894],[30.649149,40.14877],[30.64813,40.148515],[30.647195,40.148006],[30.645922,40.147411],[30.644902,40.147581],[30.643968,40.148006],[30.643119,40.148091],[30.641591,40.148091],[30.640487,40.148091],[30.638958,40.147666],[30.637429,40.147751],[30.635731,40.148091],[30.633438,40.148006],[30.632419,40.147751],[30.63089,40.147411],[30.628682,40.145968],[30.627324,40.145458],[30.625965,40.145543],[30.623757,40.146222],[30.621719,40.146902],[30.619596,40.148006],[30.618576,40.148515],[30.617303,40.148176],[30.615519,40.147496],[30.613821,40.146647],[30.611443,40.146562],[30.607961,40.146817],[30.605265,40.147242],[30.59724,40.146732],[30.590679,40.145458],[30.583355,40.143102],[30.577559,40.1417],[30.575775,40.141127],[30.573291,40.139344],[30.568515,40.135968],[30.566413,40.134248],[30.562655,40.132147],[30.557878,40.129408],[30.553101,40.125714],[30.549853,40.12323],[30.548139,40.123793],[30.54454,40.125347],[30.541268,40.126083],[30.532761,40.125838],[30.525563,40.126001],[30.521555,40.126656],[30.515584,40.12821],[30.51223,40.128619],[30.507977,40.129355],[30.504787,40.129519],[30.501187,40.129764],[30.494071,40.129355],[30.487364,40.130009],[30.481965,40.130746],[30.473622,40.131809],[30.466178,40.130909],[30.458816,40.132136],[30.45219,40.134427],[30.447937,40.136881],[30.444011,40.139007],[30.438612,40.142197],[30.43305,40.144079],[30.426261,40.145715],[30.421762,40.146451],[30.417426,40.14686],[30.414727,40.147105],[30.4117,40.14686],[30.405647,40.145633],[30.39984,40.143915],[30.392805,40.141788],[30.386834,40.140398],[30.383156,40.139853]]]}}]}