{"type":"FeatureCollection","province":"Bingöl","province_id":"TR-P-12","features":[{"type":"Feature","properties":{"id":"TR-D-12-001","parent_id":"TR-P-12","region_id":"TR-R-DOA","level":"district","municipality_type":null,"municipality_type_label":null,"is_metropolitan_municipality":null,"name":"Adaklı","name_ascii":"adakli","slug":"adakli-bingol"},"geometry":{"type":"Polygon","coordinates":[[[40.463538,39.395481],[40.464942,39.395226],[40.46894,39.39494],[40.471319,39.395035],[40.472937,39.395035],[40.475031,39.394369],[40.478172,39.393608],[40.480171,39.393703],[40.48236,39.394083],[40.485501,39.39513],[40.487405,39.39513],[40.490355,39.395226],[40.493401,39.39513],[40.496256,39.39494],[40.498921,39.394464],[40.50073,39.393512],[40.502157,39.391323],[40.503585,39.389039],[40.505298,39.387992],[40.509581,39.386469],[40.511485,39.385898],[40.51453,39.384185],[40.517386,39.38171],[40.519765,39.379045],[40.52224,39.375333],[40.523858,39.371907],[40.526428,39.368005],[40.528236,39.366862],[40.531091,39.364768],[40.533281,39.363912],[40.535184,39.363912],[40.537944,39.363626],[40.542513,39.362199],[40.546891,39.360676],[40.551745,39.359248],[40.556123,39.357535],[40.560216,39.357059],[40.564689,39.356583],[40.569353,39.356202],[40.573731,39.355631],[40.580679,39.354394],[40.588389,39.35211],[40.595622,39.351158],[40.600096,39.351348],[40.605807,39.3523],[40.609899,39.352395],[40.612469,39.352395],[40.614944,39.352395],[40.617894,39.351634],[40.62075,39.350206],[40.625508,39.347446],[40.628554,39.345447],[40.632361,39.343448],[40.635502,39.342877],[40.6395,39.342402],[40.643021,39.342116],[40.646162,39.34145],[40.650636,39.340974],[40.655014,39.341259],[40.659202,39.341355],[40.662247,39.340879],[40.668719,39.339832],[40.673193,39.33888],[40.676143,39.339451],[40.678428,39.340403],[40.679951,39.340783],[40.682616,39.340783],[40.686803,39.340498],[40.689944,39.340403],[40.692609,39.340688],[40.695845,39.341164],[40.69851,39.341355],[40.701461,39.341545],[40.70384,39.341545],[40.707457,39.341355],[40.712121,39.340688],[40.715642,39.339927],[40.720592,39.338404],[40.72221,39.337738],[40.726493,39.336405],[40.733346,39.333835],[40.737058,39.331361],[40.741436,39.32822],[40.75181,39.321367],[40.754475,39.316323],[40.75714,39.312706],[40.759329,39.309565],[40.760281,39.307185],[40.760186,39.304235],[40.760186,39.30157],[40.759615,39.297858],[40.757331,39.294051],[40.752952,39.289482],[40.74886,39.285961],[40.74629,39.284247],[40.74372,39.281963],[40.740103,39.278537],[40.738771,39.275872],[40.736677,39.271684],[40.73563,39.267211],[40.733917,39.261119],[40.73306,39.255789],[40.73306,39.253505],[40.733726,39.248365],[40.734583,39.243416],[40.73544,39.238086],[40.737533,39.231519],[40.73858,39.227902],[40.739437,39.223714],[40.740294,39.219145],[40.74077,39.2161],[40.741341,39.209247],[40.741341,39.20582],[40.742292,39.198301],[40.742388,39.193733],[40.742863,39.187927],[40.742863,39.182407],[40.74115,39.179456],[40.738866,39.176696],[40.737533,39.174412],[40.732965,39.169748],[40.728967,39.164323],[40.725351,39.159088],[40.724113,39.155852],[40.722019,39.152616],[40.720972,39.150522],[40.718974,39.145573],[40.717927,39.139671],[40.716499,39.131581],[40.714405,39.129011],[40.710884,39.125299],[40.709741,39.121873],[40.709456,39.119398],[40.711169,39.114925],[40.712787,39.112165],[40.715547,39.108453],[40.721163,39.104455],[40.726493,39.10179],[40.730014,39.099316],[40.731587,39.097375],[40.729112,39.096423],[40.726828,39.095376],[40.723973,39.093377],[40.719023,39.089951],[40.716168,39.088238],[40.708554,39.083383],[40.70113,39.080052],[40.694658,39.079005],[40.691517,39.078625],[40.685235,39.078339],[40.683331,39.078244],[40.678763,39.079005],[40.674194,39.079481],[40.671339,39.079291],[40.667817,39.078815],[40.660298,39.079957],[40.652398,39.081099],[40.636884,39.084811],[40.634315,39.085477],[40.629746,39.086334],[40.612899,39.091283],[40.608236,39.092235],[40.602715,39.094519],[40.597385,39.096518],[40.593769,39.098993],[40.590532,39.100896],[40.586249,39.102895],[40.580063,39.104799],[40.572544,39.106607],[40.565596,39.108415],[40.560646,39.108986],[40.553984,39.109367],[40.548273,39.109177],[40.542848,39.109748],[40.534187,39.113365],[40.529713,39.11622],[40.528095,39.117362],[40.52505,39.120503],[40.522004,39.123549],[40.517245,39.126975],[40.513343,39.128498],[40.504491,39.130211],[40.498114,39.130877],[40.492308,39.131353],[40.48774,39.131449],[40.483266,39.131449],[40.476985,39.130877],[40.470988,39.130877],[40.46404,39.130402],[40.458234,39.130116],[40.453571,39.129926],[40.449859,39.130021],[40.442054,39.129164],[40.437581,39.128784],[40.428158,39.128688],[40.423529,39.128424],[40.420682,39.135787],[40.419182,39.138981],[40.374135,39.144635],[40.359478,39.161862],[40.355137,39.179373],[40.351959,39.199553],[40.352149,39.210784],[40.348061,39.226206],[40.348061,39.228205],[40.348252,39.230299],[40.347871,39.23363],[40.347395,39.236771],[40.347205,39.238294],[40.346538,39.240578],[40.346348,39.242006],[40.346348,39.242768],[40.347014,39.24429],[40.348061,39.246004],[40.348727,39.248193],[40.348823,39.250382],[40.350345,39.253047],[40.351678,39.254665],[40.354248,39.256283],[40.355675,39.256664],[40.357198,39.257235],[40.357865,39.258186],[40.358436,39.258948],[40.358721,39.260185],[40.359007,39.261423],[40.359578,39.262089],[40.360149,39.262374],[40.361101,39.262184],[40.362243,39.261708],[40.363195,39.261232],[40.364241,39.261423],[40.36586,39.262184],[40.367478,39.263041],[40.368144,39.263802],[40.368715,39.265039],[40.36881,39.265896],[40.36881,39.266753],[40.36881,39.267514],[40.369381,39.26818],[40.371285,39.269227],[40.374235,39.269418],[40.380803,39.269608],[40.385561,39.269513],[40.392319,39.269893],[40.395936,39.270084],[40.399362,39.271036],[40.403741,39.272939],[40.406691,39.273986],[40.409737,39.275414],[40.411831,39.276556],[40.415162,39.278269],[40.417351,39.27884],[40.41935,39.279316],[40.421158,39.280649],[40.425251,39.283599],[40.426869,39.287121],[40.428582,39.290071],[40.431342,39.295211],[40.431628,39.298828],[40.430962,39.301969],[40.430866,39.304919],[40.429344,39.305966],[40.425536,39.307679],[40.420397,39.310154],[40.416875,39.311867],[40.415638,39.312914],[40.415447,39.314437],[40.415638,39.31634],[40.417446,39.31872],[40.421253,39.322242],[40.429915,39.326334],[40.436006,39.328809],[40.439718,39.331188],[40.444382,39.333663],[40.449426,39.336613],[40.451615,39.337756],[40.454471,39.339374],[40.457992,39.340611],[40.460277,39.342134],[40.461419,39.345084],[40.461228,39.347464],[40.459896,39.35051],[40.459039,39.353079],[40.458373,39.356506],[40.458373,39.360218],[40.458754,39.362407],[40.460086,39.367356],[40.461228,39.373352],[40.461704,39.377255],[40.462085,39.382394],[40.462656,39.388486],[40.463132,39.392007],[40.463538,39.395481]]]}},{"type":"Feature","properties":{"id":"TR-D-12-002","parent_id":"TR-P-12","region_id":"TR-R-DOA","level":"district","municipality_type":null,"municipality_type_label":null,"is_metropolitan_municipality":null,"name":"Bingöl","name_ascii":"bingol","slug":"bingol-bingol"},"geometry":{"type":"Polygon","coordinates":[[[40.374135,39.144635],[40.419182,39.138981],[40.420682,39.135787],[40.423529,39.128424],[40.428158,39.128688],[40.437581,39.128784],[40.442054,39.129164],[40.449859,39.130021],[40.453571,39.129926],[40.458234,39.130116],[40.46404,39.130402],[40.470988,39.130877],[40.476985,39.130877],[40.483266,39.131449],[40.48774,39.131449],[40.492308,39.131353],[40.498114,39.130877],[40.504491,39.130211],[40.513343,39.128498],[40.517245,39.126975],[40.522004,39.123549],[40.52505,39.120503],[40.528095,39.117362],[40.529713,39.11622],[40.534187,39.113365],[40.542848,39.109748],[40.548273,39.109177],[40.553984,39.109367],[40.560646,39.108986],[40.565596,39.108415],[40.572544,39.106607],[40.580063,39.104799],[40.586249,39.102895],[40.590532,39.100896],[40.593769,39.098993],[40.597385,39.096518],[40.602715,39.094519],[40.608236,39.092235],[40.612899,39.091283],[40.629746,39.086334],[40.634315,39.085477],[40.636884,39.084811],[40.652398,39.081099],[40.660298,39.079957],[40.667817,39.078815],[40.671339,39.079291],[40.674194,39.079481],[40.678763,39.079005],[40.683331,39.078244],[40.685235,39.078339],[40.691517,39.078625],[40.694658,39.079005],[40.70113,39.080052],[40.708554,39.083383],[40.716168,39.088238],[40.719023,39.089951],[40.723973,39.093377],[40.726828,39.095376],[40.729112,39.096423],[40.731587,39.097375],[40.734728,39.096994],[40.737583,39.096423],[40.739582,39.095757],[40.743294,39.095186],[40.747767,39.0949],[40.75205,39.094805],[40.755191,39.094805],[40.765946,39.094424],[40.770991,39.093758],[40.77575,39.093187],[40.780509,39.092235],[40.786315,39.091474],[40.792596,39.08957],[40.795642,39.088523],[40.803256,39.086524],[40.808681,39.084145],[40.813916,39.08167],[40.823529,39.076816],[40.829526,39.074722],[40.833523,39.073295],[40.837901,39.071962],[40.843041,39.069583],[40.846087,39.067774],[40.849632,39.065067],[40.849048,39.06474],[40.847153,39.063097],[40.843866,39.059937],[40.840454,39.057409],[40.83742,39.055766],[40.834387,39.054376],[40.831606,39.053365],[40.828826,39.051216],[40.825919,39.048056],[40.823896,39.044517],[40.821874,39.039714],[40.821369,39.035796],[40.820989,39.033016],[40.820105,39.023157],[40.820231,39.020124],[40.820231,39.015953],[40.821495,39.01115],[40.823264,39.006852],[40.826045,39.002429],[40.830216,38.994087],[40.831227,38.991559],[40.832238,38.98941],[40.833629,38.987515],[40.83603,38.985745],[40.840707,38.98347],[40.845762,38.980689],[40.848922,38.977909],[40.852587,38.975002],[40.855368,38.972095],[40.857137,38.968429],[40.856758,38.965649],[40.854989,38.962615],[40.85284,38.958192],[40.846521,38.952883],[40.843614,38.949723],[40.83919,38.944668],[40.837168,38.940876],[40.83603,38.937463],[40.83603,38.934304],[40.83603,38.932155],[40.836156,38.930133],[40.835145,38.925962],[40.833502,38.92394],[40.831606,38.922928],[40.827688,38.922044],[40.820105,38.920653],[40.815428,38.919516],[40.810373,38.917241],[40.806707,38.914713],[40.80557,38.912564],[40.804306,38.909404],[40.803674,38.905992],[40.803674,38.903338],[40.804559,38.899167],[40.807213,38.89449],[40.81012,38.89133],[40.814796,38.887539],[40.819852,38.883368],[40.822001,38.879576],[40.826045,38.873888],[40.827309,38.869844],[40.827458,38.867133],[40.818319,38.862741],[40.815882,38.861894],[40.81488,38.861531],[40.814375,38.861338],[40.813877,38.861137],[40.81339,38.860925],[40.812918,38.860697],[40.812467,38.860448],[40.812087,38.860203],[40.811724,38.85994],[40.811376,38.859663],[40.811039,38.859375],[40.810712,38.859078],[40.810395,38.858773],[40.810086,38.858461],[40.809786,38.858143],[40.808559,38.856751],[40.808253,38.856424],[40.807936,38.856103],[40.807609,38.855789],[40.80727,38.855486],[40.806924,38.855201],[40.806566,38.854928],[40.806192,38.854672],[40.805803,38.854435],[40.80539,38.854218],[40.804961,38.854027],[40.804516,38.853862],[40.804057,38.853726],[40.803587,38.853625],[40.803105,38.853554],[40.802616,38.853511],[40.802122,38.853496],[40.801635,38.853508],[40.801146,38.853543],[40.800658,38.853597],[40.80017,38.85367],[40.799675,38.85376],[40.799182,38.853864],[40.798692,38.853978],[40.797213,38.854351],[40.796718,38.854469],[40.796221,38.854573],[40.795701,38.854661],[40.795178,38.854723],[40.794656,38.854757],[40.794136,38.854756],[40.793646,38.854719],[40.79316,38.854651],[40.792678,38.854557],[40.792199,38.85444],[40.791721,38.854303],[40.791248,38.85415],[40.790778,38.853985],[40.790312,38.853811],[40.789381,38.853436],[40.788459,38.853042],[40.787082,38.852426],[40.783441,38.850725],[40.782496,38.850315],[40.78152,38.849923],[40.780038,38.84936],[40.778047,38.848633],[40.776541,38.848114],[40.775523,38.847796],[40.77499,38.847646],[40.773912,38.847368],[40.77228,38.846983],[40.758072,38.843783],[40.756435,38.843406],[40.754807,38.843011],[40.754268,38.842871],[40.753209,38.842576],[40.751631,38.842107],[40.747966,38.840974],[40.742209,38.839169],[40.740635,38.838691],[40.73958,38.8384],[40.739002,38.838261],[40.738565,38.838168],[40.738077,38.838083],[40.737588,38.838019],[40.737096,38.837982],[40.736544,38.837978],[40.73599,38.838006],[40.735424,38.838058],[40.734878,38.838124],[40.734321,38.838204],[40.733763,38.838291],[40.732648,38.838484],[40.731534,38.838691],[40.730482,38.838902],[40.729322,38.839157],[40.727694,38.839552],[40.727148,38.839674],[40.726641,38.839774],[40.72613,38.839863],[40.725617,38.839942],[40.725101,38.840009],[40.724584,38.840064],[40.724066,38.840104],[40.723547,38.840127],[40.722981,38.840127],[40.722311,38.840099],[40.721849,38.840068],[40.721286,38.840015],[40.720725,38.839946],[40.72017,38.839861],[40.719621,38.839756],[40.719141,38.839642],[40.71867,38.83951],[40.718209,38.839359],[40.717761,38.839188],[40.717302,38.838983],[40.716859,38.838756],[40.716432,38.83851],[40.716024,38.838245],[40.715657,38.837979],[40.715304,38.8377],[40.71496,38.837412],[40.712914,38.835592],[40.71232,38.835088],[40.711766,38.834618],[40.710212,38.83334],[40.706302,38.830165],[40.704732,38.828902],[40.703936,38.828282],[40.70312,38.827682],[40.702699,38.827394],[40.702266,38.82712],[40.701729,38.826814],[40.701351,38.826613],[40.700877,38.826376],[40.699912,38.825919],[40.698441,38.825258],[40.694003,38.823298],[40.689574,38.821325],[40.68809,38.820685],[40.687166,38.820316],[40.686578,38.820099],[40.686061,38.819929],[40.685596,38.819794],[40.685125,38.819673],[40.684648,38.819563],[40.684167,38.819463],[40.683627,38.81936],[40.683051,38.819263],[40.682537,38.819176],[40.680893,38.818925],[40.673752,38.817878],[40.672102,38.817651],[40.670999,38.817524],[40.670446,38.817474],[40.669878,38.817436],[40.668738,38.81739],[40.667596,38.817373],[40.667025,38.817376],[40.666454,38.817386],[40.665887,38.817405],[40.664757,38.817468],[40.664194,38.817512],[40.663634,38.817566],[40.663078,38.817632],[40.662592,38.817702],[40.662111,38.817786],[40.661636,38.817884],[40.661168,38.817999],[40.660657,38.818148],[40.659229,38.818604],[40.658762,38.818732],[40.658289,38.818841],[40.657811,38.818929],[40.657328,38.818991],[40.656848,38.819022],[40.656365,38.819027],[40.655881,38.819007],[40.655397,38.818964],[40.654906,38.818896],[40.654416,38.81881],[40.653928,38.818709],[40.652898,38.818464],[40.651815,38.818179],[40.646948,38.816834],[40.641523,38.815361],[40.640447,38.815049],[40.639915,38.814883],[40.63939,38.814707],[40.638904,38.814528],[40.638428,38.814337],[40.637962,38.814136],[40.637509,38.813923],[40.637072,38.813698],[40.636657,38.813458],[40.63627,38.813197],[40.635921,38.812912],[40.635637,38.812617],[40.635388,38.812301],[40.635168,38.811967],[40.634972,38.81162],[40.634799,38.811262],[40.634646,38.810896],[40.634514,38.810522],[40.634396,38.810105],[40.634299,38.809682],[40.634216,38.809255],[40.633875,38.807105],[40.633711,38.806252],[40.63362,38.805884],[40.633481,38.805414],[40.633319,38.804983],[40.633159,38.804615],[40.63297,38.804222],[40.632766,38.803834],[40.632549,38.803448],[40.632321,38.803067],[40.632082,38.80269],[40.631829,38.802319],[40.63156,38.801956],[40.631264,38.801591],[40.630953,38.801234],[40.630631,38.800882],[40.629964,38.800188],[40.629394,38.799619],[40.628935,38.799163],[40.627883,38.798152],[40.627159,38.797496],[40.626785,38.797178],[40.626398,38.796871],[40.625983,38.796568],[40.625554,38.796276],[40.625115,38.795994],[40.624666,38.79572],[40.624211,38.795455],[40.623747,38.795199],[40.623275,38.794954],[40.622793,38.794723],[40.622299,38.794511],[40.621822,38.794333],[40.621335,38.794171],[40.620839,38.794021],[40.620307,38.793873],[40.619311,38.793613],[40.616694,38.792962],[40.615663,38.79268],[40.615156,38.792525],[40.61466,38.792356],[40.614176,38.792168],[40.61372,38.791962],[40.613276,38.791737],[40.612842,38.791498],[40.612416,38.791249],[40.611583,38.790727],[40.610775,38.790181],[40.610383,38.789898],[40.610001,38.789609],[40.609635,38.789309],[40.609288,38.788997],[40.608971,38.788675],[40.608674,38.788341],[40.608394,38.787997],[40.608129,38.787646],[40.607878,38.787288],[40.607641,38.786924],[40.607421,38.786553],[40.607261,38.78625],[40.607037,38.785774],[40.606874,38.785366],[40.606726,38.784953],[40.60659,38.784536],[40.606466,38.784117],[40.606243,38.783273],[40.606062,38.782444],[40.605762,38.780826],[40.605681,38.780424],[40.605589,38.780026],[40.605489,38.779652],[40.605357,38.779245],[40.605203,38.778867],[40.604993,38.778464],[40.604747,38.778074],[40.604469,38.777696],[40.604163,38.777334],[40.603827,38.776988],[40.60346,38.776663],[40.603069,38.776371],[40.602651,38.776098],[40.602214,38.775838],[40.601763,38.775589],[40.601303,38.775347],[40.600364,38.774877],[40.599412,38.774419],[40.598452,38.77397],[40.597989,38.77376],[40.597477,38.773528],[40.593558,38.771793],[40.592574,38.77137],[40.591582,38.770966],[40.591081,38.770775],[40.590574,38.770598],[40.590058,38.770437],[40.589528,38.770297],[40.588989,38.770173],[40.588444,38.770063],[40.587343,38.769866],[40.585542,38.769581],[40.578434,38.768507],[40.570134,38.767225],[40.567925,38.7669],[40.56737,38.766826],[40.566278,38.766695],[40.564635,38.766525],[40.563541,38.766433],[40.562996,38.766396],[40.562435,38.76637],[40.561914,38.766359],[40.56138,38.766368],[40.560853,38.766404],[40.560384,38.766468],[40.559925,38.766563],[40.559482,38.76669],[40.559059,38.766851],[40.558652,38.76704],[40.55825,38.767258],[40.557881,38.767482],[40.557502,38.767735],[40.556412,38.768509],[40.556058,38.768741],[40.555699,38.768948],[40.55533,38.769117],[40.554945,38.769234],[40.554558,38.769286],[40.554155,38.769289],[40.553739,38.769254],[40.553314,38.76919],[40.552881,38.769103],[40.552444,38.769],[40.551499,38.768742],[40.550069,38.768306],[40.548156,38.767691],[40.545768,38.766895],[40.543393,38.766075],[40.541983,38.765559],[40.541056,38.765195],[40.540593,38.765002],[40.539681,38.7646],[40.538781,38.764167],[40.537894,38.763704],[40.537022,38.763209],[40.536167,38.762684],[40.535749,38.762412],[40.53532,38.762119],[40.534481,38.761516],[40.533664,38.760893],[40.532875,38.760249],[40.532147,38.759603],[40.531092,38.758607],[40.530064,38.757595],[40.529403,38.756911],[40.529088,38.756564],[40.528789,38.756214],[40.528512,38.755857],[40.528268,38.755492],[40.528066,38.755116],[40.527919,38.754729],[40.52782,38.75433],[40.527762,38.753925],[40.527743,38.753516],[40.527762,38.753105],[40.527824,38.752695],[40.527931,38.752291],[40.528075,38.751889],[40.528244,38.751489],[40.528669,38.75062],[40.529252,38.749496],[40.529452,38.749094],[40.529793,38.748341],[40.529945,38.747963],[40.53008,38.747582],[40.530194,38.747201],[40.53028,38.746818],[40.530331,38.746435],[40.530337,38.746044],[40.530303,38.745655],[40.530233,38.745269],[40.53013,38.74489],[40.529994,38.744521],[40.529821,38.744167],[40.529613,38.743838],[40.52937,38.743531],[40.529097,38.743249],[40.528795,38.742999],[40.528462,38.742789],[40.528096,38.74263],[40.527647,38.742524],[40.527161,38.742477],[40.52665,38.742472],[40.526122,38.742497],[40.52558,38.742541],[40.523914,38.742709],[40.523351,38.742755],[40.5228,38.742787],[40.522248,38.742807],[40.521142,38.742821],[40.520037,38.742807],[40.519501,38.742788],[40.518939,38.742767],[40.518393,38.742734],[40.51785,38.74269],[40.517312,38.74263],[40.51678,38.742551],[40.516246,38.742445],[40.515718,38.742319],[40.515195,38.742178],[40.514674,38.742026],[40.51364,38.741701],[40.512098,38.741188],[40.510055,38.740477],[40.509038,38.740105],[40.507521,38.739524],[40.507181,38.739391],[40.500467,38.736765],[40.499418,38.736355],[40.496442,38.735191],[40.495444,38.734784],[40.49495,38.734575],[40.494461,38.734358],[40.49401,38.734148],[40.493566,38.733931],[40.493128,38.733705],[40.492698,38.733471],[40.492243,38.733207],[40.491797,38.732934],[40.490926,38.732367],[40.490084,38.731775],[40.489676,38.731468],[40.489325,38.731189],[40.488984,38.730902],[40.488653,38.730609],[40.488334,38.730308],[40.488012,38.729981],[40.487701,38.729649],[40.48679,38.728637],[40.486477,38.728307],[40.48615,38.727988],[40.485801,38.727688],[40.485427,38.727415],[40.485028,38.727164],[40.484607,38.726936],[40.484166,38.726729],[40.483669,38.726531],[40.483156,38.726354],[40.482631,38.726191],[40.482097,38.726039],[40.481016,38.725753],[40.472819,38.723735],[40.458106,38.720055],[40.455923,38.719519],[40.454402,38.719164],[40.452903,38.718837],[40.450816,38.718407],[40.448201,38.717887],[40.447152,38.717688],[40.446101,38.7175],[40.445013,38.717329],[40.443887,38.717175],[40.442133,38.716962],[40.441062,38.716831],[40.437931,38.716464],[40.428054,38.715306],[40.420835,38.714451],[40.415612,38.713832],[40.413347,38.713574],[40.412244,38.713462],[40.411173,38.713363],[40.409563,38.713226],[40.408489,38.713143],[40.407415,38.713074],[40.406879,38.713048],[40.406342,38.713031],[40.405807,38.713027],[40.405273,38.713041],[40.404774,38.713072],[40.404277,38.71312],[40.403781,38.713182],[40.403286,38.713255],[40.402784,38.713341],[40.402284,38.713435],[40.401291,38.713649],[40.400307,38.713897],[40.399821,38.714034],[40.399342,38.71418],[40.398874,38.714337],[40.398416,38.714507],[40.397973,38.714691],[40.397548,38.714894],[40.397146,38.71512],[40.396771,38.715367],[40.396428,38.715637],[40.396125,38.715932],[40.395872,38.716247],[40.39566,38.716583],[40.395483,38.716936],[40.39534,38.717303],[40.395228,38.717684],[40.395141,38.718072],[40.395074,38.718466],[40.39502,38.718863],[40.394877,38.720052],[40.394807,38.720439],[40.39471,38.720815],[40.394574,38.721178],[40.394399,38.721524],[40.39418,38.721845],[40.393913,38.722136],[40.393593,38.722391],[40.393231,38.722614],[40.392835,38.722812],[40.392414,38.72299],[40.391973,38.723149],[40.391517,38.72329],[40.391048,38.723412],[40.390567,38.723511],[40.390085,38.723586],[40.389595,38.72364],[40.389099,38.723679],[40.3886,38.723703],[40.388095,38.723717],[40.387079,38.723717],[40.386571,38.723707],[40.385561,38.723671],[40.384552,38.723617],[40.384125,38.723589],[40.382904,38.723498],[40.381261,38.723354],[40.380172,38.723241],[40.379631,38.723176],[40.379092,38.723102],[40.378558,38.723015],[40.37804,38.722914],[40.377479,38.722788],[40.376948,38.722654],[40.376425,38.722505],[40.37591,38.722342],[40.375407,38.722162],[40.374919,38.721959],[40.374498,38.721756],[40.374089,38.721536],[40.373687,38.721304],[40.373292,38.721063],[40.372446,38.720525],[40.370759,38.719433],[40.369899,38.718906],[40.369463,38.718656],[40.36902,38.718418],[40.368568,38.718195],[40.368105,38.71799],[40.367655,38.717819],[40.367195,38.717671],[40.366726,38.717548],[40.366248,38.717454],[40.365713,38.717387],[40.365172,38.717354],[40.364626,38.717348],[40.36408,38.717366],[40.363536,38.717408],[40.362996,38.717475],[40.362464,38.717573],[40.361977,38.717693],[40.361498,38.717838],[40.361025,38.718001],[40.360558,38.718177],[40.359628,38.718559],[40.358708,38.718963],[40.356415,38.720001],[40.355038,38.720614],[40.354725,38.720749],[40.354118,38.72101],[40.35319,38.721395],[40.352263,38.721762],[40.351324,38.72211],[40.350382,38.722431],[40.349986,38.722554],[40.349427,38.722727],[40.34835,38.723024],[40.346717,38.723435],[40.343293,38.724258],[40.341789,38.72462],[40.337401,38.725691],[40.336222,38.725964],[40.335749,38.726067],[40.335196,38.726177],[40.334643,38.726273],[40.334088,38.72635],[40.333602,38.726395],[40.333117,38.726418],[40.332634,38.726418],[40.332156,38.726391],[40.331687,38.726333],[40.331227,38.726246],[40.330778,38.72613],[40.330345,38.725982],[40.32987,38.725773],[40.329415,38.72553],[40.328973,38.725264],[40.328541,38.72498],[40.328115,38.724686],[40.326531,38.723539],[40.326154,38.723276],[40.325769,38.723019],[40.325355,38.722761],[40.32493,38.722514],[40.324495,38.722279],[40.324049,38.722057],[40.323601,38.721853],[40.323144,38.721662],[40.322679,38.721481],[40.322208,38.721311],[40.321731,38.721152],[40.321248,38.721004],[40.320761,38.720866],[40.320268,38.720741],[40.319769,38.720628],[40.319266,38.720527],[40.31876,38.720439],[40.318253,38.720363],[40.317744,38.720302],[40.317235,38.720259],[40.316727,38.720239],[40.316232,38.720246],[40.315741,38.720279],[40.315256,38.720338],[40.31478,38.720424],[40.314314,38.720539],[40.313863,38.720683],[40.313429,38.720855],[40.313019,38.721056],[40.312636,38.721288],[40.312277,38.721548],[40.311941,38.721828],[40.311614,38.722141],[40.311313,38.722465],[40.311021,38.722816],[40.310747,38.723179],[40.310507,38.723524],[40.310241,38.723936],[40.309776,38.724722],[40.308871,38.7263],[40.308392,38.727066],[40.308142,38.727439],[40.307882,38.727806],[40.307611,38.728167],[40.307307,38.728545],[40.30703,38.728864],[40.306714,38.729196],[40.306348,38.729535],[40.306026,38.729798],[40.305685,38.730048],[40.305267,38.730329],[40.304777,38.730628],[40.304418,38.730835],[40.303986,38.731071],[40.303026,38.73157],[40.302079,38.732043],[40.298273,38.733916],[40.29448,38.735802],[40.293053,38.736499],[40.29211,38.736938],[40.291605,38.737159],[40.291112,38.737361],[40.290611,38.737549],[40.290091,38.73772],[40.289563,38.737877],[40.289029,38.738022],[40.28849,38.738159],[40.287498,38.738397],[40.280274,38.739369],[40.284099,38.740873],[40.288477,38.742587],[40.294759,38.744776],[40.299993,38.746584],[40.303325,38.748964],[40.306466,38.750296],[40.311796,38.752295],[40.316459,38.753722],[40.321313,38.756007],[40.326072,38.758101],[40.330546,38.760385],[40.333687,38.762384],[40.335971,38.764573],[40.337874,38.767904],[40.338826,38.773044],[40.339302,38.779611],[40.339302,38.784275],[40.339492,38.790652],[40.339588,38.797314],[40.339207,38.802644],[40.33816,38.806642],[40.336542,38.810925],[40.334638,38.81635],[40.330926,38.822822],[40.326167,38.827676],[40.32198,38.831293],[40.317506,38.833196],[40.314556,38.833958],[40.309511,38.835576],[40.30066,38.836908],[40.295139,38.837479],[40.283432,38.83767],[40.277246,38.837955],[40.268775,38.839002],[40.263921,38.839669],[40.257639,38.840906],[40.256175,38.841685],[40.253166,38.843285],[40.251262,38.845189],[40.250025,38.849282],[40.248121,38.858419],[40.246979,38.863939],[40.245742,38.870221],[40.243553,38.875456],[40.241268,38.881452],[40.240126,38.884498],[40.237747,38.889257],[40.232702,38.897537],[40.229847,38.902962],[40.227182,38.908863],[40.226135,38.914384],[40.225659,38.918191],[40.225659,38.921998],[40.226325,38.927423],[40.227658,38.932848],[40.228514,38.938369],[40.229181,38.94465],[40.2288,38.950647],[40.228229,38.957404],[40.227658,38.963115],[40.228229,38.967493],[40.229752,38.975012],[40.231275,38.981675],[40.233844,38.985387],[40.237176,38.988718],[40.238928,38.990239],[40.24013,38.991283],[40.2409,38.993045],[40.241566,38.996852],[40.241566,38.999897],[40.240709,39.005894],[40.240329,39.008368],[40.240234,39.013318],[40.240995,39.019409],[40.241376,39.024073],[40.242042,39.029022],[40.242803,39.034447],[40.24347,39.03873],[40.244326,39.041395],[40.246706,39.045964],[40.249275,39.049866],[40.250418,39.052341],[40.252226,39.056053],[40.253178,39.058623],[40.25451,39.061002],[40.256033,39.063286],[40.258508,39.064999],[40.261078,39.067474],[40.263362,39.069473],[40.265456,39.071567],[40.269834,39.075374],[40.271167,39.076992],[40.272975,39.080038],[40.274498,39.082608],[40.275259,39.084416],[40.277258,39.087652],[40.27821,39.089651],[40.279542,39.091649],[40.28116,39.093743],[40.284967,39.09736],[40.288775,39.103071],[40.290297,39.10507],[40.292201,39.107259],[40.2942,39.109448],[40.296579,39.112874],[40.297392,39.114337],[40.298007,39.115444],[40.29953,39.119537],[40.300481,39.122582],[40.308519,39.125643],[40.321368,39.129926],[40.329934,39.133257],[40.336406,39.134875],[40.339547,39.135541],[40.345106,39.135868],[40.374135,39.144635]]]}},{"type":"Feature","properties":{"id":"TR-D-12-003","parent_id":"TR-P-12","region_id":"TR-R-DOA","level":"district","municipality_type":null,"municipality_type_label":null,"is_metropolitan_municipality":null,"name":"Genç","name_ascii":"genc","slug":"genc-bingol"},"geometry":{"type":"Polygon","coordinates":[[[40.305052,38.489259],[40.304933,38.489435],[40.302563,38.492934],[40.301231,38.495027],[40.29809,38.497312],[40.292474,38.499882],[40.288912,38.501263],[40.280226,38.502208],[40.2747,38.503845],[40.272762,38.506392],[40.272869,38.506822],[40.273095,38.507685],[40.273821,38.510367],[40.274664,38.513481],[40.274697,38.513602],[40.275276,38.515762],[40.275288,38.515806],[40.276464,38.520196],[40.276821,38.521488],[40.277052,38.522277],[40.275106,38.523791],[40.271609,38.524226],[40.270219,38.52418],[40.269631,38.524533],[40.265444,38.525104],[40.26515,38.525123],[40.259543,38.525485],[40.256878,38.52558],[40.252595,38.526722],[40.248692,38.527864],[40.246789,38.529101],[40.245456,38.531195],[40.244504,38.533099],[40.242601,38.538905],[40.240507,38.544425],[40.238984,38.548898],[40.237652,38.551849],[40.236224,38.554133],[40.234035,38.557179],[40.232417,38.560415],[40.230037,38.562223],[40.228705,38.564032],[40.226706,38.566982],[40.224802,38.568791],[40.222708,38.569267],[40.219187,38.568981],[40.214523,38.569171],[40.210906,38.569838],[40.20748,38.570885],[40.204244,38.572693],[40.201484,38.575834],[40.19958,38.577928],[40.19663,38.582021],[40.194821,38.58421],[40.191395,38.586684],[40.188539,38.587922],[40.184542,38.588493],[40.18083,38.588969],[40.178165,38.589444],[40.175405,38.590396],[40.173025,38.592014],[40.171598,38.594679],[40.170741,38.597154],[40.169218,38.599248],[40.167505,38.600771],[40.165887,38.601913],[40.164554,38.602865],[40.161033,38.604292],[40.158558,38.606291],[40.156179,38.608575],[40.15399,38.612097],[40.152372,38.614762],[40.151039,38.618284],[40.150468,38.621234],[40.149802,38.62466],[40.14904,38.627135],[40.148279,38.630181],[40.147708,38.633607],[40.147803,38.637129],[40.147803,38.637883],[40.147803,38.64027],[40.147993,38.643982],[40.14866,38.647979],[40.150183,38.651691],[40.152372,38.655403],[40.15418,38.659781],[40.155513,38.663303],[40.158082,38.666063],[40.161414,38.668633],[40.164554,38.671583],[40.167505,38.674248],[40.169218,38.675676],[40.170741,38.678151],[40.172835,38.679864],[40.176166,38.681292],[40.179307,38.681482],[40.182734,38.680435],[40.186541,38.678817],[40.190062,38.676628],[40.19444,38.674629],[40.198248,38.67263],[40.201293,38.671679],[40.204625,38.671679],[40.208337,38.672821],[40.210526,38.674439],[40.211858,38.67758],[40.212429,38.68015],[40.214333,38.683195],[40.217569,38.686336],[40.22013,38.688531],[40.220229,38.688624],[40.220289,38.688681],[40.220294,38.688685],[40.222233,38.690714],[40.224517,38.692808],[40.227467,38.69633],[40.230418,38.6989],[40.23394,38.701755],[40.23708,38.703659],[40.240507,38.705181],[40.243077,38.706799],[40.244409,38.707846],[40.246027,38.711749],[40.246979,38.714414],[40.248311,38.717745],[40.249549,38.719744],[40.251833,38.721742],[40.254593,38.724312],[40.257925,38.726406],[40.261636,38.727644],[40.264873,38.7285],[40.267918,38.729452],[40.270203,38.729737],[40.272296,38.730404],[40.273439,38.732212],[40.275152,38.735163],[40.276865,38.737447],[40.278293,38.738589],[40.280274,38.739369],[40.287498,38.738397],[40.28849,38.738159],[40.289029,38.738022],[40.289563,38.737877],[40.290091,38.73772],[40.290611,38.737549],[40.291112,38.737361],[40.291605,38.737159],[40.29211,38.736938],[40.293053,38.736499],[40.29448,38.735802],[40.298273,38.733916],[40.302079,38.732043],[40.303026,38.73157],[40.303986,38.731071],[40.304418,38.730835],[40.304777,38.730628],[40.305267,38.730329],[40.305685,38.730048],[40.306026,38.729798],[40.306348,38.729535],[40.306714,38.729196],[40.30703,38.728864],[40.307307,38.728545],[40.307611,38.728167],[40.307882,38.727806],[40.308142,38.727439],[40.308392,38.727066],[40.308871,38.7263],[40.309776,38.724722],[40.310241,38.723936],[40.310507,38.723524],[40.310747,38.723179],[40.311021,38.722816],[40.311313,38.722465],[40.311614,38.722141],[40.311941,38.721828],[40.312277,38.721548],[40.312636,38.721288],[40.313019,38.721056],[40.313429,38.720855],[40.313863,38.720683],[40.314314,38.720539],[40.31478,38.720424],[40.315256,38.720338],[40.315741,38.720279],[40.316232,38.720246],[40.316727,38.720239],[40.317235,38.720259],[40.317744,38.720302],[40.318253,38.720363],[40.31876,38.720439],[40.319266,38.720527],[40.319769,38.720628],[40.320268,38.720741],[40.320761,38.720866],[40.321248,38.721004],[40.321731,38.721152],[40.322208,38.721311],[40.322679,38.721481],[40.323144,38.721662],[40.323601,38.721853],[40.324049,38.722057],[40.324495,38.722279],[40.32493,38.722514],[40.325355,38.722761],[40.325769,38.723019],[40.326154,38.723276],[40.326531,38.723539],[40.328115,38.724686],[40.328541,38.72498],[40.328973,38.725264],[40.329415,38.72553],[40.32987,38.725773],[40.330345,38.725982],[40.330778,38.72613],[40.331227,38.726246],[40.331687,38.726333],[40.332156,38.726391],[40.332634,38.726418],[40.333117,38.726418],[40.333602,38.726395],[40.334088,38.72635],[40.334643,38.726273],[40.335196,38.726177],[40.335749,38.726067],[40.336222,38.725964],[40.337401,38.725691],[40.341789,38.72462],[40.343293,38.724258],[40.346717,38.723435],[40.34835,38.723024],[40.349427,38.722727],[40.349986,38.722554],[40.350382,38.722431],[40.351324,38.72211],[40.352263,38.721762],[40.35319,38.721395],[40.354118,38.72101],[40.354725,38.720749],[40.355038,38.720614],[40.356415,38.720001],[40.358708,38.718963],[40.359628,38.718559],[40.360558,38.718177],[40.361025,38.718001],[40.361498,38.717838],[40.361977,38.717693],[40.362464,38.717573],[40.362996,38.717475],[40.363536,38.717408],[40.36408,38.717366],[40.364626,38.717348],[40.365172,38.717354],[40.365713,38.717387],[40.366248,38.717454],[40.366726,38.717548],[40.367195,38.717671],[40.367655,38.717819],[40.368105,38.71799],[40.368568,38.718195],[40.36902,38.718418],[40.369463,38.718656],[40.369899,38.718906],[40.370759,38.719433],[40.372446,38.720525],[40.373292,38.721063],[40.373687,38.721304],[40.374089,38.721536],[40.374498,38.721756],[40.374919,38.721959],[40.375407,38.722162],[40.37591,38.722342],[40.376425,38.722505],[40.376948,38.722654],[40.377479,38.722788],[40.37804,38.722914],[40.378558,38.723015],[40.379092,38.723102],[40.379631,38.723176],[40.380172,38.723241],[40.381261,38.723354],[40.382904,38.723498],[40.384125,38.723589],[40.384552,38.723617],[40.385561,38.723671],[40.386571,38.723707],[40.387079,38.723717],[40.388095,38.723717],[40.3886,38.723703],[40.389099,38.723679],[40.389595,38.72364],[40.390085,38.723586],[40.390567,38.723511],[40.391048,38.723412],[40.391517,38.72329],[40.391973,38.723149],[40.392414,38.72299],[40.392835,38.722812],[40.393231,38.722614],[40.393593,38.722391],[40.393913,38.722136],[40.39418,38.721845],[40.394399,38.721524],[40.394574,38.721178],[40.39471,38.720815],[40.394807,38.720439],[40.394877,38.720052],[40.39502,38.718863],[40.395074,38.718466],[40.395141,38.718072],[40.395228,38.717684],[40.39534,38.717303],[40.395483,38.716936],[40.39566,38.716583],[40.395872,38.716247],[40.396125,38.715932],[40.396428,38.715637],[40.396771,38.715367],[40.397146,38.71512],[40.397548,38.714894],[40.397973,38.714691],[40.398416,38.714507],[40.398874,38.714337],[40.399342,38.71418],[40.399821,38.714034],[40.400307,38.713897],[40.401291,38.713649],[40.402284,38.713435],[40.402784,38.713341],[40.403286,38.713255],[40.403781,38.713182],[40.404277,38.71312],[40.404774,38.713072],[40.405273,38.713041],[40.405807,38.713027],[40.406342,38.713031],[40.406879,38.713048],[40.407415,38.713074],[40.408489,38.713143],[40.409563,38.713226],[40.411173,38.713363],[40.412244,38.713462],[40.413347,38.713574],[40.415612,38.713832],[40.420835,38.714451],[40.428054,38.715306],[40.437931,38.716464],[40.441062,38.716831],[40.442133,38.716962],[40.443887,38.717175],[40.445013,38.717329],[40.446101,38.7175],[40.447152,38.717688],[40.448201,38.717887],[40.450816,38.718407],[40.452903,38.718837],[40.454402,38.719164],[40.455923,38.719519],[40.458106,38.720055],[40.472819,38.723735],[40.481016,38.725753],[40.482097,38.726039],[40.482631,38.726191],[40.483156,38.726354],[40.483669,38.726531],[40.484166,38.726729],[40.484607,38.726936],[40.485028,38.727164],[40.485427,38.727415],[40.485801,38.727688],[40.48615,38.727988],[40.486477,38.728307],[40.48679,38.728637],[40.487701,38.729649],[40.488012,38.729981],[40.488334,38.730308],[40.488653,38.730609],[40.488984,38.730902],[40.489325,38.731189],[40.489676,38.731468],[40.490084,38.731775],[40.490926,38.732367],[40.491797,38.732934],[40.492243,38.733207],[40.492698,38.733471],[40.493128,38.733705],[40.493566,38.733931],[40.49401,38.734148],[40.494461,38.734358],[40.49495,38.734575],[40.495444,38.734784],[40.496442,38.735191],[40.499418,38.736355],[40.500467,38.736765],[40.507181,38.739391],[40.507521,38.739524],[40.509038,38.740105],[40.510055,38.740477],[40.512098,38.741188],[40.51364,38.741701],[40.514674,38.742026],[40.515195,38.742178],[40.515718,38.742319],[40.516246,38.742445],[40.51678,38.742551],[40.517312,38.74263],[40.51785,38.74269],[40.518393,38.742734],[40.518939,38.742767],[40.519501,38.742788],[40.520037,38.742807],[40.521142,38.742821],[40.522248,38.742807],[40.5228,38.742787],[40.523351,38.742755],[40.523914,38.742709],[40.52558,38.742541],[40.526122,38.742497],[40.52665,38.742472],[40.527161,38.742477],[40.527647,38.742524],[40.528096,38.74263],[40.528462,38.742789],[40.528795,38.742999],[40.529097,38.743249],[40.52937,38.743531],[40.529613,38.743838],[40.529821,38.744167],[40.529994,38.744521],[40.53013,38.74489],[40.530233,38.745269],[40.530303,38.745655],[40.530337,38.746044],[40.530331,38.746435],[40.53028,38.746818],[40.530194,38.747201],[40.53008,38.747582],[40.529945,38.747963],[40.529793,38.748341],[40.529452,38.749094],[40.529252,38.749496],[40.528669,38.75062],[40.528244,38.751489],[40.528075,38.751889],[40.527931,38.752291],[40.527824,38.752695],[40.527762,38.753105],[40.527743,38.753516],[40.527762,38.753925],[40.52782,38.75433],[40.527919,38.754729],[40.528066,38.755116],[40.528268,38.755492],[40.528512,38.755857],[40.528789,38.756214],[40.529088,38.756564],[40.529403,38.756911],[40.530064,38.757595],[40.531092,38.758607],[40.532147,38.759603],[40.532875,38.760249],[40.533664,38.760893],[40.534481,38.761516],[40.53532,38.762119],[40.535749,38.762412],[40.536167,38.762684],[40.537022,38.763209],[40.537894,38.763704],[40.538781,38.764167],[40.539681,38.7646],[40.540593,38.765002],[40.541056,38.765195],[40.541983,38.765559],[40.543393,38.766075],[40.545768,38.766895],[40.548156,38.767691],[40.550069,38.768306],[40.551499,38.768742],[40.552444,38.769],[40.552881,38.769103],[40.553314,38.76919],[40.553739,38.769254],[40.554155,38.769289],[40.554558,38.769286],[40.554945,38.769234],[40.55533,38.769117],[40.555699,38.768948],[40.556058,38.768741],[40.556412,38.768509],[40.557502,38.767735],[40.557881,38.767482],[40.55825,38.767258],[40.558652,38.76704],[40.559059,38.766851],[40.559482,38.76669],[40.559925,38.766563],[40.560384,38.766468],[40.560853,38.766404],[40.56138,38.766368],[40.561914,38.766359],[40.562435,38.76637],[40.562996,38.766396],[40.563541,38.766433],[40.564635,38.766525],[40.566278,38.766695],[40.56737,38.766826],[40.567925,38.7669],[40.570134,38.767225],[40.578434,38.768507],[40.585542,38.769581],[40.587343,38.769866],[40.588444,38.770063],[40.588989,38.770173],[40.589528,38.770297],[40.590058,38.770437],[40.590574,38.770598],[40.591081,38.770775],[40.591582,38.770966],[40.592574,38.77137],[40.593558,38.771793],[40.597477,38.773528],[40.597989,38.77376],[40.598452,38.77397],[40.599412,38.774419],[40.600364,38.774877],[40.601303,38.775347],[40.601763,38.775589],[40.602214,38.775838],[40.602651,38.776098],[40.603069,38.776371],[40.60346,38.776663],[40.603827,38.776988],[40.604163,38.777334],[40.604469,38.777696],[40.604747,38.778074],[40.604993,38.778464],[40.605203,38.778867],[40.605357,38.779245],[40.605489,38.779652],[40.605589,38.780026],[40.605681,38.780424],[40.605762,38.780826],[40.606062,38.782444],[40.606243,38.783273],[40.606466,38.784117],[40.60659,38.784536],[40.606726,38.784953],[40.606874,38.785366],[40.607037,38.785774],[40.607261,38.78625],[40.607421,38.786553],[40.607641,38.786924],[40.607878,38.787288],[40.608129,38.787646],[40.608394,38.787997],[40.608674,38.788341],[40.608971,38.788675],[40.609288,38.788997],[40.609635,38.789309],[40.610001,38.789609],[40.610383,38.789898],[40.610775,38.790181],[40.611583,38.790727],[40.612416,38.791249],[40.612842,38.791498],[40.613276,38.791737],[40.61372,38.791962],[40.614176,38.792168],[40.61466,38.792356],[40.615156,38.792525],[40.615663,38.79268],[40.616694,38.792962],[40.619311,38.793613],[40.620307,38.793873],[40.620839,38.794021],[40.621335,38.794171],[40.621822,38.794333],[40.622299,38.794511],[40.622793,38.794723],[40.623275,38.794954],[40.623747,38.795199],[40.624211,38.795455],[40.624666,38.79572],[40.625115,38.795994],[40.625554,38.796276],[40.625983,38.796568],[40.626398,38.796871],[40.626785,38.797178],[40.627159,38.797496],[40.627883,38.798152],[40.628935,38.799163],[40.629394,38.799619],[40.629964,38.800188],[40.630631,38.800882],[40.630953,38.801234],[40.631264,38.801591],[40.63156,38.801956],[40.631829,38.802319],[40.632082,38.80269],[40.632321,38.803067],[40.632549,38.803448],[40.632766,38.803834],[40.63297,38.804222],[40.633159,38.804615],[40.633319,38.804983],[40.633481,38.805414],[40.63362,38.805884],[40.633711,38.806252],[40.633875,38.807105],[40.634216,38.809255],[40.634299,38.809682],[40.634396,38.810105],[40.634514,38.810522],[40.634646,38.810896],[40.634799,38.811262],[40.634972,38.81162],[40.635168,38.811967],[40.635388,38.812301],[40.635637,38.812617],[40.635921,38.812912],[40.63627,38.813197],[40.636657,38.813458],[40.637072,38.813698],[40.637509,38.813923],[40.637962,38.814136],[40.638428,38.814337],[40.638904,38.814528],[40.63939,38.814707],[40.639915,38.814883],[40.640447,38.815049],[40.641523,38.815361],[40.646948,38.816834],[40.651815,38.818179],[40.652898,38.818464],[40.653928,38.818709],[40.654416,38.81881],[40.654906,38.818896],[40.655397,38.818964],[40.655881,38.819007],[40.656365,38.819027],[40.656848,38.819022],[40.657328,38.818991],[40.657811,38.818929],[40.658289,38.818841],[40.658762,38.818732],[40.659229,38.818604],[40.660657,38.818148],[40.661168,38.817999],[40.661636,38.817884],[40.662111,38.817786],[40.662592,38.817702],[40.663078,38.817632],[40.663634,38.817566],[40.664194,38.817512],[40.664757,38.817468],[40.665887,38.817405],[40.666454,38.817386],[40.667025,38.817376],[40.667596,38.817373],[40.668738,38.81739],[40.669878,38.817436],[40.670446,38.817474],[40.670999,38.817524],[40.672102,38.817651],[40.673752,38.817878],[40.680893,38.818925],[40.682537,38.819176],[40.683051,38.819263],[40.683627,38.81936],[40.684167,38.819463],[40.684648,38.819563],[40.685125,38.819673],[40.685596,38.819794],[40.686061,38.819929],[40.686578,38.820099],[40.687166,38.820316],[40.68809,38.820685],[40.689574,38.821325],[40.694003,38.823298],[40.698441,38.825258],[40.699912,38.825919],[40.700877,38.826376],[40.701351,38.826613],[40.701729,38.826814],[40.702266,38.82712],[40.702699,38.827394],[40.70312,38.827682],[40.703936,38.828282],[40.704732,38.828902],[40.706302,38.830165],[40.710212,38.83334],[40.711766,38.834618],[40.71232,38.835088],[40.712914,38.835592],[40.71496,38.837412],[40.715304,38.8377],[40.715657,38.837979],[40.716024,38.838245],[40.716432,38.83851],[40.716859,38.838756],[40.717302,38.838983],[40.717761,38.839188],[40.718209,38.839359],[40.71867,38.83951],[40.719141,38.839642],[40.719621,38.839756],[40.72017,38.839861],[40.720725,38.839946],[40.721286,38.840015],[40.721849,38.840068],[40.722311,38.840099],[40.722981,38.840127],[40.723547,38.840127],[40.724066,38.840104],[40.724584,38.840064],[40.725101,38.840009],[40.725617,38.839942],[40.72613,38.839863],[40.726641,38.839774],[40.727148,38.839674],[40.727694,38.839552],[40.729322,38.839157],[40.730482,38.838902],[40.731534,38.838691],[40.732648,38.838484],[40.733763,38.838291],[40.734321,38.838204],[40.734878,38.838124],[40.735424,38.838058],[40.73599,38.838006],[40.736544,38.837978],[40.737096,38.837982],[40.737588,38.838019],[40.738077,38.838083],[40.738565,38.838168],[40.739002,38.838261],[40.73958,38.8384],[40.740635,38.838691],[40.742209,38.839169],[40.747966,38.840974],[40.751631,38.842107],[40.753209,38.842576],[40.754268,38.842871],[40.754807,38.843011],[40.756435,38.843406],[40.758072,38.843783],[40.77228,38.846983],[40.773912,38.847368],[40.77499,38.847646],[40.775523,38.847796],[40.776541,38.848114],[40.778047,38.848633],[40.780038,38.84936],[40.78152,38.849923],[40.782496,38.850315],[40.783441,38.850725],[40.787082,38.852426],[40.788459,38.853042],[40.789381,38.853436],[40.790312,38.853811],[40.790778,38.853985],[40.791248,38.85415],[40.791721,38.854303],[40.792199,38.85444],[40.792678,38.854557],[40.79316,38.854651],[40.793646,38.854719],[40.794136,38.854756],[40.794656,38.854757],[40.795178,38.854723],[40.795701,38.854661],[40.796221,38.854573],[40.796718,38.854469],[40.797213,38.854351],[40.798692,38.853978],[40.799182,38.853864],[40.799675,38.85376],[40.80017,38.85367],[40.800658,38.853597],[40.801146,38.853543],[40.801635,38.853508],[40.802122,38.853496],[40.802616,38.853511],[40.803105,38.853554],[40.803587,38.853625],[40.804057,38.853726],[40.804516,38.853862],[40.804961,38.854027],[40.80539,38.854218],[40.805803,38.854435],[40.806192,38.854672],[40.806566,38.854928],[40.806924,38.855201],[40.80727,38.855486],[40.807609,38.855789],[40.807936,38.856103],[40.808253,38.856424],[40.808559,38.856751],[40.809786,38.858143],[40.810086,38.858461],[40.810395,38.858773],[40.810712,38.859078],[40.811039,38.859375],[40.811376,38.859663],[40.811724,38.85994],[40.812087,38.860203],[40.812467,38.860448],[40.812918,38.860697],[40.81339,38.860925],[40.813877,38.861137],[40.814375,38.861338],[40.81488,38.861531],[40.815882,38.861894],[40.818319,38.862741],[40.827458,38.867133],[40.828547,38.867282],[40.82988,38.866901],[40.831212,38.86614],[40.832164,38.864998],[40.833401,38.864331],[40.835019,38.864046],[40.836828,38.86376],[40.838541,38.86357],[40.840254,38.864046],[40.841492,38.864712],[40.84311,38.866044],[40.843681,38.867377],[40.844632,38.869281],[40.845965,38.870708],[40.847107,38.871565],[40.848915,38.872326],[40.850819,38.872802],[40.852913,38.872897],[40.854436,38.873088],[40.856244,38.873183],[40.857767,38.873564],[40.859195,38.873659],[40.860337,38.872421],[40.861955,38.869756],[40.863287,38.866044],[40.863763,38.863094],[40.863763,38.862142],[40.863383,38.857859],[40.863097,38.854623],[40.862811,38.850721],[40.863097,38.84758],[40.863002,38.842726],[40.864144,38.839109],[40.865286,38.835873],[40.867666,38.832542],[40.8729,38.827497],[40.877754,38.823309],[40.881371,38.820264],[40.884227,38.817694],[40.889842,38.812745],[40.895077,38.808366],[40.89955,38.804083],[40.902882,38.801038],[40.90745,38.799324],[40.913256,38.79723],[40.919443,38.794375],[40.923059,38.791615],[40.925915,38.786951],[40.928389,38.782668],[40.930483,38.779908],[40.93391,38.777243],[40.937907,38.774673],[40.940477,38.772103],[40.942381,38.769153],[40.945141,38.765631],[40.947425,38.763252],[40.948853,38.761158],[40.953136,38.758017],[40.95561,38.756209],[40.961226,38.752306],[40.965223,38.749261],[40.96865,38.746405],[40.971315,38.743931],[40.973885,38.740885],[40.977026,38.736697],[40.977977,38.734984],[40.978358,38.732604],[40.978739,38.730034],[40.979881,38.726989],[40.982641,38.722611],[40.986068,38.717852],[40.988637,38.714996],[40.99254,38.709952],[40.994729,38.707953],[40.998631,38.702052],[40.999773,38.700434],[40.999964,38.69815],[40.999964,38.695865],[40.999393,38.69301],[40.998155,38.690155],[40.994253,38.683207],[40.992064,38.6794],[40.990255,38.67721],[40.988196,38.675193],[40.985177,38.675193],[40.980146,38.67501],[40.973742,38.674827],[40.968894,38.674187],[40.964228,38.673089],[40.959837,38.671534],[40.955355,38.669887],[40.951147,38.667966],[40.946207,38.665679],[40.942822,38.663575],[40.940535,38.662295],[40.935778,38.660008],[40.931113,38.657995],[40.928094,38.656257],[40.923611,38.654244],[40.920776,38.652323],[40.91858,38.649853],[40.916019,38.644639],[40.913732,38.642261],[40.91117,38.63915],[40.908975,38.63604],[40.905864,38.634027],[40.903394,38.632472],[40.901382,38.63046],[40.899186,38.628081],[40.896991,38.625245],[40.895253,38.624605],[40.891685,38.624514],[40.888117,38.624422],[40.883177,38.62369],[40.879884,38.623782],[40.876774,38.624148],[40.873938,38.624514],[40.870462,38.624514],[40.866437,38.624605],[40.863692,38.62305],[40.860125,38.620397],[40.85738,38.61811],[40.855185,38.616189],[40.852989,38.613445],[40.85116,38.610426],[40.84997,38.607315],[40.849422,38.60329],[40.848598,38.599906],[40.847775,38.597344],[40.845945,38.595057],[40.843567,38.593045],[40.841097,38.591398],[40.83945,38.588837],[40.837072,38.587281],[40.834236,38.583988],[40.831126,38.579872],[40.827832,38.57667],[40.82399,38.572645],[40.820514,38.570175],[40.816397,38.567796],[40.812647,38.566058],[40.809536,38.565692],[40.808217,38.565637],[40.807691,38.565692],[40.806426,38.565692],[40.803682,38.566424],[40.800297,38.568528],[40.796546,38.570175],[40.793619,38.570907],[40.785935,38.574657],[40.78191,38.576487],[40.779989,38.578133],[40.778159,38.580329],[40.774957,38.583073],[40.771755,38.585269],[40.769926,38.586732],[40.767364,38.588013],[40.764894,38.590941],[40.763522,38.594234],[40.761601,38.598808],[40.75968,38.603016],[40.757393,38.606767],[40.756204,38.6107],[40.753917,38.613627],[40.751173,38.615366],[40.748977,38.615732],[40.745592,38.614908],[40.742208,38.61317],[40.736993,38.609602],[40.732968,38.607041],[40.728943,38.604754],[40.725375,38.603107],[40.722814,38.601644],[40.720618,38.600546],[40.717874,38.600454],[40.715678,38.601461],[40.713574,38.602833],[40.71019,38.605577],[40.70772,38.607315],[40.704884,38.60759],[40.702231,38.607407],[40.698572,38.605394],[40.695553,38.603473],[40.692626,38.601827],[40.689607,38.601369],[40.687594,38.60201],[40.685033,38.604571],[40.681923,38.608322],[40.679453,38.611066],[40.677349,38.612164],[40.674604,38.615549],[40.672683,38.619299],[40.670762,38.622227],[40.668841,38.624422],[40.666737,38.626435],[40.662712,38.628905],[40.660333,38.6311],[40.65704,38.632564],[40.65457,38.633113],[40.650728,38.632655],[40.647892,38.632015],[40.644782,38.631009],[40.642495,38.629819],[40.641214,38.628447],[40.640391,38.626618],[40.638744,38.62369],[40.637646,38.621586],[40.637281,38.619482],[40.637372,38.617744],[40.637646,38.615],[40.63975,38.612255],[40.640574,38.610426],[40.642129,38.607773],[40.643501,38.605486],[40.644416,38.602924],[40.644416,38.599997],[40.644233,38.597436],[40.640848,38.594051],[40.637646,38.591032],[40.632707,38.588837],[40.626486,38.586732],[40.62301,38.585818],[40.618344,38.586184],[40.614685,38.587098],[40.609105,38.587922],[40.604439,38.588562],[40.598676,38.589568],[40.593919,38.590209],[40.590077,38.590849],[40.587424,38.590941],[40.582942,38.590941],[40.576904,38.591398],[40.571873,38.591215],[40.566109,38.590575],[40.5587,38.591306],[40.55193,38.591947],[40.546624,38.592496],[40.541044,38.592587],[40.532628,38.593776],[40.527414,38.595515],[40.522474,38.597984],[40.519546,38.599448],[40.5136,38.603382],[40.508935,38.606218],[40.503537,38.609785],[40.498506,38.61317],[40.494755,38.616372],[40.490181,38.619482],[40.485882,38.622318],[40.480119,38.624605],[40.47399,38.627532],[40.469599,38.629728],[40.466854,38.631832],[40.464476,38.633021],[40.462738,38.63293],[40.458072,38.632472],[40.454779,38.632838],[40.450296,38.63357],[40.44682,38.634302],[40.44435,38.634942],[40.441331,38.634119],[40.438587,38.631649],[40.435843,38.630094],[40.435477,38.628813],[40.435019,38.626343],[40.435019,38.624148],[40.435385,38.621861],[40.436483,38.61994],[40.437764,38.618384],[40.439227,38.615914],[40.440325,38.612621],[40.440691,38.609694],[40.440965,38.60823],[40.440783,38.606126],[40.44124,38.602193],[40.440874,38.599174],[40.439593,38.593868],[40.439319,38.59213],[40.438953,38.589294],[40.437672,38.584354],[40.436666,38.579872],[40.435294,38.576944],[40.43319,38.573376],[40.431909,38.571181],[40.431452,38.570358],[40.425963,38.568071],[40.420931,38.567247],[40.414619,38.566516],[40.410228,38.565601],[40.40538,38.564046],[40.399251,38.561667],[40.388182,38.557368],[40.378302,38.552794],[40.361836,38.544286],[40.354883,38.537151],[40.352047,38.534589],[40.349669,38.531753],[40.347748,38.524618],[40.347839,38.523246],[40.348297,38.518031],[40.351864,38.510713],[40.354883,38.504858],[40.357262,38.499827],[40.358634,38.494521],[40.357057,38.491485],[40.355721,38.490333],[40.354342,38.489239],[40.353663,38.489238],[40.353092,38.489225],[40.352413,38.489199],[40.352262,38.489194],[40.351949,38.489182],[40.350233,38.489093],[40.348948,38.489022],[40.342048,38.488636],[40.342031,38.488635],[40.340508,38.48855],[40.338793,38.488449],[40.337651,38.488372],[40.337348,38.488347],[40.33731,38.488343],[40.336511,38.488277],[40.33595,38.488221],[40.334828,38.488092],[40.333149,38.487876],[40.329494,38.487383],[40.329446,38.487376],[40.328676,38.487272],[40.327558,38.487133],[40.326999,38.48707],[40.32644,38.487015],[40.326155,38.486992],[40.326062,38.486985],[40.326018,38.486981],[40.325323,38.486941],[40.324764,38.486932],[40.324211,38.486947],[40.323659,38.486983],[40.323106,38.487034],[40.322553,38.487095],[40.321448,38.487237],[40.319238,38.487558],[40.314812,38.488227],[40.312598,38.488578],[40.310941,38.488866],[40.309846,38.489078],[40.309186,38.489214],[40.308854,38.489283],[40.30836,38.489374],[40.307948,38.489435],[40.307907,38.489442],[40.307386,38.489494],[40.306908,38.489514],[40.306435,38.489505],[40.30597,38.489463],[40.305612,38.489399],[40.305611,38.489399],[40.305557,38.489389],[40.305052,38.489259]]]}},{"type":"Feature","properties":{"id":"TR-D-12-004","parent_id":"TR-P-12","region_id":"TR-R-DOA","level":"district","municipality_type":null,"municipality_type_label":null,"is_metropolitan_municipality":null,"name":"Karlıova","name_ascii":"karliova","slug":"karliova-bingol"},"geometry":{"type":"Polygon","coordinates":[[[41.151298,39.406024],[41.152251,39.40524],[41.157249,39.402529],[41.162247,39.39914],[41.166906,39.394057],[41.169617,39.390076],[41.171312,39.385925],[41.172489,39.381169],[41.17264,39.380558],[41.169023,39.37875],[41.164835,39.376656],[41.160933,39.373801],[41.156555,39.370089],[41.154746,39.367043],[41.152843,39.361998],[41.152557,39.359429],[41.153033,39.356859],[41.153224,39.352576],[41.153033,39.349816],[41.151891,39.347246],[41.150559,39.343915],[41.149607,39.342011],[41.14856,39.339156],[41.147703,39.335444],[41.147608,39.327544],[41.147894,39.322309],[41.148369,39.32012],[41.149131,39.317169],[41.150368,39.31479],[41.150463,39.311935],[41.149512,39.305843],[41.149512,39.299752],[41.149607,39.294612],[41.150463,39.288235],[41.152843,39.282334],[41.155413,39.278622],[41.159981,39.273578],[41.164264,39.268819],[41.168071,39.263013],[41.17007,39.259967],[41.171498,39.256921],[41.173497,39.252734],[41.174544,39.246832],[41.175781,39.24274],[41.176447,39.23998],[41.176162,39.236363],[41.175971,39.234269],[41.175305,39.226084],[41.175305,39.223228],[41.175591,39.219897],[41.176542,39.212188],[41.176542,39.206667],[41.175591,39.200861],[41.17283,39.19201],[41.17283,39.181255],[41.174544,39.176305],[41.178351,39.17088],[41.181872,39.167549],[41.187964,39.164503],[41.197767,39.158507],[41.206714,39.150702],[41.21271,39.144801],[41.21528,39.140137],[41.216517,39.137758],[41.219944,39.132333],[41.227653,39.122625],[41.230889,39.118246],[41.234601,39.11206],[41.237171,39.107111],[41.23955,39.103684],[41.241835,39.102161],[41.244595,39.100448],[41.252971,39.096546],[41.258586,39.09331],[41.261251,39.091406],[41.262869,39.089407],[41.265344,39.086076],[41.269151,39.08284],[41.274576,39.079604],[41.279811,39.07494],[41.283618,39.070372],[41.286283,39.063233],[41.287044,39.058284],[41.286742,39.057452],[41.285902,39.055143],[41.283618,39.050194],[41.281429,39.046387],[41.276765,39.041723],[41.273148,39.039248],[41.267438,39.036774],[41.258491,39.034299],[41.254208,39.033347],[41.244024,39.0323],[41.239931,39.031634],[41.234792,39.031063],[41.229842,39.029635],[41.223941,39.027446],[41.219848,39.026114],[41.214994,39.023639],[41.211116,39.019923],[41.207748,39.02619],[41.205852,39.030614],[41.204083,39.034279],[41.200038,39.037818],[41.19751,39.040473],[41.194477,39.042495],[41.190812,39.042621],[41.184239,39.041737],[41.18209,39.040978],[41.174886,39.040978],[41.161994,39.042242],[41.150745,39.043],[41.144679,39.043506],[41.135578,39.045781],[41.130523,39.047171],[41.123698,39.049826],[41.111817,39.058926],[41.105624,39.064613],[41.102337,39.068784],[41.095891,39.076873],[41.091468,39.08016],[41.087044,39.08155],[41.080092,39.083572],[41.070866,39.085468],[41.062271,39.086985],[41.053045,39.088375],[41.04761,39.089386],[41.039521,39.090524],[41.028777,39.092293],[41.020941,39.093936],[41.012599,39.095959],[41.005269,39.09697],[40.997053,39.098992],[40.990102,39.10152],[40.985046,39.104932],[40.980117,39.109103],[40.974303,39.112769],[40.969373,39.114791],[40.965961,39.11517],[40.962927,39.114665],[40.95686,39.113148],[40.950415,39.111758],[40.936764,39.108598],[40.926779,39.106702],[40.914646,39.103289],[40.904661,39.099371],[40.895813,39.093304],[40.88823,39.088501],[40.877866,39.08155],[40.871925,39.077632],[40.857896,39.069543],[40.852208,39.066509],[40.849632,39.065067],[40.846087,39.067774],[40.843041,39.069583],[40.837901,39.071962],[40.833523,39.073295],[40.829526,39.074722],[40.823529,39.076816],[40.813916,39.08167],[40.808681,39.084145],[40.803256,39.086524],[40.795642,39.088523],[40.792596,39.08957],[40.786315,39.091474],[40.780509,39.092235],[40.77575,39.093187],[40.770991,39.093758],[40.765946,39.094424],[40.755191,39.094805],[40.75205,39.094805],[40.747767,39.0949],[40.743294,39.095186],[40.739582,39.095757],[40.737583,39.096423],[40.734728,39.096994],[40.731587,39.097375],[40.730014,39.099316],[40.726493,39.10179],[40.721163,39.104455],[40.715547,39.108453],[40.712787,39.112165],[40.711169,39.114925],[40.709456,39.119398],[40.709741,39.121873],[40.710884,39.125299],[40.714405,39.129011],[40.716499,39.131581],[40.717927,39.139671],[40.718974,39.145573],[40.720972,39.150522],[40.722019,39.152616],[40.724113,39.155852],[40.725351,39.159088],[40.728967,39.164323],[40.732965,39.169748],[40.737533,39.174412],[40.738866,39.176696],[40.74115,39.179456],[40.742863,39.182407],[40.742863,39.187927],[40.742388,39.193733],[40.742292,39.198301],[40.741341,39.20582],[40.741341,39.209247],[40.74077,39.2161],[40.740294,39.219145],[40.739437,39.223714],[40.73858,39.227902],[40.737533,39.231519],[40.73544,39.238086],[40.734583,39.243416],[40.733726,39.248365],[40.73306,39.253505],[40.73306,39.255789],[40.733917,39.261119],[40.73563,39.267211],[40.736677,39.271684],[40.738771,39.275872],[40.740103,39.278537],[40.74372,39.281963],[40.74629,39.284247],[40.74886,39.285961],[40.752952,39.289482],[40.757331,39.294051],[40.759615,39.297858],[40.760186,39.30157],[40.760186,39.304235],[40.760281,39.307185],[40.759329,39.309565],[40.75714,39.312706],[40.754475,39.316323],[40.75181,39.321367],[40.741436,39.32822],[40.737058,39.331361],[40.733346,39.333835],[40.726493,39.336405],[40.72221,39.337738],[40.720592,39.338404],[40.715642,39.339927],[40.712121,39.340688],[40.707457,39.341355],[40.70384,39.341545],[40.701461,39.341545],[40.69851,39.341355],[40.695845,39.341164],[40.692609,39.340688],[40.689944,39.340403],[40.686803,39.340498],[40.682616,39.340783],[40.679951,39.340783],[40.677508,39.345706],[40.676281,39.351578],[40.675668,39.35447],[40.67523,39.357625],[40.674879,39.361481],[40.675755,39.368142],[40.675755,39.370596],[40.675668,39.373838],[40.676106,39.376993],[40.67672,39.381025],[40.677771,39.383479],[40.679436,39.384706],[40.682591,39.385845],[40.686623,39.387335],[40.691005,39.390402],[40.694686,39.393645],[40.69749,39.396274],[40.700032,39.399342],[40.701171,39.400832],[40.704501,39.403811],[40.707744,39.406265],[40.711731,39.408628],[40.717068,39.409391],[40.722914,39.410831],[40.726726,39.412186],[40.73308,39.412695],[40.736892,39.412271],[40.750023,39.411],[40.762137,39.411],[40.778063,39.410916],[40.795854,39.412949],[40.804664,39.414474],[40.814237,39.418371],[40.815508,39.419641],[40.826944,39.428452],[40.830926,39.43201],[40.839228,39.437601],[40.847954,39.442853],[40.862186,39.447428],[40.86549,39.447428],[40.874808,39.447174],[40.880569,39.446581],[40.886923,39.445564],[40.893615,39.444293],[40.899884,39.443192],[40.906153,39.442345],[40.915641,39.441159],[40.920385,39.441583],[40.926061,39.443446],[40.933431,39.445988],[40.941987,39.448699],[40.952238,39.450817],[40.953678,39.450817],[40.962997,39.450393],[40.96952,39.449122],[40.983667,39.444971],[40.992732,39.442769],[41.000102,39.441837],[41.002898,39.441498],[41.00959,39.440735],[41.016113,39.439126],[41.02145,39.438363],[41.025432,39.438279],[41.033819,39.437093],[41.042629,39.436669],[41.051016,39.438533],[41.055591,39.43938],[41.060504,39.438956],[41.066942,39.437855],[41.07355,39.436161],[41.087105,39.432942],[41.090578,39.432687],[41.098118,39.432603],[41.108114,39.433196],[41.116247,39.433619],[41.128361,39.433111],[41.134969,39.431586],[41.13895,39.429638],[41.143101,39.426334],[41.146914,39.418286],[41.149455,39.409306],[41.15081,39.406426],[41.151298,39.406024]]]}},{"type":"Feature","properties":{"id":"TR-D-12-005","parent_id":"TR-P-12","region_id":"TR-R-DOA","level":"district","municipality_type":null,"municipality_type_label":null,"is_metropolitan_municipality":null,"name":"Kiğı","name_ascii":"kigi","slug":"kigi-bingol"},"geometry":{"type":"Polygon","coordinates":[[[40.463538,39.395481],[40.463132,39.392007],[40.462656,39.388486],[40.462085,39.382394],[40.461704,39.377255],[40.461228,39.373352],[40.460086,39.367356],[40.458754,39.362407],[40.458373,39.360218],[40.458373,39.356506],[40.459039,39.353079],[40.459896,39.35051],[40.461228,39.347464],[40.461419,39.345084],[40.460277,39.342134],[40.457992,39.340611],[40.454471,39.339374],[40.451615,39.337756],[40.449426,39.336613],[40.444382,39.333663],[40.439718,39.331188],[40.436006,39.328809],[40.429915,39.326334],[40.421253,39.322242],[40.417446,39.31872],[40.415638,39.31634],[40.415447,39.314437],[40.415638,39.312914],[40.416875,39.311867],[40.420397,39.310154],[40.425536,39.307679],[40.429344,39.305966],[40.430866,39.304919],[40.430962,39.301969],[40.431628,39.298828],[40.431342,39.295211],[40.428582,39.290071],[40.426869,39.287121],[40.425251,39.283599],[40.421158,39.280649],[40.41935,39.279316],[40.417351,39.27884],[40.415162,39.278269],[40.411831,39.276556],[40.409737,39.275414],[40.406691,39.273986],[40.403741,39.272939],[40.399362,39.271036],[40.395936,39.270084],[40.392319,39.269893],[40.385561,39.269513],[40.380803,39.269608],[40.374235,39.269418],[40.371285,39.269227],[40.369381,39.26818],[40.36881,39.267514],[40.36881,39.266753],[40.36881,39.265896],[40.368715,39.265039],[40.368144,39.263802],[40.367478,39.263041],[40.36586,39.262184],[40.364241,39.261423],[40.363195,39.261232],[40.362243,39.261708],[40.361101,39.262184],[40.360149,39.262374],[40.359578,39.262089],[40.359007,39.261423],[40.358721,39.260185],[40.358436,39.258948],[40.357865,39.258186],[40.357198,39.257235],[40.355675,39.256664],[40.354248,39.256283],[40.351678,39.254665],[40.350345,39.253047],[40.348823,39.250382],[40.348727,39.248193],[40.348061,39.246004],[40.347014,39.24429],[40.346348,39.242768],[40.346348,39.242006],[40.346538,39.240578],[40.347205,39.238294],[40.347395,39.236771],[40.347871,39.23363],[40.348252,39.230299],[40.348061,39.228205],[40.348061,39.226206],[40.352149,39.210784],[40.351959,39.199553],[40.355137,39.179373],[40.359478,39.161862],[40.374135,39.144635],[40.345106,39.135868],[40.339547,39.135541],[40.336406,39.134875],[40.329934,39.133257],[40.321368,39.129926],[40.308519,39.125643],[40.300481,39.122582],[40.301053,39.125723],[40.301148,39.129055],[40.300386,39.131339],[40.299625,39.133528],[40.298959,39.135717],[40.298959,39.137621],[40.299149,39.13981],[40.299339,39.141808],[40.298959,39.144473],[40.298388,39.147329],[40.29715,39.150184],[40.295437,39.153801],[40.295135,39.154418],[40.293343,39.158084],[40.292011,39.159797],[40.289917,39.161606],[40.287537,39.163414],[40.284206,39.164651],[40.278781,39.165793],[40.274998,39.166162],[40.274878,39.166174],[40.26774,39.166174],[40.263078,39.166345],[40.262201,39.1697],[40.260869,39.173222],[40.258299,39.178266],[40.255824,39.181026],[40.252874,39.184928],[40.250304,39.187974],[40.248305,39.191115],[40.246402,39.195684],[40.244593,39.203108],[40.244403,39.206439],[40.24545,39.210341],[40.246687,39.213672],[40.247258,39.216052],[40.247639,39.220335],[40.247544,39.22319],[40.247258,39.225855],[40.246211,39.22852],[40.244403,39.23128],[40.243546,39.231947],[40.239644,39.232803],[40.231554,39.234041],[40.228032,39.234231],[40.221655,39.233945],[40.218229,39.234041],[40.215183,39.234421],[40.213565,39.235183],[40.210139,39.237372],[40.207283,39.238704],[40.201097,39.240989],[40.196909,39.242702],[40.194339,39.245081],[40.191864,39.249745],[40.190151,39.25498],[40.187772,39.259358],[40.185678,39.262213],[40.18168,39.264974],[40.179056,39.266288],[40.178641,39.266197],[40.175164,39.268867],[40.171783,39.271565],[40.16977,39.272781],[40.166478,39.272776],[40.152188,39.279135],[40.143772,39.290253],[40.12958,39.298038],[40.116923,39.302747],[40.115932,39.303134],[40.115513,39.303284],[40.115592,39.303579],[40.115704,39.303849],[40.11601,39.304096],[40.116458,39.304928],[40.118171,39.307688],[40.118794,39.308844],[40.119712,39.310549],[40.12017,39.3114],[40.12171,39.31413],[40.121838,39.314356],[40.122264,39.315112],[40.124453,39.318824],[40.125032,39.320214],[40.125405,39.321108],[40.125881,39.323012],[40.126166,39.324344],[40.126928,39.326057],[40.12788,39.327104],[40.129402,39.327961],[40.132448,39.328247],[40.13616,39.329389],[40.137778,39.330245],[40.139586,39.331578],[40.140633,39.332625],[40.142347,39.333862],[40.144631,39.335195],[40.14682,39.335766],[40.148153,39.335861],[40.152911,39.335861],[40.155101,39.335861],[40.158908,39.336717],[40.160431,39.337003],[40.16281,39.337669],[40.164618,39.338431],[40.168616,39.339573],[40.170234,39.339668],[40.172994,39.339478],[40.174993,39.339192],[40.178895,39.338907],[40.182893,39.338526],[40.185653,39.338431],[40.188603,39.338431],[40.191078,39.338716],[40.194124,39.339763],[40.196218,39.341],[40.198787,39.342809],[40.201072,39.344712],[40.202785,39.345759],[40.207925,39.3489],[40.210685,39.351375],[40.211446,39.352707],[40.213064,39.355848],[40.214016,39.357942],[40.215063,39.360036],[40.216395,39.361369],[40.22125,39.364034],[40.224771,39.365652],[40.227436,39.366223],[40.232576,39.367365],[40.235812,39.367841],[40.239238,39.368031],[40.242855,39.367936],[40.247709,39.367365],[40.252468,39.366508],[40.255038,39.366318],[40.260844,39.366699],[40.264461,39.366223],[40.270933,39.365842],[40.275311,39.365461],[40.278357,39.365081],[40.280451,39.364224],[40.28302,39.363367],[40.28521,39.362891],[40.287303,39.362796],[40.289873,39.363177],[40.291777,39.364319],[40.29349,39.365842],[40.296155,39.368507],[40.297107,39.370125],[40.297583,39.372029],[40.297963,39.374408],[40.297963,39.375645],[40.29863,39.37812],[40.299201,39.379928],[40.300533,39.381832],[40.303389,39.384211],[40.305768,39.386876],[40.308434,39.390622],[40.311384,39.395571],[40.314525,39.40052],[40.31719,39.40566],[40.317761,39.408801],[40.317581,39.409545],[40.319319,39.409597],[40.320842,39.409693],[40.32246,39.410073],[40.323793,39.410073],[40.325316,39.409883],[40.327029,39.409122],[40.329408,39.408741],[40.331122,39.408741],[40.33312,39.409407],[40.336166,39.41093],[40.339117,39.412358],[40.341591,39.412738],[40.34616,39.41369],[40.351014,39.413881],[40.358247,39.414356],[40.363387,39.414547],[40.368431,39.413881],[40.371477,39.413881],[40.374618,39.413881],[40.378711,39.413881],[40.380138,39.413881],[40.382518,39.414642],[40.387372,39.417402],[40.388704,39.418544],[40.390227,39.419496],[40.392321,39.420353],[40.395843,39.420924],[40.400316,39.4214],[40.405551,39.4214],[40.408978,39.421304],[40.412785,39.420353],[40.416306,39.41902],[40.418781,39.417973],[40.421256,39.417021],[40.423349,39.415499],[40.425253,39.414452],[40.428204,39.413309],[40.431725,39.412834],[40.435532,39.412262],[40.438959,39.411406],[40.441909,39.410644],[40.445907,39.409693],[40.448952,39.408931],[40.452855,39.407504],[40.455044,39.405981],[40.457519,39.403792],[40.458756,39.400746],[40.459708,39.3977],[40.461802,39.395797],[40.463538,39.395481]]]}},{"type":"Feature","properties":{"id":"TR-D-12-006","parent_id":"TR-P-12","region_id":"TR-R-DOA","level":"district","municipality_type":null,"municipality_type_label":null,"is_metropolitan_municipality":null,"name":"Solhan","name_ascii":"solhan","slug":"solhan-bingol"},"geometry":{"type":"Polygon","coordinates":[[[40.988196,38.675193],[40.990255,38.67721],[40.992064,38.6794],[40.994253,38.683207],[40.998155,38.690155],[40.999393,38.69301],[40.999964,38.695865],[40.999964,38.69815],[40.999773,38.700434],[40.998631,38.702052],[40.994729,38.707953],[40.99254,38.709952],[40.988637,38.714996],[40.986068,38.717852],[40.982641,38.722611],[40.979881,38.726989],[40.978739,38.730034],[40.978358,38.732604],[40.977977,38.734984],[40.977026,38.736697],[40.973885,38.740885],[40.971315,38.743931],[40.96865,38.746405],[40.965223,38.749261],[40.961226,38.752306],[40.95561,38.756209],[40.953136,38.758017],[40.948853,38.761158],[40.947425,38.763252],[40.945141,38.765631],[40.942381,38.769153],[40.940477,38.772103],[40.937907,38.774673],[40.93391,38.777243],[40.930483,38.779908],[40.928389,38.782668],[40.925915,38.786951],[40.923059,38.791615],[40.919443,38.794375],[40.913256,38.79723],[40.90745,38.799324],[40.902882,38.801038],[40.89955,38.804083],[40.895077,38.808366],[40.889842,38.812745],[40.884227,38.817694],[40.881371,38.820264],[40.877754,38.823309],[40.8729,38.827497],[40.867666,38.832542],[40.865286,38.835873],[40.864144,38.839109],[40.863002,38.842726],[40.863097,38.84758],[40.862811,38.850721],[40.863097,38.854623],[40.863383,38.857859],[40.863763,38.862142],[40.863763,38.863094],[40.863287,38.866044],[40.861955,38.869756],[40.860337,38.872421],[40.859195,38.873659],[40.857767,38.873564],[40.856244,38.873183],[40.854436,38.873088],[40.852913,38.872897],[40.850819,38.872802],[40.848915,38.872326],[40.847107,38.871565],[40.845965,38.870708],[40.844632,38.869281],[40.843681,38.867377],[40.84311,38.866044],[40.841492,38.864712],[40.840254,38.864046],[40.838541,38.86357],[40.836828,38.86376],[40.835019,38.864046],[40.833401,38.864331],[40.832164,38.864998],[40.831212,38.86614],[40.82988,38.866901],[40.828547,38.867282],[40.827458,38.867133],[40.827309,38.869844],[40.826045,38.873888],[40.822001,38.879576],[40.819852,38.883368],[40.814796,38.887539],[40.81012,38.89133],[40.807213,38.89449],[40.804559,38.899167],[40.803674,38.903338],[40.803674,38.905992],[40.804306,38.909404],[40.80557,38.912564],[40.806707,38.914713],[40.810373,38.917241],[40.815428,38.919516],[40.820105,38.920653],[40.827688,38.922044],[40.831606,38.922928],[40.833502,38.92394],[40.835145,38.925962],[40.836156,38.930133],[40.83603,38.932155],[40.83603,38.934304],[40.83603,38.937463],[40.837168,38.940876],[40.83919,38.944668],[40.843614,38.949723],[40.846521,38.952883],[40.85284,38.958192],[40.854989,38.962615],[40.856758,38.965649],[40.857137,38.968429],[40.855368,38.972095],[40.852587,38.975002],[40.848922,38.977909],[40.845762,38.980689],[40.840707,38.98347],[40.83603,38.985745],[40.833629,38.987515],[40.832238,38.98941],[40.831227,38.991559],[40.830216,38.994087],[40.826045,39.002429],[40.823264,39.006852],[40.821495,39.01115],[40.820231,39.015953],[40.820231,39.020124],[40.820105,39.023157],[40.820989,39.033016],[40.821369,39.035796],[40.821874,39.039714],[40.823896,39.044517],[40.825919,39.048056],[40.828826,39.051216],[40.831606,39.053365],[40.834387,39.054376],[40.83742,39.055766],[40.840454,39.057409],[40.843866,39.059937],[40.847153,39.063097],[40.849048,39.06474],[40.849632,39.065067],[40.852208,39.066509],[40.857896,39.069543],[40.871925,39.077632],[40.877866,39.08155],[40.88823,39.088501],[40.895813,39.093304],[40.904661,39.099371],[40.914646,39.103289],[40.926779,39.106702],[40.936764,39.108598],[40.950415,39.111758],[40.95686,39.113148],[40.962927,39.114665],[40.965961,39.11517],[40.969373,39.114791],[40.974303,39.112769],[40.980117,39.109103],[40.985046,39.104932],[40.990102,39.10152],[40.997053,39.098992],[41.005269,39.09697],[41.012599,39.095959],[41.020941,39.093936],[41.028777,39.092293],[41.039521,39.090524],[41.04761,39.089386],[41.053045,39.088375],[41.062271,39.086985],[41.070866,39.085468],[41.080092,39.083572],[41.087044,39.08155],[41.091468,39.08016],[41.095891,39.076873],[41.102337,39.068784],[41.105624,39.064613],[41.111817,39.058926],[41.123698,39.049826],[41.130523,39.047171],[41.135578,39.045781],[41.144679,39.043506],[41.150745,39.043],[41.161994,39.042242],[41.174886,39.040978],[41.18209,39.040978],[41.184239,39.041737],[41.190812,39.042621],[41.194477,39.042495],[41.19751,39.040473],[41.200038,39.037818],[41.204083,39.034279],[41.205852,39.030614],[41.207748,39.02619],[41.211116,39.019923],[41.210426,39.019261],[41.206714,39.01631],[41.203383,39.012694],[41.197386,39.009267],[41.1912,39.00565],[41.186917,39.002509],[41.183776,38.998131],[41.181587,38.994705],[41.179683,38.990136],[41.178731,38.984235],[41.177018,38.976906],[41.176257,38.972433],[41.174734,38.969292],[41.173211,38.967008],[41.169118,38.964533],[41.167293,38.963226],[41.162075,38.959774],[41.149702,38.951018],[41.144372,38.947591],[41.138947,38.941881],[41.136377,38.936741],[41.135235,38.933505],[41.134569,38.931126],[41.133712,38.929222],[41.132284,38.92789],[41.129905,38.926367],[41.125622,38.923797],[41.121244,38.919704],[41.117436,38.915707],[41.115628,38.910948],[41.112963,38.905427],[41.11144,38.896005],[41.111535,38.891436],[41.112202,38.88563],[41.1142,38.876588],[41.115818,38.87202],[41.117151,38.86926],[41.11934,38.864786],[41.120768,38.860408],[41.122576,38.854602],[41.123052,38.852508],[41.124289,38.847654],[41.126003,38.842419],[41.129048,38.83471],[41.130761,38.830427],[41.132284,38.826715],[41.132855,38.822337],[41.132855,38.817958],[41.133522,38.805109],[41.133712,38.792451],[41.133236,38.788263],[41.131999,38.782552],[41.128287,38.773415],[41.123433,38.763612],[41.123433,38.760947],[41.12467,38.758567],[41.130286,38.755521],[41.134759,38.753618],[41.147608,38.751429],[41.150844,38.750858],[41.154556,38.749716],[41.155413,38.748193],[41.155793,38.747051],[41.156269,38.735534],[41.155984,38.727634],[41.155698,38.723161],[41.155413,38.713738],[41.15665,38.708027],[41.158714,38.69724],[41.154048,38.697789],[41.150389,38.698978],[41.145998,38.701173],[41.142888,38.702546],[41.136576,38.705016],[41.129806,38.707211],[41.124318,38.7084],[41.116816,38.709864],[41.111053,38.710413],[41.108949,38.710687],[41.104283,38.710779],[41.101265,38.710321],[41.097971,38.708949],[41.093855,38.707485],[41.089189,38.705016],[41.087268,38.703735],[41.080041,38.701722],[41.073912,38.700167],[41.068241,38.69852],[41.05644,38.694221],[41.049945,38.690196],[41.047109,38.687909],[41.044822,38.684982],[41.042443,38.682969],[41.03979,38.682877],[41.036497,38.682877],[41.033478,38.683335],[41.029728,38.682695],[41.025703,38.680682],[41.021403,38.677938],[41.017561,38.676017],[41.014542,38.675193],[41.011157,38.674827],[41.004479,38.674553],[40.998442,38.674919],[40.993044,38.675102],[40.988196,38.675193]]]}},{"type":"Feature","properties":{"id":"TR-D-12-007","parent_id":"TR-P-12","region_id":"TR-R-DOA","level":"district","municipality_type":null,"municipality_type_label":null,"is_metropolitan_municipality":null,"name":"Yayladere","name_ascii":"yayladere","slug":"yayladere-bingol"},"geometry":{"type":"Polygon","coordinates":[[[39.937633,39.107266],[39.940659,39.108948],[39.943895,39.110185],[39.94694,39.111993],[39.953698,39.116943],[39.956458,39.119893],[39.9576,39.12094],[39.958267,39.122463],[39.958647,39.12589],[39.958362,39.128269],[39.95741,39.132933],[39.954174,39.136454],[39.950748,39.137977],[39.946655,39.1395],[39.945037,39.140452],[39.941706,39.142546],[39.940278,39.143783],[39.939136,39.145496],[39.938089,39.147114],[39.937708,39.149018],[39.937803,39.150541],[39.938374,39.152254],[39.938279,39.154348],[39.938184,39.156918],[39.937327,39.158631],[39.935614,39.160249],[39.93352,39.161581],[39.931046,39.162438],[39.929618,39.163961],[39.929142,39.167007],[39.929142,39.169291],[39.928381,39.171861],[39.927524,39.173479],[39.927143,39.175573],[39.926667,39.178523],[39.926763,39.182235],[39.927352,39.184752],[39.92781,39.186709],[39.92784,39.18678],[39.929713,39.191087],[39.931712,39.194228],[39.933235,39.19794],[39.933615,39.200129],[39.933711,39.202032],[39.934149,39.202953],[39.934662,39.204031],[39.93628,39.205459],[39.938089,39.207267],[39.939707,39.209361],[39.940468,39.211455],[39.942848,39.217261],[39.943514,39.220307],[39.943799,39.22202],[39.94418,39.224399],[39.945513,39.229158],[39.946845,39.232109],[39.947797,39.235345],[39.948654,39.239437],[39.948749,39.242102],[39.948273,39.244863],[39.948273,39.248575],[39.950462,39.252572],[39.953603,39.255427],[39.958362,39.259044],[39.960551,39.261233],[39.962359,39.263137],[39.964072,39.264564],[39.966166,39.265516],[39.968927,39.265802],[39.972924,39.266183],[39.980729,39.266183],[39.982918,39.266278],[39.985964,39.266468],[39.989104,39.267134],[39.991103,39.26742],[39.994434,39.26742],[39.997385,39.26742],[40.001668,39.267991],[40.006617,39.269799],[40.010424,39.271798],[40.014803,39.275129],[40.018705,39.277794],[40.021846,39.279698],[40.023464,39.280935],[40.024701,39.282553],[40.025653,39.28636],[40.025938,39.28874],[40.026129,39.291976],[40.024511,39.295593],[40.02137,39.298448],[40.018895,39.300732],[40.014612,39.303588],[40.009758,39.306824],[40.004619,39.309679],[40.001192,39.311963],[39.997861,39.314914],[39.996338,39.317198],[39.995481,39.319007],[39.995291,39.320625],[39.995291,39.322052],[39.995196,39.32348],[39.996243,39.324908],[39.99767,39.325479],[39.999109,39.325838],[39.999193,39.325859],[40.002239,39.32605],[40.003191,39.326145],[40.003304,39.326145],[40.004904,39.326145],[40.006161,39.326367],[40.006522,39.32643],[40.00814,39.326906],[40.009663,39.327097],[40.010424,39.326716],[40.010805,39.326621],[40.011186,39.326526],[40.012138,39.326526],[40.012775,39.326989],[40.013185,39.327287],[40.013903,39.327646],[40.014393,39.327891],[40.014517,39.327953],[40.01517,39.328117],[40.01604,39.328334],[40.016371,39.328555],[40.016471,39.328621],[40.016967,39.329244],[40.018617,39.33149],[40.019581,39.332169],[40.019878,39.332003],[40.020782,39.331512],[40.021697,39.331033],[40.022622,39.330567],[40.023562,39.330125],[40.024041,39.329919],[40.024529,39.329728],[40.025041,39.329551],[40.025562,39.32939],[40.02609,39.329241],[40.02716,39.328964],[40.028782,39.328583],[40.02987,39.328348],[40.030416,39.328238],[40.030964,39.328136],[40.031513,39.328044],[40.032066,39.327967],[40.03262,39.327907],[40.033177,39.327861],[40.033736,39.327826],[40.034859,39.327774],[40.03824,39.327671],[40.039367,39.327628],[40.040493,39.327562],[40.041623,39.327465],[40.042752,39.327345],[40.043878,39.32721],[40.044999,39.327062],[40.046106,39.326891],[40.046649,39.326789],[40.047181,39.326672],[40.047697,39.326533],[40.048153,39.326378],[40.048586,39.326199],[40.048992,39.325991],[40.049364,39.325752],[40.049708,39.325468],[40.050003,39.325165],[40.050009,39.325159],[40.050293,39.324815],[40.050547,39.32446],[40.05075,39.32414],[40.050756,39.32413],[40.050769,39.324111],[40.050996,39.323712],[40.051199,39.323316],[40.051585,39.322513],[40.051787,39.322113],[40.052003,39.321724],[40.052236,39.321342],[40.052486,39.320967],[40.052755,39.320601],[40.052847,39.320488],[40.052946,39.320368],[40.052993,39.32031],[40.053344,39.319916],[40.053669,39.319593],[40.054016,39.319288],[40.054421,39.318981],[40.054454,39.318959],[40.054783,39.318739],[40.055199,39.318495],[40.055635,39.318274],[40.056074,39.318084],[40.056528,39.317914],[40.056994,39.317759],[40.057469,39.317617],[40.058006,39.317473],[40.059097,39.317213],[40.060754,39.316857],[40.062417,39.316518],[40.064085,39.3162],[40.065203,39.316015],[40.065748,39.31594],[40.066843,39.315811],[40.067942,39.315702],[40.069041,39.31561],[40.069589,39.315571],[40.070683,39.315514],[40.071226,39.315501],[40.071767,39.315504],[40.072302,39.315527],[40.072832,39.315577],[40.073326,39.315652],[40.074795,39.315944],[40.07506,39.315987],[40.075182,39.316007],[40.075815,39.316088],[40.076329,39.316126],[40.076842,39.316133],[40.07701,39.316123],[40.077113,39.316118],[40.07722,39.316112],[40.077807,39.316048],[40.078283,39.315963],[40.078752,39.315851],[40.079255,39.315698],[40.079749,39.31552],[40.080237,39.315325],[40.080721,39.315116],[40.08168,39.314676],[40.083104,39.313986],[40.084041,39.313513],[40.084953,39.313024],[40.085391,39.31277],[40.085798,39.312515],[40.086182,39.312248],[40.086537,39.311964],[40.086884,39.31162],[40.086916,39.311581],[40.087103,39.311351],[40.087313,39.311023],[40.087526,39.310563],[40.088529,39.310264],[40.096228,39.308803],[40.11431,39.303719],[40.115513,39.303284],[40.115932,39.303134],[40.116923,39.302747],[40.12958,39.298038],[40.143772,39.290253],[40.152188,39.279135],[40.166478,39.272776],[40.16977,39.272781],[40.171783,39.271565],[40.175164,39.268867],[40.178641,39.266197],[40.179056,39.266288],[40.18168,39.264974],[40.185678,39.262213],[40.187772,39.259358],[40.190151,39.25498],[40.191864,39.249745],[40.194339,39.245081],[40.196909,39.242702],[40.201097,39.240989],[40.207283,39.238704],[40.210139,39.237372],[40.213565,39.235183],[40.215183,39.234421],[40.218229,39.234041],[40.221655,39.233945],[40.228032,39.234231],[40.231554,39.234041],[40.239644,39.232803],[40.243546,39.231947],[40.244403,39.23128],[40.246211,39.22852],[40.247258,39.225855],[40.247544,39.22319],[40.247639,39.220335],[40.247258,39.216052],[40.246687,39.213672],[40.24545,39.210341],[40.244403,39.206439],[40.244593,39.203108],[40.246402,39.195684],[40.248305,39.191115],[40.250304,39.187974],[40.252874,39.184928],[40.255824,39.181026],[40.258299,39.178266],[40.260869,39.173222],[40.262201,39.1697],[40.263078,39.166345],[40.257366,39.166555],[40.250703,39.167602],[40.245394,39.16855],[40.245373,39.168554],[40.242708,39.169125],[40.24205,39.169526],[40.240519,39.170457],[40.239187,39.170933],[40.236331,39.17179],[40.234332,39.17217],[40.233095,39.17217],[40.231382,39.17217],[40.228241,39.172266],[40.226468,39.172361],[40.206151,39.177338],[40.205748,39.177062],[40.205327,39.176802],[40.204889,39.17656],[40.204418,39.176334],[40.203843,39.176099],[40.203758,39.176068],[40.203424,39.175947],[40.202933,39.175794],[40.202431,39.175657],[40.201923,39.175532],[40.201409,39.175417],[40.200853,39.175302],[40.199733,39.17509],[40.194112,39.174098],[40.189067,39.173198],[40.187944,39.173005],[40.186819,39.172823],[40.186255,39.17274],[40.185132,39.172594],[40.183441,39.172403],[40.182738,39.17233],[40.174402,39.171473],[40.171579,39.171173],[40.169902,39.170978],[40.167704,39.170694],[40.161665,39.169884],[40.160021,39.169654],[40.158928,39.169489],[40.157842,39.169305],[40.156734,39.169085],[40.155566,39.168829],[40.146228,39.164816],[40.141127,39.162614],[40.119085,39.158749],[40.108457,39.152373],[40.107412,39.151746],[40.101374,39.147121],[40.09667,39.143517],[40.08652,39.136447],[40.077942,39.134602],[40.066393,39.131783],[40.051244,39.125716],[40.026747,39.109376],[40.004838,39.100826],[39.98205,39.1014],[39.96432,39.101757],[39.952973,39.099074],[39.937633,39.107266]]]}},{"type":"Feature","properties":{"id":"TR-D-12-008","parent_id":"TR-P-12","region_id":"TR-R-DOA","level":"district","municipality_type":null,"municipality_type_label":null,"is_metropolitan_municipality":null,"name":"Yedisu","name_ascii":"yedisu","slug":"yedisu-bingol"},"geometry":{"type":"Polygon","coordinates":[[[40.679951,39.340783],[40.678428,39.340403],[40.676143,39.339451],[40.673193,39.33888],[40.668719,39.339832],[40.662247,39.340879],[40.659202,39.341355],[40.655014,39.341259],[40.650636,39.340974],[40.646162,39.34145],[40.643021,39.342116],[40.6395,39.342402],[40.635502,39.342877],[40.632361,39.343448],[40.628554,39.345447],[40.625508,39.347446],[40.62075,39.350206],[40.617894,39.351634],[40.614944,39.352395],[40.612469,39.352395],[40.609899,39.352395],[40.605807,39.3523],[40.600096,39.351348],[40.595622,39.351158],[40.588389,39.35211],[40.580679,39.354394],[40.573731,39.355631],[40.569353,39.356202],[40.564689,39.356583],[40.560216,39.357059],[40.556123,39.357535],[40.551745,39.359248],[40.546891,39.360676],[40.542513,39.362199],[40.537944,39.363626],[40.535184,39.363912],[40.533281,39.363912],[40.531091,39.364768],[40.528236,39.366862],[40.526428,39.368005],[40.523858,39.371907],[40.52224,39.375333],[40.519765,39.379045],[40.517386,39.38171],[40.51453,39.384185],[40.511485,39.385898],[40.509581,39.386469],[40.505298,39.387992],[40.503585,39.389039],[40.502157,39.391323],[40.50073,39.393512],[40.498921,39.394464],[40.496256,39.39494],[40.493401,39.39513],[40.490355,39.395226],[40.487405,39.39513],[40.485501,39.39513],[40.48236,39.394083],[40.480171,39.393703],[40.478172,39.393608],[40.475031,39.394369],[40.472937,39.395035],[40.471319,39.395035],[40.46894,39.39494],[40.464942,39.395226],[40.463538,39.395481],[40.461802,39.395797],[40.459708,39.3977],[40.458756,39.400746],[40.457519,39.403792],[40.455044,39.405981],[40.452855,39.407504],[40.448952,39.408931],[40.445907,39.409693],[40.441909,39.410644],[40.438959,39.411406],[40.435532,39.412262],[40.431725,39.412834],[40.428204,39.413309],[40.425253,39.414452],[40.423349,39.415499],[40.421256,39.417021],[40.418781,39.417973],[40.416306,39.41902],[40.412785,39.420353],[40.408978,39.421304],[40.405551,39.4214],[40.400316,39.4214],[40.395843,39.420924],[40.392321,39.420353],[40.390227,39.419496],[40.388704,39.418544],[40.387372,39.417402],[40.382518,39.414642],[40.380138,39.413881],[40.378711,39.413881],[40.374618,39.413881],[40.371477,39.413881],[40.368431,39.413881],[40.363387,39.414547],[40.358247,39.414356],[40.351014,39.413881],[40.34616,39.41369],[40.341591,39.412738],[40.339117,39.412358],[40.336166,39.41093],[40.33312,39.409407],[40.331122,39.408741],[40.329408,39.408741],[40.327029,39.409122],[40.325316,39.409883],[40.323793,39.410073],[40.32246,39.410073],[40.320842,39.409693],[40.319319,39.409597],[40.317581,39.409545],[40.317,39.411942],[40.313764,39.41651],[40.310528,39.419937],[40.307768,39.423268],[40.305094,39.425769],[40.304626,39.426471],[40.302342,39.429326],[40.299962,39.431991],[40.298344,39.435227],[40.296916,39.438463],[40.295774,39.441794],[40.294727,39.444459],[40.29349,39.445792],[40.291586,39.44741],[40.287779,39.450265],[40.283116,39.453216],[40.280355,39.455405],[40.277976,39.458165],[40.275406,39.464637],[40.274074,39.467683],[40.273883,39.470348],[40.273407,39.473298],[40.273217,39.476915],[40.273312,39.478819],[40.274454,39.481103],[40.275882,39.482055],[40.28026,39.485386],[40.282164,39.487385],[40.284448,39.489764],[40.285685,39.491763],[40.286352,39.493381],[40.286923,39.494523],[40.28816,39.497093],[40.288921,39.497664],[40.290159,39.498521],[40.294156,39.500424],[40.297107,39.501566],[40.299391,39.502518],[40.302627,39.503851],[40.305958,39.505278],[40.311574,39.506706],[40.316618,39.508134],[40.319664,39.509086],[40.323947,39.511275],[40.330324,39.513178],[40.332132,39.513559],[40.335273,39.513559],[40.339176,39.513369],[40.342792,39.513654],[40.345933,39.513654],[40.350407,39.513464],[40.353643,39.513178],[40.356213,39.512988],[40.36002,39.512893],[40.364779,39.513083],[40.368776,39.513083],[40.371346,39.513083],[40.37325,39.513273],[40.376771,39.512798],[40.379151,39.512512],[40.382387,39.511941],[40.386099,39.511846],[40.390762,39.511751],[40.395712,39.512226],[40.401613,39.514416],[40.406752,39.516414],[40.410274,39.518699],[40.411987,39.520126],[40.414652,39.523553],[40.416746,39.525647],[40.41903,39.527836],[40.421825,39.529747],[40.42228,39.529102],[40.42642,39.525247],[40.430489,39.521892],[40.438341,39.517895],[40.442268,39.515896],[40.445908,39.513969],[40.449263,39.51354],[40.453618,39.513969],[40.458543,39.514897],[40.464182,39.515325],[40.472963,39.515753],[40.479244,39.516039],[40.482028,39.516182],[40.488524,39.51611],[40.495734,39.515396],[40.504015,39.514825],[40.510011,39.515396],[40.513937,39.517324],[40.516864,39.520607],[40.518648,39.522535],[40.527357,39.526818],[40.533353,39.529959],[40.539921,39.531672],[40.544061,39.532528],[40.546916,39.532885],[40.549843,39.532885],[40.557767,39.5326],[40.570687,39.531315],[40.580609,39.529959],[40.588961,39.52746],[40.594886,39.52589],[40.607593,39.522892],[40.610869,39.522228],[40.607362,39.517487],[40.602788,39.508762],[40.601517,39.502916],[40.598721,39.493005],[40.597874,39.488938],[40.597451,39.486566],[40.597281,39.480552],[40.59762,39.474876],[40.598298,39.471741],[40.598637,39.469962],[40.598467,39.466489],[40.597196,39.462846],[40.59601,39.459542],[40.594147,39.456747],[40.589487,39.452596],[40.586861,39.448953],[40.585845,39.445818],[40.585675,39.444971],[40.587031,39.441921],[40.588979,39.439295],[40.592707,39.436246],[40.598213,39.435144],[40.603804,39.433704],[40.610243,39.431078],[40.617443,39.427266],[40.621086,39.423708],[40.623289,39.421929],[40.625152,39.418371],[40.626847,39.415744],[40.628626,39.41405],[40.630828,39.413457],[40.635657,39.412949],[40.641841,39.413711],[40.650567,39.415999],[40.655819,39.41693],[40.657937,39.416846],[40.662088,39.416422],[40.665053,39.415406],[40.670645,39.414728],[40.679879,39.413627],[40.686063,39.413627],[40.689282,39.413542],[40.693602,39.412271],[40.698601,39.410746],[40.704022,39.409814],[40.711731,39.408628],[40.707744,39.406265],[40.704501,39.403811],[40.701171,39.400832],[40.700032,39.399342],[40.69749,39.396274],[40.694686,39.393645],[40.691005,39.390402],[40.686623,39.387335],[40.682591,39.385845],[40.679436,39.384706],[40.677771,39.383479],[40.67672,39.381025],[40.676106,39.376993],[40.675668,39.373838],[40.675755,39.370596],[40.675755,39.368142],[40.674879,39.361481],[40.67523,39.357625],[40.675668,39.35447],[40.676281,39.351578],[40.677508,39.345706],[40.679951,39.340783]]]}}]}