{"type":"FeatureCollection","province":"Bitlis","province_id":"TR-P-13","features":[{"type":"Feature","properties":{"id":"TR-D-13-001","parent_id":"TR-P-13","region_id":"TR-R-DOA","level":"district","municipality_type":null,"municipality_type_label":null,"is_metropolitan_municipality":null,"name":"Adilcevaz","name_ascii":"adilcevaz","slug":"adilcevaz-bitlis"},"geometry":{"type":"Polygon","coordinates":[[[42.911103,38.647248],[42.846986,38.622512],[42.786026,38.593825],[42.738518,38.628942],[42.689831,38.680492],[42.645727,38.733189],[42.631407,38.764119],[42.624591,38.780154],[42.62352,38.783365],[42.622373,38.790552],[42.620539,38.79858],[42.619162,38.801791],[42.617633,38.803779],[42.615263,38.806685],[42.613275,38.810125],[42.612434,38.813489],[42.611669,38.81823],[42.610981,38.822664],[42.613657,38.828322],[42.615875,38.832069],[42.616716,38.836656],[42.616639,38.840249],[42.615875,38.841855],[42.61251,38.846901],[42.607541,38.851718],[42.605018,38.854853],[42.602495,38.856153],[42.598213,38.859899],[42.596149,38.863645],[42.594161,38.868233],[42.592479,38.873661],[42.590261,38.882072],[42.588462,38.887931],[42.592414,38.891806],[42.594351,38.894518],[42.596444,38.898005],[42.597684,38.901493],[42.598458,38.904902],[42.597839,38.909165],[42.596676,38.917611],[42.596366,38.920246],[42.596986,38.923191],[42.599156,38.925593],[42.603728,38.930398],[42.609618,38.933033],[42.615585,38.934505],[42.624264,38.93466],[42.633021,38.934738],[42.640925,38.935048],[42.651542,38.934815],[42.661539,38.93528],[42.669443,38.936443],[42.673008,38.937993],[42.680293,38.93993],[42.686802,38.941712],[42.694939,38.94427],[42.701759,38.947602],[42.711368,38.952561],[42.713925,38.954499],[42.714452,38.954903],[42.717258,38.957056],[42.722605,38.961008],[42.727409,38.962636],[42.733764,38.965581],[42.742753,38.967518],[42.750813,38.969145],[42.76112,38.970928],[42.773751,38.974105],[42.787158,38.977825],[42.794597,38.979452],[42.802579,38.980692],[42.808934,38.980537],[42.815133,38.979065],[42.820713,38.976352],[42.8242,38.972943],[42.830477,38.967208],[42.836212,38.962326],[42.839002,38.961008],[42.842101,38.959458],[42.857368,38.956591],[42.874649,38.956126],[42.886583,38.955739],[42.894875,38.955119],[42.8972,38.954499],[42.903399,38.951167],[42.909986,38.947369],[42.913861,38.94458],[42.916806,38.943262],[42.921766,38.942177],[42.929438,38.94179],[42.93277,38.942255],[42.93649,38.943882],[42.939357,38.945277],[42.941682,38.947137],[42.942999,38.952406],[42.944084,38.957754],[42.945092,38.963488],[42.946409,38.968603],[42.948346,38.973175],[42.952376,38.980692],[42.953383,38.982397],[42.954778,38.985729],[42.955011,38.988519],[42.956251,38.993479],[42.956483,38.997818],[42.955476,39.003708],[42.954933,39.008435],[42.954778,39.01324],[42.955553,39.019052],[42.956948,39.022384],[42.958808,39.024321],[42.963303,39.025949],[42.96772,39.025794],[42.974462,39.025251],[42.986086,39.024011],[42.999803,39.022694],[43.008095,39.021997],[43.010113,39.022841],[43.018628,39.01702],[43.022441,39.014584],[43.027419,39.011513],[43.031125,39.007594],[43.037056,39.001875],[43.041293,38.996579],[43.046059,38.989801],[43.049342,38.98207],[43.052201,38.975716],[43.054425,38.968937],[43.059085,38.959512],[43.061521,38.951568],[43.06258,38.944579],[43.063159,38.938626],[43.063322,38.936953],[43.066605,38.930069],[43.069147,38.925409],[43.074018,38.92022],[43.080967,38.916557],[43.090828,38.913867],[43.107861,38.913867],[43.126687,38.913867],[43.149099,38.91835],[43.171511,38.920143],[43.19213,38.919246],[43.217231,38.914764],[43.230678,38.908488],[43.242332,38.896834],[43.245918,38.88518],[43.243229,38.864561],[43.234264,38.843942],[43.20737,38.815255],[43.167028,38.783878],[43.123997,38.751605],[43.063933,38.713057],[43.007455,38.684369],[42.911103,38.647248]]]}},{"type":"Feature","properties":{"id":"TR-D-13-002","parent_id":"TR-P-13","region_id":"TR-R-DOA","level":"district","municipality_type":null,"municipality_type_label":null,"is_metropolitan_municipality":null,"name":"Ahlat","name_ascii":"ahlat","slug":"ahlat-bitlis"},"geometry":{"type":"Polygon","coordinates":[[[42.645727,38.733189],[42.445589,38.676868],[42.436618,38.67248],[42.416043,38.663606],[42.395174,38.65717],[42.373624,38.648491],[42.338713,38.635132],[42.316773,38.62733],[42.301658,38.62265],[42.293369,38.62226],[42.274841,38.62187],[42.240516,38.62538],[42.220623,38.627818],[42.213992,38.634546],[42.205606,38.643713],[42.199658,38.650636],[42.189126,38.661851],[42.177814,38.674917],[42.166113,38.686619],[42.13468,38.721659],[42.118123,38.747976],[42.118225,38.748828],[42.116675,38.751231],[42.114428,38.754175],[42.109933,38.757043],[42.103423,38.76022],[42.098386,38.761692],[42.092574,38.763862],[42.08715,38.765955],[42.084282,38.768744],[42.081957,38.772464],[42.081647,38.776571],[42.081957,38.777889],[42.083895,38.780989],[42.087537,38.783623],[42.091024,38.785638],[42.096139,38.787886],[42.098929,38.789745],[42.100944,38.791993],[42.104121,38.79641],[42.107531,38.800982],[42.11094,38.803849],[42.116288,38.806639],[42.11869,38.807492],[42.124889,38.808112],[42.135971,38.809739],[42.142636,38.810901],[42.159297,38.814466],[42.165032,38.816094],[42.167589,38.817644],[42.168751,38.819271],[42.169991,38.821673],[42.170301,38.82578],[42.169836,38.829035],[42.168751,38.834847],[42.166814,38.838722],[42.164877,38.842054],[42.164412,38.843682],[42.164561,38.844653],[42.164722,38.845697],[42.166039,38.849029],[42.169294,38.853368],[42.173014,38.857398],[42.178593,38.861738],[42.185103,38.866078],[42.19045,38.870572],[42.193395,38.874215],[42.195952,38.878554],[42.197192,38.881499],[42.200447,38.888164],[42.203469,38.893743],[42.206569,38.8963],[42.211838,38.897773],[42.217728,38.898393],[42.222843,38.897308],[42.234157,38.896145],[42.238496,38.895758],[42.246091,38.895138],[42.25663,38.89599],[42.270657,38.89661],[42.278096,38.898315],[42.284373,38.90064],[42.286621,38.901183],[42.290263,38.90219],[42.295067,38.903585],[42.301189,38.906065],[42.308319,38.909242],[42.313434,38.911799],[42.32312,38.914977],[42.338232,38.921254],[42.343269,38.923734],[42.351871,38.926446],[42.360008,38.928771],[42.378607,38.936365],[42.392711,38.941402],[42.396973,38.944037],[42.405342,38.951244],[42.413944,38.954499],[42.425026,38.956746],[42.430993,38.956281],[42.438975,38.954576],[42.449514,38.951244],[42.455326,38.950159],[42.464481,38.946817],[42.46509,38.946594],[42.474545,38.944037],[42.488261,38.941325],[42.500583,38.9421],[42.513292,38.943107],[42.523134,38.943805],[42.529798,38.943572],[42.535068,38.942875],[42.542507,38.941015],[42.545917,38.93807],[42.550334,38.933188],[42.553279,38.929546],[42.555217,38.925826],[42.557076,38.922571],[42.561339,38.90839],[42.564981,38.899168],[42.568701,38.890333],[42.571568,38.888241],[42.57707,38.885219],[42.578697,38.885141],[42.584897,38.886691],[42.588462,38.887931],[42.590261,38.882072],[42.592479,38.873661],[42.594161,38.868233],[42.596149,38.863645],[42.598213,38.859899],[42.602495,38.856153],[42.605018,38.854853],[42.607541,38.851718],[42.61251,38.846901],[42.615875,38.841855],[42.616639,38.840249],[42.616716,38.836656],[42.615875,38.832069],[42.613657,38.828322],[42.610981,38.822664],[42.611669,38.81823],[42.612434,38.813489],[42.613275,38.810125],[42.615263,38.806685],[42.617633,38.803779],[42.619162,38.801791],[42.620539,38.79858],[42.622373,38.790552],[42.62352,38.783365],[42.624591,38.780154],[42.631407,38.764119],[42.645727,38.733189]]]}},{"type":"Feature","properties":{"id":"TR-D-13-003","parent_id":"TR-P-13","region_id":"TR-R-DOA","level":"district","municipality_type":null,"municipality_type_label":null,"is_metropolitan_municipality":null,"name":"Bitlis","name_ascii":"bitlis","slug":"bitlis-bitlis"},"geometry":{"type":"Polygon","coordinates":[[[42.240323,38.206316],[42.239962,38.207879],[42.237313,38.213542],[42.234116,38.21948],[42.232015,38.223134],[42.230919,38.224778],[42.228361,38.227336],[42.223428,38.230259],[42.216851,38.233182],[42.208447,38.235557],[42.202783,38.236653],[42.197211,38.237201],[42.191365,38.237201],[42.183783,38.237658],[42.177754,38.238206],[42.170081,38.238297],[42.161951,38.238115],[42.155008,38.237932],[42.147883,38.236745],[42.139753,38.235648],[42.134364,38.234552],[42.127604,38.232999],[42.123219,38.231172],[42.119565,38.229711],[42.116094,38.228158],[42.113536,38.226696],[42.110704,38.224961],[42.109517,38.22359],[42.108786,38.221398],[42.107964,38.21811],[42.10705,38.215186],[42.105498,38.212629],[42.102209,38.208153],[42.100199,38.203859],[42.093988,38.19646],[42.092526,38.194633],[42.087411,38.190614],[42.084853,38.187965],[42.082295,38.185864],[42.078002,38.184493],[42.074531,38.184219],[42.070968,38.183123],[42.068228,38.182118],[42.065852,38.181114],[42.064025,38.180748],[42.061376,38.181205],[42.058088,38.181936],[42.053977,38.182758],[42.048953,38.18358],[42.044203,38.183489],[42.039361,38.183489],[42.033789,38.183854],[42.029405,38.183032],[42.022553,38.180748],[42.019996,38.179561],[42.015885,38.178282],[42.012596,38.177186],[42.008029,38.175267],[42.00401,38.173532],[42.000813,38.171979],[41.996062,38.169238],[41.993231,38.167594],[41.990856,38.16595],[41.986471,38.162753],[41.981721,38.15919],[41.978067,38.156632],[41.974778,38.154805],[41.972312,38.154531],[41.968749,38.154623],[41.964365,38.155262],[41.960437,38.155719],[41.956509,38.15782],[41.953586,38.160195],[41.950388,38.163483],[41.949387,38.16493],[41.948744,38.165858],[41.947009,38.170609],[41.946095,38.174811],[41.94509,38.178739],[41.943903,38.180657],[41.942076,38.182484],[41.939518,38.184859],[41.936869,38.186777],[41.934128,38.188513],[41.93221,38.1897],[41.929287,38.190705],[41.92609,38.190522],[41.923715,38.189792],[41.92134,38.189883],[41.916864,38.189609],[41.912844,38.189152],[41.90983,38.188147],[41.907637,38.186412],[41.904258,38.184402],[41.900238,38.184402],[41.895671,38.185498],[41.890373,38.187051],[41.884435,38.190522],[41.879959,38.193354],[41.876762,38.194907],[41.872834,38.195455],[41.869363,38.195821],[41.864887,38.195364],[41.86105,38.195273],[41.856848,38.194998],[41.853377,38.19509],[41.850271,38.195729],[41.846434,38.196917],[41.84205,38.198561],[41.837848,38.200114],[41.83465,38.202032],[41.830814,38.203951],[41.827251,38.205138],[41.82515,38.20596],[41.822227,38.207787],[41.8204,38.210528],[41.818847,38.213268],[41.818116,38.216374],[41.816563,38.220485],[41.814736,38.223864],[41.812818,38.225965],[41.810534,38.226696],[41.807155,38.227062],[41.802782,38.227257],[41.801903,38.232816],[41.800081,38.238631],[41.79982,38.240627],[41.79982,38.24566],[41.800081,38.248958],[41.800775,38.253992],[41.80199,38.258245],[41.803031,38.261803],[41.805114,38.263626],[41.807978,38.265361],[41.810582,38.266663],[41.812578,38.269007],[41.814401,38.271523],[41.817178,38.27595],[41.818566,38.280289],[41.819087,38.282372],[41.820736,38.285844],[41.823166,38.289228],[41.828113,38.294175],[41.831672,38.297734],[41.835837,38.302854],[41.839482,38.304763],[41.845124,38.307888],[41.853022,38.309016],[41.869164,38.310491],[41.87602,38.310839],[41.883831,38.311099],[41.890775,38.311359],[41.894767,38.31214],[41.897284,38.312314],[41.89928,38.312314],[41.900582,38.31188],[41.903272,38.311012],[41.904921,38.309971],[41.907959,38.307367],[41.910302,38.306326],[41.915249,38.305458],[41.91872,38.305892],[41.925663,38.30728],[41.928614,38.309016],[41.93712,38.315872],[41.940765,38.31891],[41.943889,38.320299],[41.950051,38.32351],[41.955345,38.326113],[41.960552,38.329932],[41.966107,38.334272],[41.975393,38.340173],[41.982163,38.345728],[41.987891,38.352063],[41.990928,38.357878],[41.992577,38.365863],[41.993011,38.372719],[41.992404,38.378013],[41.992404,38.380096],[41.992751,38.385043],[41.993011,38.390163],[41.993011,38.392159],[41.992664,38.396065],[41.991883,38.398582],[41.991015,38.402574],[41.989106,38.406393],[41.987283,38.409604],[41.985548,38.411513],[41.980601,38.415332],[41.976956,38.417936],[41.971141,38.42106],[41.965499,38.424011],[41.960986,38.42566],[41.957255,38.427135],[41.952394,38.429392],[41.947361,38.431995],[41.944931,38.434512],[41.943629,38.436682],[41.942761,38.43972],[41.942414,38.442497],[41.943108,38.445014],[41.943368,38.447617],[41.943108,38.452217],[41.942848,38.456904],[41.942674,38.461156],[41.942761,38.465669],[41.942327,38.466798],[41.945933,38.470945],[41.949111,38.473924],[41.955367,38.47601],[41.964206,38.476903],[41.972846,38.476804],[41.983969,38.475513],[41.988935,38.475116],[41.992709,38.475414],[42.000058,38.476307],[42.00403,38.476903],[42.011677,38.478691],[42.015153,38.479883],[42.017239,38.480081],[42.025084,38.480479],[42.03005,38.480479],[42.040775,38.481273],[42.045145,38.481472],[42.050508,38.48028],[42.056367,38.477896],[42.062127,38.475712],[42.066894,38.474321],[42.070966,38.472136],[42.074839,38.471044],[42.078017,38.470945],[42.083082,38.471739],[42.089438,38.47303],[42.102547,38.476804],[42.116749,38.480975],[42.130851,38.487629],[42.137306,38.491006],[42.147337,38.497064],[42.1526,38.50044],[42.159155,38.505604],[42.164021,38.510073],[42.167298,38.514443],[42.169503,38.519221],[42.179191,38.515418],[42.183623,38.513202],[42.187118,38.510304],[42.192999,38.503742],[42.198794,38.495389],[42.203908,38.485246],[42.205783,38.475701],[42.206124,38.467263],[42.206465,38.461211],[42.20834,38.454393],[42.210045,38.448853],[42.212602,38.443568],[42.214477,38.436324],[42.215329,38.430102],[42.215585,38.426778],[42.216608,38.421749],[42.217119,38.418511],[42.218994,38.415783],[42.226154,38.408112],[42.231779,38.402913],[42.2432,38.398481],[42.256752,38.394731],[42.264337,38.392174],[42.281213,38.386975],[42.284878,38.386123],[42.29306,38.385867],[42.301498,38.384248],[42.307379,38.381776],[42.310618,38.380071],[42.316158,38.374105],[42.318374,38.369673],[42.320078,38.364559],[42.321612,38.35757],[42.324595,38.348792],[42.330306,38.334047],[42.333289,38.326376],[42.335164,38.323393],[42.338914,38.320154],[42.34275,38.317767],[42.349142,38.314614],[42.35579,38.311801],[42.364995,38.30754],[42.360478,38.303193],[42.354341,38.296034],[42.352296,38.291602],[42.351017,38.286829],[42.348716,38.277368],[42.346841,38.270123],[42.345903,38.261685],[42.345733,38.257424],[42.345307,38.252225],[42.345307,38.250605],[42.345477,38.247196],[42.345903,38.242423],[42.346329,38.23748],[42.345818,38.235349],[42.343943,38.228871],[42.341642,38.225888],[42.338232,38.223331],[42.333374,38.220945],[42.325703,38.219496],[42.318118,38.218644],[42.30968,38.218047],[42.303032,38.217877],[42.29664,38.21728],[42.292975,38.216513],[42.28931,38.215149],[42.284366,38.213189],[42.278059,38.210803],[42.273457,38.209695],[42.26715,38.209268],[42.264081,38.209183],[42.256325,38.209695],[42.250104,38.209524],[42.246012,38.208587],[42.242774,38.207649],[42.240323,38.206316]]]}},{"type":"Feature","properties":{"id":"TR-D-13-004","parent_id":"TR-P-13","region_id":"TR-R-DOA","level":"district","municipality_type":null,"municipality_type_label":null,"is_metropolitan_municipality":null,"name":"Güroymak","name_ascii":"guroymak","slug":"guroymak-bitlis"},"geometry":{"type":"Polygon","coordinates":[[[42.220623,38.627818],[42.217947,38.619515],[42.215464,38.611768],[42.212981,38.607101],[42.2103,38.603923],[42.206824,38.600447],[42.204341,38.596176],[42.200567,38.587338],[42.19441,38.576115],[42.189246,38.56539],[42.184181,38.552479],[42.180705,38.544236],[42.175839,38.535001],[42.169682,38.519607],[42.169503,38.519221],[42.167298,38.514443],[42.164021,38.510073],[42.159155,38.505604],[42.1526,38.50044],[42.147337,38.497064],[42.137306,38.491006],[42.130851,38.487629],[42.116749,38.480975],[42.102547,38.476804],[42.089438,38.47303],[42.083082,38.471739],[42.078017,38.470945],[42.074839,38.471044],[42.070966,38.472136],[42.066894,38.474321],[42.062127,38.475712],[42.056367,38.477896],[42.050508,38.48028],[42.045145,38.481472],[42.040775,38.481273],[42.03005,38.480479],[42.025084,38.480479],[42.017239,38.480081],[42.015153,38.479883],[42.011677,38.478691],[42.00403,38.476903],[42.000058,38.476307],[41.992709,38.475414],[41.988935,38.475116],[41.983969,38.475513],[41.972846,38.476804],[41.964206,38.476903],[41.955367,38.47601],[41.949111,38.473924],[41.945933,38.470945],[41.942327,38.466798],[41.940765,38.468967],[41.935905,38.473133],[41.931044,38.476431],[41.926531,38.48051],[41.918894,38.487453],[41.912298,38.492661],[41.908913,38.495959],[41.902838,38.501687],[41.902491,38.503943],[41.902491,38.507935],[41.902317,38.513837],[41.904227,38.517742],[41.908132,38.528157],[41.910562,38.531108],[41.916117,38.533538],[41.92306,38.534666],[41.928961,38.534753],[41.933388,38.535274],[41.936338,38.536576],[41.939463,38.538398],[41.944931,38.543605],[41.947187,38.546383],[41.951006,38.552284],[41.953696,38.560356],[41.954651,38.563827],[41.954043,38.569642],[41.952828,38.572332],[41.951006,38.574676],[41.946753,38.579102],[41.940452,38.586477],[41.942002,38.5895],[41.942545,38.593762],[41.942855,38.599574],[41.9427,38.603991],[41.941305,38.609338],[41.940452,38.61391],[41.940297,38.616468],[41.940917,38.62042],[41.941072,38.621737],[41.944405,38.624217],[41.950372,38.629564],[41.966181,38.638631],[41.979975,38.645683],[42.002913,38.655525],[42.013452,38.66064],[42.01601,38.664437],[42.017637,38.669396],[42.018644,38.671954],[42.020969,38.679083],[42.022752,38.684663],[42.027169,38.690088],[42.030501,38.692025],[42.039103,38.695512],[42.057857,38.704269],[42.062274,38.707136],[42.08157,38.723178],[42.097999,38.734337],[42.107841,38.738444],[42.112335,38.741544],[42.116288,38.744799],[42.117992,38.746891],[42.118123,38.747976],[42.13468,38.721659],[42.166113,38.686619],[42.177814,38.674917],[42.189126,38.661851],[42.199658,38.650636],[42.205606,38.643713],[42.213992,38.634546],[42.220623,38.627818]]]}},{"type":"Feature","properties":{"id":"TR-D-13-005","parent_id":"TR-P-13","region_id":"TR-R-DOA","level":"district","municipality_type":null,"municipality_type_label":null,"is_metropolitan_municipality":null,"name":"Hizan","name_ascii":"hizan","slug":"hizan-bitlis"},"geometry":{"type":"Polygon","coordinates":[[[42.364995,38.30754],[42.372009,38.313563],[42.374169,38.315425],[42.377671,38.319151],[42.381321,38.320492],[42.388622,38.320864],[42.396371,38.321311],[42.408216,38.322578],[42.422223,38.323844],[42.427736,38.323546],[42.436601,38.322876],[42.441593,38.322801],[42.445542,38.323248],[42.453886,38.323546],[42.458654,38.323323],[42.463347,38.323248],[42.467221,38.322131],[42.473331,38.318704],[42.476907,38.315649],[42.4816,38.31103],[42.48987,38.302239],[42.49136,38.3006],[42.495309,38.297992],[42.499332,38.296204],[42.502684,38.294789],[42.503802,38.293746],[42.504994,38.29151],[42.506037,38.288009],[42.507676,38.281974],[42.507825,38.278324],[42.509538,38.271619],[42.512146,38.265137],[42.514455,38.260965],[42.516914,38.256644],[42.519969,38.253738],[42.524513,38.250088],[42.528685,38.24748],[42.536955,38.246661],[42.544629,38.247629],[42.552079,38.249715],[42.556921,38.251503],[42.565638,38.255526],[42.570332,38.259251],[42.580464,38.27065],[42.584859,38.278696],[42.588957,38.283464],[42.594619,38.287636],[42.599536,38.290244],[42.605049,38.292554],[42.609743,38.294267],[42.611307,38.294416],[42.616374,38.293895],[42.620024,38.293895],[42.622557,38.294416],[42.626357,38.296055],[42.630082,38.29829],[42.632987,38.298961],[42.638575,38.298588],[42.644759,38.297992],[42.650048,38.296651],[42.657498,38.293969],[42.666141,38.291063],[42.675052,38.287723],[42.675052,38.284762],[42.676667,38.281441],[42.678013,38.278569],[42.679898,38.276325],[42.682591,38.273094],[42.683847,38.269953],[42.685552,38.26385],[42.68654,38.259811],[42.687706,38.257747],[42.690848,38.255593],[42.694438,38.255503],[42.697848,38.256042],[42.700899,38.256221],[42.703412,38.255503],[42.704489,38.254516],[42.705656,38.252362],[42.70799,38.248324],[42.710772,38.244285],[42.712926,38.241951],[42.716426,38.23881],[42.718849,38.236207],[42.720554,38.233605],[42.722978,38.23163],[42.726747,38.229117],[42.731594,38.226694],[42.734196,38.225168],[42.73644,38.223553],[42.738145,38.220412],[42.739312,38.218437],[42.73985,38.216104],[42.739222,38.214039],[42.736619,38.21027],[42.735363,38.207667],[42.734017,38.203808],[42.733209,38.201475],[42.732401,38.193666],[42.731863,38.189987],[42.731235,38.188641],[42.730068,38.187833],[42.72558,38.186307],[42.719567,38.184961],[42.714362,38.184602],[42.707272,38.183704],[42.705925,38.183076],[42.70422,38.182089],[42.703502,38.181191],[42.702694,38.180473],[42.70081,38.176794],[42.699553,38.174191],[42.698566,38.169165],[42.697489,38.166832],[42.696053,38.165126],[42.692732,38.161895],[42.691027,38.159831],[42.68995,38.155972],[42.688155,38.152562],[42.686091,38.151036],[42.684296,38.149779],[42.680975,38.148523],[42.678372,38.147446],[42.674513,38.145382],[42.673077,38.144394],[42.672,38.142599],[42.671282,38.140535],[42.670475,38.136855],[42.669667,38.133714],[42.6685,38.130304],[42.667782,38.128778],[42.665359,38.123034],[42.664731,38.118457],[42.664192,38.113431],[42.664372,38.1102],[42.664461,38.108136],[42.665808,38.105713],[42.669846,38.101853],[42.675141,38.097815],[42.680975,38.095122],[42.684745,38.092968],[42.688065,38.090186],[42.68995,38.087673],[42.690578,38.086327],[42.68986,38.084711],[42.688873,38.082916],[42.688155,38.080224],[42.68645,38.076993],[42.684475,38.072326],[42.683488,38.067121],[42.683309,38.064697],[42.680526,38.059582],[42.67918,38.056171],[42.677654,38.05303],[42.677116,38.050158],[42.676667,38.046478],[42.676308,38.043427],[42.673616,38.036516],[42.672629,38.034721],[42.670475,38.033196],[42.666436,38.031131],[42.663474,38.029695],[42.660782,38.027182],[42.658717,38.024221],[42.656833,38.021169],[42.655935,38.018925],[42.654769,38.014438],[42.65432,38.01022],[42.65432,38.005732],[42.654155,37.999693],[42.652947,37.998874],[42.64975,37.996225],[42.645822,37.992662],[42.643538,37.989557],[42.640889,37.985811],[42.637326,37.982797],[42.632394,37.979051],[42.6281,37.977133],[42.62198,37.975763],[42.616499,37.97558],[42.610927,37.975763],[42.606907,37.975763],[42.601701,37.975854],[42.595763,37.974575],[42.59147,37.973753],[42.585258,37.972566],[42.579229,37.971835],[42.574113,37.970465],[42.570551,37.969186],[42.561873,37.968272],[42.555478,37.968272],[42.548445,37.968638],[42.546983,37.969186],[42.544608,37.969825],[42.543421,37.970282],[42.540315,37.971104],[42.537757,37.971104],[42.53456,37.97147],[42.52981,37.9722],[42.526338,37.973297],[42.524146,37.97421],[42.520218,37.976037],[42.515925,37.977316],[42.51355,37.977681],[42.510261,37.978321],[42.505328,37.9796],[42.50204,37.980604],[42.498477,37.982614],[42.494549,37.986359],[42.491443,37.989465],[42.488246,37.991201],[42.485049,37.99522],[42.483862,37.998326],[42.483862,38.000518],[42.485232,38.00335],[42.486602,38.008831],[42.486693,38.01212],[42.487333,38.014951],[42.48715,38.019336],[42.486145,38.022807],[42.484136,38.025365],[42.482309,38.026278],[42.480756,38.027009],[42.476006,38.029384],[42.470981,38.030846],[42.463765,38.032125],[42.458193,38.032764],[42.45125,38.033678],[42.446226,38.034957],[42.439649,38.037971],[42.43499,38.042173],[42.429509,38.04601],[42.427317,38.047563],[42.423206,38.051125],[42.418639,38.056423],[42.417086,38.058159],[42.414802,38.061082],[42.411971,38.063],[42.408682,38.064827],[42.40585,38.066289],[42.400552,38.068207],[42.396167,38.070308],[42.391965,38.072957],[42.388129,38.075424],[42.385845,38.077799],[42.382465,38.081179],[42.379725,38.084924],[42.375066,38.090131],[42.370681,38.095338],[42.36584,38.100636],[42.360724,38.104198],[42.355791,38.106665],[42.351772,38.107578],[42.349123,38.107578],[42.345378,38.107487],[42.339988,38.10767],[42.334233,38.109314],[42.327199,38.11178],[42.321079,38.11242],[42.314776,38.113699],[42.307651,38.115708],[42.302261,38.119454],[42.296415,38.123199],[42.291665,38.12667],[42.28655,38.131329],[42.282439,38.135805],[42.279698,38.14019],[42.277415,38.144118],[42.274857,38.150421],[42.272573,38.15645],[42.270198,38.161017],[42.268554,38.163301],[42.267549,38.164671],[42.265996,38.165767],[42.263895,38.166224],[42.259145,38.167137],[42.258758,38.167137],[42.258371,38.167137],[42.252864,38.168287],[42.247206,38.171511],[42.242944,38.177307],[42.240813,38.184125],[42.239961,38.187875],[42.239791,38.194779],[42.239904,38.201487],[42.24051,38.205504],[42.240323,38.206316],[42.242774,38.207649],[42.246012,38.208587],[42.250104,38.209524],[42.256325,38.209695],[42.264081,38.209183],[42.26715,38.209268],[42.273457,38.209695],[42.278059,38.210803],[42.284366,38.213189],[42.28931,38.215149],[42.292975,38.216513],[42.29664,38.21728],[42.303032,38.217877],[42.30968,38.218047],[42.318118,38.218644],[42.325703,38.219496],[42.333374,38.220945],[42.338232,38.223331],[42.341642,38.225888],[42.343943,38.228871],[42.345818,38.235349],[42.346329,38.23748],[42.345903,38.242423],[42.345477,38.247196],[42.345307,38.250605],[42.345307,38.252225],[42.345733,38.257424],[42.345903,38.261685],[42.346841,38.270123],[42.348716,38.277368],[42.351017,38.286829],[42.352296,38.291602],[42.354341,38.296034],[42.360478,38.303193],[42.364995,38.30754]]]}},{"type":"Feature","properties":{"id":"TR-D-13-006","parent_id":"TR-P-13","region_id":"TR-R-DOA","level":"district","municipality_type":null,"municipality_type_label":null,"is_metropolitan_municipality":null,"name":"Mutki","name_ascii":"mutki","slug":"mutki-bitlis"},"geometry":{"type":"Polygon","coordinates":[[[41.583978,38.593607],[41.605289,38.597094],[41.621407,38.599341],[41.634892,38.600814],[41.655893,38.603991],[41.672399,38.605928],[41.686115,38.607788],[41.692702,38.608796],[41.711379,38.609028],[41.723855,38.608873],[41.732845,38.607788],[41.755086,38.606703],[41.758883,38.606316],[41.782984,38.604456],[41.794453,38.603139],[41.812586,38.600891],[41.817081,38.600194],[41.832658,38.595544],[41.850869,38.59043],[41.8759,38.584075],[41.894963,38.581828],[41.912709,38.580975],[41.921389,38.58082],[41.927588,38.581905],[41.9334,38.583145],[41.940452,38.586477],[41.946753,38.579102],[41.951006,38.574676],[41.952828,38.572332],[41.954043,38.569642],[41.954651,38.563827],[41.953696,38.560356],[41.951006,38.552284],[41.947187,38.546383],[41.944931,38.543605],[41.939463,38.538398],[41.936338,38.536576],[41.933388,38.535274],[41.928961,38.534753],[41.92306,38.534666],[41.916117,38.533538],[41.910562,38.531108],[41.908132,38.528157],[41.904227,38.517742],[41.902317,38.513837],[41.902491,38.507935],[41.902491,38.503943],[41.902838,38.501687],[41.908913,38.495959],[41.912298,38.492661],[41.918894,38.487453],[41.926531,38.48051],[41.931044,38.476431],[41.935905,38.473133],[41.940765,38.468967],[41.942327,38.466798],[41.942761,38.465669],[41.942674,38.461156],[41.942848,38.456904],[41.943108,38.452217],[41.943368,38.447617],[41.943108,38.445014],[41.942414,38.442497],[41.942761,38.43972],[41.943629,38.436682],[41.944931,38.434512],[41.947361,38.431995],[41.952394,38.429392],[41.957255,38.427135],[41.960986,38.42566],[41.965499,38.424011],[41.971141,38.42106],[41.976956,38.417936],[41.980601,38.415332],[41.985548,38.411513],[41.987283,38.409604],[41.989106,38.406393],[41.991015,38.402574],[41.991883,38.398582],[41.992664,38.396065],[41.993011,38.392159],[41.993011,38.390163],[41.992751,38.385043],[41.992404,38.380096],[41.992404,38.378013],[41.993011,38.372719],[41.992577,38.365863],[41.990928,38.357878],[41.987891,38.352063],[41.982163,38.345728],[41.975393,38.340173],[41.966107,38.334272],[41.960552,38.329932],[41.955345,38.326113],[41.950051,38.32351],[41.943889,38.320299],[41.940765,38.31891],[41.93712,38.315872],[41.928614,38.309016],[41.925663,38.30728],[41.91872,38.305892],[41.915249,38.305458],[41.910302,38.306326],[41.907959,38.307367],[41.904921,38.309971],[41.903272,38.311012],[41.900582,38.31188],[41.89928,38.312314],[41.897284,38.312314],[41.894767,38.31214],[41.890775,38.311359],[41.883831,38.311099],[41.87602,38.310839],[41.869164,38.310491],[41.853022,38.309016],[41.845124,38.307888],[41.839482,38.304763],[41.835837,38.302854],[41.831672,38.297734],[41.828113,38.294175],[41.823166,38.289228],[41.820736,38.285844],[41.819087,38.282372],[41.818566,38.280289],[41.817178,38.27595],[41.814401,38.271523],[41.812578,38.269007],[41.810582,38.266663],[41.807978,38.265361],[41.805114,38.263626],[41.803031,38.261803],[41.80199,38.258245],[41.800775,38.253992],[41.800081,38.248958],[41.79982,38.24566],[41.79982,38.240627],[41.800081,38.238631],[41.801903,38.232816],[41.802782,38.227257],[41.801034,38.227336],[41.794183,38.227792],[41.787423,38.228249],[41.78112,38.228889],[41.774178,38.229893],[41.768423,38.231446],[41.763581,38.232177],[41.759836,38.233182],[41.753625,38.234461],[41.747687,38.235557],[41.739648,38.236196],[41.734715,38.236562],[41.729874,38.236927],[41.723983,38.237166],[41.720081,38.237357],[41.714941,38.237928],[41.710373,38.239165],[41.7059,38.24202],[41.699903,38.24459],[41.695144,38.246589],[41.690576,38.248207],[41.686673,38.250301],[41.680201,38.253537],[41.676204,38.255726],[41.671826,38.258201],[41.666972,38.259628],[41.663069,38.260675],[41.661166,38.261056],[41.661327,38.267936],[41.657282,38.276145],[41.652404,38.284592],[41.648716,38.291849],[41.645298,38.298195],[41.644294,38.302099],[41.642398,38.315707],[41.641506,38.326639],[41.639163,38.335004],[41.637602,38.342143],[41.637267,38.348613],[41.636821,38.355863],[41.637155,38.366794],[41.636726,38.377175],[41.635049,38.39128],[41.63495,38.393647],[41.635229,38.394634],[41.636035,38.397493],[41.637613,38.400156],[41.640474,38.404595],[41.641657,38.411401],[41.643137,38.42008],[41.642841,38.424716],[41.642348,38.434678],[41.642446,38.446119],[41.641953,38.455489],[41.642644,38.458251],[41.643235,38.461506],[41.643334,38.46338],[41.642545,38.467719],[41.641263,38.472454],[41.636923,38.485473],[41.632583,38.496914],[41.631301,38.499578],[41.629526,38.502734],[41.628145,38.503523],[41.62558,38.504213],[41.619564,38.504312],[41.611476,38.504904],[41.604572,38.505693],[41.592539,38.507172],[41.578829,38.511019],[41.572122,38.513583],[41.567683,38.515556],[41.558313,38.518712],[41.549535,38.523348],[41.543025,38.52897],[41.534444,38.536367],[41.524778,38.543272],[41.517085,38.549288],[41.50842,38.55517],[41.511133,38.559509],[41.515472,38.563849],[41.521982,38.568731],[41.526864,38.572606],[41.539031,38.578495],[41.54678,38.58268],[41.554995,38.586942],[41.560419,38.589422],[41.561892,38.589887],[41.583978,38.593607]]]}},{"type":"Feature","properties":{"id":"TR-D-13-007","parent_id":"TR-P-13","region_id":"TR-R-DOA","level":"district","municipality_type":null,"municipality_type_label":null,"is_metropolitan_municipality":null,"name":"Tatvan","name_ascii":"tatvan","slug":"tatvan-bitlis"},"geometry":{"type":"Polygon","coordinates":[[[42.220623,38.627818],[42.240516,38.62538],[42.274841,38.62187],[42.293369,38.62226],[42.301658,38.62265],[42.316773,38.62733],[42.338713,38.635132],[42.373624,38.648491],[42.395174,38.65717],[42.416043,38.663606],[42.436618,38.67248],[42.445589,38.676868],[42.645727,38.733189],[42.689831,38.680492],[42.738518,38.628942],[42.786026,38.593825],[42.761821,38.552587],[42.757339,38.515832],[42.759132,38.46025],[42.763365,38.440566],[42.764262,38.437335],[42.765088,38.434325],[42.765519,38.432757],[42.767044,38.42836],[42.768391,38.423693],[42.771442,38.417949],[42.773057,38.415346],[42.776288,38.412474],[42.777006,38.410679],[42.777545,38.407628],[42.777455,38.400448],[42.777635,38.395781],[42.777365,38.394524],[42.77566,38.392281],[42.772878,38.389768],[42.76866,38.384742],[42.765249,38.379177],[42.762916,38.373613],[42.761211,38.370113],[42.758339,38.363471],[42.755467,38.354496],[42.753402,38.347855],[42.7508,38.343188],[42.748915,38.341303],[42.741825,38.338521],[42.734465,38.335829],[42.726837,38.333585],[42.718221,38.330175],[42.71499,38.3282],[42.712208,38.326046],[42.708708,38.323443],[42.705028,38.322097],[42.701617,38.321559],[42.698745,38.320571],[42.694796,38.318507],[42.692732,38.316353],[42.68995,38.314917],[42.686899,38.313481],[42.682501,38.310878],[42.680526,38.308366],[42.679539,38.304596],[42.67936,38.301634],[42.678911,38.299121],[42.677834,38.29589],[42.676847,38.293108],[42.676308,38.290595],[42.675052,38.287723],[42.666141,38.291063],[42.657498,38.293969],[42.650048,38.296651],[42.644759,38.297992],[42.638575,38.298588],[42.632987,38.298961],[42.630082,38.29829],[42.626357,38.296055],[42.622557,38.294416],[42.620024,38.293895],[42.616374,38.293895],[42.611307,38.294416],[42.609743,38.294267],[42.605049,38.292554],[42.599536,38.290244],[42.594619,38.287636],[42.588957,38.283464],[42.584859,38.278696],[42.580464,38.27065],[42.570332,38.259251],[42.565638,38.255526],[42.556921,38.251503],[42.552079,38.249715],[42.544629,38.247629],[42.536955,38.246661],[42.528685,38.24748],[42.524513,38.250088],[42.519969,38.253738],[42.516914,38.256644],[42.514455,38.260965],[42.512146,38.265137],[42.509538,38.271619],[42.507825,38.278324],[42.507676,38.281974],[42.506037,38.288009],[42.504994,38.29151],[42.503802,38.293746],[42.502684,38.294789],[42.499332,38.296204],[42.495309,38.297992],[42.49136,38.3006],[42.48987,38.302239],[42.4816,38.31103],[42.476907,38.315649],[42.473331,38.318704],[42.467221,38.322131],[42.463347,38.323248],[42.458654,38.323323],[42.453886,38.323546],[42.445542,38.323248],[42.441593,38.322801],[42.436601,38.322876],[42.427736,38.323546],[42.422223,38.323844],[42.408216,38.322578],[42.396371,38.321311],[42.388622,38.320864],[42.381321,38.320492],[42.377671,38.319151],[42.374169,38.315425],[42.372009,38.313563],[42.364995,38.30754],[42.35579,38.311801],[42.349142,38.314614],[42.34275,38.317767],[42.338914,38.320154],[42.335164,38.323393],[42.333289,38.326376],[42.330306,38.334047],[42.324595,38.348792],[42.321612,38.35757],[42.320078,38.364559],[42.318374,38.369673],[42.316158,38.374105],[42.310618,38.380071],[42.307379,38.381776],[42.301498,38.384248],[42.29306,38.385867],[42.284878,38.386123],[42.281213,38.386975],[42.264337,38.392174],[42.256752,38.394731],[42.2432,38.398481],[42.231779,38.402913],[42.226154,38.408112],[42.218994,38.415783],[42.217119,38.418511],[42.216608,38.421749],[42.215585,38.426778],[42.215329,38.430102],[42.214477,38.436324],[42.212602,38.443568],[42.210045,38.448853],[42.20834,38.454393],[42.206465,38.461211],[42.206124,38.467263],[42.205783,38.475701],[42.203908,38.485246],[42.198794,38.495389],[42.192999,38.503742],[42.187118,38.510304],[42.183623,38.513202],[42.179191,38.515418],[42.169503,38.519221],[42.169682,38.519607],[42.175839,38.535001],[42.180705,38.544236],[42.184181,38.552479],[42.189246,38.56539],[42.19441,38.576115],[42.200567,38.587338],[42.204341,38.596176],[42.206824,38.600447],[42.2103,38.603923],[42.212981,38.607101],[42.215464,38.611768],[42.217947,38.619515],[42.220623,38.627818]]]}}]}