{"type":"FeatureCollection","province":"Bolu","province_id":"TR-P-14","features":[{"type":"Feature","properties":{"id":"TR-D-14-001","parent_id":"TR-P-14","region_id":"TR-R-KAR","level":"district","municipality_type":null,"municipality_type_label":null,"is_metropolitan_municipality":null,"name":"Bolu","name_ascii":"bolu","slug":"bolu-bolu"},"geometry":{"type":"Polygon","coordinates":[[[31.750281,40.988269],[31.750368,40.988056],[31.751546,40.985187],[31.75258,40.980959],[31.755023,40.976824],[31.758405,40.973536],[31.761224,40.971093],[31.766768,40.968556],[31.770432,40.965925],[31.7725,40.964046],[31.774285,40.960663],[31.7756,40.957562],[31.778607,40.955589],[31.781802,40.952582],[31.784902,40.94967],[31.787533,40.947415],[31.790164,40.945347],[31.792419,40.943938],[31.795332,40.941119],[31.797493,40.938488],[31.798715,40.935669],[31.798903,40.933602],[31.798809,40.930971],[31.798057,40.928434],[31.796741,40.926367],[31.794486,40.92383],[31.791104,40.92073],[31.788755,40.918662],[31.786688,40.915092],[31.785466,40.909924],[31.78509,40.906823],[31.785184,40.903535],[31.78556,40.90034],[31.78603,40.897803],[31.788473,40.894984],[31.792419,40.891226],[31.798151,40.887749],[31.802661,40.884836],[31.806419,40.882393],[31.810648,40.880326],[31.81403,40.878165],[31.823426,40.871776],[31.82512,40.870038],[31.831134,40.865059],[31.836701,40.860902],[31.841493,40.859633],[31.846849,40.85914],[31.850866,40.858858],[31.855023,40.858435],[31.858406,40.857237],[31.860447,40.856471],[31.862282,40.854912],[31.862705,40.854066],[31.862846,40.853079],[31.862986,40.851177],[31.862986,40.848922],[31.862846,40.846173],[31.862564,40.843777],[31.862916,40.841945],[31.86355,40.839197],[31.864114,40.836942],[31.864396,40.8337],[31.864185,40.83067],[31.864325,40.827358],[31.864325,40.824891],[31.865242,40.822143],[31.867144,40.818972],[31.868554,40.817703],[31.870456,40.816576],[31.87243,40.816012],[31.87701,40.814884],[31.882436,40.813404],[31.885537,40.812418],[31.887299,40.812206],[31.890893,40.813052],[31.8935,40.814814],[31.897306,40.817844],[31.900829,40.820663],[31.904,40.822354],[31.907101,40.8232],[31.91147,40.82327],[31.9219,40.823482],[31.924383,40.81848],[31.929144,40.812586],[31.930957,40.809639],[31.933526,40.804728],[31.937078,40.799741],[31.938513,40.797096],[31.938967,40.795207],[31.938816,40.79022],[31.940629,40.783646],[31.943198,40.778659],[31.944785,40.774957],[31.945616,40.773143],[31.947052,40.769516],[31.949394,40.766192],[31.953928,40.761507],[31.959897,40.756142],[31.963373,40.752968],[31.967831,40.747755],[31.968964,40.74579],[31.971382,40.742314],[31.973423,40.739443],[31.974329,40.736572],[31.975614,40.732416],[31.97705,40.730149],[31.980299,40.726522],[31.984983,40.722442],[31.989064,40.718815],[31.991557,40.714281],[31.992615,40.711107],[31.99322,40.705969],[31.992388,40.703929],[31.990499,40.700831],[31.987779,40.697809],[31.98589,40.694711],[31.984983,40.690933],[31.983548,40.686021],[31.9832,40.683748],[31.982193,40.678026],[31.981247,40.677303],[31.979196,40.675717],[31.977985,40.674755],[31.977202,40.674097],[31.976824,40.67376],[31.976466,40.673421],[31.975778,40.672727],[31.974782,40.671663],[31.973482,40.670228],[31.972521,40.669144],[31.971586,40.668047],[31.971069,40.667402],[31.970564,40.666751],[31.968415,40.663896],[31.967574,40.662791],[31.966999,40.662062],[31.966386,40.661324],[31.965732,40.660578],[31.965066,40.659839],[31.963374,40.658005],[31.962332,40.656922],[31.961973,40.656568],[31.961605,40.656222],[31.961223,40.655885],[31.960847,40.655579],[31.960459,40.655283],[31.960061,40.654993],[31.959243,40.654429],[31.958407,40.653879],[31.957958,40.653597],[31.957384,40.653257],[31.95339,40.651364],[31.952653,40.651046],[31.95156,40.650599],[31.950913,40.650349],[31.950233,40.650101],[31.949554,40.649871],[31.948899,40.649664],[31.948296,40.649488],[31.947225,40.649201],[31.944548,40.64852],[31.942365,40.647989],[31.925711,40.644077],[31.922932,40.643434],[31.921256,40.643071],[31.919572,40.642748],[31.917317,40.642347],[31.91054,40.641172],[31.908279,40.640786],[31.90658,40.640506],[31.905462,40.640334],[31.902706,40.639931],[31.901608,40.63976],[31.901063,40.639666],[31.900522,40.639565],[31.899985,40.639453],[31.899455,40.639325],[31.898913,40.639173],[31.898378,40.639004],[31.897848,40.638824],[31.897322,40.638635],[31.896277,40.638242],[31.889516,40.635591],[31.888478,40.635179],[31.887452,40.634757],[31.886946,40.634538],[31.886449,40.63431],[31.885963,40.634071],[31.885494,40.633816],[31.885061,40.633551],[31.884645,40.63327],[31.88424,40.632979],[31.883844,40.632678],[31.883455,40.63237],[31.882698,40.631739],[31.881972,40.631088],[31.881626,40.630753],[31.881296,40.630409],[31.881036,40.630113],[31.878729,40.626225],[31.874362,40.617638],[31.871339,40.614465],[31.868317,40.611367],[31.86537,40.608495],[31.862801,40.605548],[31.860987,40.602375],[31.85993,40.600259],[31.859552,40.597539],[31.859174,40.595952],[31.857814,40.594139],[31.856529,40.592476],[31.852902,40.588849],[31.849956,40.585373],[31.84784,40.582956],[31.8458,40.580462],[31.842097,40.575853],[31.839604,40.573208],[31.837337,40.570261],[31.833559,40.567239],[31.831972,40.56535],[31.831065,40.562705],[31.82963,40.559985],[31.828043,40.5553],[31.825625,40.556282],[31.820184,40.558776],[31.81686,40.562176],[31.814744,40.565048],[31.813762,40.568146],[31.813157,40.570412],[31.813459,40.573737],[31.814291,40.5788],[31.814517,40.582956],[31.812931,40.586734],[31.809228,40.593383],[31.806886,40.597539],[31.803636,40.600864],[31.80069,40.603055],[31.795929,40.605926],[31.790413,40.608797],[31.786937,40.610082],[31.783462,40.610611],[31.779155,40.610611],[31.776283,40.610535],[31.772505,40.61046],[31.768878,40.611593],[31.762002,40.614616],[31.757317,40.617411],[31.752104,40.621038],[31.74621,40.625043],[31.742356,40.627159],[31.737445,40.629652],[31.731022,40.631617],[31.726488,40.631617],[31.721879,40.631239],[31.719839,40.63071],[31.718403,40.62935],[31.71591,40.62799],[31.714096,40.627839],[31.710394,40.627763],[31.707674,40.628443],[31.702762,40.627839],[31.69989,40.626775],[31.698682,40.626328],[31.693922,40.623607],[31.690446,40.620736],[31.689955,40.620094],[31.690295,40.619754],[31.690446,40.619225],[31.690446,40.61862],[31.690068,40.618091],[31.689539,40.616429],[31.688708,40.615371],[31.685308,40.612047],[31.681454,40.609402],[31.676089,40.605322],[31.674653,40.604188],[31.673671,40.60313],[31.672387,40.602224],[31.671253,40.60177],[31.6708,40.601921],[31.670271,40.60245],[31.669517,40.603283],[31.6691,40.603852],[31.668531,40.60408],[31.66762,40.60408],[31.666861,40.604231],[31.666292,40.604231],[31.666103,40.604004],[31.666103,40.603511],[31.666065,40.602828],[31.665685,40.602259],[31.665116,40.602069],[31.664244,40.602107],[31.663788,40.602107],[31.663068,40.602069],[31.661664,40.601879],[31.661019,40.601879],[31.660545,40.601898],[31.660412,40.601576],[31.66026,40.601158],[31.660298,40.600855],[31.660298,40.600495],[31.659881,40.60002],[31.659843,40.599717],[31.659919,40.599394],[31.659464,40.599356],[31.658894,40.599375],[31.658515,40.5993],[31.658287,40.598996],[31.65787,40.59873],[31.657453,40.598541],[31.657035,40.598275],[31.656277,40.59763],[31.65567,40.597137],[31.655177,40.59672],[31.655139,40.596264],[31.654949,40.596037],[31.654607,40.596037],[31.654152,40.596227],[31.653659,40.596227],[31.653355,40.595999],[31.653128,40.595582],[31.652673,40.595259],[31.652141,40.595468],[31.652028,40.595771],[31.652179,40.596151],[31.652141,40.596682],[31.651648,40.597061],[31.651079,40.596834],[31.650624,40.596378],[31.649941,40.596113],[31.649562,40.596113],[31.649144,40.596378],[31.648651,40.596264],[31.648537,40.595809],[31.648727,40.595506],[31.648575,40.594975],[31.648234,40.594633],[31.647437,40.594443],[31.646527,40.59414],[31.645995,40.59414],[31.645654,40.594178],[31.645123,40.594216],[31.645161,40.594595],[31.645502,40.594823],[31.645901,40.595259],[31.645578,40.595657],[31.645199,40.595885],[31.644706,40.595885],[31.644288,40.595619],[31.644212,40.595164],[31.644212,40.594671],[31.643909,40.594443],[31.643492,40.594368],[31.64315,40.59414],[31.642904,40.593647],[31.643302,40.593495],[31.643795,40.593381],[31.643947,40.593116],[31.643947,40.592698],[31.643567,40.592357],[31.642885,40.592433],[31.642315,40.592774],[31.642012,40.593002],[31.641557,40.593267],[31.640988,40.592888],[31.640608,40.592319],[31.639849,40.592129],[31.639394,40.592053],[31.638977,40.591902],[31.638522,40.591674],[31.638484,40.59137],[31.638787,40.591067],[31.639015,40.590877],[31.639053,40.590612],[31.638787,40.590346],[31.638104,40.590005],[31.637649,40.589663],[31.63744,40.589284],[31.636587,40.588904],[31.635562,40.588525],[31.634955,40.588525],[31.634311,40.588525],[31.633931,40.588297],[31.633817,40.587918],[31.633969,40.587652],[31.634348,40.587463],[31.635525,40.587045],[31.636169,40.586742],[31.636283,40.586419],[31.635904,40.586211],[31.635449,40.585945],[31.635525,40.58549],[31.63579,40.585224],[31.63598,40.584902],[31.635752,40.584466],[31.63579,40.584162],[31.635942,40.583517],[31.636245,40.582721],[31.636511,40.582341],[31.636511,40.581848],[31.636245,40.581279],[31.635828,40.580899],[31.635411,40.580179],[31.634842,40.579344],[31.634311,40.578965],[31.633552,40.578775],[31.632376,40.578851],[31.631124,40.579078],[31.630213,40.579268],[31.62953,40.579268],[31.628999,40.578965],[31.628696,40.578547],[31.628278,40.57794],[31.627671,40.577295],[31.626951,40.576916],[31.625395,40.576612],[31.624295,40.57665],[31.62384,40.576499],[31.623308,40.576119],[31.622588,40.575285],[31.622094,40.574564],[31.621298,40.574412],[31.620577,40.574602],[31.619515,40.575323],[31.618794,40.576043],[31.617656,40.576764],[31.615911,40.578092],[31.615076,40.578547],[31.614507,40.578775],[31.614014,40.578851],[31.613558,40.578737],[31.613141,40.578244],[31.613065,40.577485],[31.613065,40.576575],[31.613331,40.57593],[31.614089,40.574981],[31.614621,40.574033],[31.615341,40.572515],[31.615948,40.571529],[31.616555,40.570732],[31.616859,40.57058],[31.616897,40.570201],[31.616859,40.569859],[31.616707,40.569594],[31.61629,40.56929],[31.615797,40.568987],[31.615645,40.568759],[31.615759,40.568456],[31.616214,40.568001],[31.616555,40.567507],[31.616593,40.567242],[31.616631,40.566824],[31.616783,40.566483],[31.617011,40.566255],[31.617542,40.566217],[31.618073,40.566445],[31.61868,40.566786],[31.619287,40.567052],[31.619742,40.567014],[31.620387,40.566749],[31.621184,40.566293],[31.621791,40.565952],[31.622436,40.565762],[31.623157,40.56561],[31.623271,40.565212],[31.622891,40.564776],[31.622322,40.56451],[31.621487,40.564017],[31.620918,40.56341],[31.620273,40.562765],[31.616897,40.559275],[31.614317,40.557226],[31.612686,40.556278],[31.610106,40.553698],[31.609006,40.552218],[31.608133,40.550625],[31.607336,40.549107],[31.606388,40.547362],[31.605478,40.546945],[31.604681,40.546869],[31.603732,40.546717],[31.603049,40.546414],[31.602139,40.545958],[31.60157,40.545883],[31.600659,40.546072],[31.599787,40.546262],[31.598952,40.546338],[31.597624,40.546414],[31.596448,40.546603],[31.595234,40.547135],[31.594475,40.547286],[31.593831,40.547172],[31.593299,40.546869],[31.592579,40.546452],[31.592123,40.546376],[31.591099,40.546376],[31.590568,40.546376],[31.589847,40.546072],[31.588785,40.545883],[31.587988,40.545731],[31.586181,40.545342],[31.584702,40.545228],[31.583478,40.545257],[31.582653,40.545114],[31.582198,40.544887],[31.581742,40.544517],[31.58123,40.544261],[31.580889,40.544147],[31.580348,40.544118],[31.579068,40.543976],[31.5781,40.54372],[31.577531,40.543492],[31.576934,40.543236],[31.576222,40.542753],[31.575397,40.541928],[31.57497,40.5417],[31.574231,40.541415],[31.57332,40.541131],[31.572381,40.540732],[31.57056,40.539907],[31.569678,40.539623],[31.569166,40.539623],[31.568341,40.539993],[31.567658,40.540249],[31.566634,40.540277],[31.565638,40.540135],[31.564926,40.540363],[31.564073,40.540789],[31.563731,40.541159],[31.563475,40.541586],[31.563048,40.541728],[31.562394,40.541842],[31.56137,40.541984],[31.560573,40.541956],[31.560118,40.541956],[31.559634,40.542212],[31.558923,40.542696],[31.558325,40.542952],[31.557386,40.543208],[31.556362,40.543436],[31.555195,40.543635],[31.553943,40.543919],[31.553147,40.543919],[31.552407,40.543777],[31.551312,40.543159],[31.550585,40.543023],[31.549903,40.543068],[31.548994,40.54325],[31.547995,40.543295],[31.547358,40.542977],[31.546677,40.542432],[31.546041,40.541796],[31.545722,40.541614],[31.545041,40.541614],[31.543905,40.541341],[31.543405,40.541296],[31.542678,40.540887],[31.541951,40.540432],[31.541133,40.540114],[31.539042,40.539751],[31.537952,40.539433],[31.537497,40.539024],[31.536861,40.538251],[31.536407,40.537751],[31.535498,40.537251],[31.534725,40.536888],[31.533453,40.536524],[31.532771,40.536388],[31.532453,40.536161],[31.532271,40.535524],[31.532044,40.535297],[31.53159,40.535252],[31.531135,40.535343],[31.530544,40.535615],[31.529681,40.535661],[31.528818,40.535434],[31.527772,40.534934],[31.527409,40.534706],[31.526773,40.534616],[31.525909,40.534706],[31.525364,40.534706],[31.524819,40.534434],[31.52441,40.533843],[31.524137,40.533479],[31.523728,40.533389],[31.522774,40.533479],[31.522137,40.533343],[31.521319,40.53298],[31.520456,40.532707],[31.51982,40.532389],[31.519047,40.53198],[31.518411,40.531798],[31.51782,40.531798],[31.517048,40.531889],[31.516275,40.531889],[31.515684,40.531753],[31.514776,40.531344],[31.514412,40.530935],[31.513912,40.530026],[31.51364,40.529753],[31.513185,40.529662],[31.512776,40.529344],[31.512231,40.52889],[31.511367,40.528526],[31.51064,40.528435],[31.508913,40.528254],[31.507777,40.528026],[31.507277,40.527754],[31.506868,40.52739],[31.506278,40.527163],[31.505476,40.52681],[31.50227,40.52855],[31.500255,40.53029],[31.497049,40.531572],[31.492012,40.533404],[31.488898,40.535419],[31.485875,40.538899],[31.484502,40.541189],[31.48267,40.543937],[31.479556,40.547143],[31.478365,40.54815],[31.47635,40.548791],[31.471862,40.551997],[31.466916,40.554745],[31.459772,40.559141],[31.456109,40.561339],[31.453544,40.562438],[31.449056,40.562896],[31.445576,40.562621],[31.439714,40.560698],[31.433211,40.558683],[31.428265,40.55676],[31.420755,40.555844],[31.413885,40.558591],[31.409672,40.561797],[31.40665,40.564728],[31.398315,40.572788],[31.395659,40.577001],[31.393552,40.578466],[31.386134,40.579291],[31.381737,40.579474],[31.377249,40.58039],[31.373311,40.582496],[31.3669,40.590739],[31.364702,40.594861],[31.362687,40.598067],[31.361221,40.604936],[31.360397,40.607958],[31.358748,40.613087],[31.357557,40.617667],[31.356733,40.62014],[31.355085,40.625819],[31.352886,40.62994],[31.348765,40.635435],[31.346658,40.639099],[31.342645,40.646004],[31.346666,40.648827],[31.348719,40.65088],[31.351114,40.654302],[31.353595,40.657211],[31.357787,40.659778],[31.361722,40.663627],[31.363861,40.665681],[31.367369,40.670044],[31.372929,40.676631],[31.37849,40.685271],[31.380629,40.688693],[31.382682,40.69203],[31.385505,40.697933],[31.388585,40.70375],[31.393033,40.716069],[31.394744,40.722913],[31.396712,40.729415],[31.39868,40.739595],[31.39945,40.744386],[31.402444,40.756962],[31.405096,40.766886],[31.406978,40.770308],[31.409887,40.777494],[31.413651,40.784594],[31.417928,40.789471],[31.422377,40.796828],[31.425371,40.800849],[31.429221,40.806581],[31.432386,40.812997],[31.432743,40.81423],[31.433327,40.816248],[31.435124,40.820696],[31.436749,40.824033],[31.439487,40.826257],[31.445475,40.829422],[31.452576,40.833272],[31.458479,40.835411],[31.46404,40.836437],[31.470199,40.836951],[31.478669,40.837892],[31.485427,40.838747],[31.491159,40.840886],[31.496035,40.843795],[31.500911,40.846447],[31.505274,40.850553],[31.508782,40.854403],[31.511862,40.858509],[31.513487,40.865353],[31.514599,40.869288],[31.517337,40.872283],[31.520417,40.87579],[31.523154,40.876817],[31.528202,40.878186],[31.534532,40.878955],[31.541376,40.88118],[31.545055,40.883062],[31.549247,40.88349],[31.553867,40.883746],[31.560368,40.884944],[31.564902,40.885971],[31.568923,40.887425],[31.572773,40.888965],[31.579275,40.890932],[31.583723,40.893242],[31.585178,40.895894],[31.58629,40.898546],[31.587744,40.900685],[31.58937,40.902139],[31.591936,40.901883],[31.594417,40.901883],[31.596299,40.901883],[31.599037,40.902482],[31.601175,40.904107],[31.603229,40.904963],[31.605624,40.907016],[31.607592,40.909582],[31.607677,40.910951],[31.606993,40.91232],[31.605367,40.915314],[31.605196,40.917795],[31.60571,40.920533],[31.606907,40.923612],[31.607561,40.924988],[31.608533,40.927034],[31.609645,40.928831],[31.609674,40.928862],[31.611441,40.930799],[31.61358,40.933023],[31.614241,40.933514],[31.615548,40.934648],[31.617858,40.935846],[31.62051,40.937386],[31.623076,40.938584],[31.624601,40.939554],[31.624958,40.939781],[31.627097,40.942262],[31.628295,40.943973],[31.629065,40.945513],[31.63069,40.947652],[31.632829,40.948764],[31.63531,40.950475],[31.637021,40.950903],[31.638988,40.950903],[31.641897,40.951074],[31.644121,40.951501],[31.646602,40.952956],[31.648313,40.953982],[31.649169,40.954838],[31.650709,40.955266],[31.652077,40.955266],[31.654131,40.955009],[31.656954,40.955095],[31.659349,40.955437],[31.662258,40.955437],[31.664653,40.955865],[31.665851,40.956806],[31.666535,40.957918],[31.667391,40.958431],[31.668931,40.960056],[31.670898,40.96057],[31.672524,40.960912],[31.675005,40.960826],[31.67663,40.96134],[31.678512,40.962452],[31.679282,40.963393],[31.680052,40.964419],[31.681934,40.965703],[31.683731,40.966473],[31.685613,40.966644],[31.68835,40.968184],[31.690404,40.968954],[31.6922,40.969296],[31.694681,40.969296],[31.697076,40.969638],[31.6999,40.969724],[31.703236,40.970066],[31.705033,40.970665],[31.707086,40.971948],[31.710251,40.974343],[31.71239,40.975541],[31.714186,40.976225],[31.716154,40.976225],[31.717009,40.976396],[31.717352,40.97768],[31.717352,40.978706],[31.718336,40.979177],[31.720175,40.979048],[31.721116,40.979818],[31.722741,40.980075],[31.725114,40.980965],[31.725479,40.981102],[31.727618,40.981273],[31.728901,40.981358],[31.73027,40.981957],[31.73104,40.982642],[31.732237,40.983155],[31.733948,40.983326],[31.73506,40.983583],[31.735745,40.984096],[31.736771,40.984438],[31.73814,40.984524],[31.739766,40.984524],[31.741306,40.984866],[31.743359,40.985379],[31.745155,40.985807],[31.746781,40.986577],[31.748224,40.987455],[31.748748,40.987774],[31.750203,40.988459],[31.750272,40.98829],[31.750281,40.988269]]]}},{"type":"Feature","properties":{"id":"TR-D-14-002","parent_id":"TR-P-14","region_id":"TR-R-KAR","level":"district","municipality_type":null,"municipality_type_label":null,"is_metropolitan_municipality":null,"name":"Dörtdivan","name_ascii":"dortdivan","slug":"dortdivan-bolu"},"geometry":{"type":"Polygon","coordinates":[[[32.149481,40.503103],[32.147295,40.502057],[32.142828,40.499776],[32.136745,40.49702],[32.130092,40.494644],[32.128001,40.493218],[32.12477,40.491222],[32.122394,40.488751],[32.121633,40.48628],[32.121253,40.483904],[32.121063,40.482098],[32.120588,40.478106],[32.119637,40.473164],[32.118592,40.469457],[32.116881,40.467081],[32.114315,40.463089],[32.113555,40.459857],[32.11365,40.454345],[32.11384,40.451208],[32.11388,40.450013],[32.11393,40.448551],[32.112024,40.44448],[32.108559,40.439889],[32.102842,40.433479],[32.097385,40.429408],[32.090715,40.426636],[32.078588,40.424124],[32.066288,40.421871],[32.059618,40.421352],[32.052429,40.421092],[32.046625,40.420312],[32.039176,40.417107],[32.035711,40.415028],[32.032592,40.41243],[32.031391,40.411065],[32.027981,40.414817],[32.024333,40.419977],[32.020863,40.428519],[32.019885,40.4319],[32.020241,40.433145],[32.022109,40.435014],[32.026202,40.438306],[32.029405,40.443733],[32.03074,40.447559],[32.031718,40.452186],[32.031184,40.45966],[32.02985,40.46482],[32.027536,40.466956],[32.02549,40.46829],[32.022376,40.469447],[32.018194,40.471316],[32.013034,40.473184],[32.006983,40.475586],[31.997463,40.479412],[31.991769,40.482882],[31.983583,40.485907],[31.978511,40.486886],[31.972639,40.487687],[31.965788,40.489555],[31.955378,40.491246],[31.945591,40.491602],[31.938117,40.49178],[31.926105,40.492136],[31.913738,40.496229],[31.901726,40.499432],[31.897989,40.500766],[31.89185,40.504058],[31.886867,40.507617],[31.883753,40.509664],[31.880817,40.512155],[31.878059,40.513846],[31.875034,40.515091],[31.872542,40.51518],[31.868183,40.51518],[31.861954,40.516604],[31.854659,40.519006],[31.848697,40.52212],[31.845049,40.524078],[31.836686,40.527726],[31.834995,40.529149],[31.834283,40.531729],[31.833749,40.534488],[31.833394,40.541606],[31.832326,40.547389],[31.830546,40.550592],[31.829123,40.553795],[31.828043,40.5553],[31.82963,40.559985],[31.831065,40.562705],[31.831972,40.56535],[31.833559,40.567239],[31.837337,40.570261],[31.839604,40.573208],[31.842097,40.575853],[31.8458,40.580462],[31.84784,40.582956],[31.849956,40.585373],[31.852902,40.588849],[31.856529,40.592476],[31.857814,40.594139],[31.859174,40.595952],[31.859552,40.597539],[31.85993,40.600259],[31.860987,40.602375],[31.862801,40.605548],[31.86537,40.608495],[31.868317,40.611367],[31.871339,40.614465],[31.874362,40.617638],[31.878729,40.626225],[31.881036,40.630113],[31.881296,40.630409],[31.881626,40.630753],[31.881972,40.631088],[31.882698,40.631739],[31.883455,40.63237],[31.883844,40.632678],[31.88424,40.632979],[31.884645,40.63327],[31.885061,40.633551],[31.885494,40.633816],[31.885963,40.634071],[31.886449,40.63431],[31.886946,40.634538],[31.887452,40.634757],[31.888478,40.635179],[31.889516,40.635591],[31.896277,40.638242],[31.897322,40.638635],[31.897848,40.638824],[31.898378,40.639004],[31.898913,40.639173],[31.899455,40.639325],[31.899985,40.639453],[31.900522,40.639565],[31.901063,40.639666],[31.901608,40.63976],[31.902706,40.639931],[31.905462,40.640334],[31.90658,40.640506],[31.908279,40.640786],[31.91054,40.641172],[31.917317,40.642347],[31.919572,40.642748],[31.921256,40.643071],[31.922932,40.643434],[31.925711,40.644077],[31.942365,40.647989],[31.944548,40.64852],[31.947225,40.649201],[31.948296,40.649488],[31.948899,40.649664],[31.949554,40.649871],[31.950233,40.650101],[31.950913,40.650349],[31.95156,40.650599],[31.952653,40.651046],[31.95339,40.651364],[31.957384,40.653257],[31.957958,40.653597],[31.958407,40.653879],[31.959243,40.654429],[31.960061,40.654993],[31.960459,40.655283],[31.960847,40.655579],[31.961223,40.655885],[31.961605,40.656222],[31.961973,40.656568],[31.962332,40.656922],[31.963374,40.658005],[31.965066,40.659839],[31.965732,40.660578],[31.966386,40.661324],[31.966999,40.662062],[31.967574,40.662791],[31.968415,40.663896],[31.970564,40.666751],[31.971069,40.667402],[31.971586,40.668047],[31.972521,40.669144],[31.973482,40.670228],[31.974782,40.671663],[31.975778,40.672727],[31.976466,40.673421],[31.976824,40.67376],[31.977202,40.674097],[31.977985,40.674755],[31.979196,40.675717],[31.981247,40.677303],[31.982193,40.678026],[31.9832,40.683748],[31.983548,40.686021],[31.984983,40.690933],[31.98589,40.694711],[31.987779,40.697809],[31.990499,40.700831],[31.992388,40.703929],[31.99322,40.705969],[31.992615,40.711107],[31.991557,40.714281],[31.989064,40.718815],[31.984983,40.722442],[31.980299,40.726522],[31.97705,40.730149],[31.975614,40.732416],[31.974329,40.736572],[31.973423,40.739443],[31.977436,40.741083],[31.983935,40.743382],[31.988929,40.744887],[31.994239,40.747186],[32.003116,40.75099],[32.00803,40.752338],[32.012548,40.752655],[32.016035,40.752734],[32.022614,40.753447],[32.028162,40.754319],[32.032759,40.755508],[32.034899,40.755984],[32.040526,40.75638],[32.044331,40.756142],[32.050592,40.755191],[32.057488,40.754716],[32.063828,40.755112],[32.071279,40.756539],[32.076906,40.757965],[32.083643,40.76066],[32.091014,40.762958],[32.093867,40.763751],[32.098781,40.765653],[32.104261,40.768799],[32.104513,40.768331],[32.113397,40.753585],[32.12045,40.743326],[32.126129,40.736824],[32.132082,40.730595],[32.13428,40.726108],[32.135288,40.723451],[32.135471,40.719513],[32.135654,40.716033],[32.135471,40.713743],[32.135562,40.702386],[32.137028,40.695333],[32.139775,40.687914],[32.140783,40.684526],[32.142615,40.680312],[32.143989,40.677015],[32.144996,40.675],[32.147377,40.670604],[32.151041,40.665292],[32.153606,40.661628],[32.156079,40.656316],[32.157269,40.651645],[32.157544,40.646241],[32.15672,40.640196],[32.155895,40.635158],[32.155437,40.632319],[32.153606,40.625725],[32.152323,40.621786],[32.150125,40.618581],[32.148477,40.614642],[32.146645,40.60759],[32.145454,40.602461],[32.145362,40.59898],[32.145088,40.594218],[32.14463,40.58973],[32.143714,40.587532],[32.141882,40.583776],[32.139775,40.580296],[32.136753,40.575533],[32.134921,40.572785],[32.132448,40.570129],[32.1308,40.566741],[32.129517,40.561062],[32.129426,40.560238],[32.129151,40.554925],[32.129243,40.550895],[32.13025,40.547049],[32.132448,40.540271],[32.133639,40.535234],[32.136387,40.527723],[32.137669,40.526166],[32.140783,40.52177],[32.143897,40.51774],[32.144721,40.516274],[32.146278,40.511145],[32.149481,40.503103]]]}},{"type":"Feature","properties":{"id":"TR-D-14-003","parent_id":"TR-P-14","region_id":"TR-R-KAR","level":"district","municipality_type":null,"municipality_type_label":null,"is_metropolitan_municipality":null,"name":"Gerede","name_ascii":"gerede","slug":"gerede-bolu"},"geometry":{"type":"Polygon","coordinates":[[[32.571587,40.750956],[32.570019,40.747534],[32.568308,40.74454],[32.565884,40.741831],[32.561251,40.738909],[32.554408,40.736057],[32.54899,40.733919],[32.54122,40.73064],[32.536302,40.726719],[32.532096,40.723583],[32.530029,40.720446],[32.527391,40.715741],[32.526037,40.712961],[32.524468,40.709896],[32.520263,40.704265],[32.51677,40.7012],[32.514263,40.699275],[32.50799,40.694998],[32.502097,40.691671],[32.494969,40.686159],[32.489742,40.682642],[32.485369,40.680171],[32.47501,40.67732],[32.468547,40.676369],[32.463319,40.675419],[32.459517,40.674468],[32.455715,40.672282],[32.451534,40.669811],[32.448302,40.667055],[32.440793,40.659831],[32.435376,40.654509],[32.431384,40.650137],[32.428248,40.646145],[32.427899,40.645101],[32.427487,40.643864],[32.427867,40.638066],[32.429863,40.632364],[32.433855,40.624095],[32.437087,40.618392],[32.438988,40.615826],[32.440223,40.612879],[32.440318,40.611359],[32.438798,40.604801],[32.438037,40.598718],[32.438132,40.593585],[32.438227,40.586457],[32.437372,40.58237],[32.436231,40.579043],[32.433475,40.575337],[32.431574,40.573531],[32.427487,40.569444],[32.423305,40.567448],[32.413611,40.562981],[32.405722,40.5607],[32.397263,40.558609],[32.39042,40.557848],[32.381866,40.558894],[32.376828,40.56013],[32.367419,40.563646],[32.35877,40.568398],[32.353257,40.5722],[32.346699,40.576382],[32.339191,40.581325],[32.334153,40.583701],[32.331397,40.584271],[32.328451,40.583986],[32.326265,40.58332],[32.321037,40.58199],[32.314669,40.579994],[32.309537,40.578473],[32.305735,40.578188],[32.301363,40.577523],[32.295945,40.576097],[32.290528,40.573721],[32.285395,40.571345],[32.279503,40.568874],[32.266957,40.565642],[32.259448,40.563836],[32.249278,40.56108],[32.244621,40.56013],[32.234451,40.559749],[32.23122,40.559559],[32.223996,40.557468],[32.214397,40.554617],[32.206603,40.551671],[32.199095,40.547774],[32.194057,40.543592],[32.191586,40.54055],[32.190256,40.538174],[32.187119,40.530381],[32.185028,40.524298],[32.182937,40.521351],[32.179421,40.517169],[32.175429,40.513653],[32.170486,40.511372],[32.162027,40.507665],[32.149481,40.503103],[32.146278,40.511145],[32.144721,40.516274],[32.143897,40.51774],[32.140783,40.52177],[32.137669,40.526166],[32.136387,40.527723],[32.133639,40.535234],[32.132448,40.540271],[32.13025,40.547049],[32.129243,40.550895],[32.129151,40.554925],[32.129426,40.560238],[32.129517,40.561062],[32.1308,40.566741],[32.132448,40.570129],[32.134921,40.572785],[32.136753,40.575533],[32.139775,40.580296],[32.141882,40.583776],[32.143714,40.587532],[32.14463,40.58973],[32.145088,40.594218],[32.145362,40.59898],[32.145454,40.602461],[32.146645,40.60759],[32.148477,40.614642],[32.150125,40.618581],[32.152323,40.621786],[32.153606,40.625725],[32.155437,40.632319],[32.155895,40.635158],[32.15672,40.640196],[32.157544,40.646241],[32.157269,40.651645],[32.156079,40.656316],[32.153606,40.661628],[32.151041,40.665292],[32.147377,40.670604],[32.144996,40.675],[32.143989,40.677015],[32.142615,40.680312],[32.140783,40.684526],[32.139775,40.687914],[32.137028,40.695333],[32.135562,40.702386],[32.135471,40.713743],[32.135654,40.716033],[32.135471,40.719513],[32.135288,40.723451],[32.13428,40.726108],[32.132082,40.730595],[32.126129,40.736824],[32.12045,40.743326],[32.113397,40.753585],[32.104513,40.768331],[32.104261,40.768799],[32.101949,40.773093],[32.101582,40.776116],[32.101491,40.781978],[32.102315,40.78445],[32.103964,40.787748],[32.105704,40.79077],[32.10836,40.793518],[32.110283,40.795533],[32.11413,40.798189],[32.116878,40.799654],[32.120908,40.801853],[32.125396,40.805516],[32.128693,40.809088],[32.130983,40.81147],[32.135196,40.81495],[32.13831,40.819896],[32.142065,40.828689],[32.143347,40.833085],[32.146645,40.839679],[32.150217,40.845083],[32.152833,40.849626],[32.158118,40.847653],[32.165165,40.845187],[32.169816,40.843707],[32.174961,40.843002],[32.180316,40.842086],[32.18391,40.841029],[32.191099,40.838844],[32.195538,40.83814],[32.202233,40.840183],[32.209491,40.84265],[32.215481,40.845609],[32.218512,40.847794],[32.221119,40.848851],[32.223938,40.85019],[32.229646,40.851599],[32.23472,40.851811],[32.240287,40.852445],[32.247405,40.85322],[32.252056,40.853925],[32.259526,40.856744],[32.271506,40.861254],[32.282499,40.864637],[32.290251,40.866539],[32.296523,40.867878],[32.304768,40.86816],[32.315268,40.870345],[32.324993,40.872952],[32.327107,40.873445],[32.335705,40.876828],[32.33937,40.878772],[32.340013,40.877301],[32.34277,40.873809],[32.34755,40.8705],[32.351135,40.868937],[32.355271,40.86811],[32.358488,40.867191],[32.360786,40.866455],[32.36529,40.863238],[32.368323,40.861308],[32.369885,40.860757],[32.371907,40.860389],[32.377135,40.860343],[32.380513,40.860619],[32.386304,40.86117],[32.395084,40.861929],[32.399582,40.861825],[32.404391,40.862394],[32.409147,40.862859],[32.413076,40.863221],[32.417936,40.8641],[32.426105,40.866323],[32.428794,40.865755],[32.433344,40.865496],[32.436911,40.86591],[32.439186,40.86684],[32.441461,40.868029],[32.443477,40.869012],[32.446011,40.870408],[32.449785,40.872889],[32.454955,40.874802],[32.459015,40.876181],[32.465908,40.879245],[32.46778,40.880011],[32.47212,40.882393],[32.478162,40.884861],[32.482332,40.885797],[32.486416,40.886138],[32.492458,40.886223],[32.501478,40.885797],[32.504372,40.885797],[32.510073,40.885882],[32.512796,40.885712],[32.515349,40.8835],[32.517477,40.881712],[32.519008,40.87967],[32.519689,40.878309],[32.520285,40.876862],[32.521646,40.873884],[32.522327,40.872011],[32.523774,40.869203],[32.52488,40.86631],[32.526582,40.861204],[32.527858,40.858311],[32.529135,40.854907],[32.530496,40.852865],[32.532794,40.850737],[32.535347,40.848099],[32.5379,40.845036],[32.540368,40.841717],[32.543942,40.838909],[32.547941,40.83559],[32.55143,40.832867],[32.557472,40.827931],[32.562578,40.824102],[32.565301,40.820528],[32.568365,40.815762],[32.568875,40.812529],[32.56862,40.808614],[32.56845,40.803764],[32.569301,40.800104],[32.570316,40.797374],[32.569835,40.791116],[32.569835,40.78534],[32.570028,40.783318],[32.569835,40.776675],[32.569642,40.773113],[32.569931,40.767774],[32.569235,40.765212],[32.567025,40.761719],[32.566169,40.759296],[32.565599,40.757015],[32.566169,40.754734],[32.567096,40.752738],[32.568165,40.751882],[32.570161,40.751169],[32.571587,40.750956]]]}},{"type":"Feature","properties":{"id":"TR-D-14-004","parent_id":"TR-P-14","region_id":"TR-R-KAR","level":"district","municipality_type":null,"municipality_type_label":null,"is_metropolitan_municipality":null,"name":"Göynük","name_ascii":"goynuk","slug":"goynuk-bolu"},"geometry":{"type":"Polygon","coordinates":[[[30.56448,40.281649],[30.563411,40.283716],[30.561344,40.289062],[30.560488,40.291201],[30.559918,40.294266],[30.560702,40.30061],[30.562199,40.303319],[30.562983,40.304887],[30.56505,40.307952],[30.568258,40.310946],[30.573177,40.316292],[30.574745,40.319856],[30.575101,40.326272],[30.5756,40.331048],[30.575957,40.33447],[30.576313,40.340101],[30.576384,40.343594],[30.575957,40.345732],[30.575387,40.346588],[30.571965,40.348299],[30.567688,40.35172],[30.564837,40.356496],[30.562698,40.360132],[30.561272,40.363696],[30.560702,40.367403],[30.559847,40.370183],[30.559918,40.37339],[30.560845,40.376527],[30.561557,40.377596],[30.565835,40.382301],[30.56783,40.384938],[30.5689,40.386863],[30.569042,40.389002],[30.568472,40.394847],[30.568258,40.403044],[30.568187,40.408676],[30.568543,40.41167],[30.568472,40.414949],[30.569327,40.417943],[30.571038,40.420366],[30.57446,40.424358],[30.579022,40.42999],[30.581089,40.433197],[30.583156,40.436263],[30.583941,40.44111],[30.584368,40.445957],[30.585509,40.450092],[30.586934,40.454654],[30.587077,40.45665],[30.586943,40.458378],[30.587264,40.459822],[30.58828,40.462869],[30.58828,40.464099],[30.588654,40.46597],[30.589189,40.468536],[30.590098,40.470995],[30.591113,40.473669],[30.592076,40.475272],[30.594589,40.477197],[30.600042,40.4811],[30.604746,40.485216],[30.607794,40.48821],[30.612659,40.49222],[30.616669,40.495642],[30.621587,40.5004],[30.624635,40.502752],[30.626773,40.503928],[30.63121,40.505105],[30.637519,40.505479],[30.642063,40.504784],[30.65019,40.503233],[30.654253,40.502699],[30.658156,40.50163],[30.662753,40.500453],[30.668795,40.499651],[30.679755,40.498582],[30.686972,40.498903],[30.694724,40.498582],[30.700605,40.498368],[30.711779,40.497566],[30.717232,40.497192],[30.722525,40.497085],[30.732576,40.496818],[30.7399,40.497299],[30.745995,40.497834],[30.755885,40.498689],[30.761285,40.499438],[30.764974,40.499651],[30.767754,40.500667],[30.770427,40.502325],[30.774865,40.503982],[30.779516,40.504089],[30.783258,40.505532],[30.791545,40.506922],[30.796624,40.50751],[30.801703,40.507403],[30.80598,40.506922],[30.8086,40.506281],[30.814053,40.504623],[30.818009,40.502592],[30.822874,40.501255],[30.828006,40.500828],[30.831482,40.500988],[30.839982,40.502111],[30.844794,40.502538],[30.84998,40.50334],[30.85308,40.50473],[30.855807,40.507457],[30.858373,40.51013],[30.862597,40.514247],[30.864735,40.516653],[30.865644,40.517401],[30.867141,40.518417],[30.867783,40.519379],[30.86805,40.520235],[30.869012,40.52093],[30.870456,40.521625],[30.871472,40.521678],[30.872701,40.521838],[30.874305,40.52232],[30.877017,40.521496],[30.878682,40.520594],[30.880417,40.519623],[30.882151,40.518235],[30.885967,40.516778],[30.888743,40.516154],[30.901302,40.514835],[30.90935,40.513586],[30.923505,40.511019],[30.927321,40.510464],[30.945292,40.508868],[30.953132,40.508868],[30.957712,40.509354],[30.966315,40.509493],[30.971311,40.508521],[30.974989,40.507411],[30.980331,40.504775],[30.983592,40.502554],[30.986368,40.498669],[30.988102,40.493673],[30.988657,40.491591],[30.989906,40.487567],[30.99171,40.482224],[30.993514,40.478269],[30.994,40.475425],[30.993931,40.473482],[30.993167,40.469874],[30.991363,40.466127],[30.991086,40.463421],[30.991086,40.460923],[30.992265,40.458703],[30.995041,40.454678],[30.997122,40.451417],[31.001286,40.448711],[31.007461,40.443299],[31.012942,40.44094],[31.015995,40.439969],[31.020228,40.439206],[31.023003,40.437749],[31.025223,40.435736],[31.028831,40.431434],[31.031121,40.428867],[31.034105,40.425467],[31.035562,40.423525],[31.036048,40.419917],[31.035701,40.418459],[31.03459,40.4161],[31.032856,40.413394],[31.030219,40.409925],[31.02786,40.406803],[31.02557,40.40264],[31.023489,40.398546],[31.021754,40.395215],[31.020158,40.392718],[31.018632,40.391052],[31.017244,40.38904],[31.016342,40.38675],[31.01662,40.384877],[31.017869,40.380367],[31.019187,40.376273],[31.020991,40.374539],[31.024946,40.372526],[31.028207,40.370722],[31.034035,40.3676],[31.039656,40.36538],[31.045553,40.362813],[31.049231,40.361702],[31.054435,40.360107],[31.057557,40.358094],[31.059847,40.355805],[31.062969,40.352682],[31.066508,40.350184],[31.071781,40.347201],[31.076184,40.343638],[31.075583,40.343142],[31.07266,40.338865],[31.069595,40.334018],[31.067956,40.32967],[31.066316,40.325607],[31.063465,40.315271],[31.06211,40.310922],[31.061326,40.307501],[31.060043,40.303438],[31.05819,40.300301],[31.055838,40.296238],[31.054483,40.292745],[31.052986,40.287541],[31.05206,40.281054],[31.051917,40.275352],[31.051133,40.268865],[31.050491,40.262735],[31.050848,40.258743],[31.051418,40.255179],[31.05263,40.251543],[31.053842,40.250474],[31.057121,40.247266],[31.060043,40.243773],[31.060328,40.240922],[31.0604,40.232867],[31.059402,40.229445],[31.057905,40.227307],[31.056123,40.225097],[31.052915,40.222388],[31.049137,40.220178],[31.04764,40.218967],[31.043648,40.217826],[31.041011,40.217755],[31.034666,40.217327],[31.030674,40.216971],[31.025827,40.215901],[31.022334,40.215616],[31.013994,40.215189],[31.011143,40.214832],[31.002304,40.214547],[30.995389,40.214048],[30.993108,40.214119],[30.989758,40.214618],[30.980063,40.216258],[30.971866,40.217327],[30.967802,40.218325],[30.964523,40.218468],[30.957241,40.217398],[30.952108,40.215592],[30.948877,40.213787],[30.9465,40.21008],[30.94498,40.207038],[30.942604,40.203617],[30.940323,40.201621],[30.936521,40.199055],[30.930248,40.194588],[30.926161,40.191641],[30.920078,40.187079],[30.915136,40.185273],[30.903635,40.181281],[30.895176,40.17919],[30.889569,40.177765],[30.884911,40.177575],[30.879969,40.17748],[30.874552,40.176814],[30.871415,40.175484],[30.866948,40.172442],[30.862956,40.170351],[30.857919,40.166835],[30.852786,40.164078],[30.850125,40.162082],[30.846133,40.15828],[30.841571,40.153813],[30.837199,40.150677],[30.836999,40.150512],[30.834443,40.148396],[30.825509,40.144784],[30.822307,40.144528],[30.820756,40.144404],[30.815339,40.144879],[30.806595,40.145259],[30.802508,40.145544],[30.795439,40.14735],[30.793657,40.148277],[30.789879,40.150202],[30.786528,40.151556],[30.782536,40.152269],[30.777832,40.152411],[30.764288,40.153267],[30.759084,40.153837],[30.754023,40.154479],[30.749176,40.155049],[30.747251,40.154479],[30.743901,40.153267],[30.740051,40.153124],[30.735418,40.154122],[30.731212,40.154621],[30.727648,40.154479],[30.721874,40.153124],[30.713463,40.150416],[30.703697,40.147992],[30.694929,40.147279],[30.691294,40.146851],[30.677536,40.148847],[30.672546,40.149703],[30.668126,40.151128],[30.666202,40.152269],[30.664348,40.152697],[30.662352,40.152625],[30.660428,40.152625],[30.66025,40.152697],[30.660071,40.152768],[30.658503,40.152839],[30.657149,40.152483],[30.656079,40.151841],[30.655295,40.150915],[30.654155,40.150059],[30.652943,40.149418],[30.651731,40.150986],[30.649022,40.153409],[30.643035,40.1579],[30.636476,40.164031],[30.63334,40.167452],[30.631415,40.17009],[30.630489,40.173012],[30.62999,40.176149],[30.630703,40.183848],[30.630275,40.191831],[30.630204,40.198176],[30.629847,40.201597],[30.628564,40.205375],[30.626996,40.207585],[30.622933,40.209296],[30.618014,40.210222],[30.611812,40.212005],[30.609674,40.212789],[30.60668,40.214286],[30.605753,40.215711],[30.605112,40.219062],[30.605254,40.222198],[30.606537,40.225335],[30.608177,40.229398],[30.609389,40.233603],[30.609959,40.237453],[30.610529,40.241017],[30.609531,40.244724],[30.608676,40.246149],[30.605753,40.24786],[30.600478,40.250284],[30.594205,40.252565],[30.590142,40.253492],[30.583727,40.256343],[30.57945,40.258838],[30.57724,40.261689],[30.574959,40.26454],[30.574103,40.265966],[30.57282,40.269673],[30.570254,40.275376],[30.567046,40.278797],[30.56448,40.281649]]]}},{"type":"Feature","properties":{"id":"TR-D-14-005","parent_id":"TR-P-14","region_id":"TR-R-KAR","level":"district","municipality_type":null,"municipality_type_label":null,"is_metropolitan_municipality":null,"name":"Kıbrıscık","name_ascii":"kibriscik","slug":"kibriscik-bolu"},"geometry":{"type":"Polygon","coordinates":[[[31.828043,40.5553],[31.829123,40.553795],[31.830546,40.550592],[31.832326,40.547389],[31.833394,40.541606],[31.833749,40.534488],[31.834283,40.531729],[31.834995,40.529149],[31.836686,40.527726],[31.845049,40.524078],[31.848697,40.52212],[31.854659,40.519006],[31.861954,40.516604],[31.868183,40.51518],[31.872542,40.51518],[31.875034,40.515091],[31.878059,40.513846],[31.880817,40.512155],[31.883753,40.509664],[31.886867,40.507617],[31.89185,40.504058],[31.897989,40.500766],[31.901726,40.499432],[31.913738,40.496229],[31.926105,40.492136],[31.938117,40.49178],[31.945591,40.491602],[31.955378,40.491246],[31.965788,40.489555],[31.972639,40.487687],[31.978511,40.486886],[31.983583,40.485907],[31.991769,40.482882],[31.997463,40.479412],[32.006983,40.475586],[32.013034,40.473184],[32.018194,40.471316],[32.022376,40.469447],[32.02549,40.46829],[32.027536,40.466956],[32.02985,40.46482],[32.031184,40.45966],[32.031718,40.452186],[32.03074,40.447559],[32.029405,40.443733],[32.026202,40.438306],[32.022109,40.435014],[32.020241,40.433145],[32.019885,40.4319],[32.020863,40.428519],[32.024333,40.419977],[32.027981,40.414817],[32.031391,40.411065],[32.030687,40.410264],[32.029388,40.408185],[32.026096,40.404461],[32.024797,40.402295],[32.022111,40.400043],[32.017607,40.397184],[32.015095,40.394239],[32.011717,40.390601],[32.008772,40.388089],[32.007646,40.384798],[32.007213,40.381766],[32.00522,40.378214],[32.003315,40.376569],[31.998201,40.375885],[31.996067,40.3756],[31.992218,40.374317],[31.985018,40.371751],[31.977249,40.368472],[31.97233,40.366262],[31.969835,40.365264],[31.967198,40.363696],[31.961138,40.360346],[31.954438,40.356853],[31.950303,40.355213],[31.946383,40.354286],[31.943318,40.353859],[31.938755,40.353217],[31.93291,40.351649],[31.927136,40.349724],[31.920578,40.346303],[31.913307,40.342667],[31.906963,40.339816],[31.903826,40.337963],[31.900334,40.335468],[31.894987,40.332117],[31.889855,40.328125],[31.886362,40.325987],[31.878236,40.32114],[31.870893,40.317718],[31.862197,40.314582],[31.859702,40.31337],[31.852146,40.311873],[31.840669,40.313441],[31.83404,40.315936],[31.827553,40.318716],[31.823561,40.3195],[31.81907,40.32007],[31.814009,40.320641],[31.808164,40.32114],[31.803602,40.320854],[31.797685,40.320213],[31.794691,40.320213],[31.788062,40.322637],[31.778795,40.327341],[31.770241,40.330549],[31.767319,40.331547],[31.761402,40.33283],[31.757196,40.3334],[31.75242,40.333543],[31.750995,40.333044],[31.746005,40.330406],[31.743281,40.337345],[31.740686,40.344772],[31.740686,40.350141],[31.742208,40.357837],[31.741313,40.36598],[31.740328,40.371259],[31.738002,40.377523],[31.734601,40.381819],[31.730038,40.389067],[31.727353,40.395778],[31.725832,40.402758],[31.726279,40.411169],[31.726995,40.41976],[31.725653,40.427992],[31.724848,40.430677],[31.723595,40.434077],[31.723147,40.43533],[31.721805,40.450095],[31.722789,40.459759],[31.724937,40.469781],[31.730127,40.481414],[31.731111,40.484367],[31.732131,40.491586],[31.731335,40.498745],[31.728154,40.510039],[31.72354,40.522766],[31.720358,40.527698],[31.716222,40.534697],[31.713041,40.540902],[31.710018,40.55156],[31.707155,40.562219],[31.705882,40.570491],[31.703337,40.578286],[31.700791,40.590535],[31.700314,40.600876],[31.700155,40.607716],[31.699837,40.618693],[31.69989,40.626775],[31.702762,40.627839],[31.707674,40.628443],[31.710394,40.627763],[31.714096,40.627839],[31.71591,40.62799],[31.718403,40.62935],[31.719839,40.63071],[31.721879,40.631239],[31.726488,40.631617],[31.731022,40.631617],[31.737445,40.629652],[31.742356,40.627159],[31.74621,40.625043],[31.752104,40.621038],[31.757317,40.617411],[31.762002,40.614616],[31.768878,40.611593],[31.772505,40.61046],[31.776283,40.610535],[31.779155,40.610611],[31.783462,40.610611],[31.786937,40.610082],[31.790413,40.608797],[31.795929,40.605926],[31.80069,40.603055],[31.803636,40.600864],[31.806886,40.597539],[31.809228,40.593383],[31.812931,40.586734],[31.814517,40.582956],[31.814291,40.5788],[31.813459,40.573737],[31.813157,40.570412],[31.813762,40.568146],[31.814744,40.565048],[31.81686,40.562176],[31.820184,40.558776],[31.825625,40.556282],[31.828043,40.5553]]]}},{"type":"Feature","properties":{"id":"TR-D-14-006","parent_id":"TR-P-14","region_id":"TR-R-KAR","level":"district","municipality_type":null,"municipality_type_label":null,"is_metropolitan_municipality":null,"name":"Mengen","name_ascii":"mengen","slug":"mengen-bolu"},"geometry":{"type":"Polygon","coordinates":[[[31.750281,40.988269],[31.751119,40.988606],[31.753026,40.993763],[31.757047,41.000179],[31.758587,41.002147],[31.760811,41.00497],[31.763121,41.007793],[31.765516,41.010873],[31.766457,41.013525],[31.76774,41.015749],[31.76928,41.019243],[31.769459,41.019197],[31.769818,41.019104],[31.773948,41.017502],[31.777656,41.015143],[31.779088,41.01489],[31.789876,41.012952],[31.794897,41.012103],[31.79518,41.012069],[31.798522,41.011679],[31.80026,41.01125],[31.800629,41.011169],[31.801337,41.011013],[31.808922,41.010171],[31.816675,41.009749],[31.819372,41.009243],[31.820299,41.008485],[31.821142,41.007895],[31.822153,41.007137],[31.82308,41.006631],[31.825103,41.006462],[31.826198,41.006378],[31.827336,41.006294],[31.828474,41.007642],[31.829064,41.008485],[31.830075,41.008232],[31.831002,41.007979],[31.832603,41.008232],[31.834373,41.008316],[31.836396,41.007811],[31.838165,41.007727],[31.839092,41.007137],[31.840188,41.0068],[31.842632,41.007221],[31.844655,41.007979],[31.845919,41.007811],[31.846509,41.007305],[31.847267,41.006378],[31.848447,41.005788],[31.849543,41.005872],[31.850975,41.006547],[31.851734,41.006968],[31.852703,41.006378],[31.854346,41.005788],[31.85561,41.005788],[31.856453,41.006125],[31.85738,41.00621],[31.857759,41.005325],[31.858939,41.004229],[31.861425,41.004187],[31.865386,41.004356],[31.874657,41.004524],[31.881651,41.00503],[31.886455,41.007137],[31.887727,41.007368],[31.887748,41.007372],[31.887788,41.007379],[31.888458,41.007501],[31.891414,41.008038],[31.891817,41.008111],[31.892017,41.008148],[31.89228,41.00821],[31.899518,41.009918],[31.903588,41.011302],[31.903732,41.01135],[31.911063,41.012277],[31.91907,41.013794],[31.926064,41.01548],[31.932806,41.01784],[31.937105,41.019946],[31.940897,41.02239],[31.943762,41.023065],[31.947049,41.023655],[31.955392,41.025172],[31.964747,41.025846],[31.973174,41.02711],[31.981012,41.029217],[31.98767,41.031239],[31.993148,41.031745],[31.998036,41.031998],[32.000901,41.031239],[32.004188,41.030059],[32.010593,41.02711],[32.019273,41.025509],[32.03419,41.022728],[32.045482,41.021801],[32.047926,41.020115],[32.054837,41.017334],[32.057871,41.015733],[32.06318,41.013963],[32.072029,41.01253],[32.079951,41.01135],[32.089137,41.009581],[32.09925,41.008822],[32.104222,41.008822],[32.110964,41.008906],[32.117116,41.009412],[32.121583,41.009412],[32.12428,41.009833],[32.127061,41.009833],[32.130853,41.009243],[32.134814,41.008991],[32.139197,41.011098],[32.141233,41.012967],[32.144541,41.014162],[32.149229,41.015357],[32.153641,41.016184],[32.159248,41.016184],[32.162097,41.016],[32.165774,41.015081],[32.16991,41.013978],[32.173035,41.013059],[32.176803,41.012691],[32.180388,41.012967],[32.183513,41.013151],[32.187833,41.013243],[32.191694,41.012691],[32.195554,41.012508],[32.198863,41.013151],[32.201896,41.01407],[32.204745,41.015357],[32.208606,41.016644],[32.214305,41.01839],[32.218808,41.019677],[32.222853,41.021056],[32.226162,41.023262],[32.229011,41.025468],[32.232687,41.027674],[32.235629,41.029512],[32.240133,41.031718],[32.245004,41.032913],[32.248589,41.03328],[32.256953,41.033005],[32.263111,41.03328],[32.268994,41.033188],[32.273498,41.032637],[32.278277,41.03181],[32.28177,41.030431],[32.283792,41.028593],[32.28609,41.026295],[32.28848,41.022894],[32.291513,41.019769],[32.29427,41.017379],[32.298498,41.014254],[32.299693,41.013427],[32.301164,41.01168],[32.306127,41.004879],[32.308057,41.002121],[32.313021,40.996147],[32.316789,40.991735],[32.320282,40.988702],[32.323683,40.984014],[32.325154,40.980981],[32.32644,40.975742],[32.326716,40.97087],[32.327359,40.965815],[32.328554,40.963058],[32.329841,40.960484],[32.332691,40.958554],[32.336459,40.958278],[32.340595,40.958278],[32.348684,40.959841],[32.353096,40.960668],[32.356404,40.96223],[32.359713,40.963517],[32.362103,40.963701],[32.363022,40.963517],[32.364125,40.961863],[32.365412,40.958462],[32.366055,40.955429],[32.365688,40.950282],[32.365228,40.948535],[32.362379,40.942009],[32.361092,40.939803],[32.360081,40.938425],[32.357691,40.93484],[32.355485,40.931715],[32.353923,40.927211],[32.353279,40.925465],[32.352728,40.923534],[32.352452,40.919398],[32.35236,40.910483],[32.35089,40.905519],[32.349327,40.901751],[32.346845,40.897339],[32.344241,40.893846],[32.342403,40.890721],[32.340197,40.88493],[32.339737,40.882265],[32.33937,40.878772],[32.335705,40.876828],[32.327107,40.873445],[32.324993,40.872952],[32.315268,40.870345],[32.304768,40.86816],[32.296523,40.867878],[32.290251,40.866539],[32.282499,40.864637],[32.271506,40.861254],[32.259526,40.856744],[32.252056,40.853925],[32.247405,40.85322],[32.240287,40.852445],[32.23472,40.851811],[32.229646,40.851599],[32.223938,40.85019],[32.221119,40.848851],[32.218512,40.847794],[32.215481,40.845609],[32.209491,40.84265],[32.202233,40.840183],[32.195538,40.83814],[32.191099,40.838844],[32.18391,40.841029],[32.180316,40.842086],[32.174961,40.843002],[32.169816,40.843707],[32.165165,40.845187],[32.158118,40.847653],[32.152833,40.849626],[32.146772,40.851529],[32.140994,40.853855],[32.135004,40.854841],[32.127534,40.856251],[32.121473,40.856603],[32.114426,40.856603],[32.108789,40.857378],[32.103785,40.858012],[32.099839,40.858717],[32.097654,40.858717],[32.095117,40.858717],[32.089621,40.858012],[32.084053,40.857096],[32.079332,40.856532],[32.073483,40.856321],[32.070523,40.856814],[32.066999,40.857237],[32.061362,40.858012],[32.059036,40.858294],[32.056781,40.858294],[32.054033,40.857942],[32.05065,40.857026],[32.046422,40.856321],[32.040573,40.855405],[32.033385,40.853432],[32.02965,40.852586],[32.024576,40.851106],[32.020066,40.850331],[32.014146,40.849485],[32.013019,40.848992],[32.010552,40.847089],[32.007452,40.844059],[32.005408,40.84265],[32.002448,40.841663],[31.997797,40.840888],[31.992935,40.840888],[31.991666,40.840747],[31.989693,40.840254],[31.985958,40.83976],[31.98328,40.839267],[31.977995,40.838069],[31.973837,40.836096],[31.96975,40.834546],[31.965099,40.833418],[31.960377,40.832643],[31.955374,40.831233],[31.947974,40.828415],[31.938249,40.825948],[31.927256,40.824045],[31.9219,40.823482],[31.91147,40.82327],[31.907101,40.8232],[31.904,40.822354],[31.900829,40.820663],[31.897306,40.817844],[31.8935,40.814814],[31.890893,40.813052],[31.887299,40.812206],[31.885537,40.812418],[31.882436,40.813404],[31.87701,40.814884],[31.87243,40.816012],[31.870456,40.816576],[31.868554,40.817703],[31.867144,40.818972],[31.865242,40.822143],[31.864325,40.824891],[31.864325,40.827358],[31.864185,40.83067],[31.864396,40.8337],[31.864114,40.836942],[31.86355,40.839197],[31.862916,40.841945],[31.862564,40.843777],[31.862846,40.846173],[31.862986,40.848922],[31.862986,40.851177],[31.862846,40.853079],[31.862705,40.854066],[31.862282,40.854912],[31.860447,40.856471],[31.858406,40.857237],[31.855023,40.858435],[31.850866,40.858858],[31.846849,40.85914],[31.841493,40.859633],[31.836701,40.860902],[31.831134,40.865059],[31.82512,40.870038],[31.823426,40.871776],[31.81403,40.878165],[31.810648,40.880326],[31.806419,40.882393],[31.802661,40.884836],[31.798151,40.887749],[31.792419,40.891226],[31.788473,40.894984],[31.78603,40.897803],[31.78556,40.90034],[31.785184,40.903535],[31.78509,40.906823],[31.785466,40.909924],[31.786688,40.915092],[31.788755,40.918662],[31.791104,40.92073],[31.794486,40.92383],[31.796741,40.926367],[31.798057,40.928434],[31.798809,40.930971],[31.798903,40.933602],[31.798715,40.935669],[31.797493,40.938488],[31.795332,40.941119],[31.792419,40.943938],[31.790164,40.945347],[31.787533,40.947415],[31.784902,40.94967],[31.781802,40.952582],[31.778607,40.955589],[31.7756,40.957562],[31.774285,40.960663],[31.7725,40.964046],[31.770432,40.965925],[31.766768,40.968556],[31.761224,40.971093],[31.758405,40.973536],[31.755023,40.976824],[31.75258,40.980959],[31.751546,40.985187],[31.750368,40.988056],[31.750281,40.988269]]]}},{"type":"Feature","properties":{"id":"TR-D-14-007","parent_id":"TR-P-14","region_id":"TR-R-KAR","level":"district","municipality_type":null,"municipality_type_label":null,"is_metropolitan_municipality":null,"name":"Mudurnu","name_ascii":"mudurnu","slug":"mudurnu-bolu"},"geometry":{"type":"Polygon","coordinates":[[[31.064791,40.663617],[31.068801,40.663713],[31.081462,40.663542],[31.087279,40.66243],[31.091728,40.661403],[31.102764,40.659778],[31.114484,40.658323],[31.119959,40.658067],[31.127146,40.657724],[31.134075,40.657382],[31.140491,40.657126],[31.146052,40.65627],[31.15204,40.656185],[31.156746,40.655158],[31.161536,40.654388],[31.165814,40.652591],[31.169407,40.649426],[31.171888,40.646603],[31.17685,40.64147],[31.180443,40.637364],[31.184464,40.634369],[31.187458,40.631546],[31.192591,40.626157],[31.197382,40.622649],[31.199178,40.622307],[31.204739,40.621879],[31.211583,40.621195],[31.216203,40.621024],[31.223303,40.622392],[31.228693,40.625814],[31.231944,40.629151],[31.234767,40.630349],[31.238103,40.631204],[31.245632,40.63283],[31.249567,40.633257],[31.256069,40.633599],[31.259833,40.633685],[31.264367,40.633685],[31.271125,40.634027],[31.274376,40.633771],[31.277542,40.633685],[31.282076,40.632658],[31.286524,40.630691],[31.291572,40.629236],[31.296362,40.629664],[31.303292,40.631033],[31.307741,40.632744],[31.31082,40.635225],[31.317151,40.638989],[31.321429,40.641128],[31.324765,40.642411],[31.329812,40.643694],[31.338111,40.644721],[31.342645,40.646004],[31.346658,40.639099],[31.348765,40.635435],[31.352886,40.62994],[31.355085,40.625819],[31.356733,40.62014],[31.357557,40.617667],[31.358748,40.613087],[31.360397,40.607958],[31.361221,40.604936],[31.362687,40.598067],[31.364702,40.594861],[31.3669,40.590739],[31.373311,40.582496],[31.377249,40.58039],[31.381737,40.579474],[31.386134,40.579291],[31.393552,40.578466],[31.395659,40.577001],[31.398315,40.572788],[31.40665,40.564728],[31.409672,40.561797],[31.413885,40.558591],[31.420755,40.555844],[31.428265,40.55676],[31.433211,40.558683],[31.439714,40.560698],[31.445576,40.562621],[31.449056,40.562896],[31.453544,40.562438],[31.456109,40.561339],[31.459772,40.559141],[31.466916,40.554745],[31.471862,40.551997],[31.47635,40.548791],[31.478365,40.54815],[31.479556,40.547143],[31.48267,40.543937],[31.484502,40.541189],[31.485875,40.538899],[31.488898,40.535419],[31.492012,40.533404],[31.497049,40.531572],[31.500255,40.53029],[31.50227,40.52855],[31.505476,40.52681],[31.505292,40.525985],[31.505292,40.525252],[31.504835,40.523879],[31.504468,40.523146],[31.503552,40.521955],[31.502636,40.520673],[31.502453,40.520123],[31.502362,40.519482],[31.502362,40.518841],[31.502362,40.517742],[31.502178,40.517101],[31.501446,40.516643],[31.500621,40.516368],[31.499614,40.515819],[31.499064,40.515178],[31.497324,40.513804],[31.496133,40.512979],[31.49476,40.512705],[31.494302,40.512247],[31.493752,40.511239],[31.493111,40.51014],[31.492561,40.508949],[31.491737,40.5084],[31.490089,40.5084],[31.48844,40.508491],[31.487432,40.508217],[31.486425,40.507576],[31.484868,40.506751],[31.483128,40.505469],[31.481387,40.503912],[31.480655,40.503179],[31.479281,40.502813],[31.478548,40.502721],[31.4769,40.502996],[31.475068,40.502904],[31.472686,40.502721],[31.472045,40.502721],[31.471496,40.502172],[31.470305,40.501073],[31.469206,40.499974],[31.469114,40.499058],[31.468931,40.498508],[31.467832,40.497501],[31.466916,40.496768],[31.466825,40.496127],[31.467466,40.494936],[31.467557,40.494295],[31.466733,40.493745],[31.465176,40.493104],[31.464168,40.492005],[31.463802,40.490448],[31.463711,40.489258],[31.462795,40.48825],[31.46252,40.487517],[31.46252,40.48651],[31.462428,40.485044],[31.461696,40.484312],[31.461054,40.484128],[31.460139,40.484037],[31.459772,40.483121],[31.459497,40.480923],[31.459497,40.480098],[31.460047,40.479641],[31.460871,40.479366],[31.461329,40.479366],[31.461879,40.479091],[31.46197,40.478633],[31.46197,40.478358],[31.462062,40.47671],[31.462245,40.475977],[31.463527,40.47442],[31.46426,40.473687],[31.465542,40.47268],[31.466458,40.471855],[31.466916,40.471031],[31.467466,40.469291],[31.467557,40.4681],[31.46774,40.467093],[31.46829,40.466543],[31.469847,40.465352],[31.470305,40.463246],[31.470397,40.460865],[31.470397,40.455919],[31.469206,40.452621],[31.465909,40.445111],[31.461787,40.440623],[31.458398,40.437234],[31.456383,40.435219],[31.454643,40.433387],[31.451163,40.430548],[31.449239,40.428808],[31.4464,40.424961],[31.443561,40.421023],[31.442187,40.418733],[31.441271,40.416077],[31.440813,40.41223],[31.440538,40.406826],[31.44063,40.402155],[31.441546,40.398217],[31.44237,40.392263],[31.44292,40.387501],[31.44237,40.382463],[31.440996,40.377701],[31.438065,40.373945],[31.43431,40.370007],[31.431288,40.366985],[31.42937,40.36464],[31.426678,40.366215],[31.421475,40.367997],[31.414703,40.37042],[31.406541,40.371062],[31.396846,40.371727],[31.388957,40.371727],[31.380593,40.371537],[31.375461,40.371537],[31.372515,40.370682],[31.368523,40.368115],[31.361394,40.36612],[31.356072,40.364694],[31.351035,40.364979],[31.340199,40.364979],[31.334117,40.364979],[31.33027,40.364795],[31.326956,40.364314],[31.324291,40.363244],[31.320941,40.36132],[31.317377,40.359965],[31.310961,40.358825],[31.300839,40.356401],[31.293069,40.354477],[31.283018,40.352552],[31.278599,40.351554],[31.272896,40.350627],[31.267977,40.349415],[31.264413,40.348275],[31.258283,40.345352],[31.253649,40.342358],[31.248089,40.337867],[31.241389,40.335444],[31.237967,40.334945],[31.227132,40.335159],[31.217437,40.337083],[31.209454,40.339364],[31.20482,40.341004],[31.200258,40.344283],[31.196195,40.345994],[31.194056,40.346421],[31.187926,40.346778],[31.182936,40.348061],[31.179158,40.349059],[31.174738,40.349914],[31.171602,40.350342],[31.166755,40.350485],[31.160981,40.349914],[31.155777,40.349772],[31.15036,40.350271],[31.145156,40.351483],[31.140522,40.353906],[31.137029,40.356187],[31.134321,40.358825],[31.13204,40.360678],[31.129117,40.361605],[31.126266,40.361961],[31.123272,40.362246],[31.119565,40.36246],[31.115644,40.362389],[31.110156,40.361605],[31.105237,40.359965],[31.095899,40.357684],[31.093903,40.356758],[31.087773,40.353051],[31.08207,40.348489],[31.076184,40.343638],[31.071781,40.347201],[31.066508,40.350184],[31.062969,40.352682],[31.059847,40.355805],[31.057557,40.358094],[31.054435,40.360107],[31.049231,40.361702],[31.045553,40.362813],[31.039656,40.36538],[31.034035,40.3676],[31.028207,40.370722],[31.024946,40.372526],[31.020991,40.374539],[31.019187,40.376273],[31.017869,40.380367],[31.01662,40.384877],[31.016342,40.38675],[31.017244,40.38904],[31.018632,40.391052],[31.020158,40.392718],[31.021754,40.395215],[31.023489,40.398546],[31.02557,40.40264],[31.02786,40.406803],[31.030219,40.409925],[31.032856,40.413394],[31.03459,40.4161],[31.035701,40.418459],[31.036048,40.419917],[31.035562,40.423525],[31.034105,40.425467],[31.031121,40.428867],[31.028831,40.431434],[31.025223,40.435736],[31.023003,40.437749],[31.020228,40.439206],[31.015995,40.439969],[31.012942,40.44094],[31.007461,40.443299],[31.001286,40.448711],[30.997122,40.451417],[30.995041,40.454678],[30.992265,40.458703],[30.991086,40.460923],[30.991086,40.463421],[30.991363,40.466127],[30.993167,40.469874],[30.993931,40.473482],[30.994,40.475425],[30.993514,40.478269],[30.99171,40.482224],[30.989906,40.487567],[30.988657,40.491591],[30.988102,40.493673],[30.986368,40.498669],[30.983592,40.502554],[30.980331,40.504775],[30.974989,40.507411],[30.971311,40.508521],[30.966315,40.509493],[30.957712,40.509354],[30.953132,40.508868],[30.945292,40.508868],[30.927321,40.510464],[30.923505,40.511019],[30.90935,40.513586],[30.901302,40.514835],[30.888743,40.516154],[30.885967,40.516778],[30.882151,40.518235],[30.880417,40.519623],[30.878682,40.520594],[30.877017,40.521496],[30.874305,40.52232],[30.875481,40.52371],[30.876551,40.525153],[30.877085,40.525688],[30.877085,40.525875],[30.877085,40.526062],[30.876444,40.527185],[30.875802,40.52804],[30.875642,40.528895],[30.876176,40.529965],[30.877299,40.531301],[30.878315,40.53221],[30.880293,40.5336],[30.881095,40.534402],[30.882378,40.535739],[30.882538,40.53638],[30.882538,40.536674],[30.882538,40.536968],[30.882004,40.537717],[30.880934,40.538626],[30.880026,40.539053],[30.878689,40.539481],[30.876283,40.54039],[30.874465,40.541299],[30.873236,40.541833],[30.872888,40.541994],[30.872541,40.542154],[30.872006,40.54301],[30.871792,40.544346],[30.871472,40.546431],[30.871311,40.547821],[30.871418,40.548784],[30.871739,40.550601],[30.872167,40.552526],[30.872487,40.553969],[30.873236,40.556161],[30.87345,40.557712],[30.873396,40.559476],[30.873503,40.564395],[30.874038,40.567442],[30.875107,40.568565],[30.877352,40.569527],[30.880721,40.570222],[30.884142,40.570917],[30.886013,40.571826],[30.886226,40.573099],[30.886227,40.573109],[30.886025,40.573571],[30.885853,40.573964],[30.885158,40.575141],[30.884142,40.576156],[30.88195,40.577814],[30.881224,40.578449],[30.880239,40.579311],[30.880055,40.579448],[30.87975,40.579675],[30.878795,40.580386],[30.878381,40.580694],[30.876613,40.583201],[30.874103,40.58528],[30.873917,40.58675],[30.873848,40.587296],[30.873278,40.591704],[30.873131,40.592935],[30.873063,40.593725],[30.873046,40.594121],[30.873044,40.594518],[30.873057,40.594915],[30.873083,40.595311],[30.873123,40.595707],[30.873176,40.596102],[30.873243,40.596492],[30.873321,40.59688],[30.873504,40.597655],[30.873724,40.598468],[30.873975,40.599318],[30.874246,40.600165],[30.874546,40.601004],[30.874712,40.60142],[30.874894,40.60183],[30.875101,40.602244],[30.875324,40.602652],[30.875803,40.60346],[30.876821,40.60506],[30.879162,40.608646],[30.879696,40.609435],[30.87997,40.609826],[30.880253,40.610212],[30.880743,40.610836],[30.881002,40.61114],[30.881271,40.611438],[30.881555,40.611728],[30.881899,40.61205],[30.882989,40.612983],[30.883732,40.613634],[30.884459,40.614297],[30.885532,40.615307],[30.886236,40.615986],[30.886929,40.616673],[30.887269,40.61702],[30.887946,40.617735],[30.888939,40.618821],[30.893858,40.62428],[30.89483,40.625377],[30.895507,40.62622],[30.895747,40.626494],[30.896026,40.626876],[30.896281,40.627266],[30.896504,40.627658],[30.896703,40.628058],[30.896883,40.628464],[30.897048,40.628874],[30.8972,40.629288],[30.897338,40.629705],[30.897461,40.630124],[30.897566,40.630545],[30.897649,40.630969],[30.897702,40.631363],[30.897735,40.631758],[30.897752,40.632154],[30.897749,40.63295],[30.89773,40.633381],[30.897668,40.634244],[30.897546,40.635539],[30.896884,40.642007],[30.897425,40.644086],[30.900521,40.64638],[30.910411,40.649178],[30.910817,40.649293],[30.911156,40.648239],[30.911637,40.646743],[30.912518,40.644688],[30.913594,40.642339],[30.91505,40.641018],[30.916812,40.639697],[30.923623,40.637791],[30.932863,40.636337],[30.935857,40.635653],[30.948518,40.636252],[30.958271,40.636936],[30.963832,40.637791],[30.969221,40.638904],[30.9729,40.640443],[30.975295,40.641727],[30.979402,40.643694],[30.982738,40.645234],[30.987015,40.646517],[30.992576,40.64763],[30.995741,40.647801],[31.000105,40.647715],[31.005836,40.6484],[31.009344,40.648913],[31.012167,40.650196],[31.015247,40.652677],[31.020038,40.654816],[31.023203,40.655671],[31.029534,40.657126],[31.032186,40.657639],[31.037062,40.658751],[31.051006,40.662173],[31.053231,40.66243],[31.061615,40.663542],[31.064791,40.663617]]]}},{"type":"Feature","properties":{"id":"TR-D-14-008","parent_id":"TR-P-14","region_id":"TR-R-KAR","level":"district","municipality_type":null,"municipality_type_label":null,"is_metropolitan_municipality":null,"name":"Seben","name_ascii":"seben","slug":"seben-bolu"},"geometry":{"type":"Polygon","coordinates":[[[31.695392,40.309982],[31.693268,40.310008],[31.691474,40.309806],[31.690974,40.309676],[31.690006,40.309423],[31.68915,40.3092],[31.688628,40.309037],[31.68831,40.308937],[31.688257,40.30892],[31.687905,40.30881],[31.687457,40.308669],[31.685587,40.307886],[31.685284,40.307684],[31.684981,40.307482],[31.683616,40.307002],[31.682202,40.306724],[31.681911,40.30656],[31.68162,40.306395],[31.680985,40.306292],[31.680534,40.306219],[31.680294,40.306092],[31.680096,40.305988],[31.680054,40.305966],[31.679549,40.305764],[31.679373,40.305742],[31.679144,40.305713],[31.678412,40.305637],[31.678083,40.305562],[31.677755,40.305486],[31.676315,40.305107],[31.675152,40.304829],[31.673411,40.304008],[31.673384,40.303995],[31.670857,40.30354],[31.66972,40.303111],[31.667598,40.302302],[31.664821,40.301769],[31.663525,40.301716],[31.659625,40.30104],[31.65772,40.299873],[31.650212,40.296072],[31.643844,40.2917],[31.640422,40.289513],[31.635765,40.287327],[31.630917,40.285712],[31.62512,40.283431],[31.620463,40.281054],[31.61457,40.278203],[31.60459,40.273451],[31.597557,40.27098],[31.592044,40.268889],[31.585391,40.267178],[31.577312,40.266608],[31.562485,40.269554],[31.543952,40.274782],[31.535302,40.278678],[31.52941,40.280959],[31.51962,40.285807],[31.510021,40.291319],[31.505375,40.293078],[31.501241,40.296571],[31.492972,40.302059],[31.489622,40.303913],[31.487768,40.304982],[31.48342,40.30819],[31.474011,40.314962],[31.468379,40.31874],[31.464173,40.321163],[31.460039,40.323017],[31.452483,40.326795],[31.449275,40.329147],[31.445711,40.336489],[31.444642,40.338842],[31.443501,40.341836],[31.440792,40.349605],[31.437585,40.355166],[31.433308,40.360726],[31.430456,40.364005],[31.42937,40.36464],[31.431288,40.366985],[31.43431,40.370007],[31.438065,40.373945],[31.440996,40.377701],[31.44237,40.382463],[31.44292,40.387501],[31.44237,40.392263],[31.441546,40.398217],[31.44063,40.402155],[31.440538,40.406826],[31.440813,40.41223],[31.441271,40.416077],[31.442187,40.418733],[31.443561,40.421023],[31.4464,40.424961],[31.449239,40.428808],[31.451163,40.430548],[31.454643,40.433387],[31.456383,40.435219],[31.458398,40.437234],[31.461787,40.440623],[31.465909,40.445111],[31.469206,40.452621],[31.470397,40.455919],[31.470397,40.460865],[31.470305,40.463246],[31.469847,40.465352],[31.46829,40.466543],[31.46774,40.467093],[31.467557,40.4681],[31.467466,40.469291],[31.466916,40.471031],[31.466458,40.471855],[31.465542,40.47268],[31.46426,40.473687],[31.463527,40.47442],[31.462245,40.475977],[31.462062,40.47671],[31.46197,40.478358],[31.46197,40.478633],[31.461879,40.479091],[31.461329,40.479366],[31.460871,40.479366],[31.460047,40.479641],[31.459497,40.480098],[31.459497,40.480923],[31.459772,40.483121],[31.460139,40.484037],[31.461054,40.484128],[31.461696,40.484312],[31.462428,40.485044],[31.46252,40.48651],[31.46252,40.487517],[31.462795,40.48825],[31.463711,40.489258],[31.463802,40.490448],[31.464168,40.492005],[31.465176,40.493104],[31.466733,40.493745],[31.467557,40.494295],[31.467466,40.494936],[31.466825,40.496127],[31.466916,40.496768],[31.467832,40.497501],[31.468931,40.498508],[31.469114,40.499058],[31.469206,40.499974],[31.470305,40.501073],[31.471496,40.502172],[31.472045,40.502721],[31.472686,40.502721],[31.475068,40.502904],[31.4769,40.502996],[31.478548,40.502721],[31.479281,40.502813],[31.480655,40.503179],[31.481387,40.503912],[31.483128,40.505469],[31.484868,40.506751],[31.486425,40.507576],[31.487432,40.508217],[31.48844,40.508491],[31.490089,40.5084],[31.491737,40.5084],[31.492561,40.508949],[31.493111,40.51014],[31.493752,40.511239],[31.494302,40.512247],[31.49476,40.512705],[31.496133,40.512979],[31.497324,40.513804],[31.499064,40.515178],[31.499614,40.515819],[31.500621,40.516368],[31.501446,40.516643],[31.502178,40.517101],[31.502362,40.517742],[31.502362,40.518841],[31.502362,40.519482],[31.502453,40.520123],[31.502636,40.520673],[31.503552,40.521955],[31.504468,40.523146],[31.504835,40.523879],[31.505292,40.525252],[31.505292,40.525985],[31.505476,40.52681],[31.506278,40.527163],[31.506868,40.52739],[31.507277,40.527754],[31.507777,40.528026],[31.508913,40.528254],[31.51064,40.528435],[31.511367,40.528526],[31.512231,40.52889],[31.512776,40.529344],[31.513185,40.529662],[31.51364,40.529753],[31.513912,40.530026],[31.514412,40.530935],[31.514776,40.531344],[31.515684,40.531753],[31.516275,40.531889],[31.517048,40.531889],[31.51782,40.531798],[31.518411,40.531798],[31.519047,40.53198],[31.51982,40.532389],[31.520456,40.532707],[31.521319,40.53298],[31.522137,40.533343],[31.522774,40.533479],[31.523728,40.533389],[31.524137,40.533479],[31.52441,40.533843],[31.524819,40.534434],[31.525364,40.534706],[31.525909,40.534706],[31.526773,40.534616],[31.527409,40.534706],[31.527772,40.534934],[31.528818,40.535434],[31.529681,40.535661],[31.530544,40.535615],[31.531135,40.535343],[31.53159,40.535252],[31.532044,40.535297],[31.532271,40.535524],[31.532453,40.536161],[31.532771,40.536388],[31.533453,40.536524],[31.534725,40.536888],[31.535498,40.537251],[31.536407,40.537751],[31.536861,40.538251],[31.537497,40.539024],[31.537952,40.539433],[31.539042,40.539751],[31.541133,40.540114],[31.541951,40.540432],[31.542678,40.540887],[31.543405,40.541296],[31.543905,40.541341],[31.545041,40.541614],[31.545722,40.541614],[31.546041,40.541796],[31.546677,40.542432],[31.547358,40.542977],[31.547995,40.543295],[31.548994,40.54325],[31.549903,40.543068],[31.550585,40.543023],[31.551312,40.543159],[31.552407,40.543777],[31.553147,40.543919],[31.553943,40.543919],[31.555195,40.543635],[31.556362,40.543436],[31.557386,40.543208],[31.558325,40.542952],[31.558923,40.542696],[31.559634,40.542212],[31.560118,40.541956],[31.560573,40.541956],[31.56137,40.541984],[31.562394,40.541842],[31.563048,40.541728],[31.563475,40.541586],[31.563731,40.541159],[31.564073,40.540789],[31.564926,40.540363],[31.565638,40.540135],[31.566634,40.540277],[31.567658,40.540249],[31.568341,40.539993],[31.569166,40.539623],[31.569678,40.539623],[31.57056,40.539907],[31.572381,40.540732],[31.57332,40.541131],[31.574231,40.541415],[31.57497,40.5417],[31.575397,40.541928],[31.576222,40.542753],[31.576934,40.543236],[31.577531,40.543492],[31.5781,40.54372],[31.579068,40.543976],[31.580348,40.544118],[31.580889,40.544147],[31.58123,40.544261],[31.581742,40.544517],[31.582198,40.544887],[31.582653,40.545114],[31.583478,40.545257],[31.584702,40.545228],[31.586181,40.545342],[31.587988,40.545731],[31.588785,40.545883],[31.589847,40.546072],[31.590568,40.546376],[31.591099,40.546376],[31.592123,40.546376],[31.592579,40.546452],[31.593299,40.546869],[31.593831,40.547172],[31.594475,40.547286],[31.595234,40.547135],[31.596448,40.546603],[31.597624,40.546414],[31.598952,40.546338],[31.599787,40.546262],[31.600659,40.546072],[31.60157,40.545883],[31.602139,40.545958],[31.603049,40.546414],[31.603732,40.546717],[31.604681,40.546869],[31.605478,40.546945],[31.606388,40.547362],[31.607336,40.549107],[31.608133,40.550625],[31.609006,40.552218],[31.610106,40.553698],[31.612686,40.556278],[31.614317,40.557226],[31.616897,40.559275],[31.620273,40.562765],[31.620918,40.56341],[31.621487,40.564017],[31.622322,40.56451],[31.622891,40.564776],[31.623271,40.565212],[31.623157,40.56561],[31.622436,40.565762],[31.621791,40.565952],[31.621184,40.566293],[31.620387,40.566749],[31.619742,40.567014],[31.619287,40.567052],[31.61868,40.566786],[31.618073,40.566445],[31.617542,40.566217],[31.617011,40.566255],[31.616783,40.566483],[31.616631,40.566824],[31.616593,40.567242],[31.616555,40.567507],[31.616214,40.568001],[31.615759,40.568456],[31.615645,40.568759],[31.615797,40.568987],[31.61629,40.56929],[31.616707,40.569594],[31.616859,40.569859],[31.616897,40.570201],[31.616859,40.57058],[31.616555,40.570732],[31.615948,40.571529],[31.615341,40.572515],[31.614621,40.574033],[31.614089,40.574981],[31.613331,40.57593],[31.613065,40.576575],[31.613065,40.577485],[31.613141,40.578244],[31.613558,40.578737],[31.614014,40.578851],[31.614507,40.578775],[31.615076,40.578547],[31.615911,40.578092],[31.617656,40.576764],[31.618794,40.576043],[31.619515,40.575323],[31.620577,40.574602],[31.621298,40.574412],[31.622094,40.574564],[31.622588,40.575285],[31.623308,40.576119],[31.62384,40.576499],[31.624295,40.57665],[31.625395,40.576612],[31.626951,40.576916],[31.627671,40.577295],[31.628278,40.57794],[31.628696,40.578547],[31.628999,40.578965],[31.62953,40.579268],[31.630213,40.579268],[31.631124,40.579078],[31.632376,40.578851],[31.633552,40.578775],[31.634311,40.578965],[31.634842,40.579344],[31.635411,40.580179],[31.635828,40.580899],[31.636245,40.581279],[31.636511,40.581848],[31.636511,40.582341],[31.636245,40.582721],[31.635942,40.583517],[31.63579,40.584162],[31.635752,40.584466],[31.63598,40.584902],[31.63579,40.585224],[31.635525,40.58549],[31.635449,40.585945],[31.635904,40.586211],[31.636283,40.586419],[31.636169,40.586742],[31.635525,40.587045],[31.634348,40.587463],[31.633969,40.587652],[31.633817,40.587918],[31.633931,40.588297],[31.634311,40.588525],[31.634955,40.588525],[31.635562,40.588525],[31.636587,40.588904],[31.63744,40.589284],[31.637649,40.589663],[31.638104,40.590005],[31.638787,40.590346],[31.639053,40.590612],[31.639015,40.590877],[31.638787,40.591067],[31.638484,40.59137],[31.638522,40.591674],[31.638977,40.591902],[31.639394,40.592053],[31.639849,40.592129],[31.640608,40.592319],[31.640988,40.592888],[31.641557,40.593267],[31.642012,40.593002],[31.642315,40.592774],[31.642885,40.592433],[31.643567,40.592357],[31.643947,40.592698],[31.643947,40.593116],[31.643795,40.593381],[31.643302,40.593495],[31.642904,40.593647],[31.64315,40.59414],[31.643492,40.594368],[31.643909,40.594443],[31.644212,40.594671],[31.644212,40.595164],[31.644288,40.595619],[31.644706,40.595885],[31.645199,40.595885],[31.645578,40.595657],[31.645901,40.595259],[31.645502,40.594823],[31.645161,40.594595],[31.645123,40.594216],[31.645654,40.594178],[31.645995,40.59414],[31.646527,40.59414],[31.647437,40.594443],[31.648234,40.594633],[31.648575,40.594975],[31.648727,40.595506],[31.648537,40.595809],[31.648651,40.596264],[31.649144,40.596378],[31.649562,40.596113],[31.649941,40.596113],[31.650624,40.596378],[31.651079,40.596834],[31.651648,40.597061],[31.652141,40.596682],[31.652179,40.596151],[31.652028,40.595771],[31.652141,40.595468],[31.652673,40.595259],[31.653128,40.595582],[31.653355,40.595999],[31.653659,40.596227],[31.654152,40.596227],[31.654607,40.596037],[31.654949,40.596037],[31.655139,40.596264],[31.655177,40.59672],[31.65567,40.597137],[31.656277,40.59763],[31.657035,40.598275],[31.657453,40.598541],[31.65787,40.59873],[31.658287,40.598996],[31.658515,40.5993],[31.658894,40.599375],[31.659464,40.599356],[31.659919,40.599394],[31.659843,40.599717],[31.659881,40.60002],[31.660298,40.600495],[31.660298,40.600855],[31.66026,40.601158],[31.660412,40.601576],[31.660545,40.601898],[31.661019,40.601879],[31.661664,40.601879],[31.663068,40.602069],[31.663788,40.602107],[31.664244,40.602107],[31.665116,40.602069],[31.665685,40.602259],[31.666065,40.602828],[31.666103,40.603511],[31.666103,40.604004],[31.666292,40.604231],[31.666861,40.604231],[31.66762,40.60408],[31.668531,40.60408],[31.6691,40.603852],[31.669517,40.603283],[31.670271,40.60245],[31.6708,40.601921],[31.671253,40.60177],[31.672387,40.602224],[31.673671,40.60313],[31.674653,40.604188],[31.676089,40.605322],[31.681454,40.609402],[31.685308,40.612047],[31.688708,40.615371],[31.689539,40.616429],[31.690068,40.618091],[31.690446,40.61862],[31.690446,40.619225],[31.690295,40.619754],[31.689955,40.620094],[31.690446,40.620736],[31.693922,40.623607],[31.698682,40.626328],[31.69989,40.626775],[31.699837,40.618693],[31.700155,40.607716],[31.700314,40.600876],[31.700791,40.590535],[31.703337,40.578286],[31.705882,40.570491],[31.707155,40.562219],[31.710018,40.55156],[31.713041,40.540902],[31.716222,40.534697],[31.720358,40.527698],[31.72354,40.522766],[31.728154,40.510039],[31.731335,40.498745],[31.732131,40.491586],[31.731111,40.484367],[31.730127,40.481414],[31.724937,40.469781],[31.722789,40.459759],[31.721805,40.450095],[31.723147,40.43533],[31.723595,40.434077],[31.724848,40.430677],[31.725653,40.427992],[31.726995,40.41976],[31.726279,40.411169],[31.725832,40.402758],[31.727353,40.395778],[31.730038,40.389067],[31.734601,40.381819],[31.738002,40.377523],[31.740328,40.371259],[31.741313,40.36598],[31.742208,40.357837],[31.740686,40.350141],[31.740686,40.344772],[31.743281,40.337345],[31.746005,40.330406],[31.743367,40.328838],[31.739447,40.326129],[31.735027,40.322423],[31.731605,40.319072],[31.722838,40.315009],[31.719273,40.313726],[31.714284,40.312443],[31.706941,40.310946],[31.706654,40.310874],[31.706366,40.310802],[31.703147,40.310211],[31.700166,40.309907],[31.697336,40.309933],[31.695392,40.309982]]]}},{"type":"Feature","properties":{"id":"TR-D-14-009","parent_id":"TR-P-14","region_id":"TR-R-KAR","level":"district","municipality_type":null,"municipality_type_label":null,"is_metropolitan_municipality":null,"name":"Yeniçağa","name_ascii":"yenicaga","slug":"yenicaga-bolu"},"geometry":{"type":"Polygon","coordinates":[[[31.973423,40.739443],[31.971382,40.742314],[31.968964,40.74579],[31.967831,40.747755],[31.963373,40.752968],[31.959897,40.756142],[31.953928,40.761507],[31.949394,40.766192],[31.947052,40.769516],[31.945616,40.773143],[31.944785,40.774957],[31.943198,40.778659],[31.940629,40.783646],[31.938816,40.79022],[31.938967,40.795207],[31.938513,40.797096],[31.937078,40.799741],[31.933526,40.804728],[31.930957,40.809639],[31.929144,40.812586],[31.924383,40.81848],[31.9219,40.823482],[31.927256,40.824045],[31.938249,40.825948],[31.947974,40.828415],[31.955374,40.831233],[31.960377,40.832643],[31.965099,40.833418],[31.96975,40.834546],[31.973837,40.836096],[31.977995,40.838069],[31.98328,40.839267],[31.985958,40.83976],[31.989693,40.840254],[31.991666,40.840747],[31.992935,40.840888],[31.997797,40.840888],[32.002448,40.841663],[32.005408,40.84265],[32.007452,40.844059],[32.010552,40.847089],[32.013019,40.848992],[32.014146,40.849485],[32.020066,40.850331],[32.024576,40.851106],[32.02965,40.852586],[32.033385,40.853432],[32.040573,40.855405],[32.046422,40.856321],[32.05065,40.857026],[32.054033,40.857942],[32.056781,40.858294],[32.059036,40.858294],[32.061362,40.858012],[32.066999,40.857237],[32.070523,40.856814],[32.073483,40.856321],[32.079332,40.856532],[32.084053,40.857096],[32.089621,40.858012],[32.095117,40.858717],[32.097654,40.858717],[32.099839,40.858717],[32.103785,40.858012],[32.108789,40.857378],[32.114426,40.856603],[32.121473,40.856603],[32.127534,40.856251],[32.135004,40.854841],[32.140994,40.853855],[32.146772,40.851529],[32.152833,40.849626],[32.150217,40.845083],[32.146645,40.839679],[32.143347,40.833085],[32.142065,40.828689],[32.13831,40.819896],[32.135196,40.81495],[32.130983,40.81147],[32.128693,40.809088],[32.125396,40.805516],[32.120908,40.801853],[32.116878,40.799654],[32.11413,40.798189],[32.110283,40.795533],[32.10836,40.793518],[32.105704,40.79077],[32.103964,40.787748],[32.102315,40.78445],[32.101491,40.781978],[32.101582,40.776116],[32.101949,40.773093],[32.104261,40.768799],[32.098781,40.765653],[32.093867,40.763751],[32.091014,40.762958],[32.083643,40.76066],[32.076906,40.757965],[32.071279,40.756539],[32.063828,40.755112],[32.057488,40.754716],[32.050592,40.755191],[32.044331,40.756142],[32.040526,40.75638],[32.034899,40.755984],[32.032759,40.755508],[32.028162,40.754319],[32.022614,40.753447],[32.016035,40.752734],[32.012548,40.752655],[32.00803,40.752338],[32.003116,40.75099],[31.994239,40.747186],[31.988929,40.744887],[31.983935,40.743382],[31.977436,40.741083],[31.973423,40.739443]]]}}]}