{"type":"FeatureCollection","province":"Burdur","province_id":"TR-P-15","features":[{"type":"Feature","properties":{"id":"TR-D-15-001","parent_id":"TR-P-15","region_id":"TR-R-AKD","level":"district","municipality_type":null,"municipality_type_label":null,"is_metropolitan_municipality":null,"name":"Ağlasun","name_ascii":"aglasun","slug":"aglasun-burdur"},"geometry":{"type":"Polygon","coordinates":[[[30.754217,37.57233],[30.754305,37.571949],[30.75454,37.571076],[30.754946,37.569775],[30.757114,37.563288],[30.758534,37.558953],[30.758826,37.558088],[30.759136,37.557232],[30.759305,37.556809],[30.759489,37.556392],[30.759693,37.555984],[30.759926,37.555588],[30.760194,37.555208],[30.760492,37.554842],[30.760813,37.554486],[30.761155,37.554141],[30.761516,37.553807],[30.761895,37.553485],[30.762284,37.553182],[30.762719,37.552868],[30.762751,37.552846],[30.76352,37.552321],[30.765208,37.551203],[30.766029,37.550625],[30.766256,37.550452],[30.766296,37.550422],[30.76634,37.550388],[30.766805,37.550013],[30.767174,37.549693],[30.767564,37.549339],[30.767575,37.549328],[30.767592,37.549312],[30.768241,37.548698],[30.768933,37.54802],[30.769498,37.547457],[30.769961,37.546996],[30.774201,37.542747],[30.774271,37.542677],[30.775425,37.54152],[30.776118,37.540819],[30.776783,37.540146],[30.777454,37.539453],[30.778449,37.538404],[30.780529,37.536175],[30.782056,37.534539],[30.782071,37.534523],[30.78145,37.53445],[30.780538,37.534367],[30.778205,37.534606],[30.775993,37.534666],[30.773959,37.534785],[30.770132,37.535024],[30.767561,37.534965],[30.764451,37.534486],[30.759787,37.534127],[30.756916,37.534426],[30.755601,37.535264],[30.753149,37.53622],[30.751056,37.537058],[30.748724,37.537476],[30.746152,37.538373],[30.74394,37.538852],[30.741069,37.53927],[30.738498,37.53939],[30.732877,37.540167],[30.727555,37.541363],[30.72295,37.543277],[30.720558,37.544234],[30.717807,37.546745],[30.715296,37.549616],[30.71404,37.550513],[30.710452,37.552307],[30.70507,37.554161],[30.698731,37.556433],[30.694485,37.557988],[30.690419,37.560141],[30.684917,37.561935],[30.680492,37.56343],[30.678279,37.564087],[30.675947,37.564087],[30.674093,37.564626],[30.670744,37.565822],[30.666857,37.566838],[30.664944,37.567556],[30.662313,37.567915],[30.659203,37.569709],[30.656392,37.570905],[30.653642,37.571682],[30.650472,37.571682],[30.644432,37.570426],[30.638692,37.569469],[30.63624,37.568572],[30.632353,37.5663],[30.629961,37.564566],[30.625715,37.562174],[30.620871,37.559064],[30.612559,37.554818],[30.607895,37.553622],[30.602632,37.552486],[30.59731,37.551111],[30.590253,37.549496],[30.583735,37.547702],[30.577994,37.547044],[30.571715,37.548061],[30.565795,37.550034],[30.563702,37.549915],[30.560892,37.549676],[30.556108,37.547642],[30.552759,37.545848],[30.551324,37.544353],[30.550247,37.542918],[30.549253,37.542111],[30.547709,37.540023],[30.546438,37.53921],[30.54481,37.541702],[30.541453,37.546534],[30.539876,37.548264],[30.538604,37.54923],[30.537129,37.550858],[30.535705,37.553096],[30.532628,37.556877],[30.531678,37.55864],[30.528898,37.564812],[30.525235,37.570577],[30.521437,37.573764],[30.517368,37.576477],[30.51452,37.578105],[30.510857,37.579665],[30.509433,37.580343],[30.506788,37.581496],[30.501295,37.584141],[30.4977,37.58604],[30.495123,37.5876],[30.493427,37.58882],[30.48929,37.592076],[30.485967,37.593975],[30.481559,37.595602],[30.478236,37.595874],[30.473081,37.596009],[30.467132,37.596712],[30.46709,37.597817],[30.466622,37.599305],[30.466537,37.600835],[30.466877,37.602195],[30.468152,37.604022],[30.46913,37.60602],[30.469937,37.60942],[30.47049,37.611375],[30.47032,37.61299],[30.470192,37.615753],[30.469512,37.620215],[30.468492,37.623318],[30.468195,37.625995],[30.468067,37.629778],[30.4676,37.633985],[30.465772,37.637853],[30.464412,37.641423],[30.463775,37.645546],[30.46369,37.649711],[30.464625,37.652388],[30.46624,37.655193],[30.46726,37.657276],[30.467727,37.662121],[30.46828,37.664416],[30.46862,37.666541],[30.46913,37.668241],[30.470107,37.669771],[30.47168,37.671981],[30.47406,37.674829],[30.47576,37.676359],[30.477078,37.677039],[30.47865,37.678399],[30.481073,37.680566],[30.48358,37.682479],[30.48528,37.683541],[30.48749,37.683966],[30.489955,37.683796],[30.491783,37.683074],[30.495055,37.682946],[30.49973,37.683371],[30.503811,37.685029],[30.506361,37.686644],[30.508486,37.686856],[30.510993,37.687919],[30.512991,37.689449],[30.514733,37.691446],[30.515966,37.694379],[30.516943,37.697057],[30.518044,37.70052],[30.519083,37.700447],[30.523475,37.699959],[30.526647,37.6988],[30.531771,37.697519],[30.534211,37.696787],[30.537932,37.695628],[30.54147,37.694042],[30.544154,37.692639],[30.546655,37.690321],[30.549705,37.68904],[30.552998,37.688552],[30.555492,37.688019],[30.55723,37.687836],[30.560067,37.686921],[30.562583,37.686646],[30.564093,37.686738],[30.566883,37.687744],[30.569171,37.688659],[30.571458,37.688842],[30.573837,37.689025],[30.575484,37.688568],[30.578321,37.687973],[30.580974,37.687378],[30.583033,37.686875],[30.585275,37.686738],[30.586739,37.686417],[30.588386,37.685685],[30.591359,37.684313],[30.592915,37.683215],[30.593555,37.682025],[30.594425,37.680058],[30.59534,37.67864],[30.595889,37.676718],[30.596255,37.674706],[30.597307,37.67251],[30.598359,37.67164],[30.59932,37.670771],[30.599526,37.670542],[30.599732,37.670314],[30.600235,37.669719],[30.600692,37.668804],[30.600967,37.66798],[30.601104,37.667774],[30.601241,37.667569],[30.60179,37.666928],[30.602431,37.666516],[30.603437,37.666288],[30.604215,37.666105],[30.605084,37.66583],[30.60577,37.665327],[30.606457,37.664595],[30.607234,37.663588],[30.608104,37.662673],[30.608927,37.66217],[30.609934,37.661941],[30.611169,37.661941],[30.612953,37.662216],[30.615286,37.662536],[30.618718,37.662582],[30.620548,37.662033],[30.623109,37.661941],[30.625946,37.662079],[30.629514,37.662536],[30.631985,37.662536],[30.634867,37.661713],[30.637292,37.66153],[30.640449,37.661118],[30.644246,37.661164],[30.647814,37.661392],[30.650651,37.661896],[30.651497,37.661728],[30.653754,37.661423],[30.654913,37.661362],[30.656072,37.661484],[30.657048,37.661301],[30.657841,37.660691],[30.659122,37.660386],[30.660952,37.660142],[30.663331,37.66002],[30.665466,37.659959],[30.667479,37.660386],[30.668943,37.660813],[30.670346,37.661118],[30.672054,37.661057],[30.67364,37.660874],[30.674738,37.66063],[30.676385,37.660325],[30.677849,37.659898],[30.678947,37.65941],[30.679679,37.658861],[30.680716,37.658373],[30.682546,37.658312],[30.683461,37.657763],[30.684254,37.657092],[30.68523,37.657153],[30.686267,37.657336],[30.687426,37.657519],[30.68828,37.656909],[30.689805,37.655933],[30.691879,37.655506],[30.692977,37.654835],[30.693831,37.65392],[30.695111,37.653005],[30.697368,37.652151],[30.698344,37.652029],[30.700418,37.65209],[30.701577,37.651541],[30.701913,37.651541],[30.702248,37.651541],[30.702919,37.652029],[30.704505,37.65331],[30.70603,37.65392],[30.708043,37.654774],[30.709629,37.655872],[30.711154,37.656665],[30.713106,37.657519],[30.714509,37.658068],[30.715668,37.658373],[30.716705,37.658678],[30.717498,37.659532],[30.718108,37.660081],[30.720426,37.660569],[30.721768,37.66063],[30.722622,37.660325],[30.723232,37.660142],[30.723507,37.660233],[30.723781,37.660325],[30.724208,37.660935],[30.724757,37.661362],[30.724971,37.66127],[30.725184,37.661179],[30.725367,37.660264],[30.72555,37.659044],[30.725611,37.658129],[30.726221,37.657397],[30.726953,37.657092],[30.727075,37.65697],[30.727197,37.656848],[30.727258,37.656238],[30.727197,37.656024],[30.727136,37.655811],[30.72677,37.655384],[30.725733,37.65392],[30.725428,37.653127],[30.725611,37.652456],[30.725733,37.651419],[30.725733,37.651145],[30.725733,37.65087],[30.724696,37.650077],[30.724086,37.649406],[30.723964,37.648125],[30.723964,37.647088],[30.725062,37.645624],[30.726038,37.644099],[30.726264,37.643688],[30.726709,37.642879],[30.727018,37.642108],[30.727197,37.641659],[30.727807,37.640683],[30.728539,37.63989],[30.729393,37.638853],[30.730064,37.637572],[30.730857,37.636352],[30.731406,37.635681],[30.732077,37.63501],[30.733175,37.634766],[30.733846,37.634217],[30.734386,37.633438],[30.736159,37.630683],[30.73686,37.626649],[30.738585,37.623248],[30.738612,37.623184],[30.738699,37.622972],[30.738938,37.622428],[30.739169,37.621933],[30.739803,37.620666],[30.740452,37.619417],[30.740897,37.618589],[30.741164,37.618115],[30.741358,37.617769],[30.741849,37.616964],[30.74211,37.61657],[30.742899,37.615456],[30.743138,37.61508],[30.743346,37.614696],[30.743507,37.614306],[30.743633,37.613906],[30.743731,37.613498],[30.743805,37.613085],[30.743859,37.612668],[30.743894,37.612249],[30.743909,37.611828],[30.743901,37.611406],[30.743868,37.610982],[30.743814,37.610559],[30.743666,37.609713],[30.743488,37.608866],[30.743196,37.607598],[30.742892,37.60633],[30.742576,37.605064],[30.742499,37.604774],[30.742353,37.60422],[30.741959,37.602851],[30.741748,37.602118],[30.741634,37.601698],[30.741532,37.601279],[30.741446,37.60086],[30.741385,37.600442],[30.741356,37.600011],[30.741363,37.599584],[30.741409,37.599164],[30.741502,37.598754],[30.741652,37.59836],[30.74185,37.598012],[30.742095,37.597679],[30.742375,37.597356],[30.742682,37.597041],[30.743008,37.596732],[30.743349,37.596428],[30.74406,37.595833],[30.7448,37.595253],[30.745187,37.594964],[30.745974,37.594396],[30.747954,37.592992],[30.748724,37.592419],[30.749097,37.592126],[30.749457,37.591826],[30.7498,37.591515],[30.750119,37.591192],[30.750422,37.590836],[30.7507,37.590465],[30.750959,37.590084],[30.751202,37.589695],[30.751485,37.589207],[30.75152,37.589142],[30.751536,37.589113],[30.75187,37.588498],[30.752072,37.588093],[30.752268,37.587669],[30.752275,37.587653],[30.752436,37.587273],[30.752588,37.586858],[30.752712,37.586438],[30.752801,37.586015],[30.752863,37.585588],[30.752906,37.585158],[30.752935,37.584725],[30.752967,37.583964],[30.752969,37.583921],[30.753026,37.582546],[30.75306,37.581937],[30.753099,37.581236],[30.753204,37.579971],[30.753377,37.578251],[30.753381,37.578217],[30.753389,37.578148],[30.753608,37.576181],[30.753714,37.57534],[30.753834,37.574489],[30.754042,37.573215],[30.754217,37.57233]]]}},{"type":"Feature","properties":{"id":"TR-D-15-002","parent_id":"TR-P-15","region_id":"TR-R-AKD","level":"district","municipality_type":null,"municipality_type_label":null,"is_metropolitan_municipality":null,"name":"Altınyayla","name_ascii":"altinyayla","slug":"altinyayla-burdur"},"geometry":{"type":"Polygon","coordinates":[[[29.597775,37.0479],[29.597457,37.045937],[29.597616,37.043019],[29.59873,37.041268],[29.59995,37.039835],[29.600481,37.03835],[29.600905,37.036334],[29.601064,37.031665],[29.601117,37.026784],[29.601701,37.023866],[29.603611,37.021266],[29.606688,37.014582],[29.607378,37.012566],[29.60881,37.006252],[29.612842,36.998878],[29.613532,36.994846],[29.613817,36.992157],[29.612235,36.992589],[29.609596,36.993527],[29.608701,36.994124],[29.608365,36.994347],[29.608011,36.994756],[29.606841,36.996106],[29.605258,36.997103],[29.603265,36.997513],[29.60262,36.997316],[29.601154,36.996869],[29.599395,36.99511],[29.598559,36.994144],[29.597109,36.992471],[29.594982,36.991098],[29.594295,36.990654],[29.593884,36.990612],[29.590308,36.990244],[29.588959,36.98913],[29.588784,36.987547],[29.588881,36.986091],[29.588959,36.984908],[29.588842,36.984029],[29.586966,36.98227],[29.585953,36.981625],[29.585676,36.981449],[29.585325,36.980746],[29.585207,36.980511],[29.585149,36.979339],[29.585149,36.978108],[29.585149,36.977052],[29.585618,36.975821],[29.586145,36.974648],[29.586087,36.973769],[29.585805,36.973066],[29.585618,36.972597],[29.585735,36.9716],[29.585794,36.97072],[29.585187,36.970251],[29.583214,36.968727],[29.581162,36.968024],[29.577644,36.967613],[29.576628,36.967105],[29.57612,36.966851],[29.574068,36.964623],[29.572602,36.963314],[29.572426,36.963157],[29.572083,36.962965],[29.570433,36.962043],[29.567502,36.96093],[29.563925,36.960636],[29.561991,36.959992],[29.558532,36.957881],[29.556011,36.955536],[29.555072,36.953425],[29.55431,36.950259],[29.553372,36.948794],[29.550148,36.946976],[29.545927,36.944572],[29.543699,36.943986],[29.543417,36.943887],[29.541529,36.943224],[29.539302,36.941993],[29.536546,36.938475],[29.535698,36.935618],[29.535432,36.934723],[29.535095,36.93314],[29.534846,36.931967],[29.534885,36.930365],[29.534904,36.929564],[29.534787,36.927922],[29.534025,36.926222],[29.532442,36.924815],[29.530714,36.923466],[29.530038,36.922939],[29.528045,36.921473],[29.527224,36.920007],[29.526052,36.917838],[29.5257,36.91649],[29.525465,36.91391],[29.522593,36.91133],[29.521397,36.910298],[29.520013,36.909102],[29.517248,36.907587],[29.515733,36.906757],[29.513798,36.905728],[29.512098,36.904823],[29.512037,36.904764],[29.510632,36.903416],[29.510053,36.902976],[29.508932,36.902126],[29.506998,36.900191],[29.506939,36.900077],[29.506059,36.898374],[29.505708,36.897142],[29.505356,36.892804],[29.505004,36.890341],[29.504125,36.88782],[29.503972,36.885878],[29.50389,36.88483],[29.503947,36.883629],[29.504008,36.882368],[29.504066,36.880199],[29.504477,36.879554],[29.503421,36.876329],[29.501487,36.87375],[29.499317,36.871932],[29.497734,36.870173],[29.497678,36.870112],[29.496445,36.868766],[29.495037,36.867008],[29.494222,36.866294],[29.492692,36.864956],[29.491082,36.86372],[29.490171,36.863021],[29.48853,36.86179],[29.486859,36.859753],[29.486126,36.858858],[29.484309,36.857393],[29.48126,36.855282],[29.479911,36.853464],[29.478094,36.852468],[29.47358,36.851178],[29.472055,36.850181],[29.47141,36.849185],[29.471147,36.84884],[29.470648,36.848188],[29.470157,36.847877],[29.468889,36.847074],[29.4676,36.846781],[29.465665,36.847074],[29.46203,36.848481],[29.45945,36.849185],[29.458004,36.849185],[29.457281,36.849185],[29.455562,36.849089],[29.454115,36.849009],[29.451829,36.847836],[29.450891,36.846429],[29.450316,36.845683],[29.449132,36.844143],[29.448145,36.843608],[29.447725,36.84338],[29.446599,36.842934],[29.444324,36.842032],[29.440748,36.840859],[29.440338,36.84072],[29.438168,36.83998],[29.434211,36.839365],[29.43213,36.839042],[29.426677,36.839218],[29.426059,36.839361],[29.423394,36.83998],[29.421047,36.840972],[29.417707,36.842384],[29.416066,36.843439],[29.415245,36.845726],[29.415245,36.847778],[29.415667,36.849185],[29.415948,36.850123],[29.415245,36.853758],[29.41372,36.854403],[29.408972,36.855575],[29.40563,36.856455],[29.402464,36.85751],[29.399708,36.858331],[29.397422,36.861086],[29.396806,36.862728],[29.396718,36.862962],[29.396654,36.863167],[29.396367,36.864076],[29.395429,36.8656],[29.393377,36.866421],[29.391735,36.867594],[29.390504,36.86859],[29.389566,36.869529],[29.38939,36.870408],[29.389859,36.87246],[29.390035,36.874805],[29.390109,36.875303],[29.390211,36.875978],[29.38994,36.876465],[29.389331,36.877561],[29.39196,36.88148],[29.393691,36.883199],[29.396676,36.885506],[29.400339,36.88788],[29.403392,36.890255],[29.407735,36.895072],[29.411059,36.898125],[29.414858,36.901857],[29.417504,36.90457],[29.418726,36.906674],[29.418861,36.909048],[29.419472,36.912576],[29.420897,36.915494],[29.421847,36.917054],[29.423271,36.919768],[29.423475,36.921939],[29.423203,36.924517],[29.423,36.927163],[29.423746,36.929538],[29.425578,36.93198],[29.427003,36.934287],[29.428835,36.935576],[29.431345,36.936661],[29.433245,36.937476],[29.435009,36.939307],[29.436094,36.941478],[29.437587,36.945278],[29.439486,36.948806],[29.439961,36.950706],[29.44125,36.954505],[29.443625,36.956472],[29.446339,36.957829],[29.451902,36.960068],[29.455362,36.960815],[29.458551,36.961629],[29.460451,36.963325],[29.462418,36.969567],[29.4633,36.972959],[29.464929,36.977097],[29.466421,36.981304],[29.467914,36.984832],[29.468457,36.988835],[29.471442,36.99433],[29.473952,36.997451],[29.476666,37.001047],[29.478226,37.003354],[29.483925,37.008578],[29.489896,37.012106],[29.49227,37.014209],[29.493967,37.016719],[29.495663,37.020247],[29.496341,37.023368],[29.498376,37.027235],[29.499598,37.030153],[29.501701,37.03307],[29.505365,37.037141],[29.507671,37.040194],[29.51086,37.044943],[29.513845,37.050303],[29.518391,37.055324],[29.522801,37.059869],[29.526465,37.061362],[29.530942,37.061769],[29.536099,37.061769],[29.542612,37.061294],[29.546818,37.060683],[29.552585,37.058444],[29.558216,37.056341],[29.56785,37.056002],[29.574024,37.055799],[29.578367,37.054102],[29.584133,37.052881],[29.590579,37.051185],[29.594717,37.049557],[29.597775,37.0479]]]}},{"type":"Feature","properties":{"id":"TR-D-15-003","parent_id":"TR-P-15","region_id":"TR-R-AKD","level":"district","municipality_type":null,"municipality_type_label":null,"is_metropolitan_municipality":null,"name":"Bucak","name_ascii":"bucak","slug":"bucak-burdur"},"geometry":{"type":"Polygon","coordinates":[[[30.782071,37.534523],[30.782246,37.534335],[30.782716,37.533832],[30.782821,37.531494],[30.782825,37.531411],[30.78284,37.531092],[30.782864,37.530541],[30.782941,37.528843],[30.782946,37.528717],[30.782991,37.527719],[30.783074,37.52566],[30.783076,37.525608],[30.783114,37.524656],[30.783175,37.522463],[30.783187,37.521585],[30.783192,37.520282],[30.783197,37.519856],[30.783226,37.519348],[30.783235,37.519261],[30.783237,37.519241],[30.78326,37.51902],[30.783338,37.518615],[30.78344,37.518283],[30.783575,37.517963],[30.783742,37.517655],[30.783944,37.517364],[30.784184,37.517094],[30.784494,37.516824],[30.784844,37.516577],[30.785101,37.51642],[30.785162,37.516383],[30.78562,37.516126],[30.786871,37.515487],[30.787485,37.515163],[30.787708,37.515046],[30.787739,37.51503],[30.78866,37.514524],[30.789541,37.514023],[30.790847,37.513257],[30.791701,37.512732],[30.792119,37.512464],[30.79253,37.512189],[30.792929,37.511905],[30.793313,37.51161],[30.793693,37.51129],[30.794057,37.510958],[30.794754,37.51027],[30.795427,37.509564],[30.79609,37.50885],[30.796515,37.508382],[30.797726,37.507049],[30.798369,37.506323],[30.798984,37.505601],[30.798988,37.505597],[30.798991,37.505593],[30.799297,37.505215],[30.799858,37.504473],[30.800658,37.503338],[30.801462,37.502152],[30.801694,37.50181],[30.802449,37.500658],[30.802929,37.499883],[30.803155,37.499493],[30.803295,37.499233],[30.803331,37.499166],[30.80356,37.498701],[30.803728,37.498296],[30.803865,37.497885],[30.804007,37.49736],[30.804018,37.497313],[30.804033,37.497252],[30.804286,37.496207],[30.804405,37.495777],[30.80454,37.495351],[30.804712,37.494885],[30.80488,37.494488],[30.804892,37.494464],[30.805054,37.494134],[30.805258,37.49376],[30.805451,37.493439],[30.805465,37.493416],[30.805714,37.493032],[30.805963,37.492677],[30.806227,37.49233],[30.806508,37.491992],[30.80681,37.491667],[30.807156,37.491337],[30.807523,37.491021],[30.807906,37.490715],[30.8083,37.490416],[30.809111,37.489833],[30.809942,37.489266],[30.810364,37.488988],[30.811223,37.488448],[30.811662,37.488189],[30.812078,37.487958],[30.812501,37.487735],[30.813362,37.487308],[30.814239,37.486906],[30.815675,37.486281],[30.816142,37.48606],[30.816609,37.485815],[30.817064,37.485555],[30.81747,37.48531],[30.817491,37.485297],[30.817952,37.485007],[30.819255,37.484146],[30.820577,37.483244],[30.820596,37.483231],[30.820973,37.482974],[30.822679,37.481791],[30.823517,37.48119],[30.823927,37.480883],[30.824327,37.48057],[30.824713,37.480248],[30.82508,37.479913],[30.825419,37.479567],[30.825739,37.479209],[30.826046,37.478842],[30.826343,37.478469],[30.826917,37.47771],[30.827753,37.476556],[30.828297,37.475781],[30.828823,37.474999],[30.829075,37.474604],[30.829315,37.474206],[30.829538,37.473802],[30.829726,37.473427],[30.8299,37.473047],[30.83022,37.472278],[30.830518,37.471502],[30.831295,37.469398],[30.831613,37.468559],[30.83195,37.467725],[30.832132,37.467313],[30.832324,37.466907],[30.832528,37.466505],[30.832744,37.466108],[30.832974,37.465718],[30.83322,37.465334],[30.833486,37.464961],[30.833752,37.464629],[30.834036,37.464307],[30.834336,37.463994],[30.834652,37.463689],[30.834982,37.463395],[30.83537,37.463077],[30.835772,37.46277],[30.837848,37.461277],[30.838236,37.460983],[30.838613,37.460683],[30.838978,37.460375],[30.839326,37.460058],[30.839651,37.459728],[30.839907,37.459434],[30.840143,37.459129],[30.84036,37.458816],[30.840558,37.458494],[30.840767,37.458103],[30.840954,37.457702],[30.841124,37.457295],[30.841283,37.456884],[30.841432,37.456469],[30.841714,37.455618],[30.84212,37.454289],[30.842126,37.45427],[30.842486,37.453062],[30.843676,37.449069],[30.844395,37.446699],[30.844771,37.445461],[30.845527,37.442967],[30.845784,37.442094],[30.846027,37.44122],[30.846244,37.440341],[30.846335,37.439913],[30.846492,37.439053],[30.846699,37.437759],[30.847145,37.434733],[30.847389,37.433004],[30.847496,37.432139],[30.84754,37.431707],[30.847575,37.431275],[30.847597,37.430843],[30.847601,37.430411],[30.847583,37.429965],[30.847546,37.429519],[30.847433,37.428627],[30.847217,37.427289],[30.846661,37.424168],[30.846434,37.42283],[30.8463,37.421937],[30.846242,37.42149],[30.846195,37.421042],[30.84616,37.420604],[30.846115,37.419727],[30.846083,37.418408],[30.846003,37.410491],[30.846015,37.409172],[30.846053,37.408295],[30.846128,37.407435],[30.846228,37.406577],[30.846396,37.40534],[30.848036,37.40229],[30.851233,37.400432],[30.855449,37.399246],[30.860828,37.398142],[30.863871,37.397335],[30.866852,37.396279],[30.869771,37.396031],[30.873187,37.396465],[30.875236,37.397086],[30.878279,37.398018],[30.881508,37.397708],[30.883744,37.396652],[30.8848,37.395534],[30.88629,37.394416],[30.888837,37.392367],[30.891051,37.392173],[30.894509,37.391544],[30.896364,37.390913],[30.899451,37.389017],[30.901781,37.388692],[30.905464,37.387446],[30.908605,37.385496],[30.909851,37.384034],[30.911801,37.383438],[30.915647,37.382842],[30.920034,37.382409],[30.924097,37.381705],[30.925884,37.38138],[30.928863,37.380188],[30.930001,37.378942],[30.931301,37.377534],[30.933413,37.376071],[30.935472,37.375096],[30.937205,37.374176],[30.939263,37.372117],[30.940347,37.370059],[30.940685,37.368984],[30.941267,37.367134],[30.941917,37.36513],[30.943705,37.361934],[30.944897,37.360526],[30.945454,37.358534],[30.945655,37.357818],[30.945755,37.356572],[30.945872,37.355109],[30.946073,37.35338],[30.946251,37.351859],[30.945817,37.350451],[30.944463,37.349801],[30.942513,37.349368],[30.939697,37.348718],[30.938288,37.348088],[30.937151,37.34758],[30.935147,37.346389],[30.934508,37.345971],[30.931689,37.344132],[30.930172,37.343482],[30.928006,37.342904],[30.924684,37.342182],[30.923257,37.341641],[30.922589,37.341387],[30.920182,37.340424],[30.917173,37.339221],[30.914717,37.337704],[30.910312,37.334454],[30.908506,37.332937],[30.90841,37.332761],[30.906773,37.32976],[30.905834,37.326726],[30.905762,37.324126],[30.906339,37.320949],[30.906628,37.319288],[30.907495,37.315965],[30.907644,37.313657],[30.907784,37.311488],[30.907928,37.308527],[30.907206,37.307227],[30.903667,37.304627],[30.902022,37.303937],[30.901428,37.303688],[30.899695,37.302749],[30.898251,37.301305],[30.895867,37.298921],[30.894279,37.297838],[30.894134,37.296032],[30.894062,37.294732],[30.893556,37.29336],[30.892473,37.292494],[30.889656,37.291771],[30.889401,37.291703],[30.88749,37.291194],[30.88547,37.289819],[30.884095,37.288882],[30.88294,37.287438],[30.883662,37.285488],[30.884282,37.28453],[30.884456,37.28426],[30.884501,37.28406],[30.884745,37.28296],[30.884529,37.281588],[30.884031,37.280032],[30.883951,37.279783],[30.88381,37.27927],[30.883156,37.276894],[30.882579,37.274944],[30.881568,37.27321],[30.880268,37.272272],[30.878823,37.272055],[30.876657,37.272055],[30.874346,37.272055],[30.871962,37.271838],[30.870936,37.271001],[30.868423,37.268949],[30.866535,37.266816],[30.864523,37.264544],[30.863297,37.26317],[30.862718,37.262522],[30.862684,37.262267],[30.862429,37.260355],[30.86084,37.258044],[30.859468,37.256527],[30.857066,37.255714],[30.854774,37.254939],[30.850077,37.254431],[30.849429,37.254361],[30.844879,37.253783],[30.841052,37.252122],[30.836285,37.251111],[30.834168,37.251047],[30.831742,37.250791],[30.83168,37.25079],[30.829444,37.250727],[30.825551,37.249962],[30.82432,37.249396],[30.823189,37.248876],[30.821865,37.24795],[30.820636,37.247089],[30.818976,37.245685],[30.817827,37.244281],[30.817525,37.244006],[30.81692,37.243458],[30.815785,37.242429],[30.814467,37.241796],[30.812465,37.240834],[30.810359,37.239458],[30.809338,37.238791],[30.80693,37.237916],[30.805125,37.237259],[30.803018,37.237014],[30.80238,37.23694],[30.802254,37.236938],[30.797912,37.236876],[30.794281,37.238457],[30.793954,37.2386],[30.791157,37.239099],[30.79038,37.239238],[30.789995,37.239177],[30.785146,37.238408],[30.778571,37.236174],[30.778188,37.235998],[30.77372,37.23394],[30.770528,37.231706],[30.767145,37.231131],[30.762103,37.231323],[30.757056,37.232027],[30.756908,37.232048],[30.756613,37.232089],[30.751443,37.232982],[30.748954,37.23477],[30.746911,37.240004],[30.744868,37.241983],[30.742953,37.243259],[30.7404,37.243195],[30.737145,37.242876],[30.732932,37.242238],[30.728719,37.241472],[30.725783,37.240323],[30.720868,37.239366],[30.716017,37.239366],[30.711485,37.240259],[30.708165,37.24128],[30.706187,37.241919],[30.697059,37.242174],[30.692974,37.242749],[30.688888,37.243578],[30.683207,37.244025],[30.677335,37.244281],[30.671654,37.244727],[30.666739,37.2446],[30.661313,37.244536],[30.656526,37.244536],[30.652632,37.244536],[30.647462,37.244153],[30.643888,37.244344],[30.640824,37.244727],[30.634696,37.245429],[30.630802,37.245621],[30.626781,37.246068],[30.621993,37.24594],[30.616121,37.245174],[30.611078,37.244791],[30.607632,37.244281],[30.603036,37.24377],[30.599078,37.242876],[30.59327,37.242812],[30.588738,37.24211],[30.583631,37.241472],[30.579227,37.241408],[30.573737,37.240834],[30.570035,37.240259],[30.56512,37.238472],[30.560588,37.236748],[30.557205,37.236302],[30.552609,37.23611],[30.546673,37.235919],[30.542588,37.236365],[30.537736,37.236876],[30.530587,37.237323],[30.524715,37.237451],[30.51814,37.238344],[30.513162,37.239493],[30.505566,37.240195],[30.500012,37.240132],[30.49031,37.241025],[30.48348,37.243068],[30.478884,37.245302],[30.473714,37.247536],[30.467267,37.251621],[30.464331,37.252579],[30.462416,37.253664],[30.458331,37.256408],[30.45565,37.257621],[30.439947,37.260302],[30.436245,37.261834],[30.435631,37.262249],[30.433692,37.263558],[30.431139,37.265919],[30.428202,37.267898],[30.422841,37.27243],[30.418628,37.274409],[30.413074,37.27843],[30.408606,37.280728],[30.399095,37.284111],[30.394883,37.284941],[30.392265,37.285707],[30.388691,37.287494],[30.385244,37.289601],[30.38301,37.290622],[30.376372,37.291388],[30.37318,37.291707],[30.370818,37.292409],[30.368776,37.293494],[30.366669,37.297899],[30.364371,37.301665],[30.362967,37.302494],[30.359265,37.30409],[30.355563,37.305814],[30.346626,37.308878],[30.33903,37.311112],[30.336732,37.311622],[30.33469,37.312069],[30.333286,37.311878],[30.332009,37.311239],[30.330094,37.310793],[30.328115,37.310729],[30.326264,37.310729],[30.325051,37.31041],[30.323902,37.310346],[30.322753,37.310601],[30.321604,37.310346],[30.318987,37.309963],[30.316817,37.309452],[30.314519,37.309452],[30.302391,37.311112],[30.296583,37.312005],[30.280753,37.314048],[30.275646,37.31641],[30.269135,37.319282],[30.264539,37.321325],[30.261156,37.324197],[30.256688,37.32624],[30.25222,37.329942],[30.248646,37.334282],[30.24705,37.335814],[30.243794,37.33907],[30.24022,37.342453],[30.235369,37.345963],[30.232432,37.347368],[30.229113,37.347368],[30.225666,37.346985],[30.224803,37.346939],[30.224105,37.34889],[30.225642,37.351837],[30.226679,37.355584],[30.227316,37.358295],[30.227875,37.361325],[30.229788,37.364116],[30.231383,37.366508],[30.234094,37.370574],[30.235688,37.372807],[30.237921,37.375199],[30.240632,37.379584],[30.241031,37.381577],[30.24111,37.383092],[30.241668,37.384926],[30.242306,37.386999],[30.244539,37.390747],[30.246213,37.394016],[30.246612,37.396089],[30.246612,37.398082],[30.246532,37.401192],[30.246612,37.403504],[30.246692,37.40478],[30.24717,37.406295],[30.249163,37.408926],[30.252193,37.412354],[30.254426,37.41371],[30.256499,37.414348],[30.258173,37.414109],[30.260246,37.41363],[30.262718,37.41379],[30.265748,37.414826],[30.268698,37.414986],[30.272446,37.414348],[30.278426,37.412913],[30.28297,37.411876],[30.292987,37.410401],[30.300522,37.411717],[30.305784,37.413212],[30.307399,37.415006],[30.307877,37.417457],[30.308176,37.421643],[30.308415,37.426547],[30.309671,37.429238],[30.310329,37.430673],[30.311286,37.43163],[30.313977,37.433424],[30.315233,37.4345],[30.315711,37.435876],[30.315771,37.43761],[30.315831,37.439703],[30.316608,37.440839],[30.318761,37.442274],[30.32187,37.444308],[30.324621,37.446221],[30.326595,37.447298],[30.332933,37.448793],[30.338973,37.448673],[30.345671,37.448374],[30.348721,37.448075],[30.352069,37.448195],[30.35482,37.448195],[30.358707,37.448553],[30.362176,37.450048],[30.363551,37.451065],[30.365883,37.453457],[30.367498,37.457165],[30.36678,37.460394],[30.366362,37.463264],[30.367199,37.466494],[30.36977,37.468945],[30.370531,37.470232],[30.371325,37.471577],[30.373897,37.475643],[30.374495,37.47666],[30.376229,37.478513],[30.377963,37.480666],[30.380415,37.482161],[30.385737,37.483297],[30.388727,37.483118],[30.391956,37.482699],[30.395843,37.48252],[30.399611,37.483178],[30.403139,37.482939],[30.410853,37.482042],[30.413365,37.481204],[30.416713,37.480905],[30.418208,37.479829],[30.422992,37.478035],[30.427418,37.474686],[30.42957,37.473072],[30.433517,37.471158],[30.436986,37.470919],[30.44159,37.471218],[30.446016,37.471876],[30.449245,37.471517],[30.453909,37.471337],[30.460487,37.471577],[30.463836,37.472713],[30.466168,37.474626],[30.474241,37.478274],[30.477949,37.480487],[30.480999,37.48258],[30.486201,37.486945],[30.488474,37.489158],[30.491344,37.492566],[30.494035,37.495497],[30.495949,37.499324],[30.497025,37.500879],[30.500194,37.50345],[30.503782,37.505663],[30.507251,37.509011],[30.508626,37.511224],[30.510002,37.513556],[30.511317,37.51846],[30.512752,37.522287],[30.514068,37.526174],[30.515204,37.528925],[30.517536,37.530958],[30.524354,37.53323],[30.532068,37.533828],[30.536194,37.535383],[30.54044,37.536998],[30.541356,37.537586],[30.543182,37.538141],[30.546438,37.53921],[30.547709,37.540023],[30.549253,37.542111],[30.550247,37.542918],[30.551324,37.544353],[30.552759,37.545848],[30.556108,37.547642],[30.560892,37.549676],[30.563702,37.549915],[30.565795,37.550034],[30.571715,37.548061],[30.577994,37.547044],[30.583735,37.547702],[30.590253,37.549496],[30.59731,37.551111],[30.602632,37.552486],[30.607895,37.553622],[30.612559,37.554818],[30.620871,37.559064],[30.625715,37.562174],[30.629961,37.564566],[30.632353,37.5663],[30.63624,37.568572],[30.638692,37.569469],[30.644432,37.570426],[30.650472,37.571682],[30.653642,37.571682],[30.656392,37.570905],[30.659203,37.569709],[30.662313,37.567915],[30.664944,37.567556],[30.666857,37.566838],[30.670744,37.565822],[30.674093,37.564626],[30.675947,37.564087],[30.678279,37.564087],[30.680492,37.56343],[30.684917,37.561935],[30.690419,37.560141],[30.694485,37.557988],[30.698731,37.556433],[30.70507,37.554161],[30.710452,37.552307],[30.71404,37.550513],[30.715296,37.549616],[30.717807,37.546745],[30.720558,37.544234],[30.72295,37.543277],[30.727555,37.541363],[30.732877,37.540167],[30.738498,37.53939],[30.741069,37.53927],[30.74394,37.538852],[30.746152,37.538373],[30.748724,37.537476],[30.751056,37.537058],[30.753149,37.53622],[30.755601,37.535264],[30.756916,37.534426],[30.759787,37.534127],[30.764451,37.534486],[30.767561,37.534965],[30.770132,37.535024],[30.773959,37.534785],[30.775993,37.534666],[30.778205,37.534606],[30.780538,37.534367],[30.78145,37.53445],[30.782071,37.534523]]]}},{"type":"Feature","properties":{"id":"TR-D-15-004","parent_id":"TR-P-15","region_id":"TR-R-AKD","level":"district","municipality_type":null,"municipality_type_label":null,"is_metropolitan_municipality":null,"name":"Burdur","name_ascii":"burdur","slug":"burdur-burdur"},"geometry":{"type":"Polygon","coordinates":[[[30.377819,37.832097],[30.381774,37.832877],[30.385617,37.831596],[30.387324,37.829522],[30.389215,37.827997],[30.391472,37.826045],[30.39623,37.822995],[30.400439,37.820006],[30.403245,37.818237],[30.405319,37.817078],[30.406905,37.816041],[30.407942,37.81476],[30.408989,37.813964],[30.409467,37.813601],[30.410931,37.812259],[30.412029,37.810673],[30.414103,37.807928],[30.415445,37.806098],[30.420203,37.801584],[30.422338,37.79951],[30.425266,37.796399],[30.427584,37.792129],[30.429719,37.788286],[30.430268,37.784748],[30.430756,37.779685],[30.430756,37.77633],[30.430817,37.773097],[30.430817,37.770169],[30.430329,37.768156],[30.431061,37.76596],[30.431549,37.762178],[30.433013,37.757543],[30.433745,37.754676],[30.434416,37.75004],[30.435148,37.745343],[30.435819,37.743086],[30.437405,37.739365],[30.43893,37.736925],[30.440516,37.734912],[30.441919,37.733021],[30.443017,37.730093],[30.444298,37.728324],[30.445823,37.727165],[30.448141,37.726494],[30.452472,37.724237],[30.456315,37.722346],[30.459792,37.721675],[30.46211,37.720821],[30.465343,37.719235],[30.467539,37.717588],[30.470527,37.715636],[30.474248,37.71344],[30.47681,37.712586],[30.47925,37.712098],[30.482056,37.71039],[30.483276,37.708987],[30.486204,37.706486],[30.487546,37.705632],[30.493463,37.705144],[30.500051,37.705205],[30.505236,37.704534],[30.508164,37.702643],[30.511031,37.701606],[30.515606,37.700691],[30.518044,37.70052],[30.516943,37.697057],[30.515966,37.694379],[30.514733,37.691446],[30.512991,37.689449],[30.510993,37.687919],[30.508486,37.686856],[30.506361,37.686644],[30.503811,37.685029],[30.49973,37.683371],[30.495055,37.682946],[30.491783,37.683074],[30.489955,37.683796],[30.48749,37.683966],[30.48528,37.683541],[30.48358,37.682479],[30.481073,37.680566],[30.47865,37.678399],[30.477078,37.677039],[30.47576,37.676359],[30.47406,37.674829],[30.47168,37.671981],[30.470107,37.669771],[30.46913,37.668241],[30.46862,37.666541],[30.46828,37.664416],[30.467727,37.662121],[30.46726,37.657276],[30.46624,37.655193],[30.464625,37.652388],[30.46369,37.649711],[30.463775,37.645546],[30.464412,37.641423],[30.465772,37.637853],[30.4676,37.633985],[30.468067,37.629778],[30.468195,37.625995],[30.468492,37.623318],[30.469512,37.620215],[30.470192,37.615753],[30.47032,37.61299],[30.47049,37.611375],[30.469937,37.60942],[30.46913,37.60602],[30.468152,37.604022],[30.466877,37.602195],[30.466537,37.600835],[30.466622,37.599305],[30.46709,37.597817],[30.467132,37.596712],[30.466495,37.59514],[30.466112,37.594162],[30.465475,37.59276],[30.463987,37.58868],[30.462464,37.58783],[30.456854,37.586753],[30.451018,37.58562],[30.443594,37.585563],[30.436737,37.58579],[30.42988,37.585733],[30.423307,37.58562],[30.413844,37.58409],[30.41237,37.58375],[30.411123,37.58341],[30.405627,37.581369],[30.399223,37.577913],[30.395823,37.575136],[30.39197,37.573096],[30.386926,37.570206],[30.380126,37.566353],[30.377803,37.565389],[30.374686,37.564199],[30.371059,37.562159],[30.367263,37.559269],[30.364373,37.554679],[30.363013,37.551336],[30.362049,37.548446],[30.361596,37.542609],[30.361596,37.538812],[30.360916,37.535299],[30.359046,37.530199],[30.358479,37.526685],[30.358196,37.524022],[30.357346,37.517165],[30.356269,37.511328],[30.354966,37.504585],[30.354626,37.501355],[30.354513,37.497841],[30.355079,37.490021],[30.356383,37.481578],[30.356723,37.478518],[30.357176,37.476251],[30.357346,37.475004],[30.357969,37.474268],[30.359783,37.473021],[30.364146,37.471604],[30.367603,37.471151],[30.370531,37.470232],[30.36977,37.468945],[30.367199,37.466494],[30.366362,37.463264],[30.36678,37.460394],[30.367498,37.457165],[30.365883,37.453457],[30.363551,37.451065],[30.362176,37.450048],[30.358707,37.448553],[30.35482,37.448195],[30.352069,37.448195],[30.348721,37.448075],[30.345671,37.448374],[30.338973,37.448673],[30.332933,37.448793],[30.326595,37.447298],[30.324621,37.446221],[30.32187,37.444308],[30.318761,37.442274],[30.316608,37.440839],[30.315831,37.439703],[30.315771,37.43761],[30.315711,37.435876],[30.315233,37.4345],[30.313977,37.433424],[30.311286,37.43163],[30.310329,37.430673],[30.309671,37.429238],[30.308415,37.426547],[30.308176,37.421643],[30.307877,37.417457],[30.307399,37.415006],[30.305784,37.413212],[30.300522,37.411717],[30.292987,37.410401],[30.28297,37.411876],[30.278426,37.412913],[30.272446,37.414348],[30.268698,37.414986],[30.265748,37.414826],[30.262718,37.41379],[30.260246,37.41363],[30.258173,37.414109],[30.256499,37.414348],[30.254426,37.41371],[30.252193,37.412354],[30.249163,37.408926],[30.24717,37.406295],[30.246692,37.40478],[30.246612,37.403504],[30.246532,37.401192],[30.246612,37.398082],[30.246612,37.396089],[30.246213,37.394016],[30.244539,37.390747],[30.242306,37.386999],[30.241668,37.384926],[30.24111,37.383092],[30.241031,37.381577],[30.240632,37.379584],[30.237921,37.375199],[30.235688,37.372807],[30.234094,37.370574],[30.231383,37.366508],[30.229788,37.364116],[30.227875,37.361325],[30.227316,37.358295],[30.226679,37.355584],[30.225642,37.351837],[30.224105,37.34889],[30.221139,37.351627],[30.217718,37.354593],[30.215969,37.356797],[30.215437,37.359078],[30.215741,37.361663],[30.215665,37.363792],[30.213384,37.368962],[30.211027,37.371623],[30.208594,37.373752],[30.206161,37.375881],[30.204261,37.377402],[30.201219,37.379987],[30.200459,37.382116],[30.198862,37.385461],[30.197038,37.388654],[30.194909,37.390023],[30.192324,37.391163],[30.189435,37.39276],[30.186622,37.394204],[30.181984,37.398766],[30.179399,37.402492],[30.177726,37.405381],[30.175977,37.407966],[30.174685,37.409562],[30.170503,37.416709],[30.169287,37.418306],[30.16845,37.420967],[30.167462,37.42743],[30.164345,37.434044],[30.160771,37.440963],[30.154461,37.448034],[30.152864,37.449706],[30.14701,37.455713],[30.143512,37.459742],[30.138418,37.463544],[30.133628,37.469854],[30.130283,37.474036],[30.123288,37.479814],[30.119639,37.482476],[30.114773,37.484985],[30.10679,37.486201],[30.105573,37.486353],[30.10124,37.486581],[30.091204,37.487494],[30.081244,37.48909],[30.077366,37.490611],[30.071284,37.492283],[30.065885,37.493272],[30.059803,37.493272],[30.05813,37.493272],[30.054101,37.492512],[30.049767,37.490687],[30.042012,37.486809],[30.027338,37.481563],[30.018671,37.478978],[30.006354,37.474644],[29.996622,37.475785],[29.986662,37.479206],[29.982556,37.480879],[29.981264,37.482171],[29.977386,37.485745],[29.974269,37.48833],[29.97062,37.490915],[29.969045,37.492851],[29.968394,37.49958],[29.969045,37.506635],[29.969371,37.511519],[29.968164,37.522048],[29.967675,37.532712],[29.968001,37.539794],[29.968571,37.544109],[29.969466,37.548667],[29.969466,37.553552],[29.966454,37.561285],[29.963217,37.567961],[29.964243,37.575237],[29.965901,37.580211],[29.973312,37.589378],[29.974083,37.590859],[29.975455,37.596125],[29.976168,37.600075],[29.975894,37.602762],[29.975619,37.604518],[29.975235,37.606877],[29.975071,37.608742],[29.973864,37.61143],[29.972822,37.613953],[29.971889,37.617299],[29.971834,37.61889],[29.972273,37.621962],[29.972218,37.623607],[29.971999,37.626186],[29.971889,37.629587],[29.97167,37.635182],[29.971066,37.638144],[29.970244,37.640009],[29.968159,37.643575],[29.965855,37.648237],[29.964484,37.649663],[29.963112,37.651638],[29.962235,37.6546],[29.962235,37.656904],[29.96207,37.661622],[29.962454,37.664529],[29.962619,37.66623],[29.963661,37.667875],[29.964923,37.670015],[29.965691,37.671715],[29.966404,37.674238],[29.968159,37.679614],[29.970353,37.683509],[29.971889,37.686471],[29.97337,37.687349],[29.976003,37.689762],[29.978143,37.693218],[29.980063,37.697607],[29.981599,37.700898],[29.982257,37.70408],[29.982476,37.707042],[29.981708,37.710936],[29.981653,37.714283],[29.982147,37.716641],[29.982147,37.722127],[29.981818,37.727119],[29.981324,37.733646],[29.98105,37.737925],[29.980721,37.73968],[29.979843,37.7416],[29.978143,37.744343],[29.976826,37.746647],[29.9754,37.74928],[29.974083,37.751748],[29.972547,37.755204],[29.971615,37.756027],[29.968872,37.758825],[29.967062,37.762171],[29.965032,37.766175],[29.963771,37.769905],[29.962838,37.772703],[29.962619,37.774239],[29.962125,37.776049],[29.962125,37.777475],[29.962674,37.779999],[29.964045,37.783729],[29.964429,37.785868],[29.964703,37.788282],[29.96421,37.793658],[29.964045,37.795742],[29.964009,37.796792],[29.966086,37.797124],[29.974984,37.797971],[29.983813,37.80009],[29.991581,37.801008],[29.997161,37.801644],[30.005706,37.801926],[30.011003,37.801644],[30.014605,37.800514],[30.021173,37.795852],[30.024352,37.793027],[30.028519,37.791191],[30.034804,37.790132],[30.037276,37.78992],[30.047482,37.789791],[30.059577,37.790193],[30.072626,37.793354],[30.087431,37.800782],[30.089489,37.801736],[30.099526,37.805901],[30.110768,37.813279],[30.111574,37.812157],[30.112794,37.810144],[30.115051,37.808436],[30.117369,37.806911],[30.119382,37.805813],[30.121395,37.803861],[30.123957,37.800323],[30.125604,37.799164],[30.127861,37.797639],[30.130057,37.796602],[30.134266,37.794223],[30.136523,37.792515],[30.139207,37.790258],[30.141647,37.788855],[30.145368,37.787635],[30.148357,37.787757],[30.149759,37.788245],[30.156652,37.789709],[30.159763,37.789526],[30.163362,37.78977],[30.165558,37.789099],[30.169401,37.786964],[30.17239,37.784403],[30.175415,37.783234],[30.180019,37.781454],[30.185766,37.779177],[30.203008,37.77549],[30.209407,37.774731],[30.217648,37.774839],[30.228384,37.775924],[30.241289,37.781671],[30.250723,37.783732],[30.263737,37.785792],[30.27675,37.787852],[30.299414,37.79501],[30.316657,37.802926],[30.335851,37.812469],[30.345919,37.816673],[30.356889,37.821253],[30.371312,37.82841],[30.377819,37.832097]]]}},{"type":"Feature","properties":{"id":"TR-D-15-005","parent_id":"TR-P-15","region_id":"TR-R-AKD","level":"district","municipality_type":null,"municipality_type_label":null,"is_metropolitan_municipality":null,"name":"Çavdır","name_ascii":"cavdir","slug":"cavdir-burdur"},"geometry":{"type":"Polygon","coordinates":[[[29.613817,36.992157],[29.613532,36.994846],[29.612842,36.998878],[29.60881,37.006252],[29.607378,37.012566],[29.606688,37.014582],[29.603611,37.021266],[29.601701,37.023866],[29.601117,37.026784],[29.601064,37.031665],[29.600905,37.036334],[29.600481,37.03835],[29.59995,37.039835],[29.59873,37.041268],[29.597616,37.043019],[29.597457,37.045937],[29.597775,37.0479],[29.603015,37.048428],[29.608707,37.048428],[29.613709,37.049118],[29.620177,37.050153],[29.628715,37.051446],[29.636735,37.054724],[29.641133,37.061709],[29.642168,37.066366],[29.645532,37.070419],[29.64993,37.074904],[29.650706,37.077405],[29.651223,37.084649],[29.652258,37.091893],[29.654932,37.098103],[29.65588,37.100862],[29.657692,37.10414],[29.660624,37.110263],[29.660624,37.113195],[29.660365,37.115351],[29.658468,37.117938],[29.656225,37.119577],[29.651568,37.121474],[29.644238,37.123113],[29.642341,37.124492],[29.640875,37.126303],[29.637684,37.127683],[29.635183,37.130098],[29.633717,37.13441],[29.631043,37.139067],[29.619314,37.148899],[29.612329,37.156315],[29.607413,37.164163],[29.60129,37.173995],[29.591545,37.185292],[29.587319,37.189345],[29.582748,37.193658],[29.581627,37.196676],[29.57973,37.203403],[29.575849,37.213838],[29.573089,37.22022],[29.572658,37.224704],[29.571968,37.229706],[29.569467,37.23695],[29.566535,37.246006],[29.565069,37.249455],[29.561792,37.257907],[29.560584,37.261443],[29.558601,37.2661],[29.555065,37.269032],[29.553426,37.270326],[29.551702,37.274379],[29.548424,37.28352],[29.546527,37.287487],[29.544716,37.291196],[29.543053,37.293148],[29.545837,37.295338],[29.548621,37.297528],[29.555707,37.302697],[29.561293,37.306448],[29.564848,37.309311],[29.567712,37.311617],[29.57338,37.315368],[29.579049,37.319036],[29.579952,37.319807],[29.580138,37.319966],[29.582089,37.318733],[29.584849,37.315973],[29.586341,37.31366],[29.587758,37.311497],[29.588281,37.309856],[29.588281,37.302395],[29.588877,37.297621],[29.591936,37.290832],[29.595368,37.285162],[29.599769,37.276508],[29.611855,37.270167],[29.616779,37.268302],[29.619539,37.267034],[29.626403,37.263229],[29.633266,37.258753],[29.641845,37.252188],[29.64662,37.246369],[29.649604,37.242191],[29.650947,37.23861],[29.654826,37.231672],[29.660496,37.222496],[29.664674,37.214588],[29.667509,37.210783],[29.670642,37.203621],[29.673999,37.198996],[29.676536,37.194893],[29.678624,37.19176],[29.679967,37.190417],[29.681012,37.190118],[29.684593,37.188552],[29.691755,37.184896],[29.698096,37.182136],[29.708316,37.176914],[29.712494,37.174601],[29.71697,37.173034],[29.724207,37.171244],[29.730846,37.170199],[29.733383,37.170274],[29.736815,37.17005],[29.740843,37.16923],[29.74614,37.168857],[29.751362,37.168633],[29.76024,37.166619],[29.769565,37.164455],[29.774787,37.163858],[29.777846,37.162963],[29.78083,37.161769],[29.7818,37.160874],[29.783665,37.158487],[29.788067,37.1514],[29.792319,37.146774],[29.795602,37.143492],[29.799406,37.138941],[29.803211,37.133644],[29.809179,37.127303],[29.812984,37.124244],[29.81746,37.121931],[29.824846,37.118873],[29.828427,37.117605],[29.83294,37.116863],[29.832903,37.115948],[29.834371,37.113267],[29.837244,37.109693],[29.840052,37.106565],[29.843754,37.103756],[29.848989,37.100884],[29.855233,37.098224],[29.862893,37.091671],[29.870794,37.078054],[29.872383,37.074309],[29.872383,37.069883],[29.872496,37.06421],[29.871815,37.059784],[29.868184,37.055131],[29.865461,37.052408],[29.864099,37.049684],[29.863999,37.048096],[29.863829,37.044777],[29.863829,37.042138],[29.86417,37.038649],[29.863744,37.0355],[29.862553,37.032181],[29.86034,37.028266],[29.857872,37.026308],[29.854638,37.023755],[29.850638,37.022053],[29.847403,37.020521],[29.843318,37.018053],[29.838212,37.015329],[29.834807,37.014223],[29.828084,37.011074],[29.822297,37.009201],[29.815318,37.006223],[29.812169,37.00452],[29.809275,37.003329],[29.80536,37.001882],[29.802637,37.001201],[29.800849,37.000265],[29.799998,36.999159],[29.799147,36.997031],[29.794892,36.99252],[29.789019,36.989286],[29.784423,36.986648],[29.78003,36.984754],[29.772944,36.983988],[29.768476,36.983158],[29.764263,36.982073],[29.759859,36.979648],[29.756731,36.977669],[29.754944,36.975818],[29.751689,36.972243],[29.748944,36.970967],[29.742561,36.967009],[29.73822,36.96452],[29.734033,36.962425],[29.732012,36.96392],[29.72908,36.967144],[29.726032,36.970017],[29.724273,36.972069],[29.72269,36.973652],[29.720579,36.974355],[29.718527,36.975645],[29.714365,36.977639],[29.710378,36.979984],[29.708267,36.981625],[29.706157,36.984439],[29.703929,36.986198],[29.702258,36.987034],[29.701701,36.987312],[29.699093,36.987929],[29.698476,36.988074],[29.695193,36.986667],[29.693423,36.986233],[29.692086,36.985905],[29.68851,36.985377],[29.685754,36.985319],[29.680185,36.985905],[29.677253,36.986491],[29.674791,36.987781],[29.672211,36.989247],[29.669221,36.989833],[29.666055,36.990068],[29.662948,36.990419],[29.656792,36.990244],[29.651281,36.990302],[29.648232,36.990302],[29.644246,36.990302],[29.642096,36.989911],[29.641021,36.989716],[29.639233,36.989775],[29.637445,36.989833],[29.636741,36.990135],[29.635803,36.990537],[29.634279,36.991299],[29.632755,36.992061],[29.629999,36.992471],[29.627126,36.993175],[29.623843,36.993175],[29.619563,36.99253],[29.616632,36.992178],[29.614169,36.992061],[29.613993,36.992109],[29.613817,36.992157]]]}},{"type":"Feature","properties":{"id":"TR-D-15-006","parent_id":"TR-P-15","region_id":"TR-R-AKD","level":"district","municipality_type":null,"municipality_type_label":null,"is_metropolitan_municipality":null,"name":"Çeltikçi","name_ascii":"celtikci","slug":"celtikci-burdur"},"geometry":{"type":"Polygon","coordinates":[[[30.370531,37.470232],[30.367603,37.471151],[30.364146,37.471604],[30.359783,37.473021],[30.357969,37.474268],[30.357346,37.475004],[30.357176,37.476251],[30.356723,37.478518],[30.356383,37.481578],[30.355079,37.490021],[30.354513,37.497841],[30.354626,37.501355],[30.354966,37.504585],[30.356269,37.511328],[30.357346,37.517165],[30.358196,37.524022],[30.358479,37.526685],[30.359046,37.530199],[30.360916,37.535299],[30.361596,37.538812],[30.361596,37.542609],[30.362049,37.548446],[30.363013,37.551336],[30.364373,37.554679],[30.367263,37.559269],[30.371059,37.562159],[30.374686,37.564199],[30.377803,37.565389],[30.380126,37.566353],[30.386926,37.570206],[30.39197,37.573096],[30.395823,37.575136],[30.399223,37.577913],[30.405627,37.581369],[30.411123,37.58341],[30.41237,37.58375],[30.413844,37.58409],[30.423307,37.58562],[30.42988,37.585733],[30.436737,37.58579],[30.443594,37.585563],[30.451018,37.58562],[30.456854,37.586753],[30.462464,37.58783],[30.463987,37.58868],[30.465475,37.59276],[30.466112,37.594162],[30.466495,37.59514],[30.467132,37.596712],[30.473081,37.596009],[30.478236,37.595874],[30.481559,37.595602],[30.485967,37.593975],[30.48929,37.592076],[30.493427,37.58882],[30.495123,37.5876],[30.4977,37.58604],[30.501295,37.584141],[30.506788,37.581496],[30.509433,37.580343],[30.510857,37.579665],[30.51452,37.578105],[30.517368,37.576477],[30.521437,37.573764],[30.525235,37.570577],[30.528898,37.564812],[30.531678,37.55864],[30.532628,37.556877],[30.535705,37.553096],[30.537129,37.550858],[30.538604,37.54923],[30.539876,37.548264],[30.541453,37.546534],[30.54481,37.541702],[30.546438,37.53921],[30.543182,37.538141],[30.541356,37.537586],[30.54044,37.536998],[30.536194,37.535383],[30.532068,37.533828],[30.524354,37.53323],[30.517536,37.530958],[30.515204,37.528925],[30.514068,37.526174],[30.512752,37.522287],[30.511317,37.51846],[30.510002,37.513556],[30.508626,37.511224],[30.507251,37.509011],[30.503782,37.505663],[30.500194,37.50345],[30.497025,37.500879],[30.495949,37.499324],[30.494035,37.495497],[30.491344,37.492566],[30.488474,37.489158],[30.486201,37.486945],[30.480999,37.48258],[30.477949,37.480487],[30.474241,37.478274],[30.466168,37.474626],[30.463836,37.472713],[30.460487,37.471577],[30.453909,37.471337],[30.449245,37.471517],[30.446016,37.471876],[30.44159,37.471218],[30.436986,37.470919],[30.433517,37.471158],[30.42957,37.473072],[30.427418,37.474686],[30.422992,37.478035],[30.418208,37.479829],[30.416713,37.480905],[30.413365,37.481204],[30.410853,37.482042],[30.403139,37.482939],[30.399611,37.483178],[30.395843,37.48252],[30.391956,37.482699],[30.388727,37.483118],[30.385737,37.483297],[30.380415,37.482161],[30.377963,37.480666],[30.376229,37.478513],[30.374495,37.47666],[30.373897,37.475643],[30.371325,37.471577],[30.370531,37.470232]]]}},{"type":"Feature","properties":{"id":"TR-D-15-007","parent_id":"TR-P-15","region_id":"TR-R-AKD","level":"district","municipality_type":null,"municipality_type_label":null,"is_metropolitan_municipality":null,"name":"Gölhisar","name_ascii":"golhisar","slug":"golhisar-burdur"},"geometry":{"type":"Polygon","coordinates":[[[29.543053,37.293148],[29.544716,37.291196],[29.546527,37.287487],[29.548424,37.28352],[29.551702,37.274379],[29.553426,37.270326],[29.555065,37.269032],[29.558601,37.2661],[29.560584,37.261443],[29.561792,37.257907],[29.565069,37.249455],[29.566535,37.246006],[29.569467,37.23695],[29.571968,37.229706],[29.572658,37.224704],[29.573089,37.22022],[29.575849,37.213838],[29.57973,37.203403],[29.581627,37.196676],[29.582748,37.193658],[29.587319,37.189345],[29.591545,37.185292],[29.60129,37.173995],[29.607413,37.164163],[29.612329,37.156315],[29.619314,37.148899],[29.631043,37.139067],[29.633717,37.13441],[29.635183,37.130098],[29.637684,37.127683],[29.640875,37.126303],[29.642341,37.124492],[29.644238,37.123113],[29.651568,37.121474],[29.656225,37.119577],[29.658468,37.117938],[29.660365,37.115351],[29.660624,37.113195],[29.660624,37.110263],[29.657692,37.10414],[29.65588,37.100862],[29.654932,37.098103],[29.652258,37.091893],[29.651223,37.084649],[29.650706,37.077405],[29.64993,37.074904],[29.645532,37.070419],[29.642168,37.066366],[29.641133,37.061709],[29.636735,37.054724],[29.628715,37.051446],[29.620177,37.050153],[29.613709,37.049118],[29.608707,37.048428],[29.603015,37.048428],[29.597775,37.0479],[29.594717,37.049557],[29.590579,37.051185],[29.584133,37.052881],[29.578367,37.054102],[29.574024,37.055799],[29.56785,37.056002],[29.558216,37.056341],[29.552585,37.058444],[29.546818,37.060683],[29.542612,37.061294],[29.536099,37.061769],[29.530942,37.061769],[29.526465,37.061362],[29.522801,37.059869],[29.518391,37.055324],[29.513845,37.050303],[29.51086,37.044943],[29.507671,37.040194],[29.505365,37.037141],[29.501701,37.03307],[29.499598,37.030153],[29.498376,37.027235],[29.496341,37.023368],[29.495663,37.020247],[29.493967,37.016719],[29.49227,37.014209],[29.489896,37.012106],[29.483925,37.008578],[29.478226,37.003354],[29.476666,37.001047],[29.473952,36.997451],[29.471442,36.99433],[29.468457,36.988835],[29.467914,36.984832],[29.466421,36.981304],[29.464929,36.977097],[29.4633,36.972959],[29.462418,36.969567],[29.460451,36.963325],[29.458551,36.961629],[29.455362,36.960815],[29.451902,36.960068],[29.446339,36.957829],[29.443625,36.956472],[29.44125,36.954505],[29.439961,36.950706],[29.439486,36.948806],[29.437587,36.945278],[29.436094,36.941478],[29.435009,36.939307],[29.433245,36.937476],[29.431345,36.936661],[29.428835,36.935576],[29.427003,36.934287],[29.425578,36.93198],[29.423746,36.929538],[29.423,36.927163],[29.423203,36.924517],[29.423475,36.921939],[29.423271,36.919768],[29.421847,36.917054],[29.420897,36.915494],[29.419472,36.912576],[29.418861,36.909048],[29.418726,36.906674],[29.417504,36.90457],[29.414858,36.901857],[29.411059,36.898125],[29.407735,36.895072],[29.403392,36.890255],[29.400339,36.88788],[29.396676,36.885506],[29.393691,36.883199],[29.39196,36.88148],[29.389331,36.877561],[29.388335,36.878088],[29.38253,36.881723],[29.379658,36.882368],[29.375554,36.882368],[29.371684,36.882134],[29.368577,36.881606],[29.366232,36.879788],[29.363594,36.87844],[29.3582,36.878088],[29.352744,36.878031],[29.35263,36.87803],[29.348233,36.878088],[29.346064,36.878616],[29.344481,36.879378],[29.341667,36.880609],[29.339556,36.882778],[29.336097,36.886296],[29.334924,36.887351],[29.331265,36.888324],[29.330293,36.888583],[29.327962,36.888893],[29.328956,36.891716],[29.331582,36.895717],[29.33327,36.899093],[29.334145,36.901469],[29.336833,36.906971],[29.339584,36.91116],[29.341241,36.91439],[29.342492,36.918475],[29.345993,36.926645],[29.348661,36.93098],[29.354246,36.9404],[29.355246,36.943151],[29.35708,36.946569],[29.361499,36.95057],[29.367084,36.953905],[29.372169,36.957656],[29.376587,36.963241],[29.379255,36.966743],[29.380255,36.973995],[29.380422,36.980081],[29.380172,36.982998],[29.378921,36.986333],[29.377754,36.989167],[29.373169,36.99592],[29.371669,36.99817],[29.370668,36.999504],[29.369251,37.001422],[29.367417,37.002089],[29.360915,37.002339],[29.353996,37.002755],[29.350995,37.004006],[29.348494,37.00659],[29.348244,37.009675],[29.349077,37.024347],[29.349327,37.029348],[29.349327,37.030682],[29.349661,37.031849],[29.351995,37.034517],[29.354329,37.036851],[29.358831,37.039185],[29.374837,37.047355],[29.377838,37.049356],[29.382423,37.05169],[29.388342,37.053024],[29.39326,37.05319],[29.398178,37.05319],[29.40268,37.052857],[29.408682,37.052857],[29.416018,37.053274],[29.42177,37.054024],[29.426689,37.055775],[29.432607,37.056692],[29.436109,37.058859],[29.439443,37.063944],[29.439777,37.066612],[29.438359,37.068612],[29.435692,37.071864],[29.433858,37.076199],[29.433691,37.078616],[29.433358,37.080784],[29.433358,37.085785],[29.432858,37.093121],[29.433024,37.095205],[29.436859,37.107043],[29.438943,37.112295],[29.44086,37.118047],[29.443945,37.123716],[29.447029,37.126717],[29.453282,37.132135],[29.456866,37.135803],[29.460534,37.142556],[29.461423,37.144556],[29.461757,37.149058],[29.462007,37.156644],[29.46184,37.16323],[29.462674,37.168899],[29.463674,37.172483],[29.464771,37.17749],[29.465592,37.181236],[29.468759,37.187905],[29.473344,37.199243],[29.476512,37.206079],[29.477387,37.20958],[29.477512,37.21008],[29.47761,37.210372],[29.478096,37.211831],[29.477929,37.214748],[29.477846,37.224168],[29.477846,37.230004],[29.47918,37.235506],[29.481514,37.240258],[29.482319,37.24162],[29.483681,37.243926],[29.486182,37.249011],[29.488433,37.251845],[29.492768,37.258264],[29.495686,37.262265],[29.50644,37.271102],[29.517527,37.280605],[29.520528,37.282356],[29.534116,37.288191],[29.539491,37.291069],[29.542369,37.29261],[29.543053,37.293148]]]}},{"type":"Feature","properties":{"id":"TR-D-15-008","parent_id":"TR-P-15","region_id":"TR-R-AKD","level":"district","municipality_type":null,"municipality_type_label":null,"is_metropolitan_municipality":null,"name":"Karamanlı","name_ascii":"karamanli","slug":"karamanli-burdur"},"geometry":{"type":"Polygon","coordinates":[[[29.969045,37.492851],[29.97062,37.490915],[29.974269,37.48833],[29.977386,37.485745],[29.981264,37.482171],[29.982556,37.480879],[29.981426,37.476324],[29.981116,37.469263],[29.981116,37.462945],[29.981364,37.455327],[29.982045,37.447709],[29.982974,37.442506],[29.984884,37.432328],[29.989591,37.425556],[29.993638,37.419362],[29.996446,37.413582],[29.998097,37.409535],[30.001236,37.40425],[30.002557,37.400451],[30.002805,37.398964],[30.003052,37.395578],[30.00297,37.388229],[30.003383,37.385008],[30.003383,37.37964],[30.003383,37.374685],[30.003548,37.36973],[30.003548,37.365931],[30.003713,37.35726],[30.005003,37.345987],[30.005561,37.340165],[30.00488,37.336635],[30.003517,37.333228],[30.001535,37.329264],[29.998438,37.324062],[29.993297,37.316753],[29.986175,37.308392],[29.984936,37.305914],[29.981653,37.300588],[29.977379,37.296066],[29.973601,37.293341],[29.971062,37.290554],[29.968894,37.288386],[29.964125,37.284546],[29.960285,37.280768],[29.957498,37.277361],[29.955578,37.275565],[29.95149,37.273521],[29.948579,37.271663],[29.946287,37.269805],[29.943686,37.266027],[29.940165,37.262727],[29.939717,37.262827],[29.934996,37.265107],[29.928565,37.2682],[29.915703,37.271538],[29.910655,37.273247],[29.904143,37.275689],[29.894619,37.278945],[29.879477,37.285376],[29.874919,37.288958],[29.870279,37.290749],[29.866127,37.291563],[29.8518,37.294982],[29.844962,37.294982],[29.836821,37.296692],[29.828599,37.300111],[29.819156,37.306623],[29.812155,37.312159],[29.804178,37.321764],[29.794572,37.339022],[29.789281,37.346267],[29.78,37.356362],[29.775523,37.362386],[29.769011,37.368735],[29.764534,37.372805],[29.758835,37.377201],[29.754521,37.379562],[29.748171,37.38233],[29.743287,37.385098],[29.736205,37.391528],[29.732948,37.395192],[29.724157,37.404798],[29.721633,37.407891],[29.716667,37.412124],[29.713411,37.416438],[29.708965,37.420743],[29.711005,37.422191],[29.717111,37.424063],[29.720204,37.426017],[29.726147,37.426831],[29.730868,37.42732],[29.736322,37.427401],[29.742183,37.427401],[29.747556,37.428622],[29.753092,37.432122],[29.75708,37.435053],[29.761395,37.437658],[29.764163,37.438716],[29.767337,37.43953],[29.775152,37.44181],[29.78313,37.441484],[29.794364,37.440426],[29.805272,37.436844],[29.814227,37.435623],[29.828066,37.436925],[29.840195,37.437739],[29.854766,37.440182],[29.863884,37.440914],[29.888794,37.447915],[29.902633,37.452555],[29.908901,37.455241],[29.915739,37.458579],[29.921274,37.461428],[29.927217,37.463301],[29.935276,37.47022],[29.940974,37.474046],[29.946917,37.477221],[29.954935,37.483191],[29.9583,37.486664],[29.96427,37.48916],[29.969045,37.492851]]]}},{"type":"Feature","properties":{"id":"TR-D-15-009","parent_id":"TR-P-15","region_id":"TR-R-AKD","level":"district","municipality_type":null,"municipality_type_label":null,"is_metropolitan_municipality":null,"name":"Kemer","name_ascii":"kemer","slug":"kemer-burdur"},"geometry":{"type":"Polygon","coordinates":[[[30.224105,37.34889],[30.224803,37.346939],[30.222028,37.346793],[30.218007,37.346729],[30.212772,37.34558],[30.209262,37.344112],[30.204028,37.342134],[30.200389,37.340729],[30.197964,37.339453],[30.195921,37.338495],[30.191453,37.335431],[30.187815,37.332367],[30.187049,37.330772],[30.1859,37.329495],[30.184048,37.32841],[30.18258,37.326623],[30.180665,37.325218],[30.178431,37.324197],[30.17678,37.323718],[30.172806,37.322234],[30.169982,37.320319],[30.166439,37.317974],[30.162274,37.317303],[30.158301,37.316154],[30.155859,37.31491],[30.151886,37.313138],[30.150019,37.312229],[30.148822,37.31041],[30.147912,37.308925],[30.14662,37.307537],[30.145758,37.304856],[30.144705,37.302798],[30.143795,37.300356],[30.14188,37.298298],[30.139869,37.297436],[30.136949,37.296718],[30.13422,37.296431],[30.132258,37.296095],[30.129146,37.294707],[30.127518,37.293941],[30.125364,37.292409],[30.123066,37.291404],[30.119332,37.290542],[30.114832,37.289585],[30.110523,37.289585],[30.106502,37.289585],[30.09889,37.289441],[30.092044,37.289489],[30.085589,37.290462],[30.0831,37.290079],[30.078887,37.289313],[30.073461,37.289377],[30.070716,37.289313],[30.065801,37.288547],[30.061652,37.287271],[30.057759,37.286122],[30.052908,37.285356],[30.047865,37.285164],[30.044099,37.28459],[30.04212,37.284335],[30.04129,37.283249],[30.040716,37.281717],[30.03912,37.279803],[30.038099,37.278334],[30.035609,37.276356],[30.03312,37.27476],[30.031269,37.273228],[30.029992,37.271313],[30.029418,37.269717],[30.028205,37.268185],[30.02629,37.267292],[30.024886,37.264483],[30.02329,37.260972],[30.021949,37.258036],[30.02013,37.255313],[30.01562,37.250291],[30.01213,37.245355],[30.010513,37.242802],[30.009483,37.240937],[30.006632,37.242069],[30.001748,37.244511],[29.992793,37.247197],[29.985792,37.250779],[29.977815,37.253873],[29.970977,37.256071],[29.962755,37.257292],[29.956812,37.259001],[29.940165,37.262727],[29.943686,37.266027],[29.946287,37.269805],[29.948579,37.271663],[29.95149,37.273521],[29.955578,37.275565],[29.957498,37.277361],[29.960285,37.280768],[29.964125,37.284546],[29.968894,37.288386],[29.971062,37.290554],[29.973601,37.293341],[29.977379,37.296066],[29.981653,37.300588],[29.984936,37.305914],[29.986175,37.308392],[29.993297,37.316753],[29.998438,37.324062],[30.001535,37.329264],[30.003517,37.333228],[30.00488,37.336635],[30.005561,37.340165],[30.005003,37.345987],[30.003713,37.35726],[30.003548,37.365931],[30.003548,37.36973],[30.003383,37.374685],[30.003383,37.37964],[30.003383,37.385008],[30.00297,37.388229],[30.003052,37.395578],[30.002805,37.398964],[30.002557,37.400451],[30.001236,37.40425],[29.998097,37.409535],[29.996446,37.413582],[29.993638,37.419362],[29.989591,37.425556],[29.984884,37.432328],[29.982974,37.442506],[29.982045,37.447709],[29.981364,37.455327],[29.981116,37.462945],[29.981116,37.469263],[29.981426,37.476324],[29.982556,37.480879],[29.986662,37.479206],[29.996622,37.475785],[30.006354,37.474644],[30.018671,37.478978],[30.027338,37.481563],[30.042012,37.486809],[30.049767,37.490687],[30.054101,37.492512],[30.05813,37.493272],[30.059803,37.493272],[30.065885,37.493272],[30.071284,37.492283],[30.077366,37.490611],[30.081244,37.48909],[30.091204,37.487494],[30.10124,37.486581],[30.105573,37.486353],[30.10679,37.486201],[30.114773,37.484985],[30.119639,37.482476],[30.123288,37.479814],[30.130283,37.474036],[30.133628,37.469854],[30.138418,37.463544],[30.143512,37.459742],[30.14701,37.455713],[30.152864,37.449706],[30.154461,37.448034],[30.160771,37.440963],[30.164345,37.434044],[30.167462,37.42743],[30.16845,37.420967],[30.169287,37.418306],[30.170503,37.416709],[30.174685,37.409562],[30.175977,37.407966],[30.177726,37.405381],[30.179399,37.402492],[30.181984,37.398766],[30.186622,37.394204],[30.189435,37.39276],[30.192324,37.391163],[30.194909,37.390023],[30.197038,37.388654],[30.198862,37.385461],[30.200459,37.382116],[30.201219,37.379987],[30.204261,37.377402],[30.206161,37.375881],[30.208594,37.373752],[30.211027,37.371623],[30.213384,37.368962],[30.215665,37.363792],[30.215741,37.361663],[30.215437,37.359078],[30.215969,37.356797],[30.217718,37.354593],[30.221139,37.351627],[30.224105,37.34889]]]}},{"type":"Feature","properties":{"id":"TR-D-15-010","parent_id":"TR-P-15","region_id":"TR-R-AKD","level":"district","municipality_type":null,"municipality_type_label":null,"is_metropolitan_municipality":null,"name":"Tefenni","name_ascii":"tefenni","slug":"tefenni-burdur"},"geometry":{"type":"Polygon","coordinates":[[[29.708965,37.420743],[29.713411,37.416438],[29.716667,37.412124],[29.721633,37.407891],[29.724157,37.404798],[29.732948,37.395192],[29.736205,37.391528],[29.743287,37.385098],[29.748171,37.38233],[29.754521,37.379562],[29.758835,37.377201],[29.764534,37.372805],[29.769011,37.368735],[29.775523,37.362386],[29.78,37.356362],[29.789281,37.346267],[29.794572,37.339022],[29.804178,37.321764],[29.812155,37.312159],[29.819156,37.306623],[29.828599,37.300111],[29.836821,37.296692],[29.844962,37.294982],[29.8518,37.294982],[29.866127,37.291563],[29.870279,37.290749],[29.874919,37.288958],[29.879477,37.285376],[29.894619,37.278945],[29.904143,37.275689],[29.910655,37.273247],[29.915703,37.271538],[29.928565,37.2682],[29.934996,37.265107],[29.939717,37.262827],[29.940165,37.262727],[29.956812,37.259001],[29.962755,37.257292],[29.970977,37.256071],[29.977815,37.253873],[29.985792,37.250779],[29.992793,37.247197],[30.001748,37.244511],[30.006632,37.242069],[30.009483,37.240937],[30.008726,37.239568],[30.007109,37.236078],[30.006343,37.235057],[30.002853,37.232759],[29.999023,37.229355],[29.995704,37.225695],[29.995023,37.223482],[29.992725,37.218801],[29.990683,37.216078],[29.985662,37.211312],[29.979449,37.207312],[29.975789,37.205439],[29.9718,37.204993],[29.96848,37.204737],[29.962416,37.203716],[29.957501,37.202184],[29.952012,37.200078],[29.948437,37.198163],[29.94499,37.197333],[29.94065,37.195163],[29.934012,37.191779],[29.931522,37.190248],[29.929224,37.188333],[29.925331,37.185269],[29.922267,37.183418],[29.919203,37.181949],[29.917735,37.181503],[29.911798,37.179779],[29.907266,37.177609],[29.903947,37.175949],[29.901905,37.173779],[29.898904,37.170971],[29.896351,37.168736],[29.890989,37.164332],[29.887479,37.162226],[29.883074,37.160502],[29.878479,37.159034],[29.875351,37.157694],[29.871904,37.155523],[29.869415,37.15297],[29.867308,37.151183],[29.864755,37.148949],[29.861244,37.144991],[29.859329,37.143906],[29.857095,37.141991],[29.85218,37.138736],[29.848286,37.135289],[29.845095,37.13248],[29.841456,37.128523],[29.839542,37.12597],[29.837052,37.122906],[29.834435,37.11965],[29.832967,37.117544],[29.83294,37.116863],[29.828427,37.117605],[29.824846,37.118873],[29.81746,37.121931],[29.812984,37.124244],[29.809179,37.127303],[29.803211,37.133644],[29.799406,37.138941],[29.795602,37.143492],[29.792319,37.146774],[29.788067,37.1514],[29.783665,37.158487],[29.7818,37.160874],[29.78083,37.161769],[29.777846,37.162963],[29.774787,37.163858],[29.769565,37.164455],[29.76024,37.166619],[29.751362,37.168633],[29.74614,37.168857],[29.740843,37.16923],[29.736815,37.17005],[29.733383,37.170274],[29.730846,37.170199],[29.724207,37.171244],[29.71697,37.173034],[29.712494,37.174601],[29.708316,37.176914],[29.698096,37.182136],[29.691755,37.184896],[29.684593,37.188552],[29.681012,37.190118],[29.679967,37.190417],[29.678624,37.19176],[29.676536,37.194893],[29.673999,37.198996],[29.670642,37.203621],[29.667509,37.210783],[29.664674,37.214588],[29.660496,37.222496],[29.654826,37.231672],[29.650947,37.23861],[29.649604,37.242191],[29.64662,37.246369],[29.641845,37.252188],[29.633266,37.258753],[29.626403,37.263229],[29.619539,37.267034],[29.616779,37.268302],[29.611855,37.270167],[29.599769,37.276508],[29.595368,37.285162],[29.591936,37.290832],[29.588877,37.297621],[29.588281,37.302395],[29.588281,37.309856],[29.587758,37.311497],[29.586341,37.31366],[29.584849,37.315973],[29.582089,37.318733],[29.580138,37.319966],[29.586468,37.325371],[29.590386,37.331124],[29.591271,37.334958],[29.591387,37.335458],[29.591424,37.335667],[29.591804,37.337793],[29.593137,37.340043],[29.593878,37.340507],[29.595805,37.341711],[29.599556,37.343545],[29.605308,37.347463],[29.607476,37.34838],[29.611977,37.35013],[29.616979,37.353215],[29.620481,37.356216],[29.623565,37.358884],[29.6287,37.361818],[29.629984,37.362552],[29.631273,37.363302],[29.634569,37.365219],[29.63807,37.369304],[29.639487,37.372222],[29.639988,37.374806],[29.640314,37.377155],[29.640404,37.377807],[29.640821,37.381808],[29.640738,37.38531],[29.643593,37.386129],[29.652547,37.388001],[29.663049,37.392641],[29.670375,37.395816],[29.680795,37.402491],[29.6869,37.407375],[29.691703,37.412748],[29.695945,37.416086],[29.701399,37.417795],[29.708482,37.4204],[29.708965,37.420743]]]}},{"type":"Feature","properties":{"id":"TR-D-15-011","parent_id":"TR-P-15","region_id":"TR-R-AKD","level":"district","municipality_type":null,"municipality_type_label":null,"is_metropolitan_municipality":null,"name":"Yeşilova","name_ascii":"yesilova","slug":"yesilova-burdur"},"geometry":{"type":"Polygon","coordinates":[[[29.964009,37.796792],[29.964045,37.795742],[29.96421,37.793658],[29.964703,37.788282],[29.964429,37.785868],[29.964045,37.783729],[29.962674,37.779999],[29.962125,37.777475],[29.962125,37.776049],[29.962619,37.774239],[29.962838,37.772703],[29.963771,37.769905],[29.965032,37.766175],[29.967062,37.762171],[29.968872,37.758825],[29.971615,37.756027],[29.972547,37.755204],[29.974083,37.751748],[29.9754,37.74928],[29.976826,37.746647],[29.978143,37.744343],[29.979843,37.7416],[29.980721,37.73968],[29.98105,37.737925],[29.981324,37.733646],[29.981818,37.727119],[29.982147,37.722127],[29.982147,37.716641],[29.981653,37.714283],[29.981708,37.710936],[29.982476,37.707042],[29.982257,37.70408],[29.981599,37.700898],[29.980063,37.697607],[29.978143,37.693218],[29.976003,37.689762],[29.97337,37.687349],[29.971889,37.686471],[29.970353,37.683509],[29.968159,37.679614],[29.966404,37.674238],[29.965691,37.671715],[29.964923,37.670015],[29.963661,37.667875],[29.962619,37.66623],[29.962454,37.664529],[29.96207,37.661622],[29.962235,37.656904],[29.962235,37.6546],[29.963112,37.651638],[29.964484,37.649663],[29.965855,37.648237],[29.968159,37.643575],[29.970244,37.640009],[29.971066,37.638144],[29.97167,37.635182],[29.971889,37.629587],[29.971999,37.626186],[29.972218,37.623607],[29.972273,37.621962],[29.971834,37.61889],[29.971889,37.617299],[29.972822,37.613953],[29.973864,37.61143],[29.975071,37.608742],[29.975235,37.606877],[29.975619,37.604518],[29.975894,37.602762],[29.976168,37.600075],[29.975455,37.596125],[29.974083,37.590859],[29.973312,37.589378],[29.965901,37.580211],[29.964243,37.575237],[29.963217,37.567961],[29.966454,37.561285],[29.969466,37.553552],[29.969466,37.548667],[29.968571,37.544109],[29.968001,37.539794],[29.967675,37.532712],[29.968164,37.522048],[29.969371,37.511519],[29.969045,37.506635],[29.968394,37.49958],[29.969045,37.492851],[29.96427,37.48916],[29.9583,37.486664],[29.954935,37.483191],[29.946917,37.477221],[29.940974,37.474046],[29.935276,37.47022],[29.927217,37.463301],[29.921274,37.461428],[29.915739,37.458579],[29.908901,37.455241],[29.902633,37.452555],[29.888794,37.447915],[29.863884,37.440914],[29.854766,37.440182],[29.840195,37.437739],[29.828066,37.436925],[29.814227,37.435623],[29.805272,37.436844],[29.794364,37.440426],[29.78313,37.441484],[29.775152,37.44181],[29.767337,37.43953],[29.764163,37.438716],[29.761395,37.437658],[29.75708,37.435053],[29.753092,37.432122],[29.747556,37.428622],[29.742183,37.427401],[29.736322,37.427401],[29.730868,37.42732],[29.726147,37.426831],[29.720204,37.426017],[29.717111,37.424063],[29.711005,37.422191],[29.708965,37.420743],[29.708482,37.4204],[29.701399,37.417795],[29.695945,37.416086],[29.691703,37.412748],[29.6869,37.407375],[29.680795,37.402491],[29.670375,37.395816],[29.663049,37.392641],[29.652547,37.388001],[29.643593,37.386129],[29.640738,37.38531],[29.640321,37.387561],[29.63732,37.391562],[29.636403,37.393813],[29.634736,37.397647],[29.630484,37.402066],[29.627316,37.4039],[29.624315,37.405234],[29.622148,37.4059],[29.61798,37.407068],[29.616146,37.408985],[29.615479,37.411319],[29.615062,37.41407],[29.614812,37.416571],[29.612728,37.419322],[29.609643,37.420572],[29.603891,37.422823],[29.597639,37.424824],[29.593395,37.426064],[29.590676,37.426814],[29.587159,37.426955],[29.578109,37.427611],[29.576186,37.428209],[29.571919,37.429534],[29.571243,37.429864],[29.567309,37.431787],[29.558796,37.43543],[29.555263,37.438521],[29.552781,37.441677],[29.550564,37.444496],[29.550264,37.444947],[29.549903,37.445489],[29.545769,37.45541],[29.544115,37.460371],[29.542875,37.46525],[29.541883,37.469301],[29.540064,37.470955],[29.537583,37.475915],[29.538162,37.481372],[29.538741,37.492948],[29.53818,37.502332],[29.538162,37.502621],[29.537914,37.510311],[29.538228,37.512852],[29.538438,37.514555],[29.538934,37.515465],[29.542572,37.51811],[29.544887,37.521087],[29.545962,37.524725],[29.545962,37.52704],[29.54621,37.531339],[29.545962,37.536548],[29.545006,37.538698],[29.54497,37.538781],[29.542158,37.540021],[29.53728,37.540931],[29.531575,37.542584],[29.528103,37.544072],[29.524547,37.547049],[29.520248,37.551927],[29.518098,37.554408],[29.517106,37.556557],[29.516445,37.561518],[29.515948,37.564908],[29.516155,37.567389],[29.516197,37.567885],[29.517023,37.571688],[29.517179,37.572534],[29.517602,37.57483],[29.518594,37.577062],[29.519669,37.58037],[29.521323,37.582602],[29.524299,37.586984],[29.526118,37.58963],[29.527359,37.59087],[29.531823,37.59302],[29.53819,37.59674],[29.5453,37.600709],[29.549454,37.602849],[29.553486,37.604926],[29.559274,37.610466],[29.562245,37.612369],[29.564565,37.613855],[29.568452,37.616583],[29.569278,37.617163],[29.58383,37.624521],[29.586417,37.625336],[29.597224,37.628738],[29.598055,37.628834],[29.599374,37.628986],[29.606753,37.629125],[29.61252,37.629234],[29.618215,37.628986],[29.624416,37.628552],[29.629687,37.628304],[29.636818,37.626816],[29.641531,37.626382],[29.645686,37.623095],[29.649469,37.619561],[29.662801,37.61522],[29.67018,37.61429],[29.676381,37.613917],[29.682644,37.61491],[29.686613,37.615902],[29.695109,37.627374],[29.697527,37.632025],[29.698333,37.634567],[29.698209,37.638288],[29.697651,37.641202],[29.697093,37.644489],[29.696411,37.648644],[29.695047,37.653543],[29.693682,37.655713],[29.692008,37.656643],[29.689838,37.657511],[29.686613,37.658565],[29.681404,37.659682],[29.678552,37.660736],[29.672165,37.662906],[29.670614,37.665077],[29.669746,37.667619],[29.669684,37.670099],[29.670676,37.67382],[29.673405,37.678285],[29.677187,37.680827],[29.687481,37.685602],[29.69331,37.689013],[29.700938,37.692858],[29.703728,37.694966],[29.710611,37.699493],[29.719107,37.702221],[29.723262,37.703647],[29.72723,37.704578],[29.730393,37.705074],[29.736284,37.704826],[29.740129,37.705198],[29.743229,37.70619],[29.747322,37.7065],[29.751043,37.706624],[29.755011,37.706438],[29.759538,37.706066],[29.763693,37.705942],[29.767724,37.705446],[29.77132,37.704888],[29.775103,37.704206],[29.781862,37.704144],[29.793334,37.703895],[29.800589,37.702221],[29.809705,37.702159],[29.817394,37.704144],[29.830541,37.708236],[29.845682,37.718964],[29.851469,37.722023],[29.855273,37.725579],[29.862549,37.729713],[29.866931,37.733268],[29.868998,37.737237],[29.871065,37.743934],[29.874951,37.749804],[29.88016,37.755592],[29.890743,37.763695],[29.901905,37.772128],[29.905326,37.772376],[29.909481,37.777027],[29.913387,37.78112],[29.916488,37.786639],[29.916902,37.788267],[29.922651,37.789072],[29.930843,37.789425],[29.937623,37.790697],[29.944545,37.792815],[29.952384,37.794934],[29.964009,37.796792]]]}}]}