{"type":"FeatureCollection","province":"Çankırı","province_id":"TR-P-18","features":[{"type":"Feature","properties":{"id":"TR-D-18-001","parent_id":"TR-P-18","region_id":"TR-R-ICA","level":"district","municipality_type":null,"municipality_type_label":null,"is_metropolitan_municipality":null,"name":"Atkaracalar","name_ascii":"atkaracalar","slug":"atkaracalar-cankiri"},"geometry":{"type":"Polygon","coordinates":[[[33.161333,40.920996],[33.160631,40.915928],[33.160865,40.910158],[33.161411,40.90392],[33.160865,40.895108],[33.161099,40.883802],[33.161489,40.877954],[33.163282,40.863996],[33.164062,40.854951],[33.163204,40.846373],[33.162346,40.838498],[33.161723,40.829453],[33.161801,40.82571],[33.162269,40.820251],[33.163126,40.808009],[33.163438,40.803331],[33.163984,40.796157],[33.16375,40.794208],[33.163828,40.79218],[33.164608,40.790075],[33.166791,40.785006],[33.168896,40.779938],[33.17108,40.773388],[33.171548,40.769723],[33.171236,40.766994],[33.170144,40.763017],[33.168896,40.7606],[33.166635,40.758261],[33.16414,40.757091],[33.160475,40.756233],[33.156654,40.754362],[33.152054,40.749605],[33.149325,40.745395],[33.147141,40.742354],[33.144817,40.738754],[33.142316,40.741179],[33.138225,40.745498],[33.134361,40.748074],[33.131936,40.749286],[33.128754,40.750499],[33.124207,40.751484],[33.117918,40.752696],[33.107538,40.752469],[33.100491,40.752469],[33.093142,40.752696],[33.08511,40.752469],[33.07776,40.753454],[33.075563,40.753984],[33.07209,40.759818],[33.064311,40.767496],[33.057643,40.772447],[33.052693,40.775781],[33.048551,40.778609],[33.040368,40.784873],[33.035721,40.78851],[33.029457,40.793056],[33.021779,40.798815],[33.012384,40.805179],[33.008545,40.80922],[33.006322,40.814272],[33.005413,40.821344],[33.005009,40.828415],[33.005716,40.835992],[33.008039,40.848217],[33.008646,40.850439],[33.011272,40.859633],[33.016223,40.868422],[33.017738,40.87115],[33.019556,40.875393],[33.020264,40.880444],[33.020466,40.884283],[33.020769,40.890345],[33.02087,40.894487],[33.020668,40.898023],[33.021072,40.90166],[33.022082,40.907317],[33.023699,40.918935],[33.024305,40.921158],[33.026022,40.924391],[33.029558,40.931058],[33.031173,40.933571],[33.031566,40.933575],[33.033559,40.933599],[33.04179,40.933672],[33.042962,40.933696],[33.043546,40.933717],[33.044126,40.933747],[33.044701,40.93379],[33.045271,40.933853],[33.045831,40.933942],[33.046345,40.934053],[33.046849,40.934189],[33.047346,40.934345],[33.047835,40.934516],[33.048316,40.934701],[33.048789,40.9349],[33.049252,40.935112],[33.049702,40.935338],[33.050167,40.935598],[33.051518,40.936415],[33.051973,40.936675],[33.052439,40.936917],[33.052924,40.93713],[33.053418,40.937301],[33.053931,40.937443],[33.054458,40.937562],[33.054996,40.937666],[33.055542,40.937756],[33.056094,40.937837],[33.056668,40.937913],[33.057822,40.93805],[33.065371,40.938854],[33.073489,40.939751],[33.074648,40.939869],[33.075807,40.939966],[33.076385,40.94],[33.076964,40.94002],[33.077541,40.940021],[33.078108,40.939998],[33.078675,40.939956],[33.079241,40.939901],[33.080372,40.939762],[33.081502,40.939603],[33.086031,40.938927],[33.090002,40.938349],[33.09113,40.938176],[33.09224,40.937986],[33.092784,40.937878],[33.093315,40.937756],[33.093828,40.937614],[33.094317,40.937445],[33.094773,40.937238],[33.095161,40.937006],[33.095519,40.936741],[33.095855,40.936451],[33.096175,40.936144],[33.096483,40.935823],[33.096783,40.935494],[33.097936,40.934191],[33.098236,40.933875],[33.098549,40.93357],[33.09888,40.933281],[33.099236,40.933012],[33.099639,40.932757],[33.100069,40.932525],[33.10052,40.932311],[33.100986,40.932112],[33.101464,40.931924],[33.101951,40.931746],[33.102445,40.931578],[33.102946,40.93142],[33.103454,40.931274],[33.103968,40.931141],[33.104524,40.931017],[33.105087,40.930908],[33.106225,40.930717],[33.107372,40.930547],[33.113106,40.929749],[33.131724,40.922852],[33.141378,40.922709],[33.144638,40.922539],[33.154414,40.922382],[33.161333,40.920996]]]}},{"type":"Feature","properties":{"id":"TR-D-18-002","parent_id":"TR-P-18","region_id":"TR-R-ICA","level":"district","municipality_type":null,"municipality_type_label":null,"is_metropolitan_municipality":null,"name":"Bayramören","name_ascii":"bayramoren","slug":"bayramoren-cankiri"},"geometry":{"type":"Polygon","coordinates":[[[33.087004,41.060714],[33.087573,41.060635],[33.087741,41.060607],[33.08811,41.060546],[33.088679,41.060434],[33.089025,41.060357],[33.089244,41.060308],[33.089805,41.060173],[33.090922,41.059882],[33.09259,41.059422],[33.094254,41.058951],[33.096463,41.058306],[33.097555,41.057963],[33.098094,41.05778],[33.098965,41.057462],[33.099824,41.057125],[33.100741,41.056746],[33.103188,41.055713],[33.105158,41.05492],[33.106653,41.054352],[33.107666,41.054001],[33.108053,41.053879],[33.108181,41.053839],[33.109223,41.053536],[33.110276,41.053254],[33.111336,41.052993],[33.111869,41.052872],[33.112402,41.052761],[33.112937,41.052664],[33.113474,41.052585],[33.113982,41.052531],[33.11449,41.0525],[33.114996,41.052492],[33.115498,41.05251],[33.115612,41.052522],[33.115994,41.052561],[33.116532,41.05266],[33.117063,41.052794],[33.117587,41.052953],[33.118107,41.053132],[33.118266,41.05319],[33.118624,41.053323],[33.119652,41.053729],[33.120886,41.054246],[33.121181,41.05437],[33.122691,41.055037],[33.123186,41.055269],[33.123443,41.055394],[33.123675,41.055508],[33.124605,41.055998],[33.125966,41.056771],[33.126032,41.05681],[33.128648,41.058359],[33.130414,41.059436],[33.131279,41.059989],[33.132099,41.060548],[33.134036,41.061957],[33.134827,41.062506],[33.135582,41.062986],[33.13597,41.063216],[33.136365,41.063439],[33.136768,41.063653],[33.137244,41.063889],[33.137729,41.064114],[33.138221,41.06433],[33.139221,41.064742],[33.139728,41.064937],[33.14024,41.065123],[33.140756,41.065298],[33.141279,41.065459],[33.141811,41.065601],[33.142348,41.06572],[33.142893,41.06582],[33.143444,41.065907],[33.143999,41.065986],[33.145133,41.06613],[33.151499,41.066878],[33.152654,41.067019],[33.153803,41.06717],[33.153805,41.06717],[33.154946,41.067341],[33.15551,41.067441],[33.156068,41.067554],[33.156617,41.067686],[33.15716,41.067844],[33.157325,41.067898],[33.157694,41.06802],[33.158222,41.068211],[33.158744,41.068412],[33.159781,41.068833],[33.162871,41.070145],[33.163429,41.070375],[33.164427,41.070786],[33.16495,41.070992],[33.166009,41.071387],[33.167617,41.071949],[33.168698,41.072307],[33.169242,41.072479],[33.16979,41.072646],[33.170131,41.072742],[33.170896,41.072958],[33.172011,41.073254],[33.173692,41.073679],[33.174817,41.07395],[33.175946,41.074202],[33.176513,41.074314],[33.177083,41.074412],[33.177657,41.074491],[33.178227,41.074546],[33.1788,41.07458],[33.179376,41.074597],[33.179953,41.0746],[33.180531,41.074589],[33.181113,41.074563],[33.181694,41.074526],[33.182274,41.074477],[33.182852,41.074419],[33.183428,41.074349],[33.184001,41.074266],[33.184556,41.074171],[33.185109,41.074064],[33.186207,41.073828],[33.187843,41.07344],[33.188926,41.073166],[33.189998,41.072874],[33.190528,41.072716],[33.191051,41.072548],[33.191561,41.072369],[33.192064,41.07218],[33.193059,41.07178],[33.195024,41.07094],[33.202567,41.067647],[33.203577,41.067191],[33.204561,41.066717],[33.205035,41.066468],[33.205491,41.066207],[33.205922,41.065928],[33.206317,41.065625],[33.206638,41.065325],[33.20693,41.065006],[33.207202,41.064673],[33.20746,41.064329],[33.20846,41.062925],[33.208728,41.062581],[33.209015,41.062243],[33.209321,41.061917],[33.209646,41.061602],[33.20999,41.061303],[33.210208,41.061137],[33.210359,41.061021],[33.210786,41.060742],[33.211238,41.060483],[33.211707,41.060238],[33.21219,41.060003],[33.212682,41.059776],[33.214187,41.059119],[33.216222,41.058269],[33.21737,41.057806],[33.217761,41.057649],[33.218801,41.057258],[33.219855,41.056897],[33.220921,41.056556],[33.222531,41.056064],[33.223608,41.055748],[33.224686,41.05545],[33.225227,41.055313],[33.225769,41.055188],[33.226313,41.055081],[33.226859,41.054996],[33.227409,41.054944],[33.22797,41.054929],[33.228534,41.054945],[33.229102,41.054981],[33.230816,41.055111],[33.23139,41.055135],[33.231473,41.055135],[33.231944,41.055136],[33.2325,41.055118],[33.233055,41.055085],[33.233611,41.055041],[33.234166,41.054987],[33.23472,41.054923],[33.235273,41.054851],[33.235333,41.054842],[33.235824,41.054769],[33.236371,41.054675],[33.236942,41.054562],[33.238073,41.054306],[33.23976,41.053882],[33.241439,41.05344],[33.24255,41.053136],[33.243642,41.052817],[33.244175,41.052646],[33.244694,41.052463],[33.245194,41.052263],[33.245666,41.052039],[33.2461,41.051782],[33.246457,41.051513],[33.246782,41.051216],[33.247085,41.050899],[33.247372,41.050567],[33.2482,41.049535],[33.248482,41.04919],[33.24877,41.048858],[33.24907,41.048534],[33.249384,41.048221],[33.249717,41.047922],[33.250071,41.047642],[33.250488,41.047361],[33.250933,41.047108],[33.251402,41.046881],[33.251895,41.046685],[33.252425,41.046518],[33.252972,41.046377],[33.253533,41.046255],[33.254104,41.046148],[33.25468,41.04605],[33.25501,41.045999],[33.255844,41.045871],[33.261113,41.045127],[33.263445,41.044779],[33.264603,41.044585],[33.265178,41.044478],[33.265749,41.044361],[33.266306,41.044234],[33.26686,41.044098],[33.26796,41.043805],[33.2696,41.043342],[33.284322,41.039067],[33.28538,41.038752],[33.285408,41.038744],[33.286489,41.03841],[33.287569,41.038055],[33.288647,41.037678],[33.290254,41.037094],[33.294527,41.035513],[33.29666,41.034718],[33.297721,41.034314],[33.298254,41.034098],[33.298303,41.034078],[33.298714,41.0339],[33.302526,41.031796],[33.302346,41.0304],[33.302243,41.029356],[33.302209,41.028793],[33.302195,41.028248],[33.302206,41.027742],[33.302227,41.027516],[33.302247,41.0273],[33.30232,41.026893],[33.302433,41.026493],[33.302589,41.026106],[33.302783,41.025726],[33.303004,41.025352],[33.303247,41.024983],[33.303508,41.024619],[33.303805,41.024235],[33.304431,41.023476],[33.305408,41.022351],[33.308046,41.019364],[33.311843,41.015045],[33.311985,41.014882],[33.313322,41.013407],[33.315359,41.011219],[33.317412,41.009035],[33.31846,41.007959],[33.319184,41.007265],[33.31956,41.006932],[33.319951,41.006612],[33.32036,41.006312],[33.320795,41.006037],[33.321253,41.005794],[33.321577,41.005644],[33.32173,41.005573],[33.322689,41.005145],[33.323145,41.004917],[33.323566,41.004664],[33.323914,41.004395],[33.324219,41.0041],[33.324478,41.003784],[33.32469,41.003451],[33.324847,41.003106],[33.324936,41.002751],[33.324948,41.002406],[33.324901,41.002055],[33.324806,41.001702],[33.324671,41.001348],[33.324523,41.00104],[33.324502,41.000996],[33.324303,41.000648],[33.324082,41.000303],[33.323593,40.99962],[33.322801,40.998608],[33.321926,40.997542],[33.321728,40.997311],[33.321518,40.997066],[33.321026,40.996493],[33.320374,40.995782],[33.319669,40.995059],[33.318952,40.994344],[33.315331,40.9908],[33.314232,40.989747],[33.313481,40.989057],[33.313096,40.988718],[33.312308,40.988064],[33.311089,40.987107],[33.305717,40.98302],[33.301183,40.979548],[33.300348,40.97893],[33.299924,40.978629],[33.299493,40.978336],[33.299027,40.978042],[33.299116,40.970901],[33.29935,40.966456],[33.300052,40.963337],[33.300676,40.960686],[33.301845,40.95398],[33.302469,40.949691],[33.301611,40.946027],[33.299896,40.939944],[33.298336,40.936981],[33.295217,40.934096],[33.287966,40.932303],[33.282273,40.931289],[33.274398,40.929964],[33.265898,40.927546],[33.25584,40.924661],[33.247652,40.921932],[33.231823,40.918657],[33.226053,40.917799],[33.220205,40.917409],[33.212485,40.917487],[33.206481,40.918033],[33.201802,40.919437],[33.198293,40.920373],[33.194473,40.921776],[33.19034,40.922946],[33.185349,40.923024],[33.180281,40.92279],[33.175213,40.923024],[33.17108,40.922868],[33.166245,40.922088],[33.161333,40.920996],[33.154414,40.922382],[33.144638,40.922539],[33.141378,40.922709],[33.131724,40.922852],[33.113106,40.929749],[33.107372,40.930547],[33.106225,40.930717],[33.105087,40.930908],[33.104524,40.931017],[33.103968,40.931141],[33.103454,40.931274],[33.102946,40.93142],[33.102445,40.931578],[33.101951,40.931746],[33.101464,40.931924],[33.100986,40.932112],[33.10052,40.932311],[33.100069,40.932525],[33.099639,40.932757],[33.099236,40.933012],[33.09888,40.933281],[33.098549,40.93357],[33.098236,40.933875],[33.097936,40.934191],[33.096783,40.935494],[33.096483,40.935823],[33.096175,40.936144],[33.095855,40.936451],[33.095519,40.936741],[33.095161,40.937006],[33.094773,40.937238],[33.094317,40.937445],[33.093828,40.937614],[33.093315,40.937756],[33.092784,40.937878],[33.09224,40.937986],[33.09113,40.938176],[33.090002,40.938349],[33.086031,40.938927],[33.081502,40.939603],[33.080372,40.939762],[33.079241,40.939901],[33.078675,40.939956],[33.078108,40.939998],[33.077541,40.940021],[33.076964,40.94002],[33.076385,40.94],[33.075807,40.939966],[33.074648,40.939869],[33.073489,40.939751],[33.065371,40.938854],[33.057822,40.93805],[33.056668,40.937913],[33.056094,40.937837],[33.055542,40.937756],[33.054996,40.937666],[33.054458,40.937562],[33.053931,40.937443],[33.053418,40.937301],[33.052924,40.93713],[33.052439,40.936917],[33.051973,40.936675],[33.051518,40.936415],[33.050167,40.935598],[33.049702,40.935338],[33.049252,40.935112],[33.048789,40.9349],[33.048316,40.934701],[33.047835,40.934516],[33.047346,40.934345],[33.046849,40.934189],[33.046345,40.934053],[33.045831,40.933942],[33.045271,40.933853],[33.044701,40.93379],[33.044126,40.933747],[33.043546,40.933717],[33.042962,40.933696],[33.04179,40.933672],[33.033559,40.933599],[33.031566,40.933575],[33.031173,40.933571],[33.032286,40.935302],[33.034407,40.939848],[33.036428,40.943889],[33.037539,40.949546],[33.037741,40.955709],[33.037577,40.959876],[33.038411,40.962301],[33.040077,40.965029],[33.043108,40.968059],[33.044624,40.970711],[33.045003,40.972985],[33.04523,40.976849],[33.043411,40.981925],[33.040835,40.987153],[33.038865,40.990336],[33.035539,40.993706],[33.038427,40.996306],[33.042952,41.003334],[33.044107,41.006896],[33.04738,41.014598],[33.048728,41.018545],[33.051135,41.021626],[33.054408,41.024321],[33.066924,41.030964],[33.069716,41.033371],[33.073952,41.037511],[33.079054,41.043479],[33.082231,41.048293],[33.08406,41.053973],[33.085408,41.057246],[33.087004,41.060714]]]}},{"type":"Feature","properties":{"id":"TR-D-18-003","parent_id":"TR-P-18","region_id":"TR-R-ICA","level":"district","municipality_type":null,"municipality_type_label":null,"is_metropolitan_municipality":null,"name":"Çankırı","name_ascii":"cankiri","slug":"cankiri-cankiri"},"geometry":{"type":"Polygon","coordinates":[[[34.160397,40.479185],[34.160394,40.479184],[34.159879,40.478993],[34.158827,40.478624],[34.158403,40.478483],[34.158202,40.478416],[34.157234,40.478094],[34.150284,40.475855],[34.144929,40.474103],[34.143865,40.473777],[34.143338,40.473629],[34.142844,40.473505],[34.142815,40.473498],[34.142299,40.473391],[34.141792,40.473318],[34.141298,40.473293],[34.140822,40.473333],[34.140743,40.473354],[34.140392,40.473444],[34.139977,40.473614],[34.139574,40.473828],[34.139178,40.474074],[34.138788,40.474341],[34.137229,40.475494],[34.136827,40.475776],[34.136413,40.476044],[34.135985,40.476292],[34.135564,40.476499],[34.135128,40.476681],[34.134679,40.476836],[34.13422,40.476962],[34.133751,40.477051],[34.13321,40.477104],[34.132662,40.477107],[34.132114,40.477063],[34.131635,40.476986],[34.131158,40.47688],[34.130684,40.476753],[34.130212,40.476609],[34.129743,40.476453],[34.128763,40.476099],[34.127231,40.475512],[34.126205,40.47513],[34.125686,40.474949],[34.124744,40.474651],[34.124268,40.474515],[34.123788,40.474387],[34.123306,40.47427],[34.122821,40.474164],[34.122332,40.474073],[34.121866,40.474003],[34.121397,40.473949],[34.120926,40.473911],[34.120454,40.47389],[34.119982,40.473888],[34.119493,40.473907],[34.119004,40.473945],[34.118517,40.474],[34.118031,40.474068],[34.117546,40.47415],[34.117026,40.474252],[34.114607,40.478303],[34.111656,40.481223],[34.107749,40.483296],[34.103805,40.485268],[34.100209,40.486544],[34.094409,40.488052],[34.089769,40.489096],[34.086521,40.489908],[34.084201,40.490024],[34.078517,40.490604],[34.074109,40.491184],[34.069817,40.49188],[34.065873,40.492112],[34.058333,40.492228],[34.051605,40.492576],[34.046617,40.493504],[34.040817,40.493504],[34.037569,40.493388],[34.034205,40.493388],[34.029797,40.49304],[34.025157,40.492924],[34.020053,40.492808],[34.015877,40.492692],[34.011585,40.492692],[34.008801,40.49246],[34.004625,40.491184],[33.999521,40.489792],[33.993605,40.488168],[33.987805,40.487124],[33.980845,40.48666],[33.975509,40.486892],[33.971449,40.487008],[33.965301,40.487936],[33.95821,40.488139],[33.956035,40.488313],[33.946639,40.488313],[33.94168,40.4884],[33.937939,40.4884],[33.931501,40.487791],[33.929152,40.48753],[33.923062,40.486486],[33.915667,40.484659],[33.910708,40.483963],[33.904705,40.482397],[33.900964,40.480744],[33.895135,40.477438],[33.887566,40.473958],[33.880954,40.470739],[33.877996,40.468738],[33.872428,40.463953],[33.869992,40.460734],[33.867382,40.457167],[33.865468,40.450033],[33.865555,40.440985],[33.86599,40.436287],[33.867208,40.429414],[33.870079,40.420888],[33.870808,40.415124],[33.871199,40.412644],[33.871852,40.405206],[33.872439,40.396723],[33.872504,40.394113],[33.872831,40.386153],[33.87257,40.381194],[33.872243,40.379041],[33.871656,40.375778],[33.871591,40.371145],[33.871852,40.367296],[33.872831,40.362337],[33.873418,40.358748],[33.873353,40.356203],[33.872178,40.352353],[33.871716,40.349049],[33.870464,40.348901],[33.869341,40.348745],[33.868221,40.348574],[33.867104,40.348388],[33.865965,40.348177],[33.863696,40.347724],[33.848977,40.344719],[33.846162,40.344122],[33.837198,40.342147],[33.835523,40.341763],[33.834458,40.341496],[33.833933,40.341355],[33.833418,40.341206],[33.832914,40.341046],[33.832427,40.340874],[33.831963,40.340682],[33.831529,40.340466],[33.831137,40.340216],[33.830812,40.339943],[33.830521,40.33964],[33.830254,40.339318],[33.829486,40.338305],[33.829209,40.337974],[33.828959,40.337707],[33.82869,40.337451],[33.828403,40.337206],[33.828098,40.336975],[33.827669,40.336694],[33.827215,40.336433],[33.826742,40.336187],[33.826255,40.335952],[33.825221,40.335488],[33.806301,40.333776],[33.797567,40.333688],[33.789858,40.328913],[33.784141,40.327709],[33.779038,40.326635],[33.770069,40.326543],[33.759699,40.325532],[33.748036,40.324583],[33.746566,40.325306],[33.745633,40.325745],[33.745158,40.325953],[33.744676,40.32615],[33.744158,40.326341],[33.743632,40.32652],[33.74256,40.326852],[33.741474,40.327164],[33.740379,40.327464],[33.739282,40.327751],[33.738733,40.327887],[33.737668,40.32813],[33.737142,40.328236],[33.736624,40.328329],[33.736117,40.328402],[33.735626,40.32845],[33.735158,40.328463],[33.73472,40.328429],[33.734323,40.328331],[33.73397,40.328156],[33.733654,40.327924],[33.732777,40.327114],[33.73246,40.326879],[33.732105,40.3267],[33.7317,40.326595],[33.731251,40.326554],[33.730771,40.32656],[33.730268,40.3266],[33.729911,40.326645],[33.729748,40.326665],[33.729216,40.326748],[33.728162,40.326942],[33.727125,40.327154],[33.726354,40.327319],[33.726082,40.327377],[33.72504,40.327608],[33.724002,40.327847],[33.722972,40.328101],[33.721874,40.328397],[33.718615,40.329342],[33.717527,40.329646],[33.716981,40.32979],[33.716431,40.329925],[33.715877,40.330049],[33.715345,40.330153],[33.714808,40.330246],[33.713728,40.33041],[33.712097,40.330627],[33.703642,40.331667],[33.696717,40.332551],[33.695563,40.332686],[33.694989,40.332744],[33.694417,40.332792],[33.693917,40.33282],[33.693849,40.332824],[33.693287,40.332836],[33.692773,40.332821],[33.69227,40.332779],[33.691784,40.332707],[33.69132,40.332598],[33.690885,40.332444],[33.690454,40.332219],[33.690055,40.331947],[33.689677,40.331644],[33.688567,40.330679],[33.688174,40.330379],[33.687753,40.33011],[33.687335,40.329903],[33.686891,40.329731],[33.686425,40.32959],[33.685943,40.329482],[33.685447,40.329408],[33.684959,40.32937],[33.684465,40.32936],[33.683965,40.329373],[33.683462,40.329404],[33.683167,40.329431],[33.682958,40.32945],[33.682453,40.329511],[33.68195,40.329585],[33.681459,40.329671],[33.679504,40.330058],[33.679014,40.330145],[33.67852,40.33022],[33.677985,40.330282],[33.677518,40.330322],[33.677447,40.330328],[33.676906,40.330362],[33.67582,40.330402],[33.674732,40.330417],[33.673644,40.330407],[33.673102,40.330391],[33.672563,40.330363],[33.672027,40.330321],[33.671489,40.33026],[33.670957,40.33018],[33.670433,40.330081],[33.669919,40.32996],[33.669419,40.329812],[33.668923,40.329631],[33.66844,40.329425],[33.667967,40.3292],[33.667501,40.328962],[33.666583,40.328462],[33.665675,40.327945],[33.660739,40.325082],[33.659861,40.324568],[33.65929,40.324226],[33.645539,40.331727],[33.636201,40.335674],[33.628595,40.337118],[33.621279,40.339525],[33.613025,40.340094],[33.612903,40.340102],[33.60703,40.341161],[33.600484,40.344049],[33.594322,40.346745],[33.588064,40.347708],[33.579592,40.348189],[33.577378,40.348382],[33.571024,40.348478],[33.559568,40.347419],[33.553888,40.34559],[33.546571,40.343568],[33.53781,40.343472],[33.531071,40.344146],[33.520962,40.345108],[33.514608,40.346649],[33.506714,40.348671],[33.500942,40.35084],[33.501786,40.356615],[33.502701,40.361493],[33.504428,40.370741],[33.505851,40.377957],[33.506664,40.386188],[33.506461,40.39127],[33.505648,40.396046],[33.504835,40.399908],[33.504835,40.40316],[33.505953,40.404685],[33.5089,40.40753],[33.512051,40.409055],[33.524347,40.416372],[33.528413,40.420132],[33.531156,40.424909],[33.531868,40.426128],[33.535526,40.430295],[33.539896,40.43436],[33.54325,40.436392],[33.549856,40.439746],[33.559002,40.444929],[33.560832,40.445742],[33.567882,40.450036],[33.572227,40.453771],[33.576724,40.457429],[33.58084,40.460097],[33.584346,40.461393],[33.588386,40.463298],[33.591129,40.464823],[33.593569,40.466728],[33.595893,40.4712],[33.597723,40.473232],[33.60067,40.475265],[33.606259,40.478619],[33.610528,40.480245],[33.614186,40.481769],[33.617743,40.484005],[33.619979,40.486139],[33.623536,40.489798],[33.624552,40.49183],[33.624959,40.49244],[33.624756,40.495286],[33.622926,40.498436],[33.621402,40.500977],[33.618861,40.503924],[33.615507,40.509209],[33.614186,40.513883],[33.610426,40.516729],[33.601076,40.523538],[33.595385,40.525367],[33.586848,40.527197],[33.580039,40.529026],[33.572925,40.531668],[33.565405,40.538376],[33.558088,40.546709],[33.554429,40.550266],[33.551076,40.552807],[33.546502,40.555551],[33.543657,40.558091],[33.542132,40.560429],[33.541319,40.564697],[33.541014,40.569067],[33.540913,40.5711],[33.541929,40.575775],[33.543149,40.577807],[33.546401,40.58421],[33.548738,40.588783],[33.551482,40.594982],[33.551685,40.597625],[33.552397,40.602604],[33.5526,40.607483],[33.552702,40.611141],[33.552193,40.615714],[33.551787,40.61856],[33.551584,40.620389],[33.550567,40.625775],[33.549443,40.630355],[33.549145,40.631568],[33.547519,40.639394],[33.546197,40.64976],[33.545689,40.653926],[33.545588,40.662971],[33.545689,40.66917],[33.547214,40.676894],[33.548636,40.682687],[33.550974,40.688378],[33.553819,40.693561],[33.55697,40.700573],[33.558596,40.704943],[33.562051,40.711549],[33.563677,40.713887],[33.565913,40.719781],[33.567742,40.723846],[33.56947,40.7272],[33.571808,40.730045],[33.574856,40.734314],[33.575771,40.735432],[33.57943,40.740107],[33.58197,40.74346],[33.583698,40.747424],[33.585629,40.753623],[33.586544,40.755554],[33.587255,40.763074],[33.586747,40.768054],[33.585426,40.77466],[33.584104,40.77903],[33.584104,40.781571],[33.585426,40.785229],[33.587865,40.789701],[33.591727,40.794884],[33.595182,40.798847],[33.597926,40.801693],[33.60758,40.800067],[33.615203,40.798238],[33.621402,40.797018],[33.628821,40.796408],[33.638983,40.795494],[33.643862,40.795087],[33.651484,40.796103],[33.655955,40.79712],[33.660732,40.799457],[33.664187,40.800473],[33.670081,40.801286],[33.680244,40.801388],[33.6835,40.801913],[33.683635,40.800434],[33.683858,40.798571],[33.683635,40.797305],[33.68356,40.796188],[33.682741,40.79507],[33.681773,40.7944],[33.680953,40.793282],[33.679985,40.791569],[33.679463,40.790154],[33.679463,40.788291],[33.679389,40.786504],[33.678793,40.785461],[33.678197,40.783896],[33.678718,40.780991],[33.679612,40.778012],[33.681698,40.775479],[33.683039,40.773765],[33.684752,40.771754],[33.686242,40.769519],[33.689743,40.764305],[33.692127,40.761325],[33.695926,40.756558],[33.697788,40.753429],[33.697863,40.749332],[33.696001,40.742404],[33.695107,40.737264],[33.693766,40.732422],[33.693393,40.728995],[33.693766,40.724973],[33.693915,40.72177],[33.69466,40.719535],[33.697044,40.718045],[33.702779,40.716108],[33.70777,40.714544],[33.713059,40.712235],[33.716635,40.709851],[33.718199,40.707765],[33.720062,40.70486],[33.720211,40.700688],[33.720807,40.694729],[33.72103,40.691153],[33.721701,40.68579],[33.721924,40.682438],[33.723265,40.679383],[33.726692,40.674839],[33.73064,40.670891],[33.736078,40.664932],[33.739728,40.663219],[33.745464,40.663517],[33.750455,40.664261],[33.754924,40.666049],[33.755893,40.667688],[33.758649,40.671115],[33.761778,40.673052],[33.764683,40.674318],[33.768705,40.674318],[33.772281,40.674243],[33.776676,40.673275],[33.779507,40.672083],[33.789414,40.668582],[33.799098,40.662921],[33.807516,40.657259],[33.811092,40.655099],[33.816753,40.6513],[33.819733,40.647948],[33.826363,40.640051],[33.835674,40.631559],[33.842155,40.623887],[33.849306,40.614277],[33.851243,40.610701],[33.858022,40.60571],[33.865844,40.599751],[33.878805,40.59178],[33.892139,40.585746],[33.901749,40.581947],[33.913072,40.579117],[33.922756,40.578372],[33.930503,40.578893],[33.939293,40.579713],[33.950467,40.581873],[33.960151,40.584108],[33.966036,40.586044],[33.969314,40.588056],[33.977284,40.592823],[33.989948,40.603848],[33.991661,40.605561],[33.995684,40.610478],[33.99993,40.615469],[34.007305,40.620311],[34.012892,40.624706],[34.024512,40.628654],[34.030248,40.630516],[34.03889,40.63372],[34.042763,40.635507],[34.048872,40.640945],[34.051702,40.644372],[34.053043,40.647724],[34.054235,40.648916],[34.068687,40.656738],[34.070772,40.658079],[34.081276,40.664336],[34.086714,40.668657],[34.088278,40.671711],[34.090438,40.674541],[34.092897,40.678341],[34.095653,40.680426],[34.104591,40.683939],[34.113167,40.677803],[34.116567,40.674698],[34.118268,40.671593],[34.119303,40.668341],[34.11982,40.661613],[34.119746,40.654886],[34.118859,40.647567],[34.117676,40.642688],[34.116124,40.640766],[34.112354,40.638105],[34.108435,40.634926],[34.106292,40.632338],[34.104074,40.628938],[34.102004,40.625907],[34.099934,40.622728],[34.099416,40.621175],[34.099416,40.619032],[34.099712,40.614892],[34.099712,40.610826],[34.09949,40.609273],[34.097642,40.606686],[34.09609,40.604542],[34.093428,40.600919],[34.092172,40.595745],[34.091876,40.591161],[34.092615,40.585765],[34.093428,40.581994],[34.094611,40.577411],[34.094907,40.576524],[34.098455,40.572901],[34.105996,40.569057],[34.115163,40.565878],[34.128137,40.563118],[34.130305,40.560654],[34.130334,40.560328],[34.130336,40.560313],[34.130601,40.557303],[34.130503,40.552966],[34.130276,40.551418],[34.129999,40.54952],[34.129909,40.548903],[34.129789,40.548638],[34.127298,40.543147],[34.124374,40.540549],[34.122168,40.538278],[34.122075,40.537879],[34.122006,40.537498],[34.121961,40.537118],[34.121944,40.536737],[34.121968,40.536297],[34.12203,40.535858],[34.12212,40.535419],[34.122231,40.534982],[34.12236,40.534547],[34.122503,40.534114],[34.122662,40.533685],[34.122837,40.533262],[34.123033,40.532846],[34.123255,40.532441],[34.123513,40.532051],[34.123808,40.531685],[34.124137,40.531334],[34.124491,40.530993],[34.124862,40.53066],[34.125245,40.530332],[34.126033,40.529686],[34.130867,40.52586],[34.136869,40.521064],[34.138483,40.519797],[34.139308,40.519178],[34.139734,40.51887],[34.141034,40.517966],[34.142352,40.517076],[34.146329,40.514419],[34.14764,40.513521],[34.148491,40.512904],[34.148885,40.5126],[34.149649,40.511978],[34.150379,40.511337],[34.150726,40.51101],[34.151057,40.510676],[34.151365,40.510335],[34.151544,40.51011],[34.151645,40.509983],[34.151884,40.509617],[34.152085,40.509218],[34.152245,40.508805],[34.152378,40.508382],[34.152718,40.507087],[34.152842,40.506656],[34.152987,40.506229],[34.153148,40.505837],[34.153332,40.50545],[34.153533,40.505068],[34.153751,40.504691],[34.153983,40.504319],[34.15423,40.503953],[34.154492,40.503594],[34.154773,40.503244],[34.155076,40.502906],[34.155425,40.502563],[34.155798,40.502232],[34.156188,40.50191],[34.157001,40.501285],[34.159518,40.499445],[34.160333,40.498814],[34.160724,40.498489],[34.161076,40.498175],[34.161416,40.497854],[34.161743,40.497527],[34.162059,40.497194],[34.16236,40.496856],[34.162644,40.496512],[34.162906,40.496162],[34.163139,40.495803],[34.163334,40.495433],[34.163487,40.495044],[34.1636,40.494644],[34.163684,40.494237],[34.163743,40.493824],[34.163784,40.493408],[34.163808,40.492991],[34.163816,40.492573],[34.163807,40.492155],[34.163778,40.491747],[34.163728,40.491342],[34.163655,40.490943],[34.163555,40.490552],[34.163419,40.490172],[34.163238,40.489806],[34.162981,40.489429],[34.162674,40.489068],[34.162333,40.488718],[34.16197,40.488375],[34.161026,40.487517],[34.160841,40.487349],[34.160482,40.486995],[34.160148,40.486633],[34.159836,40.48626],[34.159548,40.485877],[34.159286,40.485486],[34.159057,40.485086],[34.15888,40.484708],[34.158738,40.484324],[34.158634,40.483934],[34.158572,40.483541],[34.158564,40.483113],[34.158635,40.482628],[34.158781,40.4821],[34.15899,40.481553],[34.159242,40.481024],[34.159519,40.480525],[34.15952,40.480523],[34.159798,40.480067],[34.160397,40.479185]]]}},{"type":"Feature","properties":{"id":"TR-D-18-004","parent_id":"TR-P-18","region_id":"TR-R-ICA","level":"district","municipality_type":null,"municipality_type_label":null,"is_metropolitan_municipality":null,"name":"Çerkeş","name_ascii":"cerkes","slug":"cerkes-cankiri"},"geometry":{"type":"Polygon","coordinates":[[[33.031173,40.933571],[33.029558,40.931058],[33.026022,40.924391],[33.024305,40.921158],[33.023699,40.918935],[33.022082,40.907317],[33.021072,40.90166],[33.020668,40.898023],[33.02087,40.894487],[33.020769,40.890345],[33.020466,40.884283],[33.020264,40.880444],[33.019556,40.875393],[33.017738,40.87115],[33.016223,40.868422],[33.011272,40.859633],[33.008646,40.850439],[33.008039,40.848217],[33.005716,40.835992],[33.005009,40.828415],[33.005413,40.821344],[33.006322,40.814272],[33.008545,40.80922],[33.012384,40.805179],[33.021779,40.798815],[33.029457,40.793056],[33.035721,40.78851],[33.040368,40.784873],[33.048551,40.778609],[33.052693,40.775781],[33.057643,40.772447],[33.064311,40.767496],[33.07209,40.759818],[33.075563,40.753984],[33.073257,40.749161],[33.07226,40.745838],[33.071595,40.7416],[33.071429,40.739689],[33.07118,40.736947],[33.070515,40.734371],[33.069518,40.731962],[33.06636,40.728306],[33.064117,40.725979],[33.061126,40.722572],[33.053398,40.714928],[33.050074,40.711854],[33.047166,40.709776],[33.04135,40.706286],[33.037195,40.704708],[33.031794,40.702714],[33.024815,40.699805],[33.021574,40.697728],[33.009277,40.69133],[33.005704,40.689918],[32.999306,40.688505],[32.99349,40.68784],[32.983851,40.687425],[32.98086,40.687259],[32.974296,40.686843],[32.971138,40.687009],[32.967648,40.687674],[32.961084,40.688921],[32.955849,40.688837],[32.950033,40.689502],[32.943303,40.689751],[32.939397,40.689585],[32.936739,40.689336],[32.93408,40.688339],[32.930091,40.686262],[32.927599,40.684766],[32.924275,40.683187],[32.919289,40.681941],[32.914221,40.681276],[32.906577,40.680861],[32.898932,40.679697],[32.894279,40.678617],[32.890623,40.675044],[32.885222,40.668646],[32.879406,40.664658],[32.872842,40.659091],[32.867191,40.652527],[32.864533,40.649868],[32.861624,40.647541],[32.857137,40.644965],[32.853793,40.641622],[32.851529,40.642086],[32.839688,40.644974],[32.83497,40.646611],[32.827461,40.647959],[32.816005,40.64998],[32.809265,40.651521],[32.807051,40.652195],[32.792899,40.655853],[32.77557,40.662207],[32.767194,40.665769],[32.758722,40.670005],[32.751694,40.673856],[32.748614,40.674915],[32.74226,40.677033],[32.735713,40.68175],[32.733402,40.683965],[32.728878,40.688104],[32.724738,40.693303],[32.72108,40.700042],[32.716458,40.709477],[32.713089,40.717371],[32.708757,40.725362],[32.705195,40.728924],[32.702691,40.731427],[32.694797,40.736915],[32.683918,40.744039],[32.676505,40.746831],[32.665145,40.748756],[32.656481,40.749045],[32.650223,40.749526],[32.645024,40.749526],[32.638959,40.749719],[32.635108,40.749912],[32.628176,40.749912],[32.618645,40.750682],[32.611906,40.751837],[32.606996,40.751933],[32.601509,40.751933],[32.596599,40.751933],[32.593863,40.752336],[32.590905,40.752096],[32.582778,40.752096],[32.578288,40.75174],[32.575721,40.750884],[32.571587,40.750956],[32.570161,40.751169],[32.568165,40.751882],[32.567096,40.752738],[32.566169,40.754734],[32.565599,40.757015],[32.566169,40.759296],[32.567025,40.761719],[32.569235,40.765212],[32.569931,40.767774],[32.569642,40.773113],[32.569835,40.776675],[32.570028,40.783318],[32.569835,40.78534],[32.569835,40.791116],[32.570316,40.797374],[32.573975,40.7993],[32.58004,40.801032],[32.584661,40.802669],[32.588031,40.804209],[32.591689,40.80729],[32.593711,40.810467],[32.595732,40.815858],[32.597754,40.820961],[32.598621,40.82356],[32.601027,40.825967],[32.604493,40.828085],[32.608922,40.829337],[32.611714,40.829818],[32.614891,40.829818],[32.618068,40.829818],[32.620763,40.830011],[32.623074,40.830492],[32.625577,40.832129],[32.627599,40.833476],[32.630294,40.834824],[32.633086,40.835691],[32.637419,40.836653],[32.640499,40.837905],[32.644639,40.840504],[32.649196,40.844387],[32.659016,40.851223],[32.662963,40.852378],[32.668643,40.854303],[32.674227,40.855748],[32.680388,40.85748],[32.686357,40.858539],[32.692422,40.860754],[32.697621,40.86239],[32.703012,40.865567],[32.7085,40.867397],[32.71495,40.869322],[32.720823,40.870862],[32.724192,40.87144],[32.729295,40.872114],[32.732953,40.873173],[32.736708,40.875869],[32.74104,40.880586],[32.74672,40.885014],[32.752497,40.890309],[32.759621,40.896182],[32.770115,40.90735],[32.774062,40.913511],[32.776372,40.916784],[32.778683,40.921694],[32.780705,40.927182],[32.781956,40.931899],[32.783304,40.938157],[32.78417,40.942682],[32.785422,40.948073],[32.78754,40.951443],[32.790813,40.955294],[32.794568,40.95693],[32.799959,40.959048],[32.806121,40.959818],[32.814207,40.959915],[32.821813,40.95953],[32.829707,40.958278],[32.838757,40.956834],[32.840159,40.956547],[32.842993,40.955967],[32.850117,40.954042],[32.863981,40.953849],[32.873897,40.955101],[32.899505,40.9577],[32.908459,40.958663],[32.921937,40.960781],[32.925595,40.961455],[32.932238,40.962322],[32.941576,40.963958],[32.949471,40.965691],[32.957654,40.967328],[32.963238,40.968772],[32.97094,40.970216],[32.976042,40.97089],[32.980856,40.972526],[32.987787,40.974548],[33.000207,40.977918],[33.007138,40.980998],[33.022638,40.987641],[33.032939,40.992166],[33.035539,40.993706],[33.038865,40.990336],[33.040835,40.987153],[33.043411,40.981925],[33.04523,40.976849],[33.045003,40.972985],[33.044624,40.970711],[33.043108,40.968059],[33.040077,40.965029],[33.038411,40.962301],[33.037577,40.959876],[33.037741,40.955709],[33.037539,40.949546],[33.036428,40.943889],[33.034407,40.939848],[33.032286,40.935302],[33.031173,40.933571]]]}},{"type":"Feature","properties":{"id":"TR-D-18-005","parent_id":"TR-P-18","region_id":"TR-R-ICA","level":"district","municipality_type":null,"municipality_type_label":null,"is_metropolitan_municipality":null,"name":"Eldivan","name_ascii":"eldivan","slug":"eldivan-cankiri"},"geometry":{"type":"Polygon","coordinates":[[[33.549443,40.630355],[33.550567,40.625775],[33.551584,40.620389],[33.551787,40.61856],[33.552193,40.615714],[33.552702,40.611141],[33.5526,40.607483],[33.552397,40.602604],[33.551685,40.597625],[33.551482,40.594982],[33.548738,40.588783],[33.546401,40.58421],[33.543149,40.577807],[33.541929,40.575775],[33.540913,40.5711],[33.541014,40.569067],[33.541319,40.564697],[33.542132,40.560429],[33.543657,40.558091],[33.546502,40.555551],[33.551076,40.552807],[33.554429,40.550266],[33.558088,40.546709],[33.565405,40.538376],[33.572925,40.531668],[33.580039,40.529026],[33.586848,40.527197],[33.595385,40.525367],[33.601076,40.523538],[33.610426,40.516729],[33.614186,40.513883],[33.615507,40.509209],[33.618861,40.503924],[33.621402,40.500977],[33.622926,40.498436],[33.624756,40.495286],[33.624959,40.49244],[33.624552,40.49183],[33.623536,40.489798],[33.619979,40.486139],[33.617743,40.484005],[33.614186,40.481769],[33.610528,40.480245],[33.606259,40.478619],[33.60067,40.475265],[33.597723,40.473232],[33.595893,40.4712],[33.593569,40.466728],[33.591129,40.464823],[33.588386,40.463298],[33.584346,40.461393],[33.58084,40.460097],[33.576724,40.457429],[33.572227,40.453771],[33.567882,40.450036],[33.560832,40.445742],[33.559002,40.444929],[33.549856,40.439746],[33.54325,40.436392],[33.539896,40.43436],[33.535526,40.430295],[33.531868,40.426128],[33.531156,40.424909],[33.528413,40.420132],[33.524347,40.416372],[33.512051,40.409055],[33.5089,40.40753],[33.505953,40.404685],[33.504835,40.40316],[33.504835,40.399908],[33.505648,40.396046],[33.506461,40.39127],[33.506664,40.386188],[33.505851,40.377957],[33.504428,40.370741],[33.502701,40.361493],[33.501786,40.356615],[33.500942,40.35084],[33.493139,40.353773],[33.47995,40.358875],[33.465509,40.363689],[33.462236,40.365422],[33.458385,40.369177],[33.454823,40.373509],[33.442223,40.380705],[33.436158,40.384099],[33.425111,40.389731],[33.417024,40.393197],[33.416681,40.393279],[33.416509,40.393319],[33.418166,40.396539],[33.42078,40.400858],[33.422997,40.404097],[33.424531,40.406882],[33.425156,40.40978],[33.42527,40.413304],[33.425327,40.415577],[33.425838,40.417452],[33.427827,40.42018],[33.42885,40.4216],[33.429589,40.424328],[33.431123,40.427567],[33.432657,40.431829],[33.433282,40.434046],[33.434106,40.440372],[33.435167,40.444691],[33.436834,40.449616],[33.43835,40.453177],[33.43888,40.457042],[33.43941,40.460527],[33.439789,40.463331],[33.439941,40.467877],[33.439638,40.473105],[33.439713,40.476515],[33.438122,40.480152],[33.436531,40.483182],[33.435773,40.484546],[33.432212,40.489774],[33.428651,40.496594],[33.427211,40.500155],[33.42562,40.504625],[33.424863,40.508035],[33.42115,40.51637],[33.418952,40.521143],[33.414558,40.527659],[33.410239,40.53607],[33.409178,40.539707],[33.408345,40.544329],[33.408269,40.548799],[33.40736,40.550769],[33.40592,40.552663],[33.40448,40.554255],[33.403041,40.555315],[33.401374,40.556528],[33.396373,40.561301],[33.393266,40.564635],[33.391069,40.566378],[33.383265,40.573045],[33.379173,40.576001],[33.372278,40.581153],[33.363792,40.586457],[33.369357,40.588295],[33.375368,40.590416],[33.383589,40.594748],[33.395611,40.602438],[33.405069,40.609422],[33.415058,40.61667],[33.422483,40.620118],[33.426638,40.62162],[33.433621,40.62383],[33.443168,40.626394],[33.446616,40.627543],[33.450328,40.629399],[33.455102,40.632316],[33.460847,40.635675],[33.466063,40.637885],[33.472251,40.6393],[33.477289,40.640891],[33.482239,40.641333],[33.486394,40.64151],[33.488692,40.641598],[33.492405,40.641068],[33.496294,40.6393],[33.500891,40.637443],[33.505488,40.635057],[33.512471,40.631609],[33.518924,40.629576],[33.522637,40.628869],[33.530592,40.628162],[33.53731,40.628515],[33.543498,40.629134],[33.549443,40.630355]]]}},{"type":"Feature","properties":{"id":"TR-D-18-006","parent_id":"TR-P-18","region_id":"TR-R-ICA","level":"district","municipality_type":null,"municipality_type_label":null,"is_metropolitan_municipality":null,"name":"Ilgaz","name_ascii":"ilgaz","slug":"ilgaz-cankiri"},"geometry":{"type":"Polygon","coordinates":[[[33.471834,41.051675],[33.475638,41.052794],[33.481631,41.054671],[33.487407,41.055465],[33.492389,41.055682],[33.497877,41.055465],[33.502642,41.05431],[33.506902,41.052649],[33.514267,41.050483],[33.517372,41.04875],[33.520621,41.046368],[33.525964,41.042035],[33.529791,41.039797],[33.540333,41.036259],[33.54907,41.032865],[33.554124,41.031638],[33.560045,41.031494],[33.57167,41.031566],[33.575352,41.032721],[33.579685,41.034526],[33.586255,41.037992],[33.590082,41.039941],[33.596508,41.041602],[33.600913,41.042902],[33.608061,41.044418],[33.612827,41.04449],[33.61557,41.044924],[33.619181,41.045357],[33.623296,41.046295],[33.627917,41.047379],[33.63391,41.048389],[33.640842,41.048678],[33.652611,41.048462],[33.66568,41.0494],[33.677377,41.051061],[33.677575,41.051111],[33.677772,41.051161],[33.682504,41.052361],[33.689652,41.055465],[33.695645,41.056549],[33.696656,41.056549],[33.704165,41.056476],[33.712325,41.055899],[33.719256,41.054527],[33.725033,41.053372],[33.731748,41.051566],[33.737091,41.051061],[33.743734,41.050195],[33.749727,41.050917],[33.755214,41.051639],[33.758535,41.052288],[33.761135,41.052433],[33.764167,41.052433],[33.767561,41.052288],[33.770738,41.05135],[33.774998,41.049761],[33.78128,41.047812],[33.786623,41.045718],[33.788826,41.044848],[33.789006,41.044777],[33.789367,41.044635],[33.797237,41.041963],[33.801858,41.039725],[33.810306,41.036115],[33.819115,41.032288],[33.823086,41.028244],[33.823808,41.026367],[33.822798,41.022324],[33.821065,41.01893],[33.821137,41.012359],[33.820776,41.009327],[33.820054,41.007161],[33.819115,41.005355],[33.817888,41.003623],[33.816083,41.000807],[33.814927,40.999001],[33.812689,40.996546],[33.806533,40.992954],[33.803718,40.991077],[33.800035,40.988839],[33.79823,40.987683],[33.794909,40.983929],[33.792815,40.981041],[33.792381,40.978513],[33.792093,40.976203],[33.791082,40.973676],[33.790071,40.968621],[33.789204,40.965661],[33.788627,40.962917],[33.788699,40.96104],[33.788843,40.958296],[33.78906,40.954902],[33.789349,40.952664],[33.789565,40.949271],[33.791515,40.940606],[33.792598,40.938945],[33.794042,40.93584],[33.795558,40.933097],[33.796714,40.930353],[33.797291,40.927826],[33.797508,40.924721],[33.797652,40.921688],[33.797869,40.918728],[33.797941,40.914757],[33.797219,40.910641],[33.796714,40.906886],[33.79628,40.902338],[33.794548,40.899233],[33.792742,40.896561],[33.791298,40.893745],[33.786605,40.886886],[33.784222,40.884431],[33.782345,40.88147],[33.780829,40.878221],[33.778157,40.874467],[33.775558,40.870784],[33.773536,40.867679],[33.77137,40.864358],[33.769709,40.860748],[33.769059,40.857932],[33.76776,40.854033],[33.768165,40.850936],[33.769063,40.848497],[33.771117,40.845288],[33.773813,40.841565],[33.779076,40.837714],[33.783183,40.835275],[33.777705,40.830352],[33.773945,40.826998],[33.768457,40.822933],[33.764087,40.820189],[33.755347,40.815717],[33.746709,40.812161],[33.736343,40.808502],[33.720692,40.804538],[33.706871,40.802099],[33.697419,40.801693],[33.690915,40.802404],[33.686545,40.802404],[33.6835,40.801913],[33.680244,40.801388],[33.670081,40.801286],[33.664187,40.800473],[33.660732,40.799457],[33.655955,40.79712],[33.651484,40.796103],[33.643862,40.795087],[33.638983,40.795494],[33.628821,40.796408],[33.621402,40.797018],[33.615203,40.798238],[33.60758,40.800067],[33.597926,40.801693],[33.5942,40.804142],[33.590055,40.806786],[33.586124,40.80843],[33.578763,40.810645],[33.57276,40.812146],[33.565471,40.81429],[33.561612,40.814933],[33.554752,40.815791],[33.548034,40.816863],[33.544246,40.817935],[33.540602,40.818578],[33.535957,40.818506],[33.528524,40.818149],[33.521592,40.81722],[33.509729,40.81622],[33.499439,40.815291],[33.491578,40.813933],[33.485718,40.812218],[33.483216,40.810645],[33.47844,40.806473],[33.476618,40.805883],[33.47067,40.806839],[33.462663,40.810791],[33.451616,40.815656],[33.450299,40.816467],[33.448778,40.818697],[33.446698,40.824438],[33.443125,40.830227],[33.439909,40.840446],[33.43898,40.843376],[33.436979,40.845949],[33.434407,40.848378],[33.427832,40.855596],[33.422901,40.858598],[33.41747,40.861671],[33.412682,40.864601],[33.404249,40.868817],[33.398246,40.87289],[33.392315,40.876678],[33.389456,40.879251],[33.384954,40.882895],[33.382524,40.885254],[33.381166,40.887326],[33.380023,40.892257],[33.379594,40.896688],[33.380023,40.903048],[33.380237,40.909337],[33.38038,40.912767],[33.381667,40.921486],[33.383525,40.926988],[33.387884,40.931776],[33.390314,40.933777],[33.392315,40.938637],[33.39353,40.941424],[33.395388,40.945212],[33.39796,40.951],[33.399032,40.953073],[33.400962,40.956217],[33.404821,40.959647],[33.407894,40.962649],[33.410252,40.966008],[33.412039,40.971224],[33.412253,40.973368],[33.412396,40.978299],[33.412182,40.980443],[33.414897,40.982087],[33.418113,40.983945],[33.421758,40.986946],[33.42433,40.989519],[33.424759,40.990662],[33.425045,40.994236],[33.424759,40.997023],[33.423759,41.001882],[33.423401,41.00567],[33.424031,41.00775],[33.425744,41.010626],[33.428199,41.014525],[33.431232,41.018352],[33.434481,41.021529],[33.436792,41.023984],[33.43838,41.02615],[33.440835,41.0294],[33.442424,41.031999],[33.44459,41.034671],[33.44755,41.037631],[33.451955,41.040375],[33.456215,41.042757],[33.46098,41.046007],[33.465818,41.0494],[33.470728,41.05135],[33.471834,41.051675]]]}},{"type":"Feature","properties":{"id":"TR-D-18-007","parent_id":"TR-P-18","region_id":"TR-R-ICA","level":"district","municipality_type":null,"municipality_type_label":null,"is_metropolitan_municipality":null,"name":"Kızılırmak","name_ascii":"kizilirmak","slug":"kizilirmak-cankiri"},"geometry":{"type":"Polygon","coordinates":[[[33.784141,40.327709],[33.789858,40.328913],[33.797567,40.333688],[33.806301,40.333776],[33.825221,40.335488],[33.826255,40.335952],[33.826742,40.336187],[33.827215,40.336433],[33.827669,40.336694],[33.828098,40.336975],[33.828403,40.337206],[33.82869,40.337451],[33.828959,40.337707],[33.829209,40.337974],[33.829486,40.338305],[33.830254,40.339318],[33.830521,40.33964],[33.830812,40.339943],[33.831137,40.340216],[33.831529,40.340466],[33.831963,40.340682],[33.832427,40.340874],[33.832914,40.341046],[33.833418,40.341206],[33.833933,40.341355],[33.834458,40.341496],[33.835523,40.341763],[33.837198,40.342147],[33.846162,40.344122],[33.848977,40.344719],[33.863696,40.347724],[33.865965,40.348177],[33.867104,40.348388],[33.868221,40.348574],[33.869341,40.348745],[33.870464,40.348901],[33.871716,40.349049],[33.872178,40.352353],[33.873353,40.356203],[33.873418,40.358748],[33.872831,40.362337],[33.871852,40.367296],[33.871591,40.371145],[33.871656,40.375778],[33.872243,40.379041],[33.87257,40.381194],[33.872831,40.386153],[33.872504,40.394113],[33.872439,40.396723],[33.871852,40.405206],[33.871199,40.412644],[33.870808,40.415124],[33.870079,40.420888],[33.867208,40.429414],[33.86599,40.436287],[33.865555,40.440985],[33.865468,40.450033],[33.867382,40.457167],[33.869992,40.460734],[33.872428,40.463953],[33.877996,40.468738],[33.880954,40.470739],[33.887566,40.473958],[33.895135,40.477438],[33.900964,40.480744],[33.904705,40.482397],[33.910708,40.483963],[33.915667,40.484659],[33.923062,40.486486],[33.929152,40.48753],[33.931501,40.487791],[33.937939,40.4884],[33.94168,40.4884],[33.946639,40.488313],[33.956035,40.488313],[33.95821,40.488139],[33.965301,40.487936],[33.971449,40.487008],[33.975509,40.486892],[33.980845,40.48666],[33.987805,40.487124],[33.993605,40.488168],[33.999521,40.489792],[34.004625,40.491184],[34.008801,40.49246],[34.011585,40.492692],[34.015877,40.492692],[34.020053,40.492808],[34.025157,40.492924],[34.029797,40.49304],[34.034205,40.493388],[34.037569,40.493388],[34.040817,40.493504],[34.046617,40.493504],[34.051605,40.492576],[34.058333,40.492228],[34.065873,40.492112],[34.069817,40.49188],[34.074109,40.491184],[34.078517,40.490604],[34.084201,40.490024],[34.086521,40.489908],[34.089769,40.489096],[34.094409,40.488052],[34.100209,40.486544],[34.103805,40.485268],[34.107749,40.483296],[34.111656,40.481223],[34.114607,40.478303],[34.117026,40.474252],[34.117546,40.47415],[34.118031,40.474068],[34.118517,40.474],[34.119004,40.473945],[34.119493,40.473907],[34.119982,40.473888],[34.120454,40.47389],[34.120926,40.473911],[34.121397,40.473949],[34.121866,40.474003],[34.122332,40.474073],[34.122821,40.474164],[34.123306,40.47427],[34.123788,40.474387],[34.124268,40.474515],[34.124744,40.474651],[34.125686,40.474949],[34.126205,40.47513],[34.127231,40.475512],[34.128763,40.476099],[34.129743,40.476453],[34.130212,40.476609],[34.130684,40.476753],[34.131158,40.47688],[34.131635,40.476986],[34.132114,40.477063],[34.132662,40.477107],[34.13321,40.477104],[34.133751,40.477051],[34.13422,40.476962],[34.134679,40.476836],[34.135128,40.476681],[34.135564,40.476499],[34.135985,40.476292],[34.136413,40.476044],[34.136827,40.475776],[34.137229,40.475494],[34.138788,40.474341],[34.139178,40.474074],[34.139574,40.473828],[34.139977,40.473614],[34.140392,40.473444],[34.140743,40.473354],[34.140822,40.473333],[34.140751,40.472262],[34.140713,40.471696],[34.14076,40.471076],[34.140795,40.470621],[34.140862,40.470045],[34.140951,40.469477],[34.141068,40.468945],[34.141214,40.468473],[34.141385,40.468082],[34.141583,40.4677],[34.141797,40.467321],[34.142429,40.466256],[34.142468,40.466191],[34.142679,40.465812],[34.142872,40.465431],[34.143038,40.465046],[34.143167,40.464655],[34.14325,40.464263],[34.143296,40.463865],[34.143314,40.463462],[34.143312,40.463057],[34.143293,40.46265],[34.143261,40.462241],[34.143161,40.461424],[34.143093,40.461015],[34.143009,40.460595],[34.142912,40.460176],[34.142803,40.459758],[34.142682,40.459343],[34.142548,40.458931],[34.142398,40.458522],[34.142228,40.458118],[34.142039,40.457728],[34.141833,40.457341],[34.141386,40.456578],[34.140468,40.455081],[34.140258,40.454708],[34.140065,40.454332],[34.139899,40.45395],[34.139763,40.453557],[34.139656,40.453159],[34.139574,40.452757],[34.139515,40.452351],[34.139477,40.451944],[34.139461,40.451536],[34.139472,40.451128],[34.139513,40.4507],[34.139579,40.450273],[34.139663,40.449847],[34.139759,40.449421],[34.139976,40.448569],[34.141453,40.443296],[34.141523,40.443044],[34.142538,40.43935],[34.142801,40.438392],[34.143167,40.437128],[34.14344,40.436293],[34.143593,40.43588],[34.143764,40.435472],[34.143939,40.435106],[34.144131,40.434745],[34.144339,40.434389],[34.144564,40.434039],[34.144838,40.433654],[34.145128,40.433275],[34.145329,40.433026],[34.14543,40.4329],[34.146057,40.432159],[34.148975,40.428855],[34.149129,40.428683],[34.149629,40.428124],[34.150294,40.427399],[34.150981,40.426692],[34.15134,40.426351],[34.151715,40.426022],[34.152116,40.425705],[34.152534,40.425405],[34.152968,40.425121],[34.153416,40.424857],[34.153878,40.424615],[34.154356,40.424401],[34.154853,40.424223],[34.155319,40.424099],[34.155796,40.423999],[34.156062,40.423951],[34.156753,40.423826],[34.157219,40.423729],[34.157664,40.42361],[34.15808,40.423454],[34.158469,40.423244],[34.158825,40.422991],[34.159154,40.422706],[34.159462,40.422397],[34.159753,40.422069],[34.16003,40.421728],[34.160292,40.421376],[34.160538,40.421014],[34.160767,40.420645],[34.160974,40.420269],[34.161152,40.419883],[34.161203,40.419743],[34.161305,40.419465],[34.161427,40.419039],[34.161528,40.418607],[34.161613,40.418172],[34.161687,40.417733],[34.161816,40.416853],[34.162382,40.412445],[34.162913,40.408486],[34.163345,40.405402],[34.163939,40.401405],[34.164059,40.400517],[34.164108,40.400076],[34.164127,40.399861],[34.164145,40.39964],[34.164164,40.399213],[34.16416,40.398857],[34.164133,40.398513],[34.164077,40.398186],[34.163985,40.397882],[34.163845,40.397607],[34.163646,40.397371],[34.163318,40.397152],[34.162911,40.396988],[34.162446,40.396869],[34.161941,40.396788],[34.161409,40.39674],[34.16086,40.396726],[34.160301,40.39675],[34.159775,40.396809],[34.159496,40.396856],[34.159248,40.396897],[34.158721,40.397007],[34.158196,40.397132],[34.156691,40.397529],[34.156189,40.397652],[34.155686,40.397758],[34.155468,40.397794],[34.155179,40.397841],[34.154674,40.397894],[34.154166,40.397919],[34.153657,40.397923],[34.153147,40.397907],[34.152639,40.397873],[34.152135,40.39782],[34.151635,40.397748],[34.151525,40.397726],[34.151143,40.397651],[34.150609,40.397514],[34.150084,40.397352],[34.149567,40.397171],[34.149053,40.396977],[34.148544,40.396774],[34.147027,40.396135],[34.143503,40.394613],[34.139471,40.392889],[34.138475,40.39245],[34.138456,40.392441],[34.137983,40.392224],[34.137498,40.391993],[34.137022,40.391752],[34.136561,40.391499],[34.136118,40.39123],[34.135695,40.390937],[34.135292,40.390628],[34.134902,40.390306],[34.13467,40.390104],[34.134522,40.389975],[34.134149,40.389638],[34.133416,40.388953],[34.129077,40.38478],[34.124971,40.38088],[34.124705,40.380626],[34.123997,40.379927],[34.123656,40.379574],[34.123328,40.379215],[34.123018,40.378851],[34.122736,40.378478],[34.122731,40.378471],[34.12249,40.378092],[34.1223,40.377718],[34.122142,40.377332],[34.12201,40.376939],[34.121895,40.376539],[34.121703,40.375728],[34.121541,40.374907],[34.121517,40.374771],[34.121398,40.374082],[34.121058,40.371913],[34.120901,40.37105],[34.120808,40.370621],[34.120701,40.370196],[34.120572,40.369775],[34.120414,40.369349],[34.120233,40.368928],[34.120033,40.368512],[34.119816,40.3681],[34.119584,40.367693],[34.119336,40.367291],[34.119208,40.367102],[34.119069,40.366897],[34.118793,40.366527],[34.118501,40.366163],[34.118198,40.365804],[34.11817,40.365772],[34.117886,40.365448],[34.117247,40.364743],[34.116593,40.364045],[34.115927,40.363354],[34.115245,40.362674],[34.114895,40.36234],[34.114536,40.362012],[34.114164,40.361692],[34.113803,40.361401],[34.113407,40.361098],[34.099879,40.357029],[34.090308,40.350856],[34.089643,40.350496],[34.087739,40.348923],[34.087294,40.348555],[34.077897,40.340179],[34.070402,40.332774],[34.06772,40.32971],[34.056765,40.319444],[34.049487,40.314005],[34.044431,40.310864],[34.027271,40.30236],[34.015243,40.296002],[34.00536,40.290716],[33.995631,40.285429],[33.984676,40.278381],[33.97985,40.273861],[33.977705,40.270337],[33.976326,40.266584],[33.972878,40.257467],[33.971576,40.252104],[33.970828,40.248028],[33.966137,40.248753],[33.961095,40.250364],[33.957733,40.251555],[33.953882,40.253445],[33.95052,40.255827],[33.945058,40.261009],[33.940016,40.26458],[33.936584,40.266961],[33.933713,40.268082],[33.92692,40.269622],[33.918937,40.270603],[33.913334,40.270953],[33.90206,40.270883],[33.895687,40.271093],[33.890154,40.271373],[33.881751,40.270323],[33.873977,40.269272],[33.865714,40.268992],[33.854579,40.268782],[33.847996,40.268082],[33.842814,40.267592],[33.838542,40.267381],[33.835111,40.267942],[33.829158,40.271653],[33.824676,40.275925],[33.821665,40.280057],[33.819284,40.285589],[33.817743,40.289721],[33.817043,40.292872],[33.816343,40.296444],[33.816096,40.298595],[33.815852,40.300716],[33.815642,40.308069],[33.815522,40.309609],[33.815381,40.311427],[33.815378,40.311464],[33.815222,40.313461],[33.813822,40.315492],[33.811511,40.318083],[33.807519,40.319974],[33.802757,40.321235],[33.796174,40.323195],[33.78574,40.32711],[33.784141,40.327709]]]}},{"type":"Feature","properties":{"id":"TR-D-18-008","parent_id":"TR-P-18","region_id":"TR-R-ICA","level":"district","municipality_type":null,"municipality_type_label":null,"is_metropolitan_municipality":null,"name":"Korgun","name_ascii":"korgun","slug":"korgun-cankiri"},"geometry":{"type":"Polygon","coordinates":[[[33.363792,40.586457],[33.362807,40.587214],[33.358336,40.593049],[33.355457,40.598428],[33.353108,40.602065],[33.351896,40.604566],[33.348714,40.607975],[33.346138,40.609794],[33.341288,40.611688],[33.336894,40.613355],[33.331514,40.614795],[33.326589,40.615174],[33.32615,40.615264],[33.323634,40.61578],[33.320603,40.616537],[33.317345,40.616765],[33.312799,40.616992],[33.308783,40.616841],[33.304464,40.617598],[33.300069,40.618735],[33.294387,40.620326],[33.28984,40.621614],[33.28393,40.622675],[33.281051,40.624342],[33.27749,40.626539],[33.27302,40.629343],[33.26961,40.631464],[33.278208,40.634748],[33.281755,40.636269],[33.284796,40.637992],[33.291789,40.644275],[33.298174,40.649343],[33.304356,40.658261],[33.306282,40.661606],[33.30993,40.672248],[33.311957,40.675491],[33.317329,40.681268],[33.321484,40.684916],[33.325538,40.68897],[33.328376,40.694038],[33.330707,40.699308],[33.332024,40.702551],[33.335774,40.707821],[33.339322,40.711672],[33.342159,40.714611],[33.347328,40.717855],[33.352193,40.721706],[33.357868,40.725962],[33.359693,40.727179],[33.371855,40.736097],[33.381179,40.740354],[33.387361,40.742888],[33.398712,40.749678],[33.404388,40.753833],[33.416955,40.764678],[33.425265,40.77086],[33.429826,40.775522],[33.433475,40.780894],[33.435502,40.785049],[33.43915,40.791028],[33.444724,40.801974],[33.448069,40.808055],[33.451616,40.815656],[33.462663,40.810791],[33.47067,40.806839],[33.476618,40.805883],[33.47844,40.806473],[33.483216,40.810645],[33.485718,40.812218],[33.491578,40.813933],[33.499439,40.815291],[33.509729,40.81622],[33.521592,40.81722],[33.528524,40.818149],[33.535957,40.818506],[33.540602,40.818578],[33.544246,40.817935],[33.548034,40.816863],[33.554752,40.815791],[33.561612,40.814933],[33.565471,40.81429],[33.57276,40.812146],[33.578763,40.810645],[33.586124,40.80843],[33.590055,40.806786],[33.5942,40.804142],[33.597926,40.801693],[33.595182,40.798847],[33.591727,40.794884],[33.587865,40.789701],[33.585426,40.785229],[33.584104,40.781571],[33.584104,40.77903],[33.585426,40.77466],[33.586747,40.768054],[33.587255,40.763074],[33.586544,40.755554],[33.585629,40.753623],[33.583698,40.747424],[33.58197,40.74346],[33.57943,40.740107],[33.575771,40.735432],[33.574856,40.734314],[33.571808,40.730045],[33.56947,40.7272],[33.567742,40.723846],[33.565913,40.719781],[33.563677,40.713887],[33.562051,40.711549],[33.558596,40.704943],[33.55697,40.700573],[33.553819,40.693561],[33.550974,40.688378],[33.548636,40.682687],[33.547214,40.676894],[33.545689,40.66917],[33.545588,40.662971],[33.545689,40.653926],[33.546197,40.64976],[33.547519,40.639394],[33.549145,40.631568],[33.549443,40.630355],[33.543498,40.629134],[33.53731,40.628515],[33.530592,40.628162],[33.522637,40.628869],[33.518924,40.629576],[33.512471,40.631609],[33.505488,40.635057],[33.500891,40.637443],[33.496294,40.6393],[33.492405,40.641068],[33.488692,40.641598],[33.486394,40.64151],[33.482239,40.641333],[33.477289,40.640891],[33.472251,40.6393],[33.466063,40.637885],[33.460847,40.635675],[33.455102,40.632316],[33.450328,40.629399],[33.446616,40.627543],[33.443168,40.626394],[33.433621,40.62383],[33.426638,40.62162],[33.422483,40.620118],[33.415058,40.61667],[33.405069,40.609422],[33.395611,40.602438],[33.383589,40.594748],[33.375368,40.590416],[33.369357,40.588295],[33.363792,40.586457]]]}},{"type":"Feature","properties":{"id":"TR-D-18-009","parent_id":"TR-P-18","region_id":"TR-R-ICA","level":"district","municipality_type":null,"municipality_type_label":null,"is_metropolitan_municipality":null,"name":"Kurşunlu","name_ascii":"kursunlu","slug":"kursunlu-cankiri"},"geometry":{"type":"Polygon","coordinates":[[[33.144817,40.738754],[33.147141,40.742354],[33.149325,40.745395],[33.152054,40.749605],[33.156654,40.754362],[33.160475,40.756233],[33.16414,40.757091],[33.166635,40.758261],[33.168896,40.7606],[33.170144,40.763017],[33.171236,40.766994],[33.171548,40.769723],[33.17108,40.773388],[33.168896,40.779938],[33.166791,40.785006],[33.164608,40.790075],[33.163828,40.79218],[33.16375,40.794208],[33.163984,40.796157],[33.163438,40.803331],[33.163126,40.808009],[33.162269,40.820251],[33.161801,40.82571],[33.161723,40.829453],[33.162346,40.838498],[33.163204,40.846373],[33.164062,40.854951],[33.163282,40.863996],[33.161489,40.877954],[33.161099,40.883802],[33.160865,40.895108],[33.161411,40.90392],[33.160865,40.910158],[33.160631,40.915928],[33.161333,40.920996],[33.166245,40.922088],[33.17108,40.922868],[33.175213,40.923024],[33.180281,40.92279],[33.185349,40.923024],[33.19034,40.922946],[33.194473,40.921776],[33.198293,40.920373],[33.201802,40.919437],[33.206481,40.918033],[33.212485,40.917487],[33.220205,40.917409],[33.226053,40.917799],[33.231823,40.918657],[33.247652,40.921932],[33.25584,40.924661],[33.265898,40.927546],[33.274398,40.929964],[33.282273,40.931289],[33.287966,40.932303],[33.295217,40.934096],[33.298336,40.936981],[33.299896,40.939944],[33.301611,40.946027],[33.302469,40.949691],[33.301845,40.95398],[33.300676,40.960686],[33.300052,40.963337],[33.29935,40.966456],[33.299116,40.970901],[33.299027,40.978042],[33.299493,40.978336],[33.299924,40.978629],[33.300348,40.97893],[33.301183,40.979548],[33.305717,40.98302],[33.311089,40.987107],[33.312308,40.988064],[33.313096,40.988718],[33.313481,40.989057],[33.314232,40.989747],[33.315331,40.9908],[33.318952,40.994344],[33.319669,40.995059],[33.320374,40.995782],[33.321026,40.996493],[33.321518,40.997066],[33.324252,40.994146],[33.331129,40.987431],[33.331673,40.986834],[33.332794,40.985605],[33.332808,40.985589],[33.33484,40.983955],[33.335299,40.983586],[33.345913,40.978387],[33.353116,40.977575],[33.363287,40.976257],[33.368342,40.976185],[33.373613,40.976474],[33.376293,40.976731],[33.38231,40.977227],[33.389099,40.978013],[33.392958,40.977942],[33.397317,40.97787],[33.399747,40.97787],[33.405678,40.979014],[33.412182,40.980443],[33.412396,40.978299],[33.412253,40.973368],[33.412039,40.971224],[33.410252,40.966008],[33.407894,40.962649],[33.404821,40.959647],[33.400962,40.956217],[33.399032,40.953073],[33.39796,40.951],[33.395388,40.945212],[33.39353,40.941424],[33.392315,40.938637],[33.390314,40.933777],[33.387884,40.931776],[33.383525,40.926988],[33.381667,40.921486],[33.38038,40.912767],[33.380237,40.909337],[33.380023,40.903048],[33.379594,40.896688],[33.380023,40.892257],[33.381166,40.887326],[33.382524,40.885254],[33.384954,40.882895],[33.389456,40.879251],[33.392315,40.876678],[33.398246,40.87289],[33.404249,40.868817],[33.412682,40.864601],[33.41747,40.861671],[33.422901,40.858598],[33.427832,40.855596],[33.434407,40.848378],[33.436979,40.845949],[33.43898,40.843376],[33.439909,40.840446],[33.443125,40.830227],[33.446698,40.824438],[33.448778,40.818697],[33.450299,40.816467],[33.451616,40.815656],[33.448069,40.808055],[33.444724,40.801974],[33.43915,40.791028],[33.435502,40.785049],[33.433475,40.780894],[33.429826,40.775522],[33.425265,40.77086],[33.416955,40.764678],[33.404388,40.753833],[33.398712,40.749678],[33.387361,40.742888],[33.381179,40.740354],[33.371855,40.736097],[33.359693,40.727179],[33.357868,40.725962],[33.352193,40.721706],[33.347328,40.717855],[33.342159,40.714611],[33.339322,40.711672],[33.335774,40.707821],[33.332024,40.702551],[33.330707,40.699308],[33.328376,40.694038],[33.325538,40.68897],[33.321484,40.684916],[33.317329,40.681268],[33.311957,40.675491],[33.30993,40.672248],[33.306282,40.661606],[33.304356,40.658261],[33.298174,40.649343],[33.291789,40.644275],[33.284796,40.637992],[33.281755,40.636269],[33.278208,40.634748],[33.26961,40.631464],[33.263473,40.635253],[33.252031,40.644118],[33.248773,40.648967],[33.246197,40.652604],[33.24203,40.661924],[33.238317,40.667379],[33.232861,40.67291],[33.226951,40.678441],[33.22286,40.682003],[33.211267,40.687079],[33.204296,40.69011],[33.196416,40.693292],[33.193385,40.694656],[33.189748,40.695187],[33.18649,40.696778],[33.17861,40.701097],[33.168457,40.706855],[33.163911,40.712538],[33.15891,40.718751],[33.152697,40.725419],[33.15103,40.727919],[33.149893,40.73042],[33.149287,40.731935],[33.147772,40.734966],[33.146863,40.736481],[33.144817,40.738754]]]}},{"type":"Feature","properties":{"id":"TR-D-18-010","parent_id":"TR-P-18","region_id":"TR-R-ICA","level":"district","municipality_type":null,"municipality_type_label":null,"is_metropolitan_municipality":null,"name":"Orta","name_ascii":"orta","slug":"orta-cankiri"},"geometry":{"type":"Polygon","coordinates":[[[33.32615,40.615264],[33.325396,40.612468],[33.323376,40.608166],[33.320638,40.602951],[33.317705,40.599823],[33.313468,40.596042],[33.306363,40.59187],[33.29991,40.588546],[33.29274,40.585287],[33.28733,40.582875],[33.282376,40.580268],[33.279117,40.578769],[33.275076,40.577074],[33.26934,40.574597],[33.266211,40.572251],[33.263343,40.56847],[33.260475,40.565081],[33.259302,40.563581],[33.257281,40.560974],[33.251154,40.557976],[33.246852,40.555368],[33.234402,40.549763],[33.228275,40.547742],[33.218107,40.545852],[33.213544,40.546308],[33.20859,40.547807],[33.20507,40.549307],[33.201159,40.551914],[33.197509,40.554521],[33.195749,40.554912],[33.190861,40.555043],[33.186428,40.554],[33.183821,40.553087],[33.18167,40.551523],[33.180627,40.549893],[33.180236,40.548264],[33.180953,40.546569],[33.182908,40.542984],[33.184473,40.541224],[33.18708,40.53816],[33.192555,40.53086],[33.194576,40.529426],[33.198291,40.526558],[33.199856,40.524798],[33.200703,40.51828],[33.201811,40.514108],[33.202659,40.509546],[33.202333,40.506482],[33.200377,40.504005],[33.197574,40.50231],[33.194185,40.500159],[33.189361,40.498465],[33.186168,40.497226],[33.182517,40.496705],[33.174239,40.49514],[33.16381,40.494749],[33.15488,40.494358],[33.150187,40.493511],[33.138911,40.489795],[33.134152,40.486667],[33.131631,40.484921],[33.131581,40.484886],[33.127772,40.485402],[33.124595,40.486413],[33.11723,40.488074],[33.109215,40.489662],[33.098457,40.490095],[33.088132,40.489518],[33.078529,40.487135],[33.066543,40.483308],[33.061921,40.481359],[33.049213,40.479842],[33.038166,40.479409],[33.032967,40.480925],[33.022498,40.483814],[33.018093,40.484391],[33.008346,40.485258],[33.002208,40.485402],[32.997298,40.485546],[32.992966,40.486341],[32.988489,40.488362],[32.984013,40.490601],[32.980041,40.4932],[32.976864,40.495222],[32.968404,40.502202],[32.963013,40.510481],[32.960606,40.515198],[32.957141,40.519627],[32.954734,40.520686],[32.946454,40.521841],[32.938271,40.523093],[32.933361,40.523189],[32.930088,40.523093],[32.925178,40.524248],[32.910737,40.529254],[32.906405,40.53195],[32.900532,40.536186],[32.897933,40.539748],[32.895526,40.546198],[32.892445,40.551301],[32.890038,40.56035],[32.890038,40.562661],[32.889364,40.568149],[32.889172,40.574695],[32.889461,40.577391],[32.891579,40.579701],[32.895141,40.582878],[32.899569,40.585574],[32.902746,40.588751],[32.904287,40.591832],[32.905153,40.59472],[32.905827,40.598474],[32.905827,40.601844],[32.905346,40.605984],[32.903805,40.609642],[32.900243,40.615418],[32.897451,40.619173],[32.892734,40.623409],[32.889172,40.626586],[32.883107,40.630437],[32.87916,40.631881],[32.87242,40.634962],[32.86857,40.636695],[32.863467,40.638524],[32.855284,40.641316],[32.853793,40.641622],[32.857137,40.644965],[32.861624,40.647541],[32.864533,40.649868],[32.867191,40.652527],[32.872842,40.659091],[32.879406,40.664658],[32.885222,40.668646],[32.890623,40.675044],[32.894279,40.678617],[32.898932,40.679697],[32.906577,40.680861],[32.914221,40.681276],[32.919289,40.681941],[32.924275,40.683187],[32.927599,40.684766],[32.930091,40.686262],[32.93408,40.688339],[32.936739,40.689336],[32.939397,40.689585],[32.943303,40.689751],[32.950033,40.689502],[32.955849,40.688837],[32.961084,40.688921],[32.967648,40.687674],[32.971138,40.687009],[32.974296,40.686843],[32.98086,40.687259],[32.983851,40.687425],[32.99349,40.68784],[32.999306,40.688505],[33.005704,40.689918],[33.009277,40.69133],[33.021574,40.697728],[33.024815,40.699805],[33.031794,40.702714],[33.037195,40.704708],[33.04135,40.706286],[33.047166,40.709776],[33.050074,40.711854],[33.053398,40.714928],[33.061126,40.722572],[33.064117,40.725979],[33.06636,40.728306],[33.069518,40.731962],[33.070515,40.734371],[33.07118,40.736947],[33.071429,40.739689],[33.071595,40.7416],[33.07226,40.745838],[33.073257,40.749161],[33.075563,40.753984],[33.07776,40.753454],[33.08511,40.752469],[33.093142,40.752696],[33.100491,40.752469],[33.107538,40.752469],[33.117918,40.752696],[33.124207,40.751484],[33.128754,40.750499],[33.131936,40.749286],[33.134361,40.748074],[33.138225,40.745498],[33.142316,40.741179],[33.144817,40.738754],[33.146863,40.736481],[33.147772,40.734966],[33.149287,40.731935],[33.149893,40.73042],[33.15103,40.727919],[33.152697,40.725419],[33.15891,40.718751],[33.163911,40.712538],[33.168457,40.706855],[33.17861,40.701097],[33.18649,40.696778],[33.189748,40.695187],[33.193385,40.694656],[33.196416,40.693292],[33.204296,40.69011],[33.211267,40.687079],[33.22286,40.682003],[33.226951,40.678441],[33.232861,40.67291],[33.238317,40.667379],[33.24203,40.661924],[33.246197,40.652604],[33.248773,40.648967],[33.252031,40.644118],[33.263473,40.635253],[33.26961,40.631464],[33.27302,40.629343],[33.27749,40.626539],[33.281051,40.624342],[33.28393,40.622675],[33.28984,40.621614],[33.294387,40.620326],[33.300069,40.618735],[33.304464,40.617598],[33.308783,40.616841],[33.312799,40.616992],[33.317345,40.616765],[33.320603,40.616537],[33.323634,40.61578],[33.32615,40.615264]]]}},{"type":"Feature","properties":{"id":"TR-D-18-011","parent_id":"TR-P-18","region_id":"TR-R-ICA","level":"district","municipality_type":null,"municipality_type_label":null,"is_metropolitan_municipality":null,"name":"Şabanözü","name_ascii":"sabanozu","slug":"sabanozu-cankiri"},"geometry":{"type":"Polygon","coordinates":[[[33.363792,40.586457],[33.372278,40.581153],[33.379173,40.576001],[33.383265,40.573045],[33.391069,40.566378],[33.393266,40.564635],[33.396373,40.561301],[33.401374,40.556528],[33.403041,40.555315],[33.40448,40.554255],[33.40592,40.552663],[33.40736,40.550769],[33.408269,40.548799],[33.408345,40.544329],[33.409178,40.539707],[33.410239,40.53607],[33.414558,40.527659],[33.418952,40.521143],[33.42115,40.51637],[33.424863,40.508035],[33.42562,40.504625],[33.427211,40.500155],[33.428651,40.496594],[33.432212,40.489774],[33.435773,40.484546],[33.436531,40.483182],[33.438122,40.480152],[33.439713,40.476515],[33.439638,40.473105],[33.439941,40.467877],[33.439789,40.463331],[33.43941,40.460527],[33.43888,40.457042],[33.43835,40.453177],[33.436834,40.449616],[33.435167,40.444691],[33.434106,40.440372],[33.433282,40.434046],[33.432657,40.431829],[33.431123,40.427567],[33.429589,40.424328],[33.42885,40.4216],[33.427827,40.42018],[33.425838,40.417452],[33.425327,40.415577],[33.42527,40.413304],[33.425156,40.40978],[33.424531,40.406882],[33.422997,40.404097],[33.42078,40.400858],[33.418166,40.396539],[33.416509,40.393319],[33.41067,40.394713],[33.398034,40.39659],[33.387275,40.397818],[33.375867,40.39854],[33.369224,40.398395],[33.358899,40.398034],[33.342148,40.398251],[33.33601,40.397673],[33.330667,40.394352],[33.325685,40.391464],[33.324746,40.390742],[33.321497,40.384388],[33.317598,40.370091],[33.316876,40.366192],[33.311749,40.359261],[33.305251,40.350235],[33.302579,40.346841],[33.299258,40.342076],[33.298392,40.341137],[33.290305,40.338466],[33.26756,40.331462],[33.258607,40.329079],[33.253841,40.328501],[33.247632,40.328429],[33.245321,40.329007],[33.243299,40.330451],[33.241205,40.332473],[33.239473,40.335722],[33.237451,40.340054],[33.233119,40.346553],[33.227414,40.354423],[33.219689,40.366553],[33.217089,40.370597],[33.215284,40.373701],[33.213262,40.377528],[33.211529,40.381716],[33.210085,40.385832],[33.20893,40.389225],[33.207342,40.395652],[33.205248,40.402511],[33.204165,40.404966],[33.202071,40.408576],[33.196583,40.415725],[33.193334,40.419624],[33.190734,40.422367],[33.187774,40.424678],[33.183803,40.4267],[33.180481,40.428794],[33.176366,40.432115],[33.172033,40.437603],[33.168784,40.442368],[33.16503,40.448794],[33.158603,40.457314],[33.154488,40.462297],[33.151166,40.465835],[33.145462,40.471539],[33.141924,40.475293],[33.137303,40.481142],[33.134343,40.484175],[33.132032,40.484824],[33.131581,40.484886],[33.131631,40.484921],[33.134152,40.486667],[33.138911,40.489795],[33.150187,40.493511],[33.15488,40.494358],[33.16381,40.494749],[33.174239,40.49514],[33.182517,40.496705],[33.186168,40.497226],[33.189361,40.498465],[33.194185,40.500159],[33.197574,40.50231],[33.200377,40.504005],[33.202333,40.506482],[33.202659,40.509546],[33.201811,40.514108],[33.200703,40.51828],[33.199856,40.524798],[33.198291,40.526558],[33.194576,40.529426],[33.192555,40.53086],[33.18708,40.53816],[33.184473,40.541224],[33.182908,40.542984],[33.180953,40.546569],[33.180236,40.548264],[33.180627,40.549893],[33.18167,40.551523],[33.183821,40.553087],[33.186428,40.554],[33.190861,40.555043],[33.195749,40.554912],[33.197509,40.554521],[33.201159,40.551914],[33.20507,40.549307],[33.20859,40.547807],[33.213544,40.546308],[33.218107,40.545852],[33.228275,40.547742],[33.234402,40.549763],[33.246852,40.555368],[33.251154,40.557976],[33.257281,40.560974],[33.259302,40.563581],[33.260475,40.565081],[33.263343,40.56847],[33.266211,40.572251],[33.26934,40.574597],[33.275076,40.577074],[33.279117,40.578769],[33.282376,40.580268],[33.28733,40.582875],[33.29274,40.585287],[33.29991,40.588546],[33.306363,40.59187],[33.313468,40.596042],[33.317705,40.599823],[33.320638,40.602951],[33.323376,40.608166],[33.325396,40.612468],[33.32615,40.615264],[33.326589,40.615174],[33.331514,40.614795],[33.336894,40.613355],[33.341288,40.611688],[33.346138,40.609794],[33.348714,40.607975],[33.351896,40.604566],[33.353108,40.602065],[33.355457,40.598428],[33.358336,40.593049],[33.362807,40.587214],[33.363792,40.586457]]]}},{"type":"Feature","properties":{"id":"TR-D-18-012","parent_id":"TR-P-18","region_id":"TR-R-ICA","level":"district","municipality_type":null,"municipality_type_label":null,"is_metropolitan_municipality":null,"name":"Yapraklı","name_ascii":"yaprakli","slug":"yaprakli-cankiri"},"geometry":{"type":"Polygon","coordinates":[[[34.104591,40.683939],[34.095653,40.680426],[34.092897,40.678341],[34.090438,40.674541],[34.088278,40.671711],[34.086714,40.668657],[34.081276,40.664336],[34.070772,40.658079],[34.068687,40.656738],[34.054235,40.648916],[34.053043,40.647724],[34.051702,40.644372],[34.048872,40.640945],[34.042763,40.635507],[34.03889,40.63372],[34.030248,40.630516],[34.024512,40.628654],[34.012892,40.624706],[34.007305,40.620311],[33.99993,40.615469],[33.995684,40.610478],[33.991661,40.605561],[33.989948,40.603848],[33.977284,40.592823],[33.969314,40.588056],[33.966036,40.586044],[33.960151,40.584108],[33.950467,40.581873],[33.939293,40.579713],[33.930503,40.578893],[33.922756,40.578372],[33.913072,40.579117],[33.901749,40.581947],[33.892139,40.585746],[33.878805,40.59178],[33.865844,40.599751],[33.858022,40.60571],[33.851243,40.610701],[33.849306,40.614277],[33.842155,40.623887],[33.835674,40.631559],[33.826363,40.640051],[33.819733,40.647948],[33.816753,40.6513],[33.811092,40.655099],[33.807516,40.657259],[33.799098,40.662921],[33.789414,40.668582],[33.779507,40.672083],[33.776676,40.673275],[33.772281,40.674243],[33.768705,40.674318],[33.764683,40.674318],[33.761778,40.673052],[33.758649,40.671115],[33.755893,40.667688],[33.754924,40.666049],[33.750455,40.664261],[33.745464,40.663517],[33.739728,40.663219],[33.736078,40.664932],[33.73064,40.670891],[33.726692,40.674839],[33.723265,40.679383],[33.721924,40.682438],[33.721701,40.68579],[33.72103,40.691153],[33.720807,40.694729],[33.720211,40.700688],[33.720062,40.70486],[33.718199,40.707765],[33.716635,40.709851],[33.713059,40.712235],[33.70777,40.714544],[33.702779,40.716108],[33.697044,40.718045],[33.69466,40.719535],[33.693915,40.72177],[33.693766,40.724973],[33.693393,40.728995],[33.693766,40.732422],[33.695107,40.737264],[33.696001,40.742404],[33.697863,40.749332],[33.697788,40.753429],[33.695926,40.756558],[33.692127,40.761325],[33.689743,40.764305],[33.686242,40.769519],[33.684752,40.771754],[33.683039,40.773765],[33.681698,40.775479],[33.679612,40.778012],[33.678718,40.780991],[33.678197,40.783896],[33.678793,40.785461],[33.679389,40.786504],[33.679463,40.788291],[33.679463,40.790154],[33.679985,40.791569],[33.680953,40.793282],[33.681773,40.7944],[33.682741,40.79507],[33.68356,40.796188],[33.683635,40.797305],[33.683858,40.798571],[33.683635,40.800434],[33.6835,40.801913],[33.686545,40.802404],[33.690915,40.802404],[33.697419,40.801693],[33.706871,40.802099],[33.720692,40.804538],[33.736343,40.808502],[33.746709,40.812161],[33.755347,40.815717],[33.764087,40.820189],[33.768457,40.822933],[33.773945,40.826998],[33.777705,40.830352],[33.783183,40.835275],[33.79533,40.83319],[33.802069,40.83319],[33.808712,40.833093],[33.816221,40.83319],[33.824885,40.83319],[33.834994,40.83319],[33.841444,40.834345],[33.845777,40.835404],[33.850783,40.836174],[33.85396,40.836559],[33.86301,40.839447],[33.869364,40.841469],[33.875429,40.842817],[33.883131,40.844165],[33.889292,40.845512],[33.89478,40.846668],[33.900075,40.848882],[33.904214,40.850422],[33.909413,40.851481],[33.918848,40.851578],[33.924817,40.85254],[33.931941,40.853503],[33.938776,40.854081],[33.943205,40.854851],[33.949655,40.854562],[33.955143,40.854466],[33.960053,40.854755],[33.965155,40.853985],[33.973338,40.851385],[33.9795,40.849363],[33.989416,40.846571],[33.992496,40.845609],[33.995866,40.84378],[34.000391,40.84195],[34.003664,40.840603],[34.005493,40.839447],[34.010211,40.837329],[34.017046,40.834152],[34.020512,40.832804],[34.023785,40.831168],[34.027732,40.829339],[34.032931,40.828183],[34.036686,40.827991],[34.046506,40.828087],[34.051415,40.828183],[34.055074,40.828376],[34.058251,40.828761],[34.062776,40.828568],[34.067686,40.828568],[34.074713,40.827509],[34.080586,40.826739],[34.084533,40.826643],[34.087071,40.826913],[34.087071,40.825213],[34.087219,40.820777],[34.088032,40.815603],[34.089288,40.810058],[34.090989,40.807027],[34.09402,40.801778],[34.094907,40.79749],[34.096164,40.794681],[34.097273,40.793129],[34.098529,40.791576],[34.09949,40.789802],[34.09986,40.786845],[34.100082,40.783814],[34.100895,40.781818],[34.102743,40.7796],[34.104074,40.775904],[34.104369,40.772281],[34.103039,40.769177],[34.101338,40.76548],[34.099564,40.762893],[34.096311,40.759566],[34.09365,40.758088],[34.090102,40.757496],[34.085666,40.756313],[34.080929,40.754397],[34.07324,40.751219],[34.067252,40.749296],[34.064073,40.748188],[34.06156,40.747005],[34.059194,40.745452],[34.056533,40.743826],[34.053502,40.741756],[34.050766,40.740647],[34.048992,40.739834],[34.047292,40.739168],[34.045739,40.737986],[34.045296,40.736655],[34.045739,40.73525],[34.046109,40.734141],[34.047292,40.733107],[34.04877,40.732072],[34.050619,40.730889],[34.052171,40.729558],[34.05535,40.727636],[34.057272,40.726675],[34.058972,40.725122],[34.06156,40.723422],[34.06326,40.7215],[34.063858,40.71898],[34.064597,40.714619],[34.066075,40.710775],[34.07125,40.705452],[34.077091,40.701164],[34.082487,40.696802],[34.088253,40.693919],[34.09572,40.689484],[34.104591,40.683939]]]}}]}