{"type":"FeatureCollection","province":"Düzce","province_id":"TR-P-81","features":[{"type":"Feature","properties":{"id":"TR-D-81-001","parent_id":"TR-P-81","region_id":"TR-R-KAR","level":"district","municipality_type":null,"municipality_type_label":null,"is_metropolitan_municipality":null,"name":"Akçakoca","name_ascii":"akcakoca","slug":"akcakoca-duzce"},"geometry":{"type":"Polygon","coordinates":[[[30.965821,41.074368],[30.966413,41.074273],[30.970596,41.074232],[30.972522,41.074214],[30.977537,41.074043],[30.980005,41.073935],[30.983201,41.073818],[30.989252,41.073604],[30.992587,41.073044],[31.000623,41.071693],[31.000588,41.072871],[31.00046,41.077238],[31.002595,41.077518],[31.007246,41.077762],[31.01196,41.077315],[31.016484,41.077664],[31.019981,41.078869],[31.020944,41.079175],[31.024573,41.080202],[31.029756,41.081786],[31.03472,41.081435],[31.039213,41.081039],[31.040563,41.080931],[31.044038,41.080677],[31.045193,41.080419],[31.049087,41.079551],[31.053886,41.08048],[31.058194,41.08219],[31.063019,41.082092],[31.067907,41.081645],[31.077501,41.08361],[31.082274,41.085105],[31.08751,41.086386],[31.092389,41.088215],[31.096414,41.09016],[31.103878,41.091664],[31.106147,41.092168],[31.107695,41.092555],[31.111096,41.093397],[31.116065,41.093978],[31.119292,41.093978],[31.120949,41.093996],[31.122956,41.09414],[31.12735,41.09441],[31.126918,41.096778],[31.127945,41.096814],[31.12853,41.094455],[31.130424,41.094463],[31.134604,41.095714],[31.13987,41.096417],[31.145259,41.096094],[31.147113,41.096022],[31.150644,41.095893],[31.157081,41.096922],[31.159629,41.097444],[31.167609,41.098953],[31.173701,41.098804],[31.175016,41.098777],[31.177195,41.098732],[31.181537,41.098962],[31.185397,41.099804],[31.186775,41.100119],[31.191261,41.101494],[31.196074,41.102184],[31.204242,41.102217],[31.206066,41.102192],[31.206898,41.102181],[31.210517,41.1021],[31.212489,41.102136],[31.215604,41.102215],[31.22034,41.102811],[31.225225,41.103714],[31.230038,41.105332],[31.232342,41.106336],[31.234451,41.107254],[31.239537,41.108636],[31.24412,41.107721],[31.248647,41.108061],[31.254004,41.110136],[31.258459,41.112073],[31.263842,41.113577],[31.26878,41.114003],[31.274399,41.114435],[31.277899,41.114871],[31.278247,41.113516],[31.278533,41.112774],[31.279147,41.111422],[31.28178,41.107087],[31.286078,41.101441],[31.288943,41.097733],[31.290376,41.096384],[31.297118,41.09217],[31.301669,41.090316],[31.305293,41.089979],[31.31549,41.090653],[31.322148,41.091075],[31.336812,41.090822],[31.345492,41.089811],[31.351139,41.088462],[31.353498,41.087367],[31.357291,41.084923],[31.358808,41.083406],[31.360915,41.081636],[31.362432,41.078349],[31.365128,41.075905],[31.367825,41.074641],[31.370522,41.073124],[31.37246,41.071186],[31.371106,41.070245],[31.368793,41.068799],[31.367289,41.067295],[31.365438,41.065097],[31.364865,41.064397],[31.364397,41.063824],[31.363247,41.06232],[31.362893,41.061858],[31.361269,41.058966],[31.361042,41.058561],[31.359814,41.057249],[31.358497,41.055842],[31.355547,41.053239],[31.354051,41.051963],[31.353175,41.051215],[31.351093,41.050231],[31.348013,41.049291],[31.345598,41.048554],[31.344404,41.048016],[31.341491,41.046703],[31.337905,41.045141],[31.335106,41.044297],[31.334261,41.044042],[31.331658,41.042886],[31.327667,41.039589],[31.327031,41.039119],[31.325238,41.037795],[31.319743,41.033573],[31.317371,41.030854],[31.316163,41.029553],[31.315116,41.028425],[31.313496,41.025764],[31.312395,41.024522],[31.311703,41.02374],[31.309158,41.021426],[31.30833,41.020866],[31.305225,41.018765],[31.301928,41.015873],[31.297821,41.013213],[31.294582,41.011073],[31.292384,41.009742],[31.290128,41.007544],[31.287525,41.00523],[31.286831,41.004332],[31.285558,41.002685],[31.280121,40.997248],[31.27697,40.995169],[31.274337,40.993431],[31.271618,40.993084],[31.267165,40.993431],[31.258257,40.99453],[31.253051,40.994703],[31.247672,40.995802],[31.24316,40.997364],[31.240442,40.998],[31.237665,40.997827],[31.234397,40.99766],[31.231134,40.996428],[31.221707,40.994615],[31.215181,40.994325],[31.210975,40.994615],[31.205464,40.99592],[31.201041,40.998095],[31.195965,41.001286],[31.195699,41.001393],[31.191831,41.002954],[31.189366,41.003389],[31.182259,41.003679],[31.179214,41.003606],[31.176966,41.003026],[31.174646,41.002156],[31.173195,41.001014],[31.171237,40.999473],[31.169352,40.99785],[31.168627,40.997225],[31.165871,40.995779],[31.165726,40.995702],[31.164617,40.99505],[31.162028,40.993527],[31.15862,40.992729],[31.155647,40.992657],[31.151659,40.992077],[31.147743,40.991569],[31.14332,40.989684],[31.138679,40.987363],[31.136286,40.985623],[31.133385,40.983593],[31.131959,40.982302],[31.131862,40.982215],[31.131137,40.981749],[31.129832,40.98091],[31.128019,40.980402],[31.126833,40.980138],[31.124756,40.979677],[31.123668,40.978952],[31.122943,40.977211],[31.122363,40.975326],[31.121058,40.973658],[31.118012,40.97228],[31.117529,40.972039],[31.115112,40.97083],[31.113247,40.969898],[31.112501,40.969525],[31.109601,40.967712],[31.108607,40.967266],[31.107498,40.966769],[31.105467,40.966552],[31.100609,40.966117],[31.096113,40.966044],[31.093575,40.965827],[31.090312,40.965319],[31.087121,40.963941],[31.083423,40.962781],[31.082215,40.962298],[31.081973,40.962201],[31.081625,40.961969],[31.081103,40.961621],[31.078927,40.957633],[31.076679,40.954877],[31.076264,40.954626],[31.073199,40.952774],[31.070371,40.951542],[31.0666,40.950019],[31.064715,40.948713],[31.0636,40.947771],[31.062829,40.947118],[31.059566,40.944725],[31.057753,40.942622],[31.055215,40.940519],[31.05333,40.940193],[31.051445,40.939867],[31.049448,40.939797],[31.047311,40.939722],[31.044048,40.939722],[31.04207,40.940051],[31.039697,40.940447],[31.035782,40.94139],[31.030416,40.942405],[31.024542,40.942405],[31.020699,40.94371],[31.016348,40.944653],[31.009749,40.945088],[31.003271,40.944897],[30.999887,40.944798],[30.998219,40.944667],[30.995246,40.944435],[30.989083,40.944],[30.983648,40.945749],[30.982774,40.94603],[30.980696,40.946853],[30.97545,40.948931],[30.968976,40.951232],[30.966676,40.952049],[30.964807,40.952863],[30.960512,40.954732],[30.955219,40.957343],[30.949197,40.959683],[30.948668,40.95993],[30.947537,40.960459],[30.946367,40.960915],[30.945911,40.961093],[30.944669,40.961625],[30.943949,40.962289],[30.943467,40.962692],[30.943432,40.963134],[30.943363,40.963557],[30.943253,40.963974],[30.943099,40.964372],[30.942908,40.964763],[30.942688,40.965148],[30.942447,40.96553],[30.942189,40.965907],[30.94192,40.966282],[30.941054,40.967446],[30.94079,40.967827],[30.940548,40.968212],[30.940337,40.968603],[30.94017,40.969001],[30.940089,40.969294],[30.940066,40.969376],[30.940062,40.969402],[30.940005,40.969757],[30.939981,40.970142],[30.939993,40.970529],[30.939897,40.97091],[30.940122,40.971286],[30.940232,40.971654],[30.940367,40.97202],[30.940504,40.972334],[30.940524,40.972382],[30.940657,40.972648],[30.940702,40.972739],[30.940725,40.972778],[30.940893,40.973077],[30.941101,40.973411],[30.941324,40.973738],[30.941559,40.97406],[30.941809,40.974375],[30.942067,40.974677],[30.942341,40.974969],[30.94263,40.975249],[30.942938,40.975516],[30.943267,40.975765],[30.943685,40.976033],[30.944131,40.976278],[30.944597,40.976507],[30.945077,40.976723],[30.946064,40.977133],[30.947578,40.977716],[30.949107,40.978271],[30.950132,40.978616],[30.950647,40.978775],[30.951164,40.978921],[30.951685,40.979048],[30.952211,40.979152],[30.952753,40.97923],[30.953838,40.979353],[30.954372,40.979426],[30.954894,40.979529],[30.955374,40.979665],[30.95584,40.979834],[30.956295,40.98003],[30.956741,40.980246],[30.957207,40.980495],[30.957667,40.980758],[30.958121,40.981031],[30.959022,40.981594],[30.959917,40.982171],[30.960804,40.982757],[30.961675,40.983352],[30.962097,40.983656],[30.962506,40.983966],[30.962753,40.98417],[30.962894,40.984286],[30.963253,40.984619],[30.963517,40.984903],[30.963753,40.985198],[30.96396,40.985503],[30.964131,40.985816],[30.964262,40.98614],[30.964361,40.986543],[30.964406,40.986957],[30.964413,40.98738],[30.964392,40.987808],[30.964352,40.988241],[30.964299,40.988677],[30.964236,40.989114],[30.964092,40.989991],[30.963926,40.990863],[30.963832,40.991293],[30.963726,40.991717],[30.963602,40.992132],[30.963455,40.992532],[30.963274,40.992911],[30.963046,40.993262],[30.962797,40.993541],[30.962507,40.993787],[30.962182,40.993999],[30.961826,40.99417],[30.961439,40.994292],[30.960974,40.994364],[30.960482,40.994384],[30.959971,40.994368],[30.959909,40.994363],[30.958395,40.994246],[30.957873,40.994223],[30.957364,40.994232],[30.956874,40.994288],[30.956436,40.994397],[30.956024,40.994556],[30.955981,40.994578],[30.955638,40.994758],[30.955284,40.994998],[30.954944,40.995295],[30.954636,40.995624],[30.954351,40.995976],[30.954083,40.996344],[30.953578,40.997113],[30.953094,40.997904],[30.952391,40.999102],[30.951946,40.999892],[30.95174,41.00028],[30.951553,41.00066],[30.951438,41.000923],[30.951392,41.001029],[30.95127,41.001381],[30.951201,41.001711],[30.951206,41.002011],[30.951311,41.002269],[30.951549,41.002484],[30.951894,41.002655],[30.952317,41.002794],[30.952795,41.002911],[30.953313,41.003011],[30.953857,41.0031],[30.95442,41.003183],[30.956741,41.003495],[30.957322,41.003581],[30.957899,41.003674],[30.958468,41.00378],[30.959028,41.003903],[30.959575,41.004048],[30.960062,41.004206],[30.960537,41.004384],[30.961004,41.004577],[30.961463,41.004783],[30.962364,41.005219],[30.963246,41.005682],[30.964177,41.006204],[30.964436,41.006355],[30.965095,41.00674],[30.972378,41.011082],[30.973738,41.0119],[30.974633,41.012455],[30.975074,41.012739],[30.975908,41.013302],[30.976719,41.013885],[30.97712,41.014188],[30.977902,41.01481],[30.978209,41.015067],[30.978282,41.015128],[30.978762,41.015556],[30.97903,41.015796],[30.979391,41.016139],[30.979394,41.016142],[30.979741,41.016488],[30.980021,41.016782],[30.98056,41.01738],[30.981076,41.01799],[30.981364,41.018347],[30.981919,41.019068],[30.982452,41.019796],[30.982709,41.020161],[30.982955,41.020527],[30.983189,41.020893],[30.983404,41.021261],[30.983595,41.021629],[30.983752,41.021998],[30.983864,41.022369],[30.983915,41.022741],[30.983892,41.023132],[30.983809,41.023525],[30.983691,41.023919],[30.983449,41.024646],[30.983353,41.024976],[30.98328,41.025304],[30.983238,41.02563],[30.983243,41.02595],[30.983307,41.026273],[30.983426,41.026586],[30.983595,41.026887],[30.983809,41.027174],[30.983952,41.027322],[30.984067,41.027441],[30.984277,41.027608],[30.984386,41.027694],[30.98463,41.027851],[30.984745,41.027924],[30.985137,41.028131],[30.985563,41.028319],[30.98607,41.028501],[30.986645,41.028669],[30.987246,41.028814],[30.989045,41.029188],[30.989557,41.029311],[30.989987,41.029437],[30.990344,41.029577],[30.990577,41.029733],[30.991197,41.030238],[30.991611,41.030485],[30.992105,41.030743],[30.992664,41.030997],[30.993267,41.031234],[30.993861,41.031429],[30.994457,41.03159],[30.995032,41.031715],[30.995565,41.031802],[30.99606,41.031858],[30.996557,41.031901],[30.997055,41.031933],[30.997554,41.031955],[30.999541,41.032004],[31.000505,41.032039],[31.000973,41.032074],[31.001428,41.032129],[31.001865,41.032211],[31.002279,41.03233],[31.00272,41.032521],[31.003131,41.032759],[31.003516,41.033034],[31.00388,41.033336],[31.004169,41.033605],[31.004447,41.033886],[31.004715,41.034177],[31.005225,41.034779],[31.005713,41.035415],[31.005947,41.035739],[31.0064,41.036395],[31.006903,41.037162],[31.007394,41.037933],[31.008122,41.039095],[31.008838,41.040261],[31.009299,41.041045],[31.009518,41.041441],[31.009886,41.042164],[31.010055,41.04253],[31.010213,41.042898],[31.010356,41.043268],[31.010485,41.043649],[31.010596,41.044032],[31.010686,41.044416],[31.010755,41.0448],[31.010796,41.045183],[31.010804,41.045561],[31.010778,41.045934],[31.010715,41.0463],[31.01061,41.046654],[31.01046,41.046981],[31.010453,41.046994],[31.010216,41.047344],[31.009918,41.047671],[31.009573,41.047976],[31.009187,41.048257],[31.008787,41.048501],[31.00836,41.04872],[31.007912,41.048914],[31.007445,41.049078],[31.006909,41.049222],[31.006361,41.049326],[31.005806,41.049391],[31.005252,41.049411],[31.004704,41.049378],[31.004226,41.049297],[31.003758,41.049174],[31.003299,41.049017],[31.002851,41.048833],[31.002396,41.048615],[31.001951,41.048378],[31.001514,41.048127],[31.000656,41.047597],[30.999817,41.047044],[30.997824,41.045663],[30.997027,41.045129],[30.996621,41.044874],[30.996206,41.044631],[30.995779,41.044404],[30.995341,41.044201],[30.994889,41.04402],[30.994424,41.043864],[30.993946,41.043736],[30.993443,41.043639],[30.992929,41.04357],[30.992407,41.043523],[30.99188,41.043495],[30.991349,41.043481],[30.990815,41.043483],[30.990281,41.043499],[30.989748,41.043531],[30.989217,41.043584],[30.988678,41.043661],[30.988141,41.043757],[30.987606,41.043868],[30.987074,41.04399],[30.986544,41.04412],[30.985491,41.044401],[30.984971,41.044552],[30.984457,41.04471],[30.983954,41.044878],[30.983464,41.045058],[30.982995,41.045255],[30.982554,41.045474],[30.982459,41.045532],[30.982129,41.045732],[30.981743,41.046012],[30.981527,41.046196],[30.981398,41.046305],[30.981099,41.046603],[30.980851,41.046905],[30.980674,41.047197],[30.980606,41.047417],[30.98059,41.047469],[30.980711,41.047804],[30.981057,41.048063],[30.981384,41.048216],[30.982121,41.048528],[30.982251,41.048595],[30.982479,41.048712],[30.982796,41.048933],[30.982824,41.048962],[30.983038,41.049184],[30.983229,41.049472],[30.983376,41.049787],[30.983463,41.050062],[30.983482,41.050123],[30.983551,41.050475],[30.983584,41.050846],[30.983585,41.051224],[30.983561,41.051609],[30.983517,41.051998],[30.983457,41.052389],[30.983375,41.052813],[30.983172,41.053661],[30.983005,41.054241],[30.982929,41.054504],[30.982791,41.054921],[30.982705,41.055159],[30.982641,41.055335],[30.982472,41.055744],[30.982281,41.056145],[30.982059,41.056542],[30.981815,41.056931],[30.981553,41.057315],[30.981418,41.057498],[30.981056,41.057989],[30.980996,41.058071],[30.980409,41.058814],[30.979797,41.059542],[30.979778,41.059563],[30.97948,41.059896],[30.979151,41.060241],[30.978807,41.060573],[30.978442,41.060887],[30.978319,41.060977],[30.978049,41.061176],[30.977617,41.061439],[30.977156,41.061677],[30.976674,41.061897],[30.976177,41.062104],[30.97567,41.062302],[30.974635,41.062682],[30.968321,41.064888],[30.967267,41.065249],[30.967223,41.065264],[30.966864,41.06538],[30.96621,41.065592],[30.965678,41.06575],[30.965145,41.065892],[30.964608,41.066014],[30.964067,41.066108],[30.963521,41.066162],[30.962964,41.066169],[30.962403,41.066136],[30.961837,41.066074],[30.961267,41.065992],[30.960697,41.065895],[30.959556,41.065676],[30.957893,41.065339],[30.956883,41.065155],[30.956564,41.065109],[30.956439,41.065091],[30.95606,41.065057],[30.955659,41.065155],[30.955714,41.065468],[30.955925,41.06571],[30.955941,41.065726],[30.956204,41.065984],[30.956623,41.066354],[30.956888,41.06659],[30.957664,41.067238],[30.961615,41.070469],[30.962172,41.070925],[30.965265,41.073452],[30.965461,41.073749],[30.965442,41.073921],[30.965594,41.074044],[30.965775,41.074149],[30.965821,41.074368]]]}},{"type":"Feature","properties":{"id":"TR-D-81-002","parent_id":"TR-P-81","region_id":"TR-R-KAR","level":"district","municipality_type":null,"municipality_type_label":null,"is_metropolitan_municipality":null,"name":"Cumayeri","name_ascii":"cumayeri","slug":"cumayeri-duzce"},"geometry":{"type":"Polygon","coordinates":[[[30.989083,40.944],[30.989287,40.941265],[30.989236,40.938124],[30.990111,40.935086],[30.991244,40.933953],[30.9932,40.933387],[30.99526,40.932872],[30.996701,40.932203],[30.99768,40.931482],[30.997937,40.929577],[30.997783,40.927672],[30.997525,40.923604],[30.99665,40.91758],[30.996392,40.913873],[30.996753,40.909651],[30.997165,40.905223],[30.997577,40.902288],[30.997989,40.898684],[30.998092,40.896264],[30.998143,40.892968],[30.997319,40.888695],[30.996598,40.885554],[30.995414,40.883494],[30.994127,40.882413],[30.992376,40.880405],[30.991295,40.87814],[30.99042,40.875153],[30.98971,40.871057],[30.988824,40.871137],[30.985477,40.870777],[30.979556,40.870107],[30.974716,40.869026],[30.965911,40.867842],[30.963543,40.867276],[30.96138,40.866555],[30.957982,40.864959],[30.956437,40.864135],[30.955202,40.863002],[30.951494,40.861457],[30.948199,40.861406],[30.938416,40.861148],[30.928788,40.862024],[30.925853,40.862075],[30.922867,40.862539],[30.919623,40.864083],[30.91911,40.864422],[30.916328,40.86743],[30.914835,40.869695],[30.914268,40.871961],[30.912826,40.873969],[30.911282,40.875256],[30.909737,40.876132],[30.907884,40.876543],[30.905412,40.877573],[30.904485,40.878654],[30.902838,40.878654],[30.899954,40.878706],[30.897277,40.878809],[30.895269,40.878912],[30.892952,40.878963],[30.890377,40.879787],[30.887854,40.880045],[30.886052,40.879118],[30.884456,40.877831],[30.8825,40.87644],[30.880595,40.87505],[30.878844,40.8733],[30.878432,40.872218],[30.8774,40.870246],[30.874981,40.872181],[30.872504,40.873062],[30.86799,40.873007],[30.862595,40.873117],[30.85742,40.872566],[30.854062,40.871631],[30.850208,40.871025],[30.847841,40.87086],[30.845253,40.871245],[30.843437,40.872016],[30.842501,40.872677],[30.840299,40.873557],[30.837051,40.874824],[30.833637,40.875484],[30.830555,40.875484],[30.828187,40.875484],[30.825435,40.875264],[30.823123,40.875099],[30.820976,40.874328],[30.818773,40.873833],[30.816847,40.874328],[30.814645,40.875429],[30.813984,40.87609],[30.812277,40.879228],[30.811892,40.88187],[30.812663,40.885889],[30.813048,40.888587],[30.814645,40.891725],[30.815415,40.895303],[30.817122,40.898331],[30.819489,40.902184],[30.820865,40.905157],[30.823838,40.909451],[30.826536,40.911048],[30.830665,40.912039],[30.833307,40.912369],[30.838978,40.912809],[30.843987,40.9138],[30.85186,40.914791],[30.855713,40.915617],[30.858136,40.916002],[30.86254,40.916938],[30.867384,40.919526],[30.872834,40.923049],[30.874706,40.924921],[30.87834,40.927453],[30.87943,40.928835],[30.879991,40.929545],[30.881973,40.931913],[30.88237,40.932369],[30.883074,40.933179],[30.884671,40.933619],[30.887258,40.934004],[30.892653,40.936041],[30.898764,40.939345],[30.902507,40.941987],[30.907022,40.94562],[30.907881,40.946543],[30.910765,40.949639],[30.912368,40.951354],[30.913133,40.952172],[30.91583,40.953493],[30.919959,40.955585],[30.923482,40.957181],[30.923647,40.957283],[30.925905,40.958668],[30.928559,40.961151],[30.929318,40.961861],[30.932125,40.964668],[30.934982,40.966963],[30.939897,40.97091],[30.939993,40.970529],[30.939981,40.970142],[30.940005,40.969757],[30.940062,40.969402],[30.940066,40.969376],[30.940089,40.969294],[30.94017,40.969001],[30.940337,40.968603],[30.940548,40.968212],[30.94079,40.967827],[30.941054,40.967446],[30.94192,40.966282],[30.942189,40.965907],[30.942447,40.96553],[30.942688,40.965148],[30.942908,40.964763],[30.943099,40.964372],[30.943253,40.963974],[30.943363,40.963557],[30.943432,40.963134],[30.943467,40.962692],[30.943949,40.962289],[30.944669,40.961625],[30.945911,40.961093],[30.946367,40.960915],[30.947537,40.960459],[30.948668,40.95993],[30.949197,40.959683],[30.955219,40.957343],[30.960512,40.954732],[30.964807,40.952863],[30.966676,40.952049],[30.968976,40.951232],[30.97545,40.948931],[30.980696,40.946853],[30.982774,40.94603],[30.983648,40.945749],[30.989083,40.944]]]}},{"type":"Feature","properties":{"id":"TR-D-81-003","parent_id":"TR-P-81","region_id":"TR-R-KAR","level":"district","municipality_type":null,"municipality_type_label":null,"is_metropolitan_municipality":null,"name":"Çilimli","name_ascii":"cilimli","slug":"cilimli-duzce"},"geometry":{"type":"Polygon","coordinates":[[[31.013782,40.844278],[31.016216,40.848276],[31.018584,40.850027],[31.020953,40.85188],[31.022961,40.853528],[31.024042,40.854815],[31.024042,40.855485],[31.023578,40.857184],[31.022394,40.858625],[31.019356,40.861303],[31.017812,40.862693],[31.013178,40.865164],[31.00736,40.867327],[31.0001,40.869181],[30.991089,40.870931],[30.98971,40.871057],[30.99042,40.875153],[30.991295,40.87814],[30.992376,40.880405],[30.994127,40.882413],[30.995414,40.883494],[30.996598,40.885554],[30.997319,40.888695],[30.998143,40.892968],[30.998092,40.896264],[30.997989,40.898684],[30.997577,40.902288],[30.997165,40.905223],[30.996753,40.909651],[30.996392,40.913873],[30.99665,40.91758],[30.997525,40.923604],[30.997783,40.927672],[30.997937,40.929577],[30.99768,40.931482],[30.996701,40.932203],[30.99526,40.932872],[30.9932,40.933387],[30.991244,40.933953],[30.990111,40.935086],[30.989236,40.938124],[30.989287,40.941265],[30.989083,40.944],[30.995246,40.944435],[30.998219,40.944667],[30.999887,40.944798],[31.003271,40.944897],[31.009749,40.945088],[31.016348,40.944653],[31.020699,40.94371],[31.024542,40.942405],[31.030416,40.942405],[31.035782,40.94139],[31.039697,40.940447],[31.04207,40.940051],[31.044048,40.939722],[31.047311,40.939722],[31.049448,40.939797],[31.051445,40.939867],[31.05333,40.940193],[31.055215,40.940519],[31.057753,40.942622],[31.059566,40.944725],[31.062829,40.947118],[31.0636,40.947771],[31.064715,40.948713],[31.0666,40.950019],[31.070371,40.951542],[31.073199,40.952774],[31.076264,40.954626],[31.077227,40.95289],[31.077753,40.95072],[31.077884,40.947302],[31.077621,40.943949],[31.077818,40.942042],[31.078739,40.939544],[31.079791,40.937242],[31.080843,40.935073],[31.081632,40.931983],[31.082815,40.930339],[31.085182,40.92909],[31.088469,40.927118],[31.090705,40.924291],[31.09202,40.921464],[31.092874,40.917256],[31.092874,40.913903],[31.093203,40.911996],[31.09386,40.910747],[31.094452,40.909235],[31.095964,40.907591],[31.097937,40.905422],[31.100304,40.902989],[31.10129,40.901674],[31.105366,40.890958],[31.106418,40.889117],[31.107799,40.886618],[31.108916,40.88504],[31.109902,40.884449],[31.11056,40.883265],[31.111283,40.880044],[31.112072,40.8784],[31.112269,40.877085],[31.111743,40.875047],[31.110165,40.872154],[31.108456,40.867486],[31.10576,40.862884],[31.104511,40.859794],[31.102802,40.857164],[31.101027,40.855849],[31.097279,40.854863],[31.091033,40.854534],[31.083736,40.854469],[31.079133,40.854403],[31.071112,40.855258],[31.060199,40.855521],[31.053361,40.854797],[31.048233,40.853285],[31.043171,40.850787],[31.040409,40.849078],[31.034755,40.847039],[31.031402,40.846316],[31.020883,40.845593],[31.013782,40.844278]]]}},{"type":"Feature","properties":{"id":"TR-D-81-004","parent_id":"TR-P-81","region_id":"TR-R-KAR","level":"district","municipality_type":null,"municipality_type_label":null,"is_metropolitan_municipality":null,"name":"Düzce","name_ascii":"duzce","slug":"duzce-duzce"},"geometry":{"type":"Polygon","coordinates":[[[31.006645,40.836111],[31.007931,40.837704],[31.010363,40.842372],[31.013782,40.844278],[31.020883,40.845593],[31.031402,40.846316],[31.034755,40.847039],[31.040409,40.849078],[31.043171,40.850787],[31.048233,40.853285],[31.053361,40.854797],[31.060199,40.855521],[31.071112,40.855258],[31.079133,40.854403],[31.083736,40.854469],[31.091033,40.854534],[31.097279,40.854863],[31.101027,40.855849],[31.102802,40.857164],[31.104511,40.859794],[31.10576,40.862884],[31.108456,40.867486],[31.110165,40.872154],[31.111743,40.875047],[31.112269,40.877085],[31.112072,40.8784],[31.111283,40.880044],[31.11056,40.883265],[31.109902,40.884449],[31.108916,40.88504],[31.107799,40.886618],[31.106418,40.889117],[31.105366,40.890958],[31.10129,40.901674],[31.100304,40.902989],[31.097937,40.905422],[31.095964,40.907591],[31.094452,40.909235],[31.09386,40.910747],[31.093203,40.911996],[31.092874,40.913903],[31.092874,40.917256],[31.09202,40.921464],[31.090705,40.924291],[31.088469,40.927118],[31.085182,40.92909],[31.082815,40.930339],[31.081632,40.931983],[31.080843,40.935073],[31.079791,40.937242],[31.078739,40.939544],[31.077818,40.942042],[31.077621,40.943949],[31.077884,40.947302],[31.077753,40.95072],[31.077227,40.95289],[31.076264,40.954626],[31.076679,40.954877],[31.078927,40.957633],[31.081103,40.961621],[31.081625,40.961969],[31.081973,40.962201],[31.082215,40.962298],[31.083423,40.962781],[31.087121,40.963941],[31.090312,40.965319],[31.093575,40.965827],[31.096113,40.966044],[31.100609,40.966117],[31.105467,40.966552],[31.107498,40.966769],[31.108607,40.967266],[31.109601,40.967712],[31.112501,40.969525],[31.113247,40.969898],[31.115112,40.97083],[31.117529,40.972039],[31.118012,40.97228],[31.121058,40.973658],[31.122363,40.975326],[31.122943,40.977211],[31.123668,40.978952],[31.124756,40.979677],[31.126833,40.980138],[31.128019,40.980402],[31.129832,40.98091],[31.131137,40.981749],[31.131862,40.982215],[31.131959,40.982302],[31.133385,40.983593],[31.136286,40.985623],[31.138679,40.987363],[31.14332,40.989684],[31.147743,40.991569],[31.151659,40.992077],[31.155647,40.992657],[31.15862,40.992729],[31.162028,40.993527],[31.164617,40.99505],[31.165726,40.995702],[31.165871,40.995779],[31.168627,40.997225],[31.169352,40.99785],[31.171237,40.999473],[31.173195,41.001014],[31.174646,41.002156],[31.176966,41.003026],[31.179214,41.003606],[31.182259,41.003679],[31.189366,41.003389],[31.191831,41.002954],[31.195699,41.001393],[31.195965,41.001286],[31.201041,40.998095],[31.205464,40.99592],[31.210975,40.994615],[31.215181,40.994325],[31.221707,40.994615],[31.231134,40.996428],[31.234397,40.99766],[31.237665,40.997827],[31.240442,40.998],[31.24316,40.997364],[31.247672,40.995802],[31.253051,40.994703],[31.258257,40.99453],[31.267165,40.993431],[31.271618,40.993084],[31.274337,40.993431],[31.27697,40.995169],[31.277525,40.990081],[31.278039,40.983626],[31.279139,40.978566],[31.279506,40.975779],[31.280092,40.972332],[31.279946,40.967491],[31.279579,40.964264],[31.279432,40.95957],[31.279506,40.95825],[31.278992,40.957223],[31.278112,40.95649],[31.277745,40.955537],[31.277672,40.95429],[31.277672,40.953116],[31.277012,40.952236],[31.275325,40.950989],[31.272612,40.949669],[31.271365,40.948936],[31.270998,40.948422],[31.270631,40.947102],[31.270191,40.944535],[31.269311,40.942775],[31.268724,40.941455],[31.268871,40.940575],[31.269311,40.938448],[31.269091,40.936981],[31.269751,40.933387],[31.271071,40.929427],[31.272025,40.927153],[31.273492,40.92466],[31.275178,40.920846],[31.276425,40.916519],[31.277012,40.913658],[31.276865,40.911752],[31.276352,40.910211],[31.276425,40.907131],[31.277452,40.904051],[31.279359,40.90251],[31.282806,40.899723],[31.287573,40.897303],[31.291094,40.896056],[31.298795,40.894076],[31.305909,40.892243],[31.310016,40.890629],[31.314783,40.888942],[31.322704,40.886522],[31.329671,40.883882],[31.340379,40.878308],[31.349254,40.874494],[31.355634,40.872514],[31.360182,40.87112],[31.365536,40.869433],[31.369056,40.868773],[31.375217,40.86672],[31.37683,40.865986],[31.37316,40.859713],[31.370217,40.856133],[31.365921,40.850166],[31.361307,40.845473],[31.359795,40.843325],[31.356533,40.839904],[31.352874,40.835051],[31.348817,40.831869],[31.343089,40.828687],[31.337122,40.824868],[31.331474,40.822322],[31.323598,40.819299],[31.315643,40.816913],[31.30195,40.813061],[31.294253,40.810734],[31.289301,40.808885],[31.281067,40.806379],[31.274146,40.804887],[31.264122,40.802978],[31.256843,40.802978],[31.247953,40.80262],[31.245447,40.80262],[31.242046,40.802918],[31.240614,40.80262],[31.238645,40.802023],[31.237213,40.801247],[31.236259,40.800352],[31.235543,40.797369],[31.235364,40.796176],[31.235423,40.795221],[31.235423,40.793849],[31.235364,40.792954],[31.235304,40.791462],[31.234946,40.789971],[31.233086,40.782771],[31.233405,40.779589],[31.234916,40.777282],[31.237303,40.774179],[31.241837,40.76877],[31.247327,40.761849],[31.249793,40.757791],[31.252246,40.753257],[31.253943,40.747423],[31.255958,40.741377],[31.258186,40.736922],[31.261049,40.733528],[31.264656,40.730133],[31.267732,40.726951],[31.269641,40.724512],[31.274945,40.713162],[31.280673,40.702237],[31.282688,40.696933],[31.282688,40.694175],[31.281521,40.689508],[31.2794,40.685477],[31.277597,40.681765],[31.275369,40.677098],[31.274202,40.673809],[31.273248,40.667445],[31.272187,40.661293],[31.269111,40.65652],[31.265186,40.651428],[31.261368,40.645382],[31.258292,40.640397],[31.257337,40.637109],[31.256069,40.633599],[31.249567,40.633257],[31.245632,40.63283],[31.238103,40.631204],[31.234767,40.630349],[31.231944,40.629151],[31.228693,40.625814],[31.223303,40.622392],[31.216203,40.621024],[31.211583,40.621195],[31.204739,40.621879],[31.199178,40.622307],[31.197382,40.622649],[31.192591,40.626157],[31.187458,40.631546],[31.184464,40.634369],[31.180443,40.637364],[31.17685,40.64147],[31.171888,40.646603],[31.169407,40.649426],[31.165814,40.652591],[31.161536,40.654388],[31.156746,40.655158],[31.15204,40.656185],[31.146052,40.65627],[31.140491,40.657126],[31.134075,40.657382],[31.127146,40.657724],[31.119959,40.658067],[31.114484,40.658323],[31.102764,40.659778],[31.091728,40.661403],[31.087279,40.66243],[31.081462,40.663542],[31.068801,40.663713],[31.064791,40.663617],[31.064896,40.664737],[31.065408,40.665301],[31.066023,40.66607],[31.066023,40.667095],[31.065716,40.667915],[31.06546,40.669299],[31.066075,40.670221],[31.066946,40.670939],[31.067766,40.6714],[31.068227,40.67181],[31.068278,40.672733],[31.067766,40.67386],[31.067048,40.674527],[31.066638,40.675244],[31.066075,40.676731],[31.065767,40.677602],[31.065972,40.678422],[31.066023,40.679293],[31.065511,40.680626],[31.064486,40.682112],[31.064229,40.682573],[31.064229,40.683137],[31.063819,40.68365],[31.063153,40.68365],[31.062436,40.68365],[31.062077,40.683855],[31.062077,40.684367],[31.062538,40.685136],[31.062589,40.685802],[31.062436,40.686469],[31.061974,40.687032],[31.062026,40.687494],[31.062436,40.687955],[31.063307,40.688621],[31.064332,40.689698],[31.064486,40.690313],[31.064281,40.690979],[31.063666,40.692107],[31.063461,40.693183],[31.063717,40.693849],[31.064178,40.694208],[31.064947,40.694669],[31.065665,40.695489],[31.066331,40.696258],[31.066536,40.696668],[31.066433,40.697386],[31.066177,40.698359],[31.06587,40.698769],[31.065716,40.699436],[31.065972,40.699846],[31.066843,40.700222],[31.067817,40.701195],[31.067971,40.702477],[31.067971,40.703912],[31.068125,40.706987],[31.068125,40.710575],[31.068125,40.714624],[31.067926,40.717955],[31.067965,40.722568],[31.067965,40.724605],[31.068195,40.726143],[31.068195,40.727488],[31.067734,40.728872],[31.066773,40.731025],[31.065697,40.733101],[31.065043,40.735138],[31.064197,40.736945],[31.063851,40.737906],[31.063582,40.739251],[31.063544,40.740904],[31.063505,40.741826],[31.063505,40.743057],[31.063505,40.744018],[31.063236,40.744325],[31.062468,40.74494],[31.061699,40.745248],[31.061353,40.745594],[31.061353,40.746247],[31.061314,40.747785],[31.060507,40.749668],[31.05897,40.752244],[31.057893,40.754089],[31.057086,40.755665],[31.054241,40.757625],[31.051858,40.758586],[31.049821,40.758971],[31.046146,40.760422],[31.044249,40.762021],[31.041179,40.764918],[31.038901,40.768472],[31.038418,40.769663],[31.030991,40.783823],[31.029467,40.786648],[31.026812,40.791479],[31.026161,40.792694],[31.025804,40.793409],[31.02548,40.794129],[31.025337,40.794492],[31.025208,40.794868],[31.025099,40.795246],[31.025014,40.795624],[31.024956,40.796002],[31.024932,40.79638],[31.024952,40.796796],[31.025018,40.797207],[31.025127,40.797612],[31.025282,40.798007],[31.025486,40.798388],[31.025723,40.798725],[31.025998,40.79905],[31.0263,40.799367],[31.02662,40.799678],[31.027967,40.800909],[31.028324,40.801253],[31.028666,40.801604],[31.028988,40.801964],[31.029284,40.802336],[31.029517,40.802673],[31.029728,40.803018],[31.029922,40.803371],[31.030101,40.803728],[31.030269,40.80409],[31.030614,40.804923],[31.03092,40.805764],[31.031186,40.806612],[31.031299,40.807038],[31.031392,40.807465],[31.031459,40.807894],[31.031494,40.80833],[31.031503,40.808768],[31.031492,40.809207],[31.031434,40.810087],[31.031298,40.81141],[31.031128,40.812732],[31.030997,40.813563],[31.030847,40.814345],[31.030663,40.815122],[31.030438,40.81588],[31.030312,40.816257],[31.030042,40.817008],[31.029606,40.818123],[31.028983,40.819599],[31.028485,40.820698],[31.028138,40.821412],[31.027779,40.822123],[31.027392,40.822867],[31.026974,40.823643],[31.026536,40.824408],[31.026303,40.824783],[31.026057,40.825152],[31.025792,40.825511],[31.025503,40.825857],[31.025211,40.82616],[31.024897,40.826451],[31.024565,40.826732],[31.02422,40.827005],[31.023862,40.827271],[31.023493,40.82753],[31.023068,40.827813],[31.022193,40.828361],[31.021301,40.828896],[31.018596,40.830477],[31.016784,40.831518],[31.015867,40.832023],[31.015402,40.832268],[31.01493,40.832504],[31.01445,40.832728],[31.014002,40.832921],[31.013546,40.833105],[31.012621,40.833453],[31.010491,40.834222],[31.009966,40.834423],[31.009448,40.834633],[31.008941,40.834856],[31.008462,40.835089],[31.007994,40.835334],[31.007534,40.835589],[31.006645,40.836111]]]}},{"type":"Feature","properties":{"id":"TR-D-81-005","parent_id":"TR-P-81","region_id":"TR-R-KAR","level":"district","municipality_type":null,"municipality_type_label":null,"is_metropolitan_municipality":null,"name":"Gölyaka","name_ascii":"golyaka","slug":"golyaka-duzce"},"geometry":{"type":"Polygon","coordinates":[[[31.006645,40.836111],[31.007534,40.835589],[31.007994,40.835334],[31.008462,40.835089],[31.008941,40.834856],[31.009448,40.834633],[31.009966,40.834423],[31.010491,40.834222],[31.012621,40.833453],[31.013546,40.833105],[31.014002,40.832921],[31.01445,40.832728],[31.01493,40.832504],[31.015402,40.832268],[31.015867,40.832023],[31.016784,40.831518],[31.018596,40.830477],[31.021301,40.828896],[31.022193,40.828361],[31.023068,40.827813],[31.023493,40.82753],[31.023862,40.827271],[31.02422,40.827005],[31.024565,40.826732],[31.024897,40.826451],[31.025211,40.82616],[31.025503,40.825857],[31.025792,40.825511],[31.026057,40.825152],[31.026303,40.824783],[31.026536,40.824408],[31.026974,40.823643],[31.027392,40.822867],[31.027779,40.822123],[31.028138,40.821412],[31.028485,40.820698],[31.028983,40.819599],[31.029606,40.818123],[31.030042,40.817008],[31.030312,40.816257],[31.030438,40.81588],[31.030663,40.815122],[31.030847,40.814345],[31.030997,40.813563],[31.031128,40.812732],[31.031298,40.81141],[31.031434,40.810087],[31.031492,40.809207],[31.031503,40.808768],[31.031494,40.80833],[31.031459,40.807894],[31.031392,40.807465],[31.031299,40.807038],[31.031186,40.806612],[31.03092,40.805764],[31.030614,40.804923],[31.030269,40.80409],[31.030101,40.803728],[31.029922,40.803371],[31.029728,40.803018],[31.029517,40.802673],[31.029284,40.802336],[31.028988,40.801964],[31.028666,40.801604],[31.028324,40.801253],[31.027967,40.800909],[31.02662,40.799678],[31.0263,40.799367],[31.025998,40.79905],[31.025723,40.798725],[31.025486,40.798388],[31.025282,40.798007],[31.025127,40.797612],[31.025018,40.797207],[31.024952,40.796796],[31.024932,40.79638],[31.024956,40.796002],[31.025014,40.795624],[31.025099,40.795246],[31.025208,40.794868],[31.025337,40.794492],[31.02548,40.794129],[31.025804,40.793409],[31.026161,40.792694],[31.026812,40.791479],[31.029467,40.786648],[31.030991,40.783823],[31.038418,40.769663],[31.038901,40.768472],[31.041179,40.764918],[31.044249,40.762021],[31.046146,40.760422],[31.049821,40.758971],[31.051858,40.758586],[31.054241,40.757625],[31.057086,40.755665],[31.057893,40.754089],[31.05897,40.752244],[31.060507,40.749668],[31.061314,40.747785],[31.061353,40.746247],[31.061353,40.745594],[31.061699,40.745248],[31.062468,40.74494],[31.063236,40.744325],[31.063505,40.744018],[31.063505,40.743057],[31.063505,40.741826],[31.063544,40.740904],[31.063582,40.739251],[31.063851,40.737906],[31.064197,40.736945],[31.065043,40.735138],[31.065697,40.733101],[31.066773,40.731025],[31.067734,40.728872],[31.068195,40.727488],[31.068195,40.726143],[31.067965,40.724605],[31.067965,40.722568],[31.067926,40.717955],[31.068125,40.714624],[31.068125,40.710575],[31.068125,40.706987],[31.067971,40.703912],[31.067971,40.702477],[31.067817,40.701195],[31.066843,40.700222],[31.065972,40.699846],[31.065716,40.699436],[31.06587,40.698769],[31.066177,40.698359],[31.066433,40.697386],[31.066536,40.696668],[31.066331,40.696258],[31.065665,40.695489],[31.064947,40.694669],[31.064178,40.694208],[31.063717,40.693849],[31.063461,40.693183],[31.063666,40.692107],[31.064281,40.690979],[31.064486,40.690313],[31.064332,40.689698],[31.063307,40.688621],[31.062436,40.687955],[31.062026,40.687494],[31.061974,40.687032],[31.062436,40.686469],[31.062589,40.685802],[31.062538,40.685136],[31.062077,40.684367],[31.062077,40.683855],[31.062436,40.68365],[31.063153,40.68365],[31.063819,40.68365],[31.064229,40.683137],[31.064229,40.682573],[31.064486,40.682112],[31.065511,40.680626],[31.066023,40.679293],[31.065972,40.678422],[31.065767,40.677602],[31.066075,40.676731],[31.066638,40.675244],[31.067048,40.674527],[31.067766,40.67386],[31.068278,40.672733],[31.068227,40.67181],[31.067766,40.6714],[31.066946,40.670939],[31.066075,40.670221],[31.06546,40.669299],[31.065716,40.667915],[31.066023,40.667095],[31.066023,40.66607],[31.065408,40.665301],[31.064896,40.664737],[31.064791,40.663617],[31.061615,40.663542],[31.053231,40.66243],[31.051006,40.662173],[31.037062,40.658751],[31.032186,40.657639],[31.029534,40.657126],[31.023203,40.655671],[31.020038,40.654816],[31.015247,40.652677],[31.012167,40.650196],[31.009344,40.648913],[31.005836,40.6484],[31.000105,40.647715],[30.995741,40.647801],[30.992576,40.64763],[30.987015,40.646517],[30.982738,40.645234],[30.979402,40.643694],[30.975295,40.641727],[30.9729,40.640443],[30.969221,40.638904],[30.963832,40.637791],[30.958271,40.636936],[30.948518,40.636252],[30.935857,40.635653],[30.932863,40.636337],[30.923623,40.637791],[30.916812,40.639697],[30.91505,40.641018],[30.913594,40.642339],[30.912518,40.644688],[30.911637,40.646743],[30.911156,40.648239],[30.910817,40.649293],[30.910772,40.649436],[30.910756,40.649484],[30.911368,40.649862],[30.914084,40.651539],[30.915845,40.654279],[30.918194,40.657998],[30.918493,40.658406],[30.919271,40.659466],[30.919858,40.66113],[30.920837,40.6625],[30.921424,40.663479],[30.921815,40.664947],[30.922904,40.666342],[30.923491,40.667223],[30.923932,40.669205],[30.924005,40.670893],[30.924446,40.672287],[30.925253,40.673462],[30.926354,40.674416],[30.927896,40.674857],[30.92885,40.675664],[30.92951,40.676545],[30.930832,40.677719],[30.9323,40.67882],[30.933181,40.679554],[30.933915,40.680582],[30.934135,40.681903],[30.934061,40.682784],[30.933768,40.683958],[30.934135,40.684986],[30.934355,40.685867],[30.934355,40.687629],[30.934502,40.68939],[30.934575,40.690712],[30.935309,40.691666],[30.93619,40.692547],[30.936777,40.693868],[30.937144,40.695189],[30.937511,40.696657],[30.937511,40.697905],[30.937805,40.699667],[30.938539,40.700474],[30.939346,40.701428],[30.939713,40.702603],[30.939934,40.704071],[30.940154,40.705319],[30.940007,40.707961],[30.940007,40.710897],[30.938906,40.715448],[30.937952,40.71787],[30.936043,40.721174],[30.935016,40.722201],[30.932887,40.723302],[30.931713,40.724257],[30.92863,40.726018],[30.926501,40.726752],[30.924446,40.726605],[30.920776,40.726018],[30.916592,40.725137],[30.90815,40.723669],[30.904774,40.723082],[30.902498,40.721834],[30.899415,40.720293],[30.895452,40.718825],[30.89369,40.719045],[30.892589,40.720073],[30.890974,40.722788],[30.888552,40.727706],[30.887451,40.731083],[30.886423,40.732991],[30.885469,40.735414],[30.884368,40.737909],[30.88268,40.740772],[30.880037,40.742901],[30.878055,40.743928],[30.87644,40.743855],[30.875046,40.744149],[30.874091,40.744149],[30.87299,40.743855],[30.871816,40.743121],[30.870275,40.742681],[30.86888,40.742974],[30.867412,40.743194],[30.867045,40.743158],[30.866678,40.743121],[30.86565,40.742754],[30.864402,40.74224],[30.862274,40.741726],[30.859851,40.741653],[30.856255,40.741653],[30.850015,40.740992],[30.847079,40.740405],[30.844033,40.739715],[30.844685,40.742109],[30.847643,40.746975],[30.850141,40.750459],[30.853823,40.753023],[30.85665,40.754601],[30.864145,40.757625],[30.868879,40.759203],[30.873021,40.760255],[30.875585,40.76157],[30.877229,40.763345],[30.878083,40.765778],[30.879135,40.768408],[30.880056,40.77038],[30.882291,40.77393],[30.886893,40.779519],[30.888208,40.780965],[30.892219,40.782938],[30.904513,40.787474],[30.916216,40.79063],[30.932323,40.794377],[30.935676,40.794706],[30.940016,40.794706],[30.943434,40.79464],[30.946459,40.794574],[30.949746,40.7951],[30.952244,40.796152],[30.956189,40.798388],[30.958359,40.799768],[30.962961,40.804765],[30.965919,40.808052],[30.968221,40.811011],[30.971179,40.813706],[30.974269,40.816862],[30.978148,40.819163],[30.981961,40.821267],[30.986761,40.822253],[30.990508,40.823437],[30.993335,40.824817],[30.997609,40.827119],[31.000041,40.829814],[31.00517,40.834219],[31.006645,40.836111]]]}},{"type":"Feature","properties":{"id":"TR-D-81-006","parent_id":"TR-P-81","region_id":"TR-R-KAR","level":"district","municipality_type":null,"municipality_type_label":null,"is_metropolitan_municipality":null,"name":"Gümüşova","name_ascii":"gumusova","slug":"gumusova-duzce"},"geometry":{"type":"Polygon","coordinates":[[[31.013782,40.844278],[31.010363,40.842372],[31.007931,40.837704],[31.006645,40.836111],[31.00517,40.834219],[31.000041,40.829814],[30.997609,40.827119],[30.993335,40.824817],[30.990508,40.823437],[30.986761,40.822253],[30.981961,40.821267],[30.978148,40.819163],[30.974269,40.816862],[30.971179,40.813706],[30.968221,40.811011],[30.965919,40.808052],[30.962961,40.804765],[30.958359,40.799768],[30.956189,40.798388],[30.952244,40.796152],[30.949746,40.7951],[30.946459,40.794574],[30.943434,40.79464],[30.940016,40.794706],[30.935676,40.794706],[30.932323,40.794377],[30.916216,40.79063],[30.904513,40.787474],[30.892219,40.782938],[30.888208,40.780965],[30.886893,40.779519],[30.882291,40.77393],[30.880056,40.77038],[30.879135,40.768408],[30.878083,40.765778],[30.877229,40.763345],[30.875585,40.76157],[30.873021,40.760255],[30.868879,40.759203],[30.864145,40.757625],[30.85665,40.754601],[30.853823,40.753023],[30.850141,40.750459],[30.847643,40.746975],[30.844685,40.742109],[30.844033,40.739715],[30.843189,40.739524],[30.839592,40.741213],[30.836583,40.743708],[30.83372,40.747378],[30.831371,40.751269],[30.83027,40.754865],[30.829609,40.757655],[30.829169,40.759343],[30.829536,40.760517],[30.831151,40.762352],[30.833647,40.763821],[30.839666,40.765876],[30.844217,40.769106],[30.847153,40.771748],[30.847813,40.774317],[30.84774,40.7774],[30.847345,40.778648],[30.844483,40.782391],[30.841455,40.786796],[30.840189,40.789218],[30.840023,40.792025],[30.841235,40.794062],[30.842556,40.795108],[30.844703,40.79676],[30.845914,40.797916],[30.84718,40.799513],[30.848281,40.800669],[30.850538,40.802485],[30.852796,40.804137],[30.854832,40.805238],[30.856099,40.806724],[30.857365,40.808211],[30.861549,40.810963],[30.864632,40.814101],[30.867605,40.817294],[30.869531,40.81845],[30.872339,40.818616],[30.874266,40.818395],[30.877899,40.818175],[30.881312,40.81834],[30.884836,40.818781],[30.88913,40.819221],[30.893039,40.819441],[30.896562,40.820157],[30.900966,40.821368],[30.903884,40.82302],[30.906857,40.825057],[30.908618,40.825937],[30.909664,40.827589],[30.909499,40.830342],[30.908618,40.83381],[30.907407,40.835792],[30.906306,40.836728],[30.903774,40.838489],[30.901957,40.839095],[30.899865,40.838599],[30.898654,40.837719],[30.895461,40.835682],[30.892158,40.834415],[30.889405,40.833865],[30.887258,40.83359],[30.88412,40.833865],[30.881257,40.83392],[30.87823,40.833645],[30.875312,40.83381],[30.872009,40.835737],[30.870082,40.837884],[30.869146,40.839921],[30.869091,40.842068],[30.869531,40.845866],[30.870853,40.849335],[30.87355,40.852417],[30.875147,40.854289],[30.877844,40.856546],[30.880597,40.85996],[30.881478,40.862547],[30.881202,40.864199],[30.879276,40.867832],[30.878009,40.869759],[30.8774,40.870246],[30.878432,40.872218],[30.878844,40.8733],[30.880595,40.87505],[30.8825,40.87644],[30.884456,40.877831],[30.886052,40.879118],[30.887854,40.880045],[30.890377,40.879787],[30.892952,40.878963],[30.895269,40.878912],[30.897277,40.878809],[30.899954,40.878706],[30.902838,40.878654],[30.904485,40.878654],[30.905412,40.877573],[30.907884,40.876543],[30.909737,40.876132],[30.911282,40.875256],[30.912826,40.873969],[30.914268,40.871961],[30.914835,40.869695],[30.916328,40.86743],[30.91911,40.864422],[30.919623,40.864083],[30.922867,40.862539],[30.925853,40.862075],[30.928788,40.862024],[30.938416,40.861148],[30.948199,40.861406],[30.951494,40.861457],[30.955202,40.863002],[30.956437,40.864135],[30.957982,40.864959],[30.96138,40.866555],[30.963543,40.867276],[30.965911,40.867842],[30.974716,40.869026],[30.979556,40.870107],[30.985477,40.870777],[30.988824,40.871137],[30.98971,40.871057],[30.991089,40.870931],[31.0001,40.869181],[31.00736,40.867327],[31.013178,40.865164],[31.017812,40.862693],[31.019356,40.861303],[31.022394,40.858625],[31.023578,40.857184],[31.024042,40.855485],[31.024042,40.854815],[31.022961,40.853528],[31.020953,40.85188],[31.018584,40.850027],[31.016216,40.848276],[31.013782,40.844278]]]}},{"type":"Feature","properties":{"id":"TR-D-81-007","parent_id":"TR-P-81","region_id":"TR-R-KAR","level":"district","municipality_type":null,"municipality_type_label":null,"is_metropolitan_municipality":null,"name":"Kaynaşlı","name_ascii":"kaynasli","slug":"kaynasli-duzce"},"geometry":{"type":"Polygon","coordinates":[[[31.432743,40.81423],[31.432386,40.812997],[31.429221,40.806581],[31.425371,40.800849],[31.422377,40.796828],[31.417928,40.789471],[31.413651,40.784594],[31.409887,40.777494],[31.406978,40.770308],[31.405096,40.766886],[31.402444,40.756962],[31.39945,40.744386],[31.39868,40.739595],[31.396712,40.729415],[31.394744,40.722913],[31.393033,40.716069],[31.388585,40.70375],[31.385505,40.697933],[31.382682,40.69203],[31.380629,40.688693],[31.37849,40.685271],[31.372929,40.676631],[31.367369,40.670044],[31.363861,40.665681],[31.361722,40.663627],[31.357787,40.659778],[31.353595,40.657211],[31.351114,40.654302],[31.348719,40.65088],[31.346666,40.648827],[31.342645,40.646004],[31.338111,40.644721],[31.329812,40.643694],[31.324765,40.642411],[31.321429,40.641128],[31.317151,40.638989],[31.31082,40.635225],[31.307741,40.632744],[31.303292,40.631033],[31.296362,40.629664],[31.291572,40.629236],[31.286524,40.630691],[31.282076,40.632658],[31.277542,40.633685],[31.274376,40.633771],[31.271125,40.634027],[31.264367,40.633685],[31.259833,40.633685],[31.256069,40.633599],[31.257337,40.637109],[31.258292,40.640397],[31.261368,40.645382],[31.265186,40.651428],[31.269111,40.65652],[31.272187,40.661293],[31.273248,40.667445],[31.274202,40.673809],[31.275369,40.677098],[31.277597,40.681765],[31.2794,40.685477],[31.281521,40.689508],[31.282688,40.694175],[31.282688,40.696933],[31.280673,40.702237],[31.274945,40.713162],[31.269641,40.724512],[31.267732,40.726951],[31.264656,40.730133],[31.261049,40.733528],[31.258186,40.736922],[31.255958,40.741377],[31.253943,40.747423],[31.252246,40.753257],[31.249793,40.757791],[31.247327,40.761849],[31.241837,40.76877],[31.237303,40.774179],[31.234916,40.777282],[31.233405,40.779589],[31.233086,40.782771],[31.234946,40.789971],[31.235304,40.791462],[31.235364,40.792954],[31.235423,40.793849],[31.235423,40.795221],[31.235364,40.796176],[31.235543,40.797369],[31.236259,40.800352],[31.237213,40.801247],[31.238645,40.802023],[31.240614,40.80262],[31.242046,40.802918],[31.245447,40.80262],[31.247953,40.80262],[31.256843,40.802978],[31.264122,40.802978],[31.274146,40.804887],[31.281067,40.806379],[31.289301,40.808885],[31.294253,40.810734],[31.30195,40.813061],[31.315643,40.816913],[31.323598,40.819299],[31.331474,40.822322],[31.337122,40.824868],[31.343089,40.828687],[31.348817,40.831869],[31.352874,40.835051],[31.356533,40.839904],[31.359795,40.843325],[31.361307,40.845473],[31.365921,40.850166],[31.370217,40.856133],[31.37316,40.859713],[31.37683,40.865986],[31.379324,40.864299],[31.381084,40.862319],[31.382844,40.859165],[31.384384,40.855645],[31.387978,40.848384],[31.390839,40.843177],[31.394212,40.83929],[31.398319,40.835403],[31.400886,40.834083],[31.405727,40.832322],[31.408514,40.829975],[31.411888,40.825428],[31.413574,40.822495],[31.417168,40.820221],[31.421349,40.818094],[31.426336,40.816187],[31.432743,40.81423]]]}},{"type":"Feature","properties":{"id":"TR-D-81-008","parent_id":"TR-P-81","region_id":"TR-R-KAR","level":"district","municipality_type":null,"municipality_type_label":null,"is_metropolitan_municipality":null,"name":"Yığılca","name_ascii":"yigilca","slug":"yigilca-duzce"},"geometry":{"type":"Polygon","coordinates":[[[31.76928,41.019243],[31.76774,41.015749],[31.766457,41.013525],[31.765516,41.010873],[31.763121,41.007793],[31.760811,41.00497],[31.758587,41.002147],[31.757047,41.000179],[31.753026,40.993763],[31.751119,40.988606],[31.750281,40.988269],[31.750272,40.98829],[31.750203,40.988459],[31.748748,40.987774],[31.748224,40.987455],[31.746781,40.986577],[31.745155,40.985807],[31.743359,40.985379],[31.741306,40.984866],[31.739766,40.984524],[31.73814,40.984524],[31.736771,40.984438],[31.735745,40.984096],[31.73506,40.983583],[31.733948,40.983326],[31.732237,40.983155],[31.73104,40.982642],[31.73027,40.981957],[31.728901,40.981358],[31.727618,40.981273],[31.725479,40.981102],[31.725114,40.980965],[31.722741,40.980075],[31.721116,40.979818],[31.720175,40.979048],[31.718336,40.979177],[31.717352,40.978706],[31.717352,40.97768],[31.717009,40.976396],[31.716154,40.976225],[31.714186,40.976225],[31.71239,40.975541],[31.710251,40.974343],[31.707086,40.971948],[31.705033,40.970665],[31.703236,40.970066],[31.6999,40.969724],[31.697076,40.969638],[31.694681,40.969296],[31.6922,40.969296],[31.690404,40.968954],[31.68835,40.968184],[31.685613,40.966644],[31.683731,40.966473],[31.681934,40.965703],[31.680052,40.964419],[31.679282,40.963393],[31.678512,40.962452],[31.67663,40.96134],[31.675005,40.960826],[31.672524,40.960912],[31.670898,40.96057],[31.668931,40.960056],[31.667391,40.958431],[31.666535,40.957918],[31.665851,40.956806],[31.664653,40.955865],[31.662258,40.955437],[31.659349,40.955437],[31.656954,40.955095],[31.654131,40.955009],[31.652077,40.955266],[31.650709,40.955266],[31.649169,40.954838],[31.648313,40.953982],[31.646602,40.952956],[31.644121,40.951501],[31.641897,40.951074],[31.638988,40.950903],[31.637021,40.950903],[31.63531,40.950475],[31.632829,40.948764],[31.63069,40.947652],[31.629065,40.945513],[31.628295,40.943973],[31.627097,40.942262],[31.624958,40.939781],[31.624601,40.939554],[31.623076,40.938584],[31.62051,40.937386],[31.617858,40.935846],[31.615548,40.934648],[31.614241,40.933514],[31.61358,40.933023],[31.611441,40.930799],[31.609674,40.928862],[31.609645,40.928831],[31.608533,40.927034],[31.607561,40.924988],[31.606907,40.923612],[31.60571,40.920533],[31.605196,40.917795],[31.605367,40.915314],[31.606993,40.91232],[31.607677,40.910951],[31.607592,40.909582],[31.605624,40.907016],[31.603229,40.904963],[31.601175,40.904107],[31.599037,40.902482],[31.596299,40.901883],[31.594417,40.901883],[31.591936,40.901883],[31.58937,40.902139],[31.587744,40.900685],[31.58629,40.898546],[31.585178,40.895894],[31.583723,40.893242],[31.579275,40.890932],[31.572773,40.888965],[31.568923,40.887425],[31.564902,40.885971],[31.560368,40.884944],[31.553867,40.883746],[31.549247,40.88349],[31.545055,40.883062],[31.541376,40.88118],[31.534532,40.878955],[31.528202,40.878186],[31.523154,40.876817],[31.520417,40.87579],[31.517337,40.872283],[31.514599,40.869288],[31.513487,40.865353],[31.511862,40.858509],[31.508782,40.854403],[31.505274,40.850553],[31.500911,40.846447],[31.496035,40.843795],[31.491159,40.840886],[31.485427,40.838747],[31.478669,40.837892],[31.470199,40.836951],[31.46404,40.836437],[31.458479,40.835411],[31.452576,40.833272],[31.445475,40.829422],[31.439487,40.826257],[31.436749,40.824033],[31.435124,40.820696],[31.433327,40.816248],[31.432743,40.81423],[31.426336,40.816187],[31.421349,40.818094],[31.417168,40.820221],[31.413574,40.822495],[31.411888,40.825428],[31.408514,40.829975],[31.405727,40.832322],[31.400886,40.834083],[31.398319,40.835403],[31.394212,40.83929],[31.390839,40.843177],[31.387978,40.848384],[31.384384,40.855645],[31.382844,40.859165],[31.381084,40.862319],[31.379324,40.864299],[31.37683,40.865986],[31.375217,40.86672],[31.369056,40.868773],[31.365536,40.869433],[31.360182,40.87112],[31.355634,40.872514],[31.349254,40.874494],[31.340379,40.878308],[31.329671,40.883882],[31.322704,40.886522],[31.314783,40.888942],[31.310016,40.890629],[31.305909,40.892243],[31.298795,40.894076],[31.291094,40.896056],[31.287573,40.897303],[31.282806,40.899723],[31.279359,40.90251],[31.277452,40.904051],[31.276425,40.907131],[31.276352,40.910211],[31.276865,40.911752],[31.277012,40.913658],[31.276425,40.916519],[31.275178,40.920846],[31.273492,40.92466],[31.272025,40.927153],[31.271071,40.929427],[31.269751,40.933387],[31.269091,40.936981],[31.269311,40.938448],[31.268871,40.940575],[31.268724,40.941455],[31.269311,40.942775],[31.270191,40.944535],[31.270631,40.947102],[31.270998,40.948422],[31.271365,40.948936],[31.272612,40.949669],[31.275325,40.950989],[31.277012,40.952236],[31.277672,40.953116],[31.277672,40.95429],[31.277745,40.955537],[31.278112,40.95649],[31.278992,40.957223],[31.279506,40.95825],[31.279432,40.95957],[31.279579,40.964264],[31.279946,40.967491],[31.280092,40.972332],[31.279506,40.975779],[31.279139,40.978566],[31.278039,40.983626],[31.277525,40.990081],[31.27697,40.995169],[31.280121,40.997248],[31.285558,41.002685],[31.286831,41.004332],[31.287525,41.00523],[31.290128,41.007544],[31.292384,41.009742],[31.294582,41.011073],[31.297821,41.013213],[31.301928,41.015873],[31.305225,41.018765],[31.30833,41.020866],[31.309158,41.021426],[31.311703,41.02374],[31.312395,41.024522],[31.313496,41.025764],[31.315116,41.028425],[31.316163,41.029553],[31.317371,41.030854],[31.319743,41.033573],[31.325238,41.037795],[31.327031,41.039119],[31.327667,41.039589],[31.331658,41.042886],[31.334261,41.044042],[31.335106,41.044297],[31.337905,41.045141],[31.341491,41.046703],[31.344404,41.048016],[31.345598,41.048554],[31.348013,41.049291],[31.351093,41.050231],[31.353175,41.051215],[31.354051,41.051963],[31.355547,41.053239],[31.358497,41.055842],[31.359814,41.057249],[31.361042,41.058561],[31.361269,41.058966],[31.362893,41.061858],[31.363247,41.06232],[31.364397,41.063824],[31.364865,41.064397],[31.365438,41.065097],[31.367289,41.067295],[31.368793,41.068799],[31.371106,41.070245],[31.37246,41.071186],[31.37482,41.069416],[31.380888,41.066803],[31.387124,41.065371],[31.39926,41.062843],[31.402125,41.062505],[31.407123,41.061799],[31.410468,41.061326],[31.415862,41.060863],[31.422267,41.060314],[31.426902,41.06023],[31.429599,41.059472],[31.434993,41.057617],[31.439543,41.055595],[31.443926,41.053657],[31.448619,41.051208],[31.449741,41.050623],[31.451057,41.049759],[31.454881,41.047252],[31.457157,41.044892],[31.460528,41.040088],[31.462213,41.03697],[31.464742,41.032503],[31.467438,41.029217],[31.472748,41.024582],[31.475697,41.02239],[31.478731,41.020705],[31.48185,41.019862],[31.486822,41.019441],[31.490193,41.019694],[31.494659,41.019862],[31.494878,41.019962],[31.498705,41.021716],[31.501444,41.024064],[31.501654,41.024244],[31.502843,41.025172],[31.505868,41.027531],[31.509913,41.029891],[31.515138,41.031155],[31.519183,41.031612],[31.520363,41.031745],[31.53646,41.03343],[31.540536,41.033652],[31.544213,41.033852],[31.558624,41.035032],[31.563681,41.034947],[31.568653,41.035369],[31.578935,41.035622],[31.586014,41.035874],[31.593851,41.035706],[31.603796,41.036296],[31.623263,41.036296],[31.62891,41.036296],[31.639107,41.036127],[31.65158,41.035537],[31.656384,41.034863],[31.667004,41.033513],[31.670963,41.033009],[31.67366,41.03293],[31.679559,41.032756],[31.69397,41.032588],[31.712258,41.031661],[31.724984,41.029891],[31.744283,41.02475],[31.762655,41.020958],[31.76928,41.019243]]]}}]}