{"type":"FeatureCollection","province":"Gümüşhane","province_id":"TR-P-29","features":[{"type":"Feature","properties":{"id":"TR-D-29-001","parent_id":"TR-P-29","region_id":"TR-R-KAR","level":"district","municipality_type":null,"municipality_type_label":null,"is_metropolitan_municipality":null,"name":"Gümüşhane","name_ascii":"gumushane","slug":"gumushane-gumushane"},"geometry":{"type":"Polygon","coordinates":[[[40.116465,40.588421],[40.117512,40.585946],[40.11913,40.581758],[40.12132,40.578236],[40.123985,40.575952],[40.127887,40.574049],[40.128835,40.573844],[40.126847,40.570215],[40.124658,40.565646],[40.123325,40.561934],[40.122468,40.558793],[40.121707,40.555367],[40.121136,40.551084],[40.120374,40.54918],[40.118852,40.546896],[40.115425,40.545373],[40.111999,40.544326],[40.106954,40.542708],[40.102481,40.539662],[40.098959,40.537283],[40.097436,40.53576],[40.097151,40.533952],[40.097056,40.530906],[40.09658,40.529002],[40.094867,40.525576],[40.093629,40.523292],[40.090298,40.520246],[40.082874,40.515582],[40.078972,40.513298],[40.075355,40.511965],[40.070311,40.509681],[40.068122,40.508634],[40.063648,40.507778],[40.05927,40.507302],[40.053845,40.507207],[40.049181,40.50635],[40.045088,40.505493],[40.042804,40.504256],[40.04052,40.501401],[40.037664,40.498165],[40.034619,40.496642],[40.031097,40.495595],[40.026529,40.495404],[40.022721,40.4955],[40.018058,40.495595],[40.012157,40.494738],[40.008825,40.493786],[40.002639,40.49293],[39.998736,40.492359],[39.996452,40.492359],[39.991884,40.49293],[39.985887,40.494072],[39.983603,40.494072],[39.977131,40.493215],[39.970944,40.491121],[39.963711,40.488742],[39.958381,40.486077],[39.951718,40.484078],[39.946674,40.482746],[39.944009,40.481604],[39.940773,40.480747],[39.93687,40.480461],[39.932587,40.4797],[39.928875,40.477511],[39.925068,40.474656],[39.92326,40.472847],[39.921547,40.470372],[39.920309,40.467993],[39.919358,40.466185],[39.917549,40.464376],[39.913742,40.462949],[39.911961,40.4628],[39.911793,40.462786],[39.911458,40.462758],[39.906794,40.462092],[39.903177,40.461616],[39.901274,40.461045],[39.897371,40.458666],[39.894231,40.455334],[39.891946,40.452955],[39.890328,40.451432],[39.887663,40.448672],[39.884713,40.447339],[39.882048,40.446197],[39.876432,40.443723],[39.871007,40.438773],[39.870341,40.43706],[39.869103,40.434109],[39.868723,40.431825],[39.868342,40.430398],[39.867295,40.425543],[39.865296,40.420309],[39.864916,40.416501],[39.864916,40.414408],[39.865201,40.4106],[39.866343,40.406222],[39.867295,40.402415],[39.868723,40.399274],[39.870246,40.395848],[39.872054,40.392326],[39.872435,40.3889],[39.872435,40.387377],[39.871673,40.383665],[39.870721,40.38119],[39.869484,40.378335],[39.868628,40.376527],[39.867771,40.375289],[39.866248,40.373481],[39.864249,40.372148],[39.862822,40.371006],[39.861489,40.369579],[39.860061,40.366818],[39.859014,40.363677],[39.857587,40.361488],[39.854922,40.358538],[39.8514,40.355016],[39.847688,40.352066],[39.842168,40.346545],[39.837219,40.344356],[39.833031,40.342929],[39.829414,40.341596],[39.826844,40.340359],[39.825892,40.339217],[39.824274,40.336742],[39.822085,40.332744],[39.820372,40.328747],[39.818088,40.323893],[39.817993,40.319705],[39.817897,40.315517],[39.818468,40.312186],[39.820087,40.307998],[39.821419,40.304191],[39.812243,40.304851],[39.80815,40.305136],[39.805295,40.305898],[39.802534,40.306278],[39.799108,40.306849],[39.79492,40.30742],[39.791113,40.30742],[39.785117,40.307135],[39.781786,40.30704],[39.774933,40.30704],[39.767223,40.307706],[39.763131,40.308753],[39.759133,40.3098],[39.75485,40.311037],[39.750091,40.311608],[39.745523,40.311989],[39.742667,40.311513],[39.737528,40.310752],[39.734006,40.30999],[39.730865,40.3098],[39.727153,40.309419],[39.723156,40.308753],[39.715732,40.306183],[39.712591,40.305517],[39.709069,40.304565],[39.702597,40.300663],[39.696125,40.296951],[39.692984,40.295428],[39.68832,40.292858],[39.684513,40.290193],[39.680135,40.288194],[39.676328,40.286576],[39.672521,40.283531],[39.668333,40.280485],[39.662717,40.276202],[39.659672,40.274108],[39.656721,40.271729],[39.654151,40.269539],[39.650534,40.267826],[39.648631,40.266494],[39.645871,40.265637],[39.641588,40.266494],[39.637305,40.267446],[39.632641,40.269349],[39.628453,40.271729],[39.623218,40.274774],[39.620268,40.276202],[39.617317,40.276583],[39.613129,40.276963],[39.60799,40.27782],[39.602279,40.278772],[39.592476,40.279724],[39.590001,40.279724],[39.587241,40.278867],[39.58391,40.277534],[39.582196,40.276202],[39.579151,40.274298],[39.574963,40.27249],[39.57087,40.27249],[39.565921,40.27249],[39.562399,40.271824],[39.557545,40.270111],[39.553833,40.268207],[39.550692,40.26697],[39.548218,40.266399],[39.543078,40.264495],[39.541079,40.263829],[39.538129,40.262782],[39.533084,40.25907],[39.53061,40.258213],[39.527374,40.257071],[39.524423,40.257071],[39.522615,40.257642],[39.515952,40.260783],[39.513192,40.26202],[39.509575,40.264114],[39.507005,40.265352],[39.503103,40.267065],[39.496441,40.268397],[39.492253,40.269254],[39.487113,40.269539],[39.484353,40.269635],[39.478452,40.269159],[39.470647,40.268588],[39.462938,40.268492],[39.459035,40.268968],[39.454657,40.270682],[39.448851,40.273822],[39.443997,40.277439],[39.439905,40.281342],[39.436002,40.284673],[39.432766,40.286196],[39.429054,40.287147],[39.425723,40.288194],[39.422011,40.289146],[39.419156,40.289432],[39.416491,40.289527],[39.412588,40.288575],[39.409828,40.287814],[39.406878,40.286576],[39.403737,40.28591],[39.400881,40.285149],[39.39736,40.283911],[39.3946,40.282674],[39.39222,40.282389],[39.388413,40.28315],[39.386224,40.284292],[39.382798,40.285339],[39.378229,40.286481],[39.373946,40.287719],[39.368426,40.290098],[39.366236,40.29124],[39.362905,40.292858],[39.360526,40.293715],[39.355196,40.294],[39.350342,40.294286],[39.344917,40.294286],[39.339682,40.294191],[39.334352,40.293144],[39.330925,40.292477],[39.327213,40.292287],[39.324919,40.292205],[39.321883,40.292097],[39.318076,40.292287],[39.314079,40.292763],[39.307797,40.294857],[39.302372,40.296189],[39.300278,40.297046],[39.294948,40.298664],[39.292092,40.299616],[39.287238,40.300282],[39.284573,40.300472],[39.283267,40.302735],[39.281583,40.305683],[39.279562,40.308377],[39.277372,40.310904],[39.275183,40.313935],[39.274004,40.31562],[39.271057,40.318483],[39.268109,40.320757],[39.265499,40.322778],[39.264067,40.324462],[39.263562,40.325894],[39.262299,40.328925],[39.261962,40.331452],[39.261288,40.335325],[39.261035,40.337852],[39.261204,40.339115],[39.262299,40.340799],[39.263477,40.342904],[39.264235,40.345431],[39.264909,40.34762],[39.265667,40.350483],[39.266256,40.352505],[39.266762,40.355031],[39.267688,40.357136],[39.269709,40.359157],[39.272151,40.360673],[39.27552,40.361936],[39.280488,40.363368],[39.283857,40.364631],[39.287225,40.36581],[39.289667,40.367831],[39.292278,40.3696],[39.294552,40.371705],[39.297162,40.373558],[39.299436,40.37541],[39.30112,40.377516],[39.302552,40.379958],[39.302973,40.383326],[39.303478,40.386611],[39.303647,40.388379],[39.304236,40.389979],[39.304826,40.390905],[39.306341,40.392505],[39.307099,40.394105],[39.308699,40.397137],[39.311057,40.399242],[39.312742,40.401769],[39.315436,40.404969],[39.316868,40.407074],[39.317542,40.409348],[39.3183,40.411285],[39.319058,40.413558],[39.319984,40.415411],[39.321584,40.41718],[39.323437,40.41878],[39.325963,40.421137],[39.330005,40.425264],[39.330763,40.427032],[39.331708,40.429136],[39.33215,40.430962],[39.332698,40.432476],[39.333945,40.432825],[39.335033,40.433162],[39.336657,40.433691],[39.337732,40.434058],[39.338803,40.434443],[39.339404,40.434677],[39.340057,40.434947],[39.340729,40.43524],[39.341389,40.435546],[39.342005,40.435853],[39.342514,40.436126],[39.342942,40.436369],[39.343269,40.436566],[39.343549,40.436748],[39.344343,40.437752],[39.344607,40.43807],[39.344996,40.438522],[39.345416,40.438985],[39.345854,40.439438],[39.346308,40.439869],[39.346743,40.44025],[39.347143,40.440574],[39.347949,40.441197],[39.349987,40.442742],[39.350783,40.443371],[39.351169,40.443693],[39.351543,40.444022],[39.3519,40.44436],[39.352221,40.444693],[39.352527,40.445034],[39.352822,40.445382],[39.35339,40.44609],[39.354212,40.44717],[39.355014,40.448261],[39.355578,40.449045],[39.359215,40.45416],[39.360034,40.455343],[39.360294,40.455739],[39.360543,40.456144],[39.360779,40.45661],[39.360983,40.457133],[39.361135,40.45769],[39.36122,40.458232],[39.361255,40.458758],[39.361254,40.459245],[39.361231,40.459666],[39.361199,40.459998],[39.361158,40.460293],[39.360344,40.462658],[39.359816,40.465349],[39.359311,40.467959],[39.357627,40.470486],[39.356279,40.471917],[39.351142,40.474696],[39.348616,40.475623],[39.344321,40.476802],[39.341795,40.478402],[39.339521,40.480928],[39.336742,40.483791],[39.334468,40.485476],[39.331437,40.486991],[39.329668,40.488507],[39.328152,40.490107],[39.327984,40.492044],[39.327731,40.494149],[39.3279,40.495581],[39.328742,40.497097],[39.328742,40.498192],[39.328321,40.499792],[39.328152,40.501139],[39.326637,40.503329],[39.325037,40.50636],[39.323437,40.508297],[39.322173,40.510571],[39.322426,40.511918],[39.323605,40.513518],[39.325205,40.516381],[39.326384,40.518234],[39.3279,40.520845],[39.328573,40.523034],[39.329921,40.525308],[39.331352,40.527666],[39.333037,40.528929],[39.336321,40.532466],[39.338679,40.53415],[39.341121,40.53575],[39.345921,40.537771],[39.350384,40.539287],[39.354932,40.540887],[39.358385,40.542403],[39.361332,40.544003],[39.36369,40.545098],[39.365206,40.546361],[39.368574,40.54914],[39.372448,40.55234],[39.375648,40.553687],[39.37868,40.553519],[39.381375,40.552593],[39.385248,40.550235],[39.387185,40.548719],[39.390301,40.546614],[39.39687,40.542487],[39.400743,40.540635],[39.40428,40.539034],[39.407817,40.537771],[39.411607,40.536508],[39.41607,40.536087],[39.419775,40.535919],[39.423817,40.535329],[39.428112,40.534655],[39.433165,40.533982],[39.435439,40.533561],[39.438218,40.532971],[39.440744,40.532887],[39.44487,40.533055],[39.448576,40.533729],[39.451944,40.534319],[39.454555,40.53474],[39.457081,40.53575],[39.462976,40.538613],[39.466934,40.540719],[39.469545,40.542235],[39.472155,40.544171],[39.474429,40.545098],[39.476871,40.545519],[39.479397,40.546614],[39.480745,40.547961],[39.482008,40.548972],[39.483608,40.549898],[39.48605,40.551077],[39.490513,40.552845],[39.493545,40.554024],[39.49624,40.554951],[39.498429,40.556298],[39.499524,40.558235],[39.500535,40.560088],[39.503566,40.564382],[39.504914,40.566235],[39.507777,40.568761],[39.509882,40.570782],[39.513335,40.572298],[39.516367,40.573646],[39.518977,40.574151],[39.521756,40.574319],[39.523777,40.57474],[39.52563,40.576172],[39.527651,40.577604],[39.530346,40.578362],[39.533125,40.579877],[39.536999,40.58173],[39.538767,40.582993],[39.540451,40.58392],[39.541799,40.584425],[39.543651,40.585435],[39.545336,40.58712],[39.546009,40.588635],[39.546178,40.591078],[39.546093,40.593267],[39.546093,40.596299],[39.546178,40.598236],[39.547525,40.601688],[39.547862,40.605057],[39.548283,40.607415],[39.548451,40.610194],[39.548788,40.612383],[39.549041,40.61491],[39.549234,40.618243],[39.552755,40.618719],[39.556087,40.618433],[39.56056,40.617767],[39.567793,40.61653],[39.576264,40.614531],[39.582165,40.613579],[39.591778,40.610819],[39.595205,40.609011],[39.598822,40.607298],[39.602058,40.606155],[39.607293,40.60568],[39.61148,40.605584],[39.617667,40.605013],[39.626328,40.605394],[39.633276,40.60606],[39.638416,40.607488],[39.648505,40.610724],[39.654311,40.612405],[39.665351,40.612786],[39.674489,40.615451],[39.684133,40.617609],[39.693143,40.62205],[39.697966,40.626492],[39.705073,40.632583],[39.709641,40.635756],[39.718651,40.640832],[39.723981,40.647304],[39.731976,40.656314],[39.739971,40.664056],[39.744223,40.669988],[39.746221,40.67332],[39.749553,40.677508],[39.754026,40.685598],[39.755358,40.689786],[39.75869,40.693973],[39.762021,40.698256],[39.767541,40.703872],[39.769635,40.705871],[39.774299,40.707869],[39.778772,40.709317],[39.780771,40.709963],[39.789528,40.712438],[39.792933,40.713337],[39.794572,40.713771],[39.79895,40.715097],[39.800854,40.715674],[39.802032,40.716033],[39.807421,40.717673],[39.815416,40.72148],[39.821507,40.724145],[39.828455,40.724906],[39.833119,40.724811],[39.834399,40.724585],[39.839591,40.723669],[39.846539,40.720052],[39.849548,40.716465],[39.851489,40.714151],[39.851869,40.708536],[39.851298,40.701588],[39.850918,40.691784],[39.851108,40.686645],[39.851108,40.678745],[39.849585,40.66837],[39.849492,40.66818],[39.845873,40.660756],[39.840924,40.651048],[39.840258,40.639151],[39.840258,40.631917],[39.84159,40.624588],[39.845302,40.616784],[39.850822,40.610883],[39.857199,40.60698],[39.862212,40.606303],[39.864243,40.606029],[39.867467,40.606576],[39.869287,40.606885],[39.875378,40.607551],[39.875603,40.607677],[39.879281,40.60974],[39.882694,40.612412],[39.883659,40.613167],[39.88489,40.614264],[39.888037,40.617069],[39.890463,40.620164],[39.890797,40.620591],[39.891606,40.620995],[39.894033,40.622209],[39.89508,40.622209],[39.90003,40.621828],[39.90555,40.619449],[39.909548,40.615832],[39.91096,40.61312],[39.911927,40.611263],[39.914402,40.605172],[39.915258,40.59889],[39.9164,40.588992],[39.917162,40.581092],[39.917923,40.576809],[39.920208,40.57205],[39.921826,40.567291],[39.924966,40.563864],[39.934104,40.556821],[39.938577,40.553204],[39.947333,40.548255],[39.956661,40.544448],[39.966274,40.539975],[39.970652,40.539023],[39.979408,40.539784],[39.984355,40.541598],[39.987975,40.542925],[39.993769,40.54474],[39.997397,40.545876],[40.006154,40.54835],[40.011484,40.551301],[40.018812,40.554632],[40.02297,40.557423],[40.02576,40.559296],[40.029853,40.562627],[40.031221,40.563531],[40.035469,40.566339],[40.039276,40.570146],[40.040132,40.57481],[40.040037,40.579283],[40.038609,40.583281],[40.036135,40.587088],[40.033279,40.589753],[40.028616,40.592989],[40.024786,40.595346],[40.022429,40.596796],[40.02024,40.597764],[40.01748,40.598985],[40.008057,40.602602],[39.99892,40.609455],[39.99378,40.615737],[39.989117,40.621638],[39.985024,40.626397],[39.983216,40.631917],[39.982958,40.635067],[39.982835,40.636581],[39.98297,40.638098],[39.983216,40.640864],[39.985024,40.643529],[39.985725,40.644005],[39.987689,40.645337],[39.988926,40.646099],[39.995779,40.647812],[40.001966,40.648478],[40.008723,40.648859],[40.014402,40.649017],[40.015576,40.649049],[40.023095,40.650858],[40.031566,40.651809],[40.035659,40.652095],[40.039181,40.651809],[40.042417,40.650001],[40.045082,40.647146],[40.047842,40.642292],[40.049365,40.635915],[40.051078,40.632012],[40.053933,40.626206],[40.05498,40.622685],[40.054409,40.618592],[40.054409,40.61469],[40.05498,40.61193],[40.056217,40.609074],[40.059549,40.607361],[40.064212,40.606124],[40.070685,40.605267],[40.076871,40.604886],[40.08401,40.603744],[40.090291,40.602412],[40.096764,40.600603],[40.103331,40.597653],[40.10809,40.595178],[40.110564,40.593941],[40.11342,40.591561],[40.116465,40.588421]]]}},{"type":"Feature","properties":{"id":"TR-D-29-002","parent_id":"TR-P-29","region_id":"TR-R-KAR","level":"district","municipality_type":null,"municipality_type_label":null,"is_metropolitan_municipality":null,"name":"Kelkit","name_ascii":"kelkit","slug":"kelkit-gumushane"},"geometry":{"type":"Polygon","coordinates":[[[39.155463,39.996692],[39.158072,40.001607],[39.160451,40.004558],[39.161974,40.007508],[39.164068,40.010744],[39.166067,40.01398],[39.168637,40.018549],[39.169113,40.020548],[39.170445,40.022642],[39.172254,40.025878],[39.173967,40.027876],[39.175109,40.02997],[39.175966,40.032064],[39.176346,40.034253],[39.176537,40.037109],[39.176632,40.039869],[39.176251,40.041677],[39.176061,40.045199],[39.175299,40.049863],[39.175109,40.053004],[39.174633,40.055383],[39.174062,40.057572],[39.172158,40.060523],[39.170445,40.062902],[39.167685,40.066424],[39.166733,40.068422],[39.166448,40.071087],[39.16759,40.073752],[39.170636,40.076227],[39.173491,40.077845],[39.178726,40.079368],[39.183961,40.08032],[39.187387,40.08032],[39.191194,40.080034],[39.195001,40.078797],[39.197,40.07756],[39.199094,40.07537],[39.201664,40.072705],[39.203662,40.070707],[39.206803,40.068137],[39.210706,40.065948],[39.213847,40.064901],[39.217654,40.06471],[39.220224,40.065282],[39.222508,40.066709],[39.224507,40.068898],[39.225744,40.070516],[39.227362,40.07242],[39.229456,40.074609],[39.233453,40.0807],[39.234786,40.083841],[39.235262,40.086316],[39.236499,40.088695],[39.238212,40.090885],[39.240021,40.092883],[39.242495,40.095168],[39.244589,40.097071],[39.245827,40.09888],[39.246493,40.100878],[39.246683,40.104781],[39.247254,40.106875],[39.248111,40.109635],[39.249634,40.11249],[39.251157,40.114965],[39.252775,40.118106],[39.254297,40.123626],[39.254488,40.126386],[39.254678,40.129813],[39.254773,40.133429],[39.254773,40.137522],[39.254773,40.140377],[39.254964,40.144375],[39.255154,40.14723],[39.25582,40.150942],[39.257058,40.157509],[39.25858,40.163886],[39.259151,40.166266],[39.259247,40.168455],[39.259342,40.172262],[39.259342,40.175593],[39.258771,40.178449],[39.25858,40.181114],[39.258961,40.182732],[39.260103,40.186539],[39.262578,40.191678],[39.265053,40.195962],[39.265528,40.19796],[39.266385,40.20072],[39.267337,40.204052],[39.267527,40.206526],[39.268193,40.208906],[39.269526,40.210714],[39.271049,40.212808],[39.273999,40.21395],[39.277711,40.214521],[39.286087,40.215759],[39.292749,40.216139],[39.297413,40.216806],[39.301696,40.217567],[39.304932,40.218804],[39.30893,40.219185],[39.315307,40.219566],[39.318352,40.220327],[39.320446,40.221374],[39.322636,40.222707],[39.324539,40.224515],[39.325586,40.226133],[39.326728,40.228322],[39.327585,40.2327],[39.327966,40.236127],[39.328822,40.243456],[39.328822,40.244883],[39.329298,40.248405],[39.33044,40.251641],[39.331677,40.254211],[39.332439,40.255829],[39.3332,40.257352],[39.334152,40.260017],[39.334914,40.26173],[39.334914,40.262682],[39.335009,40.263824],[39.334628,40.264776],[39.333105,40.266489],[39.332534,40.267631],[39.331963,40.269534],[39.331297,40.271248],[39.330059,40.273151],[39.328917,40.274198],[39.327299,40.27496],[39.325396,40.276102],[39.323016,40.27791],[39.321208,40.280004],[39.319875,40.281432],[39.319495,40.282574],[39.319875,40.28324],[39.321303,40.284668],[39.321493,40.286],[39.321874,40.287142],[39.322636,40.288189],[39.323587,40.288856],[39.324444,40.289617],[39.324825,40.290854],[39.324919,40.292205],[39.327213,40.292287],[39.330925,40.292477],[39.334352,40.293144],[39.339682,40.294191],[39.344917,40.294286],[39.350342,40.294286],[39.355196,40.294],[39.360526,40.293715],[39.362905,40.292858],[39.366236,40.29124],[39.368426,40.290098],[39.373946,40.287719],[39.378229,40.286481],[39.382798,40.285339],[39.386224,40.284292],[39.388413,40.28315],[39.39222,40.282389],[39.3946,40.282674],[39.39736,40.283911],[39.400881,40.285149],[39.403737,40.28591],[39.406878,40.286576],[39.409828,40.287814],[39.412588,40.288575],[39.416491,40.289527],[39.419156,40.289432],[39.422011,40.289146],[39.425723,40.288194],[39.429054,40.287147],[39.432766,40.286196],[39.436002,40.284673],[39.439905,40.281342],[39.443997,40.277439],[39.448851,40.273822],[39.454657,40.270682],[39.459035,40.268968],[39.462938,40.268492],[39.470647,40.268588],[39.478452,40.269159],[39.484353,40.269635],[39.487113,40.269539],[39.492253,40.269254],[39.496441,40.268397],[39.503103,40.267065],[39.507005,40.265352],[39.509575,40.264114],[39.513192,40.26202],[39.515952,40.260783],[39.522615,40.257642],[39.524423,40.257071],[39.525445,40.255465],[39.526944,40.254323],[39.528943,40.253038],[39.531299,40.251682],[39.532798,40.250469],[39.533297,40.249398],[39.533226,40.247256],[39.532726,40.244972],[39.533012,40.243402],[39.533583,40.241974],[39.534011,40.240475],[39.533654,40.238547],[39.532584,40.237263],[39.531299,40.235763],[39.530085,40.233336],[39.528872,40.231909],[39.527301,40.230767],[39.52623,40.229767],[39.523875,40.226769],[39.523375,40.225484],[39.52209,40.222272],[39.521733,40.218774],[39.521947,40.217061],[39.522447,40.214634],[39.523518,40.21235],[39.524874,40.210565],[39.526944,40.208495],[39.530371,40.206853],[39.534297,40.205854],[39.537866,40.205925],[39.543006,40.205854],[39.546361,40.205996],[39.549502,40.206211],[39.552357,40.206282],[39.556569,40.204212],[39.560423,40.201071],[39.563207,40.197573],[39.565706,40.193861],[39.567133,40.190649],[39.568847,40.186294],[39.571845,40.181298],[39.572987,40.180441],[39.574629,40.17937],[39.578412,40.177372],[39.583837,40.176015],[39.589833,40.175301],[39.59483,40.175016],[39.600398,40.17366],[39.60618,40.172232],[39.611606,40.17009],[39.618244,40.168092],[39.623955,40.165379],[39.628738,40.16181],[39.632878,40.158241],[39.635091,40.155457],[39.63609,40.154671],[39.637589,40.154029],[39.640587,40.153315],[39.647726,40.151459],[39.651366,40.150317],[39.654436,40.149318],[39.65879,40.146605],[39.664572,40.142822],[39.666571,40.140894],[39.670997,40.137468],[39.67321,40.13497],[39.67578,40.132043],[39.67687,40.130438],[39.676367,40.13011],[39.670561,40.12754],[39.666183,40.123257],[39.662566,40.11726],[39.660092,40.110503],[39.658283,40.105839],[39.657712,40.103364],[39.657522,40.100604],[39.657331,40.097273],[39.657236,40.094418],[39.65657,40.092324],[39.655999,40.090801],[39.654952,40.089088],[39.654095,40.08747],[39.653144,40.084424],[39.652763,40.08233],[39.652192,40.080331],[39.651526,40.077666],[39.651526,40.07443],[39.651906,40.072812],[39.653429,40.070623],[39.65676,40.067006],[39.65952,40.064627],[39.662757,40.061486],[39.665707,40.054252],[39.667515,40.049113],[39.668753,40.045686],[39.669419,40.04207],[39.669514,40.0395],[39.66999,40.035883],[39.669705,40.032932],[39.670085,40.026936],[39.670561,40.023224],[39.672179,40.019512],[39.674654,40.016752],[39.677224,40.014277],[39.682554,40.009518],[39.68836,40.006568],[39.692072,40.005045],[39.697592,40.002475],[39.701113,40.000286],[39.70473,39.996669],[39.706919,39.994766],[39.710726,39.992957],[39.714534,39.990959],[39.719959,39.989721],[39.723861,39.98896],[39.741374,39.984106],[39.748417,39.982107],[39.750701,39.980775],[39.753271,39.978205],[39.754699,39.976016],[39.757174,39.97316],[39.760124,39.97021],[39.761361,39.969353],[39.765073,39.968592],[39.7685,39.96745],[39.770974,39.966593],[39.771831,39.965546],[39.776114,39.960597],[39.779731,39.955076],[39.783252,39.950222],[39.784966,39.948128],[39.786489,39.945463],[39.787631,39.943084],[39.788011,39.940514],[39.788582,39.93842],[39.788678,39.934899],[39.788868,39.930996],[39.789534,39.927951],[39.7902,39.926237],[39.791653,39.922992],[39.790218,39.922718],[39.787744,39.922528],[39.785079,39.922623],[39.782318,39.922623],[39.778416,39.921481],[39.771944,39.917769],[39.768518,39.915866],[39.762331,39.911963],[39.757572,39.908918],[39.753955,39.906443],[39.751671,39.905491],[39.746341,39.904349],[39.74339,39.904063],[39.738727,39.903968],[39.734729,39.903968],[39.731017,39.903968],[39.726829,39.904063],[39.723213,39.904063],[39.719691,39.903968],[39.714742,39.903397],[39.712838,39.902541],[39.709983,39.899971],[39.706842,39.897115],[39.704367,39.895307],[39.701607,39.892832],[39.698561,39.891214],[39.691994,39.889311],[39.687235,39.888264],[39.68438,39.887598],[39.681144,39.886741],[39.676956,39.88598],[39.674672,39.885884],[39.671816,39.885408],[39.670389,39.884837],[39.669056,39.883315],[39.665725,39.880935],[39.662013,39.879031],[39.65516,39.876462],[39.649164,39.874368],[39.643548,39.873035],[39.639551,39.871988],[39.636315,39.870656],[39.628034,39.865421],[39.62318,39.861138],[39.616518,39.855237],[39.610331,39.852286],[39.606143,39.850192],[39.602907,39.848479],[39.600432,39.847718],[39.597863,39.847052],[39.595769,39.84629],[39.593294,39.845148],[39.590534,39.844387],[39.585965,39.843815],[39.585294,39.843883],[39.582158,39.844196],[39.578732,39.845243],[39.57502,39.847147],[39.57245,39.848479],[39.568738,39.851144],[39.56455,39.854475],[39.560267,39.85714],[39.556936,39.859044],[39.551415,39.862185],[39.545419,39.865992],[39.541993,39.868752],[39.539518,39.869799],[39.535997,39.87037],[39.530762,39.872179],[39.527621,39.87313],[39.522196,39.875224],[39.516675,39.876747],[39.512012,39.877033],[39.505825,39.876366],[39.504207,39.875891],[39.496688,39.871227],[39.488503,39.868086],[39.480317,39.865802],[39.474321,39.864755],[39.46842,39.86466],[39.464327,39.864755],[39.459283,39.865516],[39.456142,39.866849],[39.453287,39.869133],[39.451002,39.871893],[39.447576,39.874653],[39.44472,39.875605],[39.434156,39.877889],[39.41788,39.881982],[39.409124,39.88379],[39.404079,39.885123],[39.39894,39.886741],[39.393039,39.889406],[39.386852,39.892452],[39.378571,39.89683],[39.372766,39.89959],[39.369244,39.900923],[39.365056,39.902731],[39.357632,39.904539],[39.349352,39.906157],[39.334028,39.909203],[39.33003,39.909489],[39.314421,39.912439],[39.306902,39.913772],[39.299002,39.916627],[39.296052,39.917769],[39.290531,39.919863],[39.286058,39.921576],[39.277111,39.925288],[39.271591,39.926906],[39.264072,39.929095],[39.261216,39.929476],[39.257409,39.929857],[39.250271,39.930237],[39.240277,39.931189],[39.2339,39.932046],[39.230759,39.933093],[39.226762,39.93433],[39.222764,39.935187],[39.219148,39.935853],[39.216578,39.936519],[39.214484,39.936614],[39.209439,39.9369],[39.205537,39.937281],[39.201444,39.938042],[39.200812,39.938372],[39.199255,39.939184],[39.195258,39.943277],[39.192593,39.946323],[39.190404,39.949844],[39.18831,39.954318],[39.186311,39.958696],[39.185454,39.962789],[39.184407,39.96612],[39.182885,39.968499],[39.181552,39.970593],[39.180505,39.97164],[39.178697,39.973544],[39.175461,39.975733],[39.17232,39.978207],[39.169274,39.981539],[39.16718,39.984204],[39.16461,39.98744],[39.164039,39.988772],[39.161565,39.991913],[39.157567,39.99534],[39.155463,39.996692]]]}},{"type":"Feature","properties":{"id":"TR-D-29-003","parent_id":"TR-P-29","region_id":"TR-R-KAR","level":"district","municipality_type":null,"municipality_type_label":null,"is_metropolitan_municipality":null,"name":"Köse","name_ascii":"kose","slug":"kose-gumushane"},"geometry":{"type":"Polygon","coordinates":[[[39.821419,40.304191],[39.822085,40.301621],[39.822276,40.299527],[39.823227,40.296672],[39.825036,40.294483],[39.826463,40.292198],[39.827035,40.290295],[39.826939,40.286773],[39.826749,40.28487],[39.826368,40.281919],[39.825988,40.278207],[39.826463,40.275637],[39.827796,40.274495],[39.830366,40.271735],[39.831984,40.269451],[39.832269,40.266976],[39.832269,40.262598],[39.832365,40.25822],[39.83284,40.252985],[39.833126,40.246132],[39.833316,40.2369],[39.833221,40.22881],[39.83246,40.221291],[39.831698,40.215961],[39.829795,40.21025],[39.827891,40.204158],[39.826463,40.200351],[39.825417,40.197781],[39.823894,40.194165],[39.8218,40.190738],[39.819706,40.187978],[39.817231,40.185408],[39.815042,40.182838],[39.811996,40.179126],[39.809427,40.175319],[39.807713,40.171227],[39.80619,40.167515],[39.804572,40.165135],[39.802098,40.161899],[39.799433,40.160567],[39.797434,40.159996],[39.791533,40.159329],[39.786584,40.158378],[39.780873,40.157426],[39.770118,40.156284],[39.764217,40.155332],[39.759363,40.155046],[39.751748,40.154856],[39.7448,40.154856],[39.738709,40.154856],[39.734331,40.154856],[39.730619,40.152952],[39.725574,40.151334],[39.721862,40.149336],[39.717294,40.146766],[39.713296,40.1461],[39.706253,40.146004],[39.700162,40.145909],[39.695212,40.145909],[39.689787,40.145528],[39.686266,40.144957],[39.684457,40.144006],[39.68341,40.142959],[39.681792,40.137724],[39.681412,40.135535],[39.680269,40.133441],[39.678556,40.131537],[39.67687,40.130438],[39.67578,40.132043],[39.67321,40.13497],[39.670997,40.137468],[39.666571,40.140894],[39.664572,40.142822],[39.65879,40.146605],[39.654436,40.149318],[39.651366,40.150317],[39.647726,40.151459],[39.640587,40.153315],[39.637589,40.154029],[39.63609,40.154671],[39.635091,40.155457],[39.632878,40.158241],[39.628738,40.16181],[39.623955,40.165379],[39.618244,40.168092],[39.611606,40.17009],[39.60618,40.172232],[39.600398,40.17366],[39.59483,40.175016],[39.589833,40.175301],[39.583837,40.176015],[39.578412,40.177372],[39.574629,40.17937],[39.572987,40.180441],[39.571845,40.181298],[39.568847,40.186294],[39.567133,40.190649],[39.565706,40.193861],[39.563207,40.197573],[39.560423,40.201071],[39.556569,40.204212],[39.552357,40.206282],[39.549502,40.206211],[39.546361,40.205996],[39.543006,40.205854],[39.537866,40.205925],[39.534297,40.205854],[39.530371,40.206853],[39.526944,40.208495],[39.524874,40.210565],[39.523518,40.21235],[39.522447,40.214634],[39.521947,40.217061],[39.521733,40.218774],[39.52209,40.222272],[39.523375,40.225484],[39.523875,40.226769],[39.52623,40.229767],[39.527301,40.230767],[39.528872,40.231909],[39.530085,40.233336],[39.531299,40.235763],[39.532584,40.237263],[39.533654,40.238547],[39.534011,40.240475],[39.533583,40.241974],[39.533012,40.243402],[39.532726,40.244972],[39.533226,40.247256],[39.533297,40.249398],[39.532798,40.250469],[39.531299,40.251682],[39.528943,40.253038],[39.526944,40.254323],[39.525445,40.255465],[39.524423,40.257071],[39.527374,40.257071],[39.53061,40.258213],[39.533084,40.25907],[39.538129,40.262782],[39.541079,40.263829],[39.543078,40.264495],[39.548218,40.266399],[39.550692,40.26697],[39.553833,40.268207],[39.557545,40.270111],[39.562399,40.271824],[39.565921,40.27249],[39.57087,40.27249],[39.574963,40.27249],[39.579151,40.274298],[39.582196,40.276202],[39.58391,40.277534],[39.587241,40.278867],[39.590001,40.279724],[39.592476,40.279724],[39.602279,40.278772],[39.60799,40.27782],[39.613129,40.276963],[39.617317,40.276583],[39.620268,40.276202],[39.623218,40.274774],[39.628453,40.271729],[39.632641,40.269349],[39.637305,40.267446],[39.641588,40.266494],[39.645871,40.265637],[39.648631,40.266494],[39.650534,40.267826],[39.654151,40.269539],[39.656721,40.271729],[39.659672,40.274108],[39.662717,40.276202],[39.668333,40.280485],[39.672521,40.283531],[39.676328,40.286576],[39.680135,40.288194],[39.684513,40.290193],[39.68832,40.292858],[39.692984,40.295428],[39.696125,40.296951],[39.702597,40.300663],[39.709069,40.304565],[39.712591,40.305517],[39.715732,40.306183],[39.723156,40.308753],[39.727153,40.309419],[39.730865,40.3098],[39.734006,40.30999],[39.737528,40.310752],[39.742667,40.311513],[39.745523,40.311989],[39.750091,40.311608],[39.75485,40.311037],[39.759133,40.3098],[39.763131,40.308753],[39.767223,40.307706],[39.774933,40.30704],[39.781786,40.30704],[39.785117,40.307135],[39.791113,40.30742],[39.79492,40.30742],[39.799108,40.306849],[39.802534,40.306278],[39.805295,40.305898],[39.80815,40.305136],[39.812243,40.304851],[39.821419,40.304191]]]}},{"type":"Feature","properties":{"id":"TR-D-29-004","parent_id":"TR-P-29","region_id":"TR-R-KAR","level":"district","municipality_type":null,"municipality_type_label":null,"is_metropolitan_municipality":null,"name":"Kürtün","name_ascii":"kurtun","slug":"kurtun-gumushane"},"geometry":{"type":"Polygon","coordinates":[[[39.135779,40.810028],[39.141109,40.80841],[39.145392,40.807839],[39.150246,40.806411],[39.156052,40.804031],[39.161191,40.802223],[39.167473,40.799844],[39.170614,40.798511],[39.173755,40.798321],[39.177086,40.798321],[39.183082,40.798987],[39.186604,40.798416],[39.191172,40.796703],[39.192505,40.795751],[39.195646,40.793467],[39.199263,40.790897],[39.201642,40.78985],[39.210208,40.787661],[39.21649,40.785472],[39.222201,40.782616],[39.225246,40.779856],[39.228102,40.775859],[39.228805,40.774335],[39.229244,40.773384],[39.229815,40.771195],[39.231243,40.768339],[39.234479,40.765389],[39.241427,40.761487],[39.245139,40.758441],[39.247423,40.756061],[39.248851,40.753777],[39.250754,40.751207],[39.253134,40.748638],[39.257036,40.746258],[39.261319,40.743117],[39.264079,40.740928],[39.265631,40.739094],[39.266173,40.738453],[39.266744,40.73636],[39.267696,40.733599],[39.269314,40.730839],[39.271122,40.728174],[39.27274,40.725509],[39.276643,40.722273],[39.279212,40.721321],[39.284447,40.719989],[39.289492,40.71799],[39.292728,40.716658],[39.295678,40.714849],[39.299771,40.711708],[39.309384,40.702286],[39.311573,40.698954],[39.313762,40.69667],[39.316998,40.694195],[39.322138,40.692292],[39.327373,40.691245],[39.333466,40.690122],[39.331926,40.688471],[39.330641,40.687615],[39.329,40.686758],[39.327001,40.68533],[39.325002,40.683474],[39.323217,40.682189],[39.320933,40.680619],[39.318435,40.679548],[39.316936,40.678834],[39.315579,40.678763],[39.313438,40.679263],[39.311154,40.679691],[39.307941,40.679905],[39.304158,40.680262],[39.300803,40.680119],[39.297662,40.678477],[39.295378,40.677192],[39.290024,40.675194],[39.288097,40.674765],[39.284456,40.673623],[39.280887,40.672981],[39.277389,40.672053],[39.273986,40.67072],[39.268561,40.669198],[39.264373,40.667865],[39.257616,40.66539],[39.249526,40.663487],[39.238485,40.661964],[39.231537,40.660441],[39.225826,40.658823],[39.220782,40.656919],[39.217736,40.655873],[39.216308,40.654921],[39.213167,40.651589],[39.209551,40.648639],[39.202222,40.64407],[39.197844,40.640644],[39.193561,40.637027],[39.190039,40.634743],[39.184899,40.631126],[39.181473,40.628461],[39.180807,40.626558],[39.180902,40.624844],[39.181187,40.623131],[39.180997,40.621703],[39.179855,40.618563],[39.178998,40.615707],[39.178713,40.612947],[39.178713,40.610472],[39.178713,40.608093],[39.178618,40.606189],[39.178427,40.604667],[39.177475,40.603524],[39.175096,40.603144],[39.171384,40.603144],[39.167101,40.603144],[39.16377,40.604],[39.15882,40.605047],[39.155299,40.606285],[39.15073,40.607236],[39.149017,40.608664],[39.14816,40.610853],[39.146733,40.61209],[39.141212,40.61466],[39.138452,40.614946],[39.135216,40.61447],[39.132266,40.61447],[39.127031,40.61447],[39.119892,40.614375],[39.114753,40.613423],[39.111326,40.612471],[39.10771,40.61171],[39.104378,40.610758],[39.1,40.610568],[39.096193,40.610377],[39.090578,40.609997],[39.087722,40.609425],[39.085914,40.608474],[39.083249,40.606285],[39.082297,40.604667],[39.081821,40.602192],[39.08106,40.599337],[39.079822,40.596767],[39.078585,40.594387],[39.076586,40.592293],[39.075063,40.589533],[39.074492,40.588105],[39.074112,40.586012],[39.074016,40.584108],[39.074016,40.5823],[39.074016,40.580491],[39.073541,40.578302],[39.073065,40.576303],[39.072779,40.574781],[39.072779,40.573734],[39.073445,40.57202],[39.073921,40.570212],[39.074397,40.567737],[39.074397,40.565739],[39.073921,40.564596],[39.073445,40.563454],[39.071161,40.561265],[39.069258,40.559362],[39.06764,40.556887],[39.066212,40.555269],[39.064213,40.550986],[39.06269,40.548131],[39.061548,40.546322],[39.059264,40.543181],[39.05736,40.540802],[39.055933,40.538803],[39.054695,40.536138],[39.052411,40.534234],[39.050698,40.532807],[39.049746,40.530808],[39.049556,40.527286],[39.04946,40.52405],[39.04927,40.521861],[39.049651,40.519958],[39.049936,40.518149],[39.050127,40.51596],[39.049365,40.514247],[39.048318,40.512343],[39.046891,40.51025],[39.045273,40.508156],[39.041846,40.504824],[39.039467,40.500541],[39.0388,40.497591],[39.039276,40.49464],[39.040894,40.491404],[39.042227,40.488263],[39.042227,40.485789],[39.042322,40.483124],[39.042037,40.48103],[39.04099,40.478745],[39.038515,40.475319],[39.036992,40.472844],[39.035469,40.470465],[39.034232,40.468847],[39.032519,40.46761],[39.027665,40.465135],[39.02538,40.464469],[39.020241,40.463327],[39.015291,40.461328],[39.011484,40.46009],[39.009105,40.458187],[39.005107,40.45457],[39.000919,40.45181],[38.995625,40.448981],[38.991818,40.453835],[38.987154,40.459165],[38.984775,40.461544],[38.981158,40.46459],[38.976875,40.46735],[38.973068,40.469444],[38.969546,40.470396],[38.963169,40.472395],[38.956983,40.474393],[38.951177,40.475821],[38.945181,40.47763],[38.941183,40.479533],[38.938328,40.481151],[38.935758,40.482579],[38.932712,40.483531],[38.929191,40.483911],[38.925479,40.483626],[38.921672,40.482674],[38.919673,40.482198],[38.917198,40.481627],[38.915295,40.481817],[38.91282,40.482579],[38.910916,40.484006],[38.908442,40.486291],[38.905491,40.48829],[38.901684,40.490383],[38.898258,40.492858],[38.896545,40.494476],[38.895498,40.496285],[38.894546,40.498188],[38.893023,40.500187],[38.890929,40.501995],[38.887407,40.502947],[38.881506,40.503613],[38.877985,40.504375],[38.874368,40.505993],[38.87037,40.506945],[38.868086,40.50723],[38.863994,40.507611],[38.858854,40.508087],[38.854856,40.508658],[38.850954,40.509038],[38.847242,40.508467],[38.844006,40.506945],[38.839913,40.505231],[38.836297,40.50447],[38.833061,40.504375],[38.829253,40.505041],[38.825827,40.506469],[38.821068,40.509134],[38.819069,40.509895],[38.815833,40.511703],[38.811169,40.513797],[38.803841,40.517129],[38.800319,40.519508],[38.798701,40.521983],[38.796893,40.524553],[38.79518,40.527027],[38.793371,40.530644],[38.792324,40.534641],[38.791277,40.53902],[38.790325,40.541114],[38.789945,40.54435],[38.789945,40.546919],[38.789945,40.550156],[38.789945,40.554058],[38.791563,40.558722],[38.794133,40.56348],[38.796322,40.567002],[38.79666,40.567961],[38.797464,40.570238],[38.799082,40.575092],[38.799653,40.576805],[38.799653,40.578614],[38.799272,40.580327],[38.798796,40.581755],[38.798511,40.582802],[38.798416,40.585086],[38.798225,40.587275],[38.79794,40.589179],[38.79794,40.592034],[38.798035,40.593176],[38.799367,40.594889],[38.80327,40.597269],[38.807553,40.601171],[38.811455,40.603931],[38.814215,40.605835],[38.818308,40.60831],[38.820116,40.609547],[38.821163,40.611165],[38.822591,40.612117],[38.825066,40.613068],[38.828587,40.61402],[38.832394,40.615353],[38.83525,40.616685],[38.838391,40.617732],[38.841246,40.618684],[38.844387,40.620397],[38.846005,40.623157],[38.84591,40.625156],[38.845434,40.628107],[38.844387,40.630296],[38.842578,40.633056],[38.840484,40.634864],[38.83801,40.636673],[38.835535,40.638481],[38.833536,40.640575],[38.832204,40.642288],[38.832204,40.644001],[38.833251,40.645619],[38.835916,40.647047],[38.838105,40.648284],[38.84096,40.650283],[38.842674,40.652282],[38.844482,40.654471],[38.846671,40.657326],[38.847908,40.659991],[38.849431,40.662847],[38.850383,40.665607],[38.851716,40.669224],[38.853619,40.671794],[38.856474,40.67522],[38.860662,40.679693],[38.863137,40.681692],[38.866183,40.683881],[38.868467,40.685404],[38.873131,40.686641],[38.879317,40.688164],[38.882744,40.689402],[38.887693,40.690639],[38.894927,40.693114],[38.898258,40.695493],[38.8994,40.697206],[38.89959,40.700062],[38.8994,40.70187],[38.899495,40.704345],[38.899781,40.707676],[38.899781,40.710436],[38.89959,40.712435],[38.898543,40.714814],[38.897401,40.71786],[38.89664,40.721667],[38.895117,40.726426],[38.895022,40.72852],[38.895022,40.73109],[38.895022,40.732993],[38.895137,40.734075],[38.895498,40.737467],[38.896925,40.741274],[38.898734,40.743463],[38.900923,40.744986],[38.903017,40.745747],[38.905777,40.745747],[38.908347,40.745842],[38.911868,40.746985],[38.913962,40.748222],[38.915485,40.749745],[38.916818,40.752315],[38.917579,40.754028],[38.918531,40.756122],[38.919768,40.758311],[38.92091,40.759929],[38.922433,40.760595],[38.925003,40.760881],[38.929857,40.760881],[38.935282,40.760881],[38.941564,40.761547],[38.945561,40.761928],[38.949654,40.762308],[38.954794,40.76307],[38.960504,40.763546],[38.966215,40.764021],[38.97126,40.763641],[38.977066,40.761928],[38.983062,40.760214],[38.988677,40.759263],[38.99296,40.758406],[38.995816,40.758406],[38.999147,40.758596],[39.002383,40.759358],[39.005619,40.760024],[39.007903,40.761642],[39.009997,40.76326],[39.012091,40.765354],[39.013519,40.766972],[39.015993,40.768114],[39.01942,40.769447],[39.022846,40.770018],[39.028081,40.771255],[39.032364,40.772683],[39.035124,40.773634],[39.037504,40.775919],[39.039978,40.77944],[39.042643,40.783343],[39.044737,40.78734],[39.047212,40.791242],[39.051305,40.796287],[39.05435,40.798762],[39.056064,40.800094],[39.056861,40.800379],[39.058729,40.801046],[39.061394,40.801998],[39.065867,40.802283],[39.068151,40.802093],[39.072054,40.801236],[39.076717,40.800189],[39.080334,40.799904],[39.085188,40.799713],[39.092231,40.799237],[39.10194,40.798762],[39.105556,40.799047],[39.109459,40.799523],[39.112885,40.800665],[39.115931,40.801522],[39.121166,40.803045],[39.124973,40.804663],[39.130779,40.806852],[39.134681,40.809136],[39.135779,40.810028]]]}},{"type":"Feature","properties":{"id":"TR-D-29-005","parent_id":"TR-P-29","region_id":"TR-R-KAR","level":"district","municipality_type":null,"municipality_type_label":null,"is_metropolitan_municipality":null,"name":"Şiran","name_ascii":"siran","slug":"siran-gumushane"},"geometry":{"type":"Polygon","coordinates":[[[39.324919,40.292205],[39.324825,40.290854],[39.324444,40.289617],[39.323587,40.288856],[39.322636,40.288189],[39.321874,40.287142],[39.321493,40.286],[39.321303,40.284668],[39.319875,40.28324],[39.319495,40.282574],[39.319875,40.281432],[39.321208,40.280004],[39.323016,40.27791],[39.325396,40.276102],[39.327299,40.27496],[39.328917,40.274198],[39.330059,40.273151],[39.331297,40.271248],[39.331963,40.269534],[39.332534,40.267631],[39.333105,40.266489],[39.334628,40.264776],[39.335009,40.263824],[39.334914,40.262682],[39.334914,40.26173],[39.334152,40.260017],[39.3332,40.257352],[39.332439,40.255829],[39.331677,40.254211],[39.33044,40.251641],[39.329298,40.248405],[39.328822,40.244883],[39.328822,40.243456],[39.327966,40.236127],[39.327585,40.2327],[39.326728,40.228322],[39.325586,40.226133],[39.324539,40.224515],[39.322636,40.222707],[39.320446,40.221374],[39.318352,40.220327],[39.315307,40.219566],[39.30893,40.219185],[39.304932,40.218804],[39.301696,40.217567],[39.297413,40.216806],[39.292749,40.216139],[39.286087,40.215759],[39.277711,40.214521],[39.273999,40.21395],[39.271049,40.212808],[39.269526,40.210714],[39.268193,40.208906],[39.267527,40.206526],[39.267337,40.204052],[39.266385,40.20072],[39.265528,40.19796],[39.265053,40.195962],[39.262578,40.191678],[39.260103,40.186539],[39.258961,40.182732],[39.25858,40.181114],[39.258771,40.178449],[39.259342,40.175593],[39.259342,40.172262],[39.259247,40.168455],[39.259151,40.166266],[39.25858,40.163886],[39.257058,40.157509],[39.25582,40.150942],[39.255154,40.14723],[39.254964,40.144375],[39.254773,40.140377],[39.254773,40.137522],[39.254773,40.133429],[39.254678,40.129813],[39.254488,40.126386],[39.254297,40.123626],[39.252775,40.118106],[39.251157,40.114965],[39.249634,40.11249],[39.248111,40.109635],[39.247254,40.106875],[39.246683,40.104781],[39.246493,40.100878],[39.245827,40.09888],[39.244589,40.097071],[39.242495,40.095168],[39.240021,40.092883],[39.238212,40.090885],[39.236499,40.088695],[39.235262,40.086316],[39.234786,40.083841],[39.233453,40.0807],[39.229456,40.074609],[39.227362,40.07242],[39.225744,40.070516],[39.224507,40.068898],[39.222508,40.066709],[39.220224,40.065282],[39.217654,40.06471],[39.213847,40.064901],[39.210706,40.065948],[39.206803,40.068137],[39.203662,40.070707],[39.201664,40.072705],[39.199094,40.07537],[39.197,40.07756],[39.195001,40.078797],[39.191194,40.080034],[39.187387,40.08032],[39.183961,40.08032],[39.178726,40.079368],[39.173491,40.077845],[39.170636,40.076227],[39.16759,40.073752],[39.166448,40.071087],[39.166733,40.068422],[39.167685,40.066424],[39.170445,40.062902],[39.172158,40.060523],[39.174062,40.057572],[39.174633,40.055383],[39.175109,40.053004],[39.175299,40.049863],[39.176061,40.045199],[39.176251,40.041677],[39.176632,40.039869],[39.176537,40.037109],[39.176346,40.034253],[39.175966,40.032064],[39.175109,40.02997],[39.173967,40.027876],[39.172254,40.025878],[39.170445,40.022642],[39.169113,40.020548],[39.168637,40.018549],[39.166067,40.01398],[39.164068,40.010744],[39.161974,40.007508],[39.160451,40.004558],[39.158072,40.001607],[39.155463,39.996692],[39.15357,39.997909],[39.14843,40.000003],[39.144432,40.001431],[39.14034,40.002097],[39.136913,40.002097],[39.133011,40.002097],[39.130251,40.001716],[39.126634,40.001621],[39.121399,40.002002],[39.116831,40.002478],[39.112072,40.002668],[39.105409,40.002478],[39.100175,40.002478],[39.095511,40.002288],[39.091608,40.002478],[39.085231,40.00381],[39.078474,40.005333],[39.072668,40.007903],[39.069813,40.009807],[39.065434,40.013804],[39.060866,40.017706],[39.055726,40.020752],[39.050872,40.023322],[39.044876,40.025987],[39.040402,40.028081],[39.032312,40.032174],[39.025935,40.036171],[39.024127,40.037408],[39.021462,40.039978],[39.01775,40.043119],[39.013848,40.04607],[39.010326,40.047973],[39.00709,40.049877],[39.003283,40.051495],[38.994526,40.055968],[38.989387,40.058062],[38.986056,40.058919],[38.98301,40.05968],[38.976157,40.061013],[38.972064,40.061013],[38.967591,40.061108],[38.964069,40.060822],[38.962065,40.060508],[38.961551,40.065031],[38.961361,40.068267],[38.959743,40.07274],[38.959267,40.076548],[38.959172,40.079308],[38.959838,40.084257],[38.960029,40.088445],[38.9606,40.091491],[38.961361,40.097201],[38.962027,40.099105],[38.962884,40.101389],[38.964216,40.104054],[38.965073,40.105958],[38.965168,40.107956],[38.964978,40.110336],[38.963741,40.113001],[38.962218,40.11538],[38.960314,40.11757],[38.958411,40.119663],[38.957078,40.121472],[38.954984,40.123185],[38.95032,40.125374],[38.940327,40.12842],[38.936519,40.12861],[38.932046,40.129372],[38.925764,40.131561],[38.922052,40.133559],[38.918721,40.135558],[38.915866,40.136986],[38.91263,40.137843],[38.908061,40.140032],[38.904254,40.140508],[38.899495,40.142316],[38.89388,40.143934],[38.887407,40.146028],[38.880555,40.150501],[38.877794,40.152881],[38.875891,40.154308],[38.873702,40.155926],[38.87294,40.156593],[38.87037,40.159258],[38.868467,40.160876],[38.866944,40.162589],[38.865421,40.164683],[38.863994,40.167157],[38.863708,40.169632],[38.864089,40.171345],[38.864279,40.173154],[38.864565,40.175057],[38.864565,40.176675],[38.864755,40.177437],[38.865421,40.178103],[38.866754,40.179531],[38.868752,40.181434],[38.870656,40.183814],[38.872274,40.185622],[38.875129,40.187621],[38.878365,40.189239],[38.881506,40.191523],[38.884267,40.193903],[38.885789,40.19495],[38.88707,40.196538],[38.888169,40.1979],[38.888645,40.20028],[38.889501,40.202564],[38.890739,40.206752],[38.891119,40.209512],[38.892928,40.213224],[38.894641,40.21903],[38.896449,40.223598],[38.89921,40.22969],[38.901779,40.232735],[38.904254,40.235115],[38.906633,40.237209],[38.910441,40.239874],[38.913677,40.241397],[38.916818,40.242634],[38.922623,40.244728],[38.928239,40.24825],[38.930809,40.250534],[38.935473,40.255293],[38.93947,40.260908],[38.941278,40.26443],[38.94223,40.267095],[38.943182,40.269284],[38.944895,40.271759],[38.947751,40.273853],[38.950035,40.275471],[38.952224,40.27785],[38.954889,40.281086],[38.956221,40.283656],[38.957839,40.285369],[38.960219,40.286702],[38.961932,40.287368],[38.966025,40.289652],[38.969832,40.291841],[38.974781,40.296124],[38.97954,40.300788],[38.983918,40.304881],[38.987535,40.307641],[38.989819,40.310211],[38.992009,40.313066],[38.996482,40.317064],[38.999718,40.320395],[39.002193,40.323536],[39.004572,40.327057],[39.006571,40.331245],[39.008855,40.336004],[39.011139,40.338098],[39.012472,40.33905],[39.017612,40.341334],[39.02218,40.342857],[39.027891,40.344094],[39.033411,40.344665],[39.037504,40.344951],[39.041216,40.345522],[39.045118,40.346474],[39.050448,40.347521],[39.052637,40.348092],[39.056349,40.348092],[39.05949,40.347997],[39.063488,40.347806],[39.065391,40.348092],[39.069198,40.349139],[39.073957,40.351137],[39.076813,40.353041],[39.07824,40.354659],[39.079192,40.356563],[39.080144,40.358847],[39.080524,40.360179],[39.084794,40.361101],[39.088696,40.361767],[39.092884,40.362053],[39.097357,40.361863],[39.101069,40.361767],[39.105923,40.361577],[39.109445,40.360816],[39.11192,40.360054],[39.114299,40.359673],[39.116774,40.359959],[39.118392,40.360911],[39.12258,40.362814],[39.126958,40.36329],[39.134477,40.363576],[39.139997,40.363766],[39.145994,40.364242],[39.151799,40.365479],[39.155036,40.366526],[39.157605,40.366621],[39.160937,40.36567],[39.164077,40.363956],[39.166076,40.362338],[39.170359,40.359673],[39.17331,40.356818],[39.17588,40.354343],[39.177117,40.351869],[39.177688,40.349299],[39.178449,40.345873],[39.179211,40.343208],[39.180353,40.340543],[39.181114,40.337973],[39.182161,40.33645],[39.184065,40.333975],[39.186444,40.331405],[39.188919,40.329407],[39.192155,40.326932],[39.194059,40.324933],[39.195296,40.323315],[39.197961,40.320841],[39.201007,40.317414],[39.206337,40.31275],[39.208431,40.309895],[39.209192,40.306849],[39.209002,40.30209],[39.209192,40.299045],[39.21081,40.296475],[39.214903,40.293429],[39.220138,40.292382],[39.226324,40.29143],[39.232035,40.290955],[39.238507,40.290574],[39.250595,40.290574],[39.256401,40.290384],[39.261159,40.290098],[39.264015,40.289527],[39.266299,40.289527],[39.268393,40.290003],[39.269821,40.29105],[39.271629,40.293239],[39.273342,40.295333],[39.27477,40.29657],[39.278196,40.29914],[39.281718,40.300472],[39.284573,40.300472],[39.287238,40.300282],[39.292092,40.299616],[39.294948,40.298664],[39.300278,40.297046],[39.302372,40.296189],[39.307797,40.294857],[39.314079,40.292763],[39.318076,40.292287],[39.321883,40.292097],[39.324919,40.292205]]]}},{"type":"Feature","properties":{"id":"TR-D-29-006","parent_id":"TR-P-29","region_id":"TR-R-KAR","level":"district","municipality_type":null,"municipality_type_label":null,"is_metropolitan_municipality":null,"name":"Torul","name_ascii":"torul","slug":"torul-gumushane"},"geometry":{"type":"Polygon","coordinates":[[[39.333466,40.690122],[39.334606,40.689912],[39.337938,40.68839],[39.342982,40.686105],[39.345933,40.684773],[39.349644,40.68325],[39.352309,40.682108],[39.356593,40.680585],[39.359924,40.679728],[39.362018,40.679348],[39.366301,40.678491],[39.369822,40.67811],[39.375247,40.677063],[39.378959,40.675541],[39.38448,40.673637],[39.388572,40.671829],[39.39276,40.670115],[39.396948,40.668497],[39.401802,40.66707],[39.406371,40.665737],[39.411225,40.663643],[39.416745,40.661549],[39.421409,40.658408],[39.427405,40.653078],[39.429785,40.648891],[39.430832,40.646701],[39.431688,40.644036],[39.433402,40.641371],[39.435686,40.638421],[39.438351,40.635851],[39.441397,40.633091],[39.44311,40.632044],[39.44606,40.631473],[39.449582,40.631092],[39.452342,40.629855],[39.454721,40.627761],[39.460527,40.622907],[39.462145,40.62167],[39.465001,40.620527],[39.46995,40.619671],[39.472329,40.61948],[39.47528,40.61948],[39.478611,40.618624],[39.479944,40.618053],[39.482323,40.617196],[39.486987,40.615007],[39.490413,40.613579],[39.493078,40.613103],[39.497266,40.613484],[39.500502,40.613579],[39.504976,40.613579],[39.510401,40.61396],[39.514779,40.614246],[39.518206,40.615197],[39.523631,40.615959],[39.527628,40.616244],[39.533149,40.616054],[39.537146,40.615768],[39.540858,40.615864],[39.543523,40.616054],[39.546093,40.617196],[39.549234,40.618243],[39.549041,40.61491],[39.548788,40.612383],[39.548451,40.610194],[39.548283,40.607415],[39.547862,40.605057],[39.547525,40.601688],[39.546178,40.598236],[39.546093,40.596299],[39.546093,40.593267],[39.546178,40.591078],[39.546009,40.588635],[39.545336,40.58712],[39.543651,40.585435],[39.541799,40.584425],[39.540451,40.58392],[39.538767,40.582993],[39.536999,40.58173],[39.533125,40.579877],[39.530346,40.578362],[39.527651,40.577604],[39.52563,40.576172],[39.523777,40.57474],[39.521756,40.574319],[39.518977,40.574151],[39.516367,40.573646],[39.513335,40.572298],[39.509882,40.570782],[39.507777,40.568761],[39.504914,40.566235],[39.503566,40.564382],[39.500535,40.560088],[39.499524,40.558235],[39.498429,40.556298],[39.49624,40.554951],[39.493545,40.554024],[39.490513,40.552845],[39.48605,40.551077],[39.483608,40.549898],[39.482008,40.548972],[39.480745,40.547961],[39.479397,40.546614],[39.476871,40.545519],[39.474429,40.545098],[39.472155,40.544171],[39.469545,40.542235],[39.466934,40.540719],[39.462976,40.538613],[39.457081,40.53575],[39.454555,40.53474],[39.451944,40.534319],[39.448576,40.533729],[39.44487,40.533055],[39.440744,40.532887],[39.438218,40.532971],[39.435439,40.533561],[39.433165,40.533982],[39.428112,40.534655],[39.423817,40.535329],[39.419775,40.535919],[39.41607,40.536087],[39.411607,40.536508],[39.407817,40.537771],[39.40428,40.539034],[39.400743,40.540635],[39.39687,40.542487],[39.390301,40.546614],[39.387185,40.548719],[39.385248,40.550235],[39.381375,40.552593],[39.37868,40.553519],[39.375648,40.553687],[39.372448,40.55234],[39.368574,40.54914],[39.365206,40.546361],[39.36369,40.545098],[39.361332,40.544003],[39.358385,40.542403],[39.354932,40.540887],[39.350384,40.539287],[39.345921,40.537771],[39.341121,40.53575],[39.338679,40.53415],[39.336321,40.532466],[39.333037,40.528929],[39.331352,40.527666],[39.329921,40.525308],[39.328573,40.523034],[39.3279,40.520845],[39.326384,40.518234],[39.325205,40.516381],[39.323605,40.513518],[39.322426,40.511918],[39.322173,40.510571],[39.323437,40.508297],[39.325037,40.50636],[39.326637,40.503329],[39.328152,40.501139],[39.328321,40.499792],[39.328742,40.498192],[39.328742,40.497097],[39.3279,40.495581],[39.327731,40.494149],[39.327984,40.492044],[39.328152,40.490107],[39.329668,40.488507],[39.331437,40.486991],[39.334468,40.485476],[39.336742,40.483791],[39.339521,40.480928],[39.341795,40.478402],[39.344321,40.476802],[39.348616,40.475623],[39.351142,40.474696],[39.356279,40.471917],[39.357627,40.470486],[39.359311,40.467959],[39.359816,40.465349],[39.360344,40.462658],[39.361158,40.460293],[39.361199,40.459998],[39.361231,40.459666],[39.361254,40.459245],[39.361255,40.458758],[39.36122,40.458232],[39.361135,40.45769],[39.360983,40.457133],[39.360779,40.45661],[39.360543,40.456144],[39.360294,40.455739],[39.360034,40.455343],[39.359215,40.45416],[39.355578,40.449045],[39.355014,40.448261],[39.354212,40.44717],[39.35339,40.44609],[39.352822,40.445382],[39.352527,40.445034],[39.352221,40.444693],[39.3519,40.44436],[39.351543,40.444022],[39.351169,40.443693],[39.350783,40.443371],[39.349987,40.442742],[39.347949,40.441197],[39.347143,40.440574],[39.346743,40.44025],[39.346308,40.439869],[39.345854,40.439438],[39.345416,40.438985],[39.344996,40.438522],[39.344607,40.43807],[39.344343,40.437752],[39.343549,40.436748],[39.343269,40.436566],[39.342942,40.436369],[39.342514,40.436126],[39.342005,40.435853],[39.341389,40.435546],[39.340729,40.43524],[39.340057,40.434947],[39.339404,40.434677],[39.338803,40.434443],[39.337732,40.434058],[39.336657,40.433691],[39.335033,40.433162],[39.333945,40.432825],[39.332698,40.432476],[39.33215,40.430962],[39.331708,40.429136],[39.330763,40.427032],[39.330005,40.425264],[39.325963,40.421137],[39.323437,40.41878],[39.321584,40.41718],[39.319984,40.415411],[39.319058,40.413558],[39.3183,40.411285],[39.317542,40.409348],[39.316868,40.407074],[39.315436,40.404969],[39.312742,40.401769],[39.311057,40.399242],[39.308699,40.397137],[39.307099,40.394105],[39.306341,40.392505],[39.304826,40.390905],[39.304236,40.389979],[39.303647,40.388379],[39.303478,40.386611],[39.302973,40.383326],[39.302552,40.379958],[39.30112,40.377516],[39.299436,40.37541],[39.297162,40.373558],[39.294552,40.371705],[39.292278,40.3696],[39.289667,40.367831],[39.287225,40.36581],[39.283857,40.364631],[39.280488,40.363368],[39.27552,40.361936],[39.272151,40.360673],[39.269709,40.359157],[39.267688,40.357136],[39.266762,40.355031],[39.266256,40.352505],[39.265667,40.350483],[39.264909,40.34762],[39.264235,40.345431],[39.263477,40.342904],[39.262299,40.340799],[39.261204,40.339115],[39.261035,40.337852],[39.261288,40.335325],[39.261962,40.331452],[39.262299,40.328925],[39.263562,40.325894],[39.264067,40.324462],[39.265499,40.322778],[39.268109,40.320757],[39.271057,40.318483],[39.274004,40.31562],[39.275183,40.313935],[39.277372,40.310904],[39.279562,40.308377],[39.281583,40.305683],[39.283267,40.302735],[39.284573,40.300472],[39.281718,40.300472],[39.278196,40.29914],[39.27477,40.29657],[39.273342,40.295333],[39.271629,40.293239],[39.269821,40.29105],[39.268393,40.290003],[39.266299,40.289527],[39.264015,40.289527],[39.261159,40.290098],[39.256401,40.290384],[39.250595,40.290574],[39.238507,40.290574],[39.232035,40.290955],[39.226324,40.29143],[39.220138,40.292382],[39.214903,40.293429],[39.21081,40.296475],[39.209192,40.299045],[39.209002,40.30209],[39.209192,40.306849],[39.208431,40.309895],[39.206337,40.31275],[39.201007,40.317414],[39.197961,40.320841],[39.195296,40.323315],[39.194059,40.324933],[39.192155,40.326932],[39.188919,40.329407],[39.186444,40.331405],[39.184065,40.333975],[39.182161,40.33645],[39.181114,40.337973],[39.180353,40.340543],[39.179211,40.343208],[39.178449,40.345873],[39.177688,40.349299],[39.177117,40.351869],[39.17588,40.354343],[39.17331,40.356818],[39.170359,40.359673],[39.166076,40.362338],[39.164077,40.363956],[39.160937,40.36567],[39.157605,40.366621],[39.155036,40.366526],[39.151799,40.365479],[39.145994,40.364242],[39.139997,40.363766],[39.134477,40.363576],[39.126958,40.36329],[39.12258,40.362814],[39.118392,40.360911],[39.116774,40.359959],[39.114299,40.359673],[39.11192,40.360054],[39.109445,40.360816],[39.105923,40.361577],[39.101069,40.361767],[39.097357,40.361863],[39.092884,40.362053],[39.088696,40.361767],[39.084794,40.361101],[39.080524,40.360179],[39.080144,40.361321],[39.079192,40.362178],[39.078526,40.363701],[39.078145,40.365509],[39.077859,40.368079],[39.077479,40.371125],[39.075956,40.374551],[39.075099,40.376074],[39.073576,40.378073],[39.072529,40.379501],[39.072054,40.381119],[39.07015,40.383974],[39.067771,40.386353],[39.065677,40.387686],[39.062916,40.388828],[39.060347,40.389399],[39.057015,40.390161],[39.054255,40.390732],[39.05159,40.392064],[39.049306,40.394063],[39.047117,40.396918],[39.04607,40.398631],[39.043786,40.401296],[39.042263,40.403866],[39.040264,40.406055],[39.038551,40.407769],[39.035981,40.411005],[39.032555,40.41662],[39.029318,40.420427],[39.026368,40.42452],[39.023513,40.427756],[39.020086,40.431849],[39.016755,40.43518],[39.014471,40.436798],[39.01133,40.439558],[39.007047,40.442414],[39.002097,40.444507],[38.997529,40.447458],[38.995625,40.448981],[39.000919,40.45181],[39.005107,40.45457],[39.009105,40.458187],[39.011484,40.46009],[39.015291,40.461328],[39.020241,40.463327],[39.02538,40.464469],[39.027665,40.465135],[39.032519,40.46761],[39.034232,40.468847],[39.035469,40.470465],[39.036992,40.472844],[39.038515,40.475319],[39.04099,40.478745],[39.042037,40.48103],[39.042322,40.483124],[39.042227,40.485789],[39.042227,40.488263],[39.040894,40.491404],[39.039276,40.49464],[39.0388,40.497591],[39.039467,40.500541],[39.041846,40.504824],[39.045273,40.508156],[39.046891,40.51025],[39.048318,40.512343],[39.049365,40.514247],[39.050127,40.51596],[39.049936,40.518149],[39.049651,40.519958],[39.04927,40.521861],[39.04946,40.52405],[39.049556,40.527286],[39.049746,40.530808],[39.050698,40.532807],[39.052411,40.534234],[39.054695,40.536138],[39.055933,40.538803],[39.05736,40.540802],[39.059264,40.543181],[39.061548,40.546322],[39.06269,40.548131],[39.064213,40.550986],[39.066212,40.555269],[39.06764,40.556887],[39.069258,40.559362],[39.071161,40.561265],[39.073445,40.563454],[39.073921,40.564596],[39.074397,40.565739],[39.074397,40.567737],[39.073921,40.570212],[39.073445,40.57202],[39.072779,40.573734],[39.072779,40.574781],[39.073065,40.576303],[39.073541,40.578302],[39.074016,40.580491],[39.074016,40.5823],[39.074016,40.584108],[39.074112,40.586012],[39.074492,40.588105],[39.075063,40.589533],[39.076586,40.592293],[39.078585,40.594387],[39.079822,40.596767],[39.08106,40.599337],[39.081821,40.602192],[39.082297,40.604667],[39.083249,40.606285],[39.085914,40.608474],[39.087722,40.609425],[39.090578,40.609997],[39.096193,40.610377],[39.1,40.610568],[39.104378,40.610758],[39.10771,40.61171],[39.111326,40.612471],[39.114753,40.613423],[39.119892,40.614375],[39.127031,40.61447],[39.132266,40.61447],[39.135216,40.61447],[39.138452,40.614946],[39.141212,40.61466],[39.146733,40.61209],[39.14816,40.610853],[39.149017,40.608664],[39.15073,40.607236],[39.155299,40.606285],[39.15882,40.605047],[39.16377,40.604],[39.167101,40.603144],[39.171384,40.603144],[39.175096,40.603144],[39.177475,40.603524],[39.178427,40.604667],[39.178618,40.606189],[39.178713,40.608093],[39.178713,40.610472],[39.178713,40.612947],[39.178998,40.615707],[39.179855,40.618563],[39.180997,40.621703],[39.181187,40.623131],[39.180902,40.624844],[39.180807,40.626558],[39.181473,40.628461],[39.184899,40.631126],[39.190039,40.634743],[39.193561,40.637027],[39.197844,40.640644],[39.202222,40.64407],[39.209551,40.648639],[39.213167,40.651589],[39.216308,40.654921],[39.217736,40.655873],[39.220782,40.656919],[39.225826,40.658823],[39.231537,40.660441],[39.238485,40.661964],[39.249526,40.663487],[39.257616,40.66539],[39.264373,40.667865],[39.268561,40.669198],[39.273986,40.67072],[39.277389,40.672053],[39.280887,40.672981],[39.284456,40.673623],[39.288097,40.674765],[39.290024,40.675194],[39.295378,40.677192],[39.297662,40.678477],[39.300803,40.680119],[39.304158,40.680262],[39.307941,40.679905],[39.311154,40.679691],[39.313438,40.679263],[39.315579,40.678763],[39.316936,40.678834],[39.318435,40.679548],[39.320933,40.680619],[39.323217,40.682189],[39.325002,40.683474],[39.327001,40.68533],[39.329,40.686758],[39.330641,40.687615],[39.331926,40.688471],[39.333466,40.690122]]]}}]}