{"type":"FeatureCollection","province":"Iğdır","province_id":"TR-P-76","features":[{"type":"Feature","properties":{"id":"TR-D-76-001","parent_id":"TR-P-76","region_id":"TR-R-DOA","level":"district","municipality_type":null,"municipality_type_label":null,"is_metropolitan_municipality":null,"name":"Aralık","name_ascii":"aralik","slug":"aralik-igdir"},"geometry":{"type":"Polygon","coordinates":[[[44.441198,39.984388],[44.441593,39.984243],[44.441633,39.984229],[44.443452,39.983605],[44.444816,39.983166],[44.4471,39.982405],[44.44828,39.98189],[44.44985,39.980587],[44.450721,39.97962],[44.451373,39.978399],[44.451558,39.977878],[44.45162,39.977432],[44.451359,39.976554],[44.451038,39.975772],[44.45103,39.975752],[44.45092,39.9751],[44.450934,39.97449],[44.451078,39.974037],[44.451455,39.973557],[44.451887,39.973166],[44.452319,39.972803],[44.453108,39.971842],[44.453814,39.971342],[44.454438,39.970951],[44.455048,39.97067],[44.455903,39.970485],[44.45648,39.970418],[44.457146,39.970485],[44.458368,39.970669],[44.459321,39.971108],[44.460701,39.971598],[44.462126,39.972316],[44.462778,39.972487],[44.463832,39.972523],[44.464779,39.972549],[44.465487,39.972521],[44.46692,39.972377],[44.469239,39.971385],[44.47026,39.970902],[44.471412,39.970368],[44.47288,39.969697],[44.473346,39.969627],[44.474231,39.969373],[44.474478,39.969195],[44.474846,39.968848],[44.47515,39.968495],[44.475496,39.968165],[44.476199,39.967748],[44.476631,39.967556],[44.477729,39.967198],[44.479312,39.966998],[44.479795,39.966868],[44.480178,39.966765],[44.482145,39.965698],[44.482533,39.965303],[44.483094,39.964732],[44.484436,39.963139],[44.485844,39.962016],[44.488326,39.960383],[44.48947,39.959367],[44.490476,39.958133],[44.491569,39.956678],[44.492125,39.955351],[44.492525,39.952668],[44.492858,39.951527],[44.493228,39.950972],[44.494008,39.950152],[44.495972,39.94846],[44.497674,39.947019],[44.49924,39.946186],[44.49994,39.94567],[44.501161,39.944343],[44.501177,39.944326],[44.501906,39.942903],[44.502673,39.941754],[44.503106,39.941021],[44.503372,39.940012],[44.503454,39.939175],[44.503639,39.938222],[44.504039,39.936788],[44.504147,39.936363],[44.504346,39.935787],[44.505872,39.934189],[44.506835,39.933147],[44.507722,39.932539],[44.508803,39.931782],[44.510676,39.931062],[44.511537,39.930873],[44.513187,39.93074],[44.514105,39.930417],[44.514936,39.930006],[44.515886,39.929556],[44.516753,39.928423],[44.517884,39.926501],[44.518041,39.925122],[44.518878,39.923003],[44.519159,39.922255],[44.519919,39.921375],[44.520553,39.920922],[44.520799,39.920746],[44.521375,39.92052],[44.521656,39.920561],[44.521978,39.920596],[44.52209,39.920629],[44.523186,39.920954],[44.524676,39.92121],[44.525115,39.92127],[44.526091,39.921405],[44.528108,39.921812],[44.531268,39.922113],[44.532331,39.922268],[44.532608,39.922308],[44.533601,39.922353],[44.534249,39.922278],[44.535092,39.922022],[44.535453,39.921887],[44.536206,39.921315],[44.536648,39.92065],[44.537396,39.919354],[44.537515,39.919042],[44.538102,39.917657],[44.538629,39.916468],[44.538855,39.915926],[44.53924,39.914937],[44.540134,39.913533],[44.540856,39.91263],[44.54188,39.911396],[44.542292,39.910465],[44.543136,39.90943],[44.543777,39.908957],[44.54471,39.908235],[44.54508,39.907896],[44.545104,39.907873],[44.545343,39.90774],[44.546591,39.907046],[44.54772,39.906473],[44.54835,39.906017],[44.54903,39.905525],[44.550143,39.904667],[44.551062,39.903854],[44.551829,39.902906],[44.552145,39.901747],[44.552281,39.90107],[44.552539,39.900617],[44.552958,39.899866],[44.553302,39.899121],[44.553515,39.898662],[44.553695,39.897487],[44.553608,39.896659],[44.553089,39.895494],[44.552827,39.895027],[44.552766,39.894509],[44.552314,39.892271],[44.55195,39.890837],[44.551358,39.88963],[44.550831,39.888944],[44.55066,39.888696],[44.550049,39.887812],[44.549967,39.887469],[44.549946,39.887034],[44.550186,39.886008],[44.55057,39.885261],[44.551335,39.884029],[44.552747,39.881911],[44.55343,39.881296],[44.553563,39.881223],[44.555889,39.879953],[44.557257,39.879095],[44.55812,39.878632],[44.559441,39.877972],[44.560534,39.876856],[44.561057,39.876219],[44.561763,39.874807],[44.561893,39.87354],[44.562524,39.872689],[44.563436,39.871736],[44.564623,39.870728],[44.56553,39.870233],[44.567139,39.86976],[44.568422,39.86939],[44.569273,39.869041],[44.570308,39.868348],[44.571162,39.867701],[44.572255,39.866344],[44.572535,39.865997],[44.573316,39.864624],[44.573738,39.864029],[44.574073,39.863607],[44.574519,39.863266],[44.574986,39.862991],[44.57526,39.862861],[44.576534,39.862518],[44.577688,39.862223],[44.57838,39.862329],[44.579196,39.862648],[44.579752,39.862968],[44.581291,39.863559],[44.582214,39.863636],[44.58292,39.863512],[44.583606,39.863259],[44.584083,39.863039],[44.585266,39.862423],[44.586402,39.862258],[44.587941,39.861825],[44.588976,39.861366],[44.589731,39.860961],[44.590567,39.860388],[44.591277,39.859654],[44.591822,39.858921],[44.592131,39.857971],[44.592412,39.856441],[44.593167,39.854445],[44.593235,39.853869],[44.593762,39.852602],[44.594154,39.851949],[44.594567,39.851135],[44.594851,39.850046],[44.595418,39.845171],[44.595277,39.844106],[44.594496,39.842261],[44.59366,39.841353],[44.593146,39.840879],[44.592776,39.84018],[44.591821,39.839255],[44.591497,39.838891],[44.590662,39.837954],[44.589502,39.836273],[44.589278,39.835564],[44.589394,39.8347],[44.589566,39.833767],[44.590449,39.83199],[44.591159,39.830594],[44.591892,39.828417],[44.592213,39.827821],[44.592579,39.827423],[44.593269,39.826531],[44.593914,39.82588],[44.594915,39.82518],[44.595539,39.824865],[44.596253,39.824563],[44.596774,39.824364],[44.597288,39.824248],[44.598255,39.824085],[44.599564,39.823925],[44.60047,39.823843],[44.601408,39.823679],[44.604092,39.82339],[44.605467,39.823645],[44.605651,39.823679],[44.606979,39.824495],[44.607339,39.824873],[44.607775,39.825331],[44.608687,39.826209],[44.609985,39.827191],[44.610584,39.827644],[44.610936,39.82791],[44.611101,39.827991],[44.61204,39.828452],[44.612932,39.828678],[44.613679,39.828849],[44.614365,39.828884],[44.61551,39.828685],[44.615757,39.82855],[44.617026,39.82802],[44.618453,39.827114],[44.619029,39.826552],[44.619243,39.826286],[44.619564,39.825886],[44.619852,39.825249],[44.619891,39.825007],[44.620133,39.823747],[44.62014,39.822505],[44.619934,39.821929],[44.619596,39.821463],[44.619054,39.821021],[44.618972,39.820952],[44.618464,39.820528],[44.617952,39.820221],[44.617342,39.81983],[44.616299,39.819419],[44.615305,39.818884],[44.614773,39.81856],[44.613974,39.817883],[44.612794,39.817039],[44.612287,39.816586],[44.611917,39.815996],[44.611745,39.815414],[44.611875,39.814831],[44.612541,39.814371],[44.61313,39.814035],[44.614619,39.813329],[44.615954,39.813393],[44.617135,39.81359],[44.618425,39.813617],[44.619251,39.813491],[44.621613,39.813147],[44.622917,39.812944],[44.624545,39.812771],[44.624975,39.812725],[44.625487,39.812424],[44.630249,39.809625],[44.631161,39.808795],[44.632183,39.807725],[44.633438,39.806936],[44.63424,39.806511],[44.635502,39.806141],[44.636332,39.805969],[44.637436,39.805976],[44.637697,39.805956],[44.638561,39.805866],[44.639247,39.805606],[44.640673,39.804796],[44.64175,39.804412],[44.643087,39.803953],[44.643931,39.803781],[44.644871,39.803308],[44.645275,39.803006],[44.645803,39.80265],[44.647024,39.802019],[44.64793,39.801436],[44.649221,39.800598],[44.649774,39.800023],[44.6502,39.799385],[44.650501,39.798699],[44.651016,39.797986],[44.651228,39.797458],[44.651379,39.796882],[44.651633,39.796347],[44.651804,39.795709],[44.652175,39.794886],[44.652367,39.794509],[44.65369,39.793459],[44.654349,39.792479],[44.656379,39.791333],[44.656969,39.791107],[44.657675,39.790949],[44.658292,39.790874],[44.658855,39.790853],[44.65941,39.790935],[44.659887,39.791006],[44.660713,39.791128],[44.66146,39.791346],[44.663299,39.791841],[44.664739,39.792211],[44.66615,39.792478],[44.667003,39.792549],[44.668059,39.79265],[44.668923,39.79265],[44.669471,39.79254],[44.670431,39.792183],[44.670774,39.792006],[44.671453,39.791656],[44.672537,39.790867],[44.673236,39.790312],[44.673518,39.790112],[44.674121,39.789646],[44.675294,39.788713],[44.67594,39.788304],[44.676817,39.788014],[44.677269,39.788027],[44.677386,39.788027],[44.677523,39.78802],[44.678641,39.788261],[44.678867,39.788487],[44.679025,39.788741],[44.679004,39.788981],[44.678944,39.789131],[44.678648,39.789776],[44.6786,39.790165],[44.67886,39.790757],[44.679436,39.792568],[44.679875,39.793432],[44.680225,39.793884],[44.680712,39.794385],[44.68135,39.794906],[44.682145,39.795372],[44.683421,39.795791],[44.683778,39.79588],[44.684807,39.796113],[44.688414,39.795805],[44.690231,39.795297],[44.691198,39.795036],[44.691898,39.794735],[44.692838,39.794035],[44.693379,39.793678],[44.693757,39.793413],[44.694971,39.792567],[44.695896,39.791497],[44.696205,39.790633],[44.696356,39.789748],[44.69626,39.789131],[44.696066,39.788442],[44.696013,39.788253],[44.695574,39.787773],[44.694573,39.787019],[44.693297,39.786216],[44.692034,39.785293],[44.689484,39.7835],[44.688469,39.782369],[44.687063,39.780503],[44.68626,39.778596],[44.686139,39.778216],[44.686054,39.777952],[44.686034,39.777293],[44.686129,39.775893],[44.686027,39.774557],[44.686322,39.773453],[44.68661,39.772801],[44.686843,39.772245],[44.68746,39.771642],[44.688071,39.771237],[44.689298,39.770565],[44.689724,39.770366],[44.690286,39.770215],[44.691253,39.770208],[44.691747,39.77027],[44.69479,39.77107],[44.698111,39.771813],[44.699022,39.771956],[44.702024,39.772202],[44.703344,39.772168],[44.704092,39.772149],[44.704976,39.771978],[44.70617,39.771765],[44.707536,39.771415],[44.707894,39.771244],[44.709331,39.770558],[44.710456,39.769708],[44.710936,39.76907],[44.711444,39.768254],[44.711931,39.766985],[44.711869,39.765654],[44.711972,39.764907],[44.712162,39.76423],[44.713048,39.762163],[44.713865,39.760332],[44.714825,39.758467],[44.714974,39.758084],[44.715298,39.757253],[44.715565,39.756875],[44.716395,39.754736],[44.716656,39.753494],[44.716947,39.752511],[44.716964,39.752452],[44.717027,39.752346],[44.717945,39.750806],[44.718042,39.750425],[44.718044,39.750416],[44.71826,39.749441],[44.718199,39.749064],[44.718021,39.748714],[44.718041,39.748378],[44.718219,39.748042],[44.718974,39.747472],[44.719152,39.747328],[44.719536,39.746821],[44.720777,39.744948],[44.72183,39.743795],[44.721923,39.743693],[44.72289,39.742823],[44.723692,39.742143],[44.724666,39.741547],[44.725743,39.741224],[44.726456,39.741121],[44.72791,39.740943],[44.728795,39.740984],[44.729391,39.741204],[44.730681,39.741992],[44.730911,39.742183],[44.732114,39.743048],[44.732677,39.74347],[44.733458,39.744057],[44.73435,39.74501],[44.734869,39.745406],[44.73507,39.745559],[44.735564,39.745847],[44.736359,39.746087],[44.737203,39.746176],[44.737548,39.746108],[44.737902,39.746039],[44.739919,39.745538],[44.740815,39.745367],[44.741634,39.745211],[44.742573,39.7449],[44.743513,39.744495],[44.744226,39.744015],[44.74448,39.743686],[44.744528,39.742657],[44.74448,39.741798],[44.744459,39.741416],[44.744169,39.740226],[44.744041,39.739544],[44.743727,39.738681],[44.743053,39.736759],[44.742703,39.735545],[44.742648,39.73466],[44.74271,39.733817],[44.742991,39.733206],[44.743895,39.731594],[44.744338,39.731053],[44.744878,39.730316],[44.745364,39.729859],[44.746715,39.72737],[44.747273,39.72652],[44.747648,39.72595],[44.748108,39.725333],[44.748306,39.72488],[44.748457,39.724167],[44.748369,39.722548],[44.748286,39.722048],[44.747984,39.721033],[44.747799,39.719716],[44.747785,39.718282],[44.74819,39.717308],[44.749493,39.715621],[44.749829,39.7151],[44.750329,39.714778],[44.75114,39.714445],[44.751283,39.714387],[44.751429,39.714361],[44.752764,39.714126],[44.754945,39.71416],[44.756083,39.7141],[44.756234,39.714092],[44.758155,39.713906],[44.759561,39.713927],[44.762167,39.714181],[44.76325,39.714414],[44.764279,39.714291],[44.765521,39.714551],[44.766097,39.714599],[44.766865,39.714517],[44.767647,39.71427],[44.768387,39.713831],[44.769266,39.713286],[44.769272,39.713282],[44.769276,39.713276],[44.769471,39.713001],[44.769594,39.712404],[44.769272,39.711204],[44.768672,39.710356],[44.768071,39.709428],[44.76659,39.707919],[44.764546,39.706067],[44.764248,39.705686],[44.764088,39.705466],[44.763339,39.704668],[44.763113,39.70414],[44.76325,39.703632],[44.763381,39.70329],[44.763675,39.70296],[44.764087,39.702761],[44.764718,39.702576],[44.765321,39.702562],[44.766144,39.702642],[44.768456,39.702823],[44.769842,39.702813],[44.770294,39.702834],[44.772577,39.703118],[44.775005,39.703036],[44.775814,39.70294],[44.776878,39.702789],[44.777718,39.702638],[44.778517,39.702404],[44.778611,39.702333],[44.778956,39.702068],[44.779201,39.701608],[44.779717,39.700642],[44.779979,39.699786],[44.780074,39.698968],[44.780025,39.698536],[44.779487,39.697673],[44.77923,39.697364],[44.779024,39.696877],[44.778983,39.696472],[44.779017,39.696074],[44.779333,39.695594],[44.780025,39.695052],[44.780581,39.69484],[44.781257,39.694723],[44.782142,39.694674],[44.782978,39.694477],[44.784305,39.693838],[44.785195,39.693286],[44.78521,39.693276],[44.785766,39.692659],[44.785972,39.692192],[44.786081,39.691657],[44.78604,39.69101],[44.786026,39.69079],[44.785992,39.690375],[44.785583,39.689413],[44.784441,39.688229],[44.784202,39.68783],[44.784059,39.687054],[44.784271,39.686664],[44.784649,39.686366],[44.78482,39.686278],[44.785121,39.686122],[44.785786,39.685923],[44.786966,39.685334],[44.787919,39.684915],[44.789257,39.684504],[44.789518,39.684438],[44.790834,39.684106],[44.791945,39.683921],[44.794075,39.684148],[44.795514,39.684301],[44.797247,39.684469],[44.798358,39.684462],[44.799476,39.684359],[44.800607,39.684133],[44.801718,39.683488],[44.801903,39.682974],[44.801772,39.682544],[44.801511,39.681695],[44.800479,39.679729],[44.79984,39.677762],[44.799105,39.676294],[44.798166,39.674888],[44.79517,39.671666],[44.79488,39.671239],[44.794716,39.670869],[44.794678,39.670339],[44.794928,39.669778],[44.795219,39.669356],[44.795436,39.669017],[44.795806,39.668832],[44.79619,39.668688],[44.796458,39.668708],[44.796938,39.668866],[44.797288,39.669065],[44.797493,39.669188],[44.797972,39.669356],[44.798414,39.669552],[44.79916,39.66971],[44.799736,39.669936],[44.80073,39.670519],[44.801266,39.671076],[44.80279,39.672551],[44.803617,39.67306],[44.803824,39.673187],[44.804276,39.673351],[44.804707,39.673338],[44.805613,39.672954],[44.805936,39.672515],[44.806032,39.671945],[44.806034,39.671126],[44.805493,39.669257],[44.804537,39.667604],[44.803398,39.66602],[44.80309,39.665629],[44.800751,39.663311],[44.80063,39.663155],[44.800175,39.662567],[44.799447,39.66149],[44.799265,39.660702],[44.799153,39.660361],[44.799195,39.659971],[44.799221,39.65973],[44.799187,39.659134],[44.799578,39.658571],[44.801053,39.657097],[44.801768,39.656527],[44.80219,39.656266],[44.802249,39.65623],[44.803699,39.655648],[44.804624,39.655502],[44.804677,39.655504],[44.806472,39.655544],[44.807438,39.655663],[44.808576,39.655842],[44.809004,39.65592],[44.809159,39.655948],[44.810118,39.656186],[44.812851,39.656371],[44.814585,39.656027],[44.815207,39.655967],[44.816028,39.655425],[44.816555,39.654952],[44.817186,39.654009],[44.817521,39.653369],[44.817616,39.653188],[44.817742,39.652374],[44.817749,39.651613],[44.817537,39.650521],[44.816986,39.649194],[44.816482,39.647977],[44.81612,39.646874],[44.815809,39.645776],[44.815704,39.645266],[44.815604,39.644631],[44.815207,39.643684],[44.81269,39.64133],[44.812425,39.641082],[44.81168,39.640786],[44.810535,39.64019],[44.809535,39.639502],[44.808139,39.638337],[44.807815,39.637794],[44.807596,39.637199],[44.807623,39.636358],[44.808026,39.634353],[44.808337,39.632453],[44.808642,39.631659],[44.808714,39.630263],[44.808946,39.629098],[44.809072,39.62841],[44.808999,39.627993],[44.808933,39.627808],[44.808668,39.627741],[44.808317,39.627973],[44.808166,39.628096],[44.807682,39.628489],[44.807153,39.628767],[44.806816,39.628864],[44.805319,39.629296],[44.804883,39.629495],[44.804648,39.629773],[44.804426,39.63058],[44.804389,39.630616],[44.804207,39.630871],[44.803956,39.631745],[44.803665,39.632096],[44.803287,39.632495],[44.803182,39.633009],[44.803598,39.633786],[44.80374,39.63405],[44.803645,39.63471],[44.803546,39.635491],[44.803652,39.636119],[44.803625,39.637284],[44.803676,39.637485],[44.803685,39.637569],[44.803523,39.637949],[44.803294,39.638489],[44.803319,39.638814],[44.803543,39.639468],[44.803708,39.639948],[44.803704,39.640467],[44.803565,39.641083],[44.803446,39.641394],[44.803579,39.641824],[44.803559,39.642115],[44.803125,39.642508],[44.802994,39.642586],[44.802801,39.642702],[44.802455,39.642878],[44.802238,39.643285],[44.802364,39.643692],[44.802364,39.643698],[44.802364,39.643901],[44.802192,39.644036],[44.802142,39.644043],[44.801939,39.644072],[44.801559,39.644036],[44.801333,39.643955],[44.800989,39.644027],[44.801161,39.644389],[44.801197,39.644561],[44.801088,39.644733],[44.800627,39.645023],[44.800382,39.645276],[44.800093,39.645864],[44.799658,39.646136],[44.799459,39.646444],[44.798898,39.647584],[44.798672,39.648263],[44.798687,39.64858],[44.79869,39.648634],[44.79843,39.648925],[44.798092,39.64915],[44.797663,39.649317],[44.79702,39.649568],[44.79604,39.649673],[44.79514,39.649911],[44.794565,39.650143],[44.794048,39.650189],[44.793837,39.650235],[44.793181,39.650513],[44.79205,39.650381],[44.79107,39.650632],[44.790693,39.650699],[44.790349,39.650765],[44.789793,39.650871],[44.789343,39.65099],[44.78831,39.651062],[44.78786,39.651142],[44.787583,39.651354],[44.787463,39.651651],[44.78747,39.651956],[44.787636,39.65232],[44.78786,39.652618],[44.788059,39.652796],[44.788125,39.652942],[44.788026,39.653174],[44.787841,39.653339],[44.787715,39.653313],[44.78753,39.653287],[44.787198,39.653266],[44.786974,39.653306],[44.78677,39.653685],[44.786873,39.654382],[44.786901,39.65457],[44.786782,39.654888],[44.786643,39.655027],[44.786451,39.655079],[44.786093,39.65502],[44.785849,39.654886],[44.785729,39.654821],[44.785149,39.654723],[44.784644,39.654636],[44.784445,39.654643],[44.784068,39.654934],[44.78342,39.655854],[44.783211,39.656186],[44.783161,39.656264],[44.782897,39.656549],[44.78207,39.656939],[44.781527,39.657038],[44.781458,39.657049],[44.780746,39.657164],[44.780442,39.657263],[44.780177,39.657449],[44.779945,39.657713],[44.779927,39.657803],[44.779866,39.65811],[44.779594,39.658494],[44.778569,39.659586],[44.778152,39.659719],[44.777947,39.659825],[44.777503,39.660136],[44.77696,39.660304],[44.775703,39.660846],[44.774908,39.660991],[44.774115,39.660666],[44.774112,39.660665],[44.773208,39.660559],[44.771633,39.660916],[44.770276,39.661108],[44.769886,39.661446],[44.76978,39.661763],[44.769998,39.662531],[44.770113,39.662632],[44.770164,39.662677],[44.77025,39.662756],[44.770289,39.663193],[44.770011,39.663689],[44.769336,39.664543],[44.769019,39.664854],[44.768171,39.665403],[44.767854,39.665496],[44.767218,39.665337],[44.76653,39.665469],[44.766065,39.665407],[44.765637,39.665238],[44.765215,39.665156],[44.764935,39.665182],[44.764383,39.665233],[44.763572,39.665542],[44.762566,39.6662],[44.762182,39.66668],[44.761998,39.666813],[44.761426,39.667224],[44.76073,39.667823],[44.76068,39.668295],[44.761832,39.669002],[44.762064,39.66935],[44.761909,39.669853],[44.761523,39.67053],[44.761213,39.670607],[44.760575,39.670588],[44.75957,39.670356],[44.758833,39.670016],[44.758256,39.670046],[44.758099,39.670062],[44.757795,39.670177],[44.757579,39.670259],[44.756883,39.670394],[44.755027,39.670936],[44.754883,39.671177],[44.754883,39.671718],[44.754607,39.672095],[44.754493,39.672497],[44.754192,39.672786],[44.75433,39.672962],[44.75472,39.673062],[44.756366,39.671994],[44.756529,39.671919],[44.756806,39.671756],[44.756823,39.671753],[44.757183,39.671705],[44.757535,39.671667],[44.757924,39.671894],[44.758326,39.672484],[44.758666,39.673439],[44.758689,39.67379],[44.758691,39.673816],[44.758515,39.674721],[44.758712,39.675567],[44.758728,39.675639],[44.758617,39.67588],[44.758352,39.676455],[44.7581,39.676807],[44.757754,39.677004],[44.756155,39.677255],[44.755048,39.677739],[44.754492,39.67809],[44.754161,39.678771],[44.754101,39.679367],[44.753665,39.679982],[44.753605,39.68026],[44.753598,39.68069],[44.753731,39.680968],[44.753797,39.681657],[44.753723,39.68174],[44.753578,39.681862],[44.753082,39.682054],[44.751884,39.682868],[44.75167,39.684009],[44.751428,39.684635],[44.751289,39.685071],[44.750415,39.685925],[44.749806,39.686335],[44.749747,39.686607],[44.749654,39.68709],[44.749328,39.687514],[44.74932,39.687537],[44.74925,39.687732],[44.749191,39.687964],[44.748906,39.688208],[44.748517,39.688262],[44.748476,39.688268],[44.748218,39.688407],[44.747854,39.688519],[44.747397,39.688599],[44.7467,39.688871],[44.746418,39.689188],[44.745079,39.689574],[44.744393,39.690134],[44.744254,39.690491],[44.744194,39.690769],[44.743863,39.690955],[44.743566,39.691248],[44.743499,39.691425],[44.743221,39.691703],[44.743215,39.691947],[44.74319,39.692029],[44.743142,39.692186],[44.74299,39.692298],[44.742884,39.692497],[44.742917,39.692748],[44.742831,39.692993],[44.742215,39.693518],[44.741621,39.693842],[44.740938,39.693893],[44.739906,39.693364],[44.73967,39.693294],[44.739522,39.693251],[44.738886,39.693297],[44.738688,39.693238],[44.738436,39.693112],[44.738185,39.693125],[44.737662,39.693317],[44.737285,39.693397],[44.736782,39.69343],[44.736477,39.693589],[44.735961,39.693602],[44.734677,39.693926],[44.734295,39.694061],[44.733718,39.694462],[44.733201,39.694898],[44.733267,39.695227],[44.733274,39.695263],[44.732414,39.696176],[44.731937,39.696838],[44.730977,39.697732],[44.730541,39.698221],[44.73025,39.698393],[44.729919,39.698473],[44.729681,39.698434],[44.72914,39.698488],[44.728641,39.698915],[44.728423,39.699101],[44.727861,39.699366],[44.727397,39.699657],[44.727212,39.699823],[44.727291,39.700597],[44.727736,39.701136],[44.727953,39.701647],[44.728033,39.701834],[44.728244,39.702092],[44.728364,39.702377],[44.72833,39.702595],[44.728059,39.703006],[44.727662,39.703376],[44.727372,39.703495],[44.727113,39.703601],[44.726358,39.704084],[44.725845,39.70454],[44.725531,39.705064],[44.724926,39.70562],[44.724664,39.705845],[44.723658,39.706328],[44.723143,39.706539],[44.722387,39.707025],[44.721414,39.707511],[44.720912,39.707658],[44.720323,39.707771],[44.719687,39.707757],[44.719523,39.707781],[44.718926,39.707857],[44.717232,39.708929],[44.716669,39.709815],[44.716372,39.71016],[44.716094,39.710735],[44.715804,39.711118],[44.715327,39.71138],[44.715039,39.711678],[44.714964,39.711938],[44.715137,39.712284],[44.715113,39.712525],[44.714827,39.712764],[44.714564,39.713098],[44.714578,39.713171],[44.714564,39.713264],[44.714731,39.713527],[44.714716,39.713802],[44.714707,39.713956],[44.714946,39.714147],[44.714917,39.714342],[44.714183,39.714457],[44.712632,39.714624],[44.712251,39.714505],[44.71195,39.714251],[44.711798,39.714123],[44.711178,39.71398],[44.711154,39.713551],[44.710868,39.713527],[44.710629,39.714028],[44.710498,39.714021],[44.710176,39.714004],[44.710102,39.71394],[44.709484,39.713407],[44.709127,39.713455],[44.708888,39.713431],[44.708578,39.713574],[44.708125,39.713455],[44.708051,39.713474],[44.707839,39.713527],[44.707685,39.713387],[44.707576,39.713288],[44.707358,39.713306],[44.70729,39.713312],[44.707028,39.71336],[44.706145,39.713241],[44.705621,39.712883],[44.705144,39.71274],[44.704595,39.712859],[44.704309,39.712764],[44.703665,39.712215],[44.703188,39.712191],[44.702807,39.712024],[44.702777,39.711774],[44.702726,39.711338],[44.702791,39.711203],[44.702954,39.711096],[44.703136,39.711157],[44.703383,39.711161],[44.703523,39.711106],[44.703322,39.710784],[44.703397,39.710626],[44.703295,39.710491],[44.703085,39.71036],[44.702908,39.710383],[44.702633,39.71036],[44.702395,39.710183],[44.70213,39.710085],[44.701734,39.71016],[44.70138,39.710388],[44.700881,39.71063],[44.700774,39.710709],[44.700634,39.710817],[44.699959,39.710901],[44.699493,39.710984],[44.698822,39.711269],[44.698487,39.711329],[44.698458,39.711359],[44.698254,39.711567],[44.697965,39.711963],[44.697765,39.712177],[44.696735,39.712335],[44.696321,39.712568],[44.695706,39.712592],[44.695533,39.712708],[44.695352,39.712722],[44.694648,39.712629],[44.694331,39.712592],[44.69401,39.71274],[44.693758,39.712983],[44.693488,39.713183],[44.693349,39.713439],[44.693162,39.713556],[44.692151,39.713556],[44.691928,39.713677],[44.690991,39.713724],[44.690483,39.713817],[44.690227,39.713835],[44.689883,39.713751],[44.689864,39.713607],[44.689934,39.713435],[44.689938,39.713234],[44.689897,39.713071],[44.689626,39.71309],[44.689333,39.713234],[44.68889,39.713351],[44.688574,39.7133],[44.688368,39.713337],[44.688271,39.713621],[44.688294,39.714138],[44.688723,39.714609],[44.688872,39.714818],[44.689049,39.715214],[44.689482,39.715596],[44.69019,39.716029],[44.690428,39.716267],[44.690446,39.716691],[44.690465,39.717017],[44.690432,39.717282],[44.689454,39.717613],[44.689067,39.717609],[44.688755,39.717543],[44.688187,39.717261],[44.687623,39.716924],[44.687257,39.716829],[44.686987,39.716719],[44.686657,39.716463],[44.686218,39.716295],[44.68602,39.716163],[44.685977,39.715958],[44.685779,39.715819],[44.685399,39.715687],[44.684681,39.715285],[44.684118,39.715351],[44.683057,39.715182],[44.682713,39.715058],[44.682318,39.714963],[44.68193,39.715043],[44.681096,39.715278],[44.679983,39.715248],[44.679632,39.715124],[44.678995,39.714751],[44.678564,39.714619],[44.678021,39.714509],[44.677803,39.714465],[44.677704,39.714508],[44.677583,39.71456],[44.677502,39.714714],[44.677459,39.715029],[44.677239,39.715292],[44.676924,39.715351],[44.676463,39.715256],[44.676222,39.714992],[44.676046,39.714692],[44.675717,39.714575],[44.675336,39.71459],[44.675036,39.714721],[44.674751,39.714787],[44.674466,39.714743],[44.674231,39.714809],[44.674056,39.714912],[44.673824,39.714943],[44.673514,39.714787],[44.673207,39.714516],[44.67287,39.714472],[44.672512,39.714575],[44.672065,39.71486],[44.671721,39.714985],[44.671443,39.714963],[44.671246,39.714868],[44.671012,39.714633],[44.670814,39.714494],[44.67058,39.714604],[44.670302,39.714729],[44.670009,39.714736],[44.669473,39.714679],[44.66946,39.714677],[44.668919,39.714619],[44.668611,39.714641],[44.668158,39.714772],[44.667828,39.714875],[44.667645,39.714912],[44.667389,39.715065],[44.667411,39.715307],[44.667345,39.71557],[44.667285,39.715682],[44.667177,39.715885],[44.666848,39.716375],[44.666569,39.71677],[44.666291,39.716843],[44.665697,39.716837],[44.665633,39.716836],[44.665311,39.716909],[44.664975,39.717392],[44.664579,39.717963],[44.664169,39.718087],[44.664101,39.71808],[44.66354,39.718021],[44.662706,39.717875],[44.662539,39.718029],[44.662248,39.718167],[44.661919,39.718241],[44.661644,39.718257],[44.661358,39.7184],[44.661168,39.718659],[44.661152,39.719077],[44.661195,39.719299],[44.661036,39.719564],[44.661036,39.719701],[44.661142,39.719961],[44.661342,39.720248],[44.661396,39.720326],[44.66125,39.720919],[44.661,39.7212],[44.66071,39.721392],[44.660165,39.721478],[44.65976,39.721482],[44.659679,39.721482],[44.659449,39.721535],[44.659232,39.721785],[44.659135,39.721969],[44.659095,39.722046],[44.658676,39.722337],[44.658042,39.723064],[44.658001,39.723229],[44.657822,39.723745],[44.657186,39.724257],[44.656729,39.724921],[44.656447,39.725251],[44.656172,39.725416],[44.655209,39.725661],[44.654982,39.726042],[44.654845,39.726392],[44.654264,39.726749],[44.653559,39.727245],[44.653118,39.727408],[44.652761,39.727644],[44.652401,39.727666],[44.652211,39.727514],[44.652042,39.727461],[44.652012,39.727452],[44.651324,39.727548],[44.650877,39.727452],[44.650482,39.727466],[44.649594,39.72801],[44.649357,39.728016],[44.649192,39.727981],[44.648855,39.727789],[44.648298,39.727405],[44.647955,39.727277],[44.647699,39.727405],[44.647684,39.728161],[44.647556,39.728474],[44.647257,39.728646],[44.646601,39.72876],[44.646444,39.729002],[44.646716,39.72935],[44.646972,39.730256],[44.646799,39.730698],[44.64643,39.731283],[44.645932,39.731619],[44.645731,39.732324],[44.645492,39.732596],[44.644334,39.732837],[44.643693,39.732823],[44.643051,39.733393],[44.642524,39.733721],[44.642123,39.733937],[44.642025,39.734106],[44.642054,39.734295],[44.642356,39.734412],[44.642923,39.734904],[44.643026,39.735118],[44.643094,39.73526],[44.642909,39.735645],[44.642481,39.736158],[44.642068,39.736387],[44.641796,39.736454],[44.641497,39.736529],[44.641341,39.736629],[44.641198,39.736828],[44.641178,39.737127],[44.641155,39.73747],[44.641227,39.737883],[44.641449,39.73829],[44.641483,39.738539],[44.641198,39.738896],[44.639359,39.740706],[44.639088,39.740906],[44.638261,39.741006],[44.637876,39.741119],[44.63772,39.741305],[44.637406,39.741419],[44.637254,39.741402],[44.636903,39.741364],[44.636277,39.741522],[44.635906,39.741735],[44.635253,39.742671],[44.635211,39.742973],[44.635053,39.743235],[44.634716,39.743365],[44.633771,39.743459],[44.633038,39.743413],[44.632667,39.743647],[44.632454,39.743874],[44.632378,39.744204],[44.632172,39.744411],[44.631803,39.7444],[44.631119,39.744144],[44.630845,39.744239],[44.630606,39.744443],[44.630851,39.745332],[44.630838,39.745538],[44.630221,39.746025],[44.62928,39.746752],[44.629242,39.747031],[44.629497,39.747333],[44.629879,39.747522],[44.630095,39.747856],[44.630171,39.748234],[44.630095,39.748475],[44.630123,39.748668],[44.630456,39.749274],[44.630737,39.749438],[44.630707,39.74985],[44.63068,39.750077],[44.630925,39.75019],[44.631461,39.750368],[44.631489,39.750378],[44.63151,39.750524],[44.631606,39.7512],[44.631553,39.751687],[44.631489,39.751834],[44.63134,39.752202],[44.631312,39.752588],[44.631371,39.752773],[44.631979,39.753124],[44.632275,39.75323],[44.632311,39.753243],[44.63255,39.753502],[44.63264,39.753825],[44.632499,39.754699],[44.632546,39.75538],[44.632378,39.755744],[44.632055,39.755971],[44.63192,39.755946],[44.631649,39.755895],[44.63062,39.755873],[44.630102,39.756026],[44.629916,39.756219],[44.629821,39.75646],[44.630253,39.757113],[44.630714,39.757649],[44.630787,39.757719],[44.6309,39.757828],[44.630982,39.758117],[44.630925,39.758409],[44.630742,39.758701],[44.63062,39.758762],[44.630253,39.758997],[44.629875,39.7591],[44.629757,39.759088],[44.629208,39.759031],[44.62885,39.758887],[44.628036,39.758738],[44.627743,39.758756],[44.627567,39.758903],[44.627426,39.759302],[44.62742,39.759595],[44.626416,39.760304],[44.626369,39.760452],[44.626292,39.760606],[44.626369,39.760922],[44.626862,39.761439],[44.626959,39.761528],[44.627003,39.761791],[44.626644,39.762045],[44.625793,39.762198],[44.625452,39.762147],[44.624869,39.762435],[44.624363,39.762794],[44.623947,39.763804],[44.623995,39.764361],[44.623598,39.765057],[44.623019,39.765601],[44.622644,39.765755],[44.621733,39.765929],[44.621513,39.766073],[44.621533,39.766404],[44.621623,39.766995],[44.621575,39.76857],[44.621258,39.769629],[44.620727,39.771098],[44.620065,39.77263],[44.620007,39.772765],[44.618962,39.775055],[44.618838,39.775146],[44.618123,39.775674],[44.617696,39.77641],[44.617469,39.776926],[44.61752,39.777865],[44.617538,39.778198],[44.61738,39.779112],[44.61672,39.780426],[44.615681,39.781843],[44.614898,39.782413],[44.614588,39.782393],[44.613625,39.782104],[44.612965,39.78176],[44.612082,39.780821],[44.61093,39.779954],[44.608633,39.778425],[44.608172,39.778123],[44.605091,39.776106],[44.603598,39.775146],[44.601962,39.77408],[44.596301,39.770389],[44.594381,39.769101],[44.593261,39.76835],[44.590626,39.766477],[44.587526,39.764415],[44.584191,39.762274],[44.581595,39.760596],[44.57991,39.759515],[44.579241,39.759081],[44.577627,39.758064],[44.574406,39.755817],[44.570316,39.753079],[44.566979,39.750957],[44.564656,39.749502],[44.562611,39.74811],[44.559388,39.745926],[44.555539,39.743244],[44.550077,39.739511],[44.548043,39.738138],[44.546479,39.73705],[44.54293,39.734597],[44.538265,39.731489],[44.537449,39.730945],[44.532469,39.727535],[44.529902,39.725807],[44.526168,39.723282],[44.524689,39.722222],[44.521832,39.720313],[44.520785,39.719613],[44.51713,39.717117],[44.512827,39.714201],[44.509866,39.712223],[44.509165,39.711755],[44.507814,39.710787],[44.500475,39.705674],[44.499689,39.705617],[44.499394,39.705596],[44.496457,39.703676],[44.493448,39.701629],[44.492862,39.701238],[44.49205,39.700667],[44.489545,39.698904],[44.487681,39.697688],[44.486138,39.696628],[44.478842,39.6918],[44.472292,39.687412],[44.470913,39.686509],[44.468134,39.684664],[44.467485,39.684233],[44.467627,39.683927],[44.469142,39.682896],[44.472925,39.680187],[44.473688,39.679914],[44.474418,39.679653],[44.475165,39.678757],[44.475819,39.678217],[44.476829,39.676979],[44.478735,39.674935],[44.480058,39.67363],[44.481466,39.671952],[44.482696,39.670579],[44.482845,39.669797],[44.482993,39.66782],[44.483485,39.663979],[44.483544,39.662706],[44.483933,39.659869],[44.484137,39.657208],[44.484929,39.649621],[44.48495,39.648669],[44.484971,39.648263],[44.485001,39.647882],[44.485106,39.646556],[44.485284,39.646052],[44.485619,39.645546],[44.485619,39.644797],[44.486786,39.643927],[44.48691,39.643851],[44.487612,39.643421],[44.487821,39.643035],[44.487766,39.642286],[44.487722,39.641901],[44.487105,39.639467],[44.486357,39.636252],[44.485779,39.634094],[44.484767,39.630316],[44.460283,39.636015],[44.444215,39.63938],[44.429819,39.643109],[44.422448,39.64493],[44.414904,39.647878],[44.407706,39.650133],[44.396779,39.653775],[44.382471,39.658545],[44.36452,39.663488],[44.352032,39.66739],[44.344141,39.670165],[44.338071,39.672593],[44.330786,39.673981],[44.323242,39.674328],[44.320293,39.676236],[44.317518,39.680571],[44.312315,39.686642],[44.307025,39.692886],[44.303123,39.697048],[44.298527,39.702251],[44.295366,39.705576],[44.29241,39.713704],[44.289306,39.729961],[44.289898,39.750947],[44.293149,39.770012],[44.297287,39.783461],[44.303199,39.799126],[44.305539,39.806839],[44.311361,39.824304],[44.315066,39.837005],[44.31705,39.844944],[44.317844,39.855396],[44.317447,39.861086],[44.316521,39.868759],[44.31629,39.870898],[44.315992,39.873655],[44.314536,39.878815],[44.313346,39.885166],[44.31189,39.890723],[44.308053,39.898],[44.305539,39.90488],[44.299916,39.919169],[44.295749,39.927108],[44.290489,39.937825],[44.287016,39.949038],[44.282948,39.959259],[44.281856,39.972755],[44.283047,39.979105],[44.2891,39.985456],[44.296046,39.989326],[44.30458,39.992303],[44.305913,39.992492],[44.314404,39.993692],[44.318969,39.993196],[44.327404,39.992006],[44.335937,39.990716],[44.345364,39.986349],[44.351616,39.982182],[44.364516,39.976128],[44.374439,39.973747],[44.381286,39.972655],[44.38734,39.972258],[44.393988,39.972258],[44.405003,39.973747],[44.414628,39.975037],[44.422666,39.976327],[44.430009,39.978808],[44.435666,39.980892],[44.441198,39.984388]]]}},{"type":"Feature","properties":{"id":"TR-D-76-002","parent_id":"TR-P-76","region_id":"TR-R-DOA","level":"district","municipality_type":null,"municipality_type_label":null,"is_metropolitan_municipality":null,"name":"Iğdır","name_ascii":"igdir","slug":"igdir-igdir"},"geometry":{"type":"Polygon","coordinates":[[[43.825412,40.047934],[43.825424,40.047925],[43.82582,40.047759],[43.826168,40.047732],[43.827155,40.047654],[43.828384,40.047766],[43.829778,40.047958],[43.830796,40.048176],[43.831443,40.048215],[43.832633,40.048096],[43.834073,40.047766],[43.835197,40.047442],[43.837409,40.046608],[43.838243,40.046319],[43.839445,40.045784],[43.840641,40.045229],[43.841824,40.044726],[43.843225,40.044654],[43.844064,40.044218],[43.844784,40.04392],[43.845148,40.043768],[43.845749,40.043735],[43.84713,40.043656],[43.848769,40.043643],[43.852931,40.043715],[43.855059,40.043742],[43.856407,40.043682],[43.857074,40.04355],[43.858158,40.042797],[43.858739,40.042209],[43.858754,40.042194],[43.859189,40.041766],[43.860214,40.040726],[43.861092,40.039902],[43.861673,40.039156],[43.862235,40.038462],[43.86318,40.037596],[43.86394,40.037015],[43.864699,40.036618],[43.865143,40.036446],[43.867025,40.036136],[43.86799,40.035885],[43.869239,40.035502],[43.870679,40.034834],[43.871809,40.034259],[43.872629,40.033751],[43.873759,40.033129],[43.876507,40.032237],[43.877617,40.03159],[43.879275,40.030943],[43.880782,40.030354],[43.881873,40.029898],[43.883201,40.029336],[43.88707,40.027793],[43.889597,40.026786],[43.89033,40.0267],[43.890879,40.026753],[43.891896,40.026677],[43.891949,40.026673],[43.892012,40.02665],[43.892487,40.026479],[43.89409,40.025537],[43.89444,40.025259],[43.894995,40.025015],[43.895524,40.024856],[43.896257,40.024711],[43.896707,40.024579],[43.898821,40.022973],[43.899713,40.022557],[43.900248,40.02255],[43.90227,40.022834],[43.90272,40.022947],[43.903506,40.023158],[43.905098,40.023422],[43.905762,40.023415],[43.906532,40.02325],[43.907147,40.02298],[43.907966,40.022491],[43.908501,40.02222],[43.908957,40.022101],[43.910398,40.02103],[43.910715,40.020958],[43.911237,40.021083],[43.912486,40.021691],[43.91308,40.021942],[43.914091,40.022021],[43.914917,40.021942],[43.916292,40.021691],[43.916807,40.021678],[43.917501,40.021935],[43.918314,40.022576],[43.918836,40.022768],[43.919814,40.023079],[43.92064,40.023191],[43.921201,40.023224],[43.921538,40.023085],[43.921769,40.022887],[43.922014,40.022827],[43.922298,40.022913],[43.922688,40.023244],[43.92295,40.023373],[43.923197,40.023495],[43.92399,40.023739],[43.925621,40.023838],[43.926778,40.023898],[43.928787,40.023792],[43.929137,40.023766],[43.93026,40.023409],[43.931146,40.02323],[43.931628,40.023263],[43.931922,40.023282],[43.933769,40.023369],[43.934277,40.023204],[43.934985,40.022774],[43.935599,40.022094],[43.935883,40.021572],[43.936038,40.021403],[43.936114,40.021321],[43.936511,40.021208],[43.937474,40.021267],[43.937694,40.021281],[43.940303,40.021141],[43.941632,40.021129],[43.943185,40.021333],[43.944453,40.02177],[43.946231,40.022325],[43.947004,40.022847],[43.947499,40.022913],[43.948233,40.0229],[43.948841,40.022827],[43.950281,40.021908],[43.951319,40.021406],[43.952012,40.021148],[43.953446,40.020811],[43.954398,40.020732],[43.955078,40.020745],[43.955481,40.020818],[43.956598,40.021406],[43.956848,40.021379],[43.957536,40.021188],[43.957946,40.021016],[43.95827,40.020957],[43.958752,40.02101],[43.959842,40.02132],[43.960642,40.021512],[43.961402,40.021598],[43.962367,40.021479],[43.963272,40.021346],[43.964778,40.020957],[43.965736,40.020573],[43.966876,40.020045],[43.967435,40.01978],[43.968393,40.019404],[43.969529,40.019001],[43.97008,40.018647],[43.970434,40.018419],[43.970666,40.018327],[43.970864,40.01836],[43.971756,40.018756],[43.972304,40.019086],[43.972356,40.019123],[43.972674,40.019351],[43.972978,40.01947],[43.973242,40.019484],[43.973818,40.019516],[43.97504,40.019655],[43.976652,40.019674],[43.978007,40.020064],[43.979407,40.02052],[43.98024,40.020923],[43.981264,40.021683],[43.982011,40.02237],[43.982183,40.022555],[43.982566,40.023137],[43.98328,40.023751],[43.983537,40.024458],[43.983619,40.025092],[43.983696,40.025707],[43.983689,40.026084],[43.983676,40.026494],[43.983729,40.026725],[43.983927,40.027227],[43.983914,40.027584],[43.983832,40.028416],[43.983815,40.029137],[43.983947,40.02946],[43.984647,40.029652],[43.985143,40.029982],[43.985348,40.030266],[43.985446,40.030403],[43.985566,40.030571],[43.986048,40.030894],[43.986557,40.030993],[43.987231,40.031066],[43.987415,40.031058],[43.987693,40.031046],[43.988493,40.030868],[43.988777,40.030907],[43.989187,40.031013],[43.989748,40.031192],[43.990647,40.031595],[43.990708,40.031627],[43.991215,40.031899],[43.991691,40.032222],[43.992385,40.032394],[43.992847,40.032282],[43.9937,40.032004],[43.996032,40.031258],[43.996468,40.031238],[43.996911,40.031132],[43.998034,40.03057],[43.998662,40.030333],[44.000697,40.029923],[44.001523,40.029764],[44.002158,40.029487],[44.002898,40.028991],[44.003261,40.028562],[44.003499,40.028403],[44.003763,40.027959],[44.003856,40.027669],[44.004001,40.027273],[44.00416,40.027095],[44.004345,40.026883],[44.004834,40.026639],[44.005402,40.026434],[44.006722,40.02614],[44.007232,40.026044],[44.00827,40.025991],[44.009043,40.026081],[44.009598,40.02615],[44.010014,40.02613],[44.010741,40.026216],[44.011543,40.026438],[44.012175,40.026672],[44.012604,40.026909],[44.012809,40.027161],[44.012915,40.027484],[44.013179,40.027854],[44.013602,40.027967],[44.014018,40.027914],[44.014302,40.027742],[44.014514,40.027484],[44.014831,40.02724],[44.015054,40.027092],[44.01534,40.027022],[44.016199,40.026962],[44.016721,40.02681],[44.017414,40.026658],[44.018049,40.02644],[44.018478,40.026136],[44.018948,40.025396],[44.01922,40.025247],[44.019681,40.024973],[44.020137,40.02461],[44.020203,40.024332],[44.020064,40.024068],[44.01997,40.023929],[44.019721,40.023559],[44.019806,40.023321],[44.020461,40.023011],[44.020923,40.022951],[44.021934,40.022938],[44.022835,40.022965],[44.023336,40.023137],[44.024159,40.023747],[44.024673,40.023987],[44.025105,40.024131],[44.026196,40.024206],[44.027094,40.024398],[44.02839,40.024597],[44.028816,40.024577],[44.029213,40.024508],[44.029542,40.02433],[44.02992,40.024254],[44.030359,40.024241],[44.031285,40.024488],[44.032636,40.024789],[44.033568,40.02529],[44.033665,40.025347],[44.03424,40.025688],[44.035393,40.02614],[44.035914,40.026181],[44.036216,40.026209],[44.037059,40.026202],[44.038321,40.026373],[44.038691,40.026565],[44.03892,40.026676],[44.039562,40.027176],[44.040276,40.028067],[44.040638,40.028517],[44.041359,40.029556],[44.041805,40.029727],[44.042285,40.029802],[44.042806,40.029823],[44.043821,40.029556],[44.044055,40.029425],[44.044336,40.029261],[44.045222,40.028317],[44.045645,40.027866],[44.04605,40.02758],[44.046784,40.027141],[44.04736,40.026983],[44.048126,40.02692],[44.048265,40.026908],[44.049308,40.02686],[44.050652,40.026956],[44.051146,40.027141],[44.051633,40.027354],[44.052367,40.027429],[44.053464,40.027422],[44.055254,40.027258],[44.056283,40.027285],[44.057476,40.027786],[44.058258,40.028149],[44.058697,40.028492],[44.059033,40.028993],[44.059456,40.0298],[44.059698,40.030262],[44.060069,40.031016],[44.060425,40.031517],[44.06096,40.031729],[44.061934,40.031942],[44.064293,40.03234],[44.065555,40.032196],[44.066728,40.031716],[44.066756,40.031706],[44.067935,40.031297],[44.068388,40.031181],[44.068662,40.031023],[44.069005,40.030659],[44.069197,40.030426],[44.069567,40.03033],[44.070171,40.030385],[44.07061,40.030405],[44.071474,40.030337],[44.071878,40.030179],[44.072468,40.029987],[44.073086,40.029857],[44.073888,40.029973],[44.074827,40.030652],[44.075438,40.031002],[44.076199,40.031276],[44.076563,40.031496],[44.076933,40.031914],[44.077262,40.032422],[44.07803,40.032888],[44.079183,40.033423],[44.080547,40.033862],[44.081967,40.034376],[44.082801,40.034498],[44.083949,40.034596],[44.084889,40.034554],[44.085876,40.034445],[44.086377,40.034246],[44.087351,40.033395],[44.087851,40.033107],[44.088352,40.032888],[44.09054,40.032168],[44.091376,40.031989],[44.091706,40.031969],[44.092261,40.031962],[44.093228,40.032168],[44.095251,40.032703],[44.09586,40.03282],[44.095999,40.032847],[44.096788,40.03286],[44.096728,40.032559],[44.097195,40.028606],[44.099965,40.022328],[44.103596,40.01545],[44.105873,40.011326],[44.107227,40.008372],[44.108028,40.007695],[44.110182,40.006895],[44.112274,40.00591],[44.114059,40.004433],[44.114982,40.003325],[44.116583,40.001971],[44.118552,40.001294],[44.12126,39.999386],[44.128031,39.992738],[44.133139,39.984676],[44.141079,39.974151],[44.152158,39.952055],[44.160405,39.939561],[44.169391,39.928851],[44.175526,39.922635],[44.181106,39.917137],[44.188328,39.910818],[44.211552,39.894815],[44.217542,39.890712],[44.234202,39.883572],[44.240931,39.880454],[44.254636,39.876104],[44.279173,39.868801],[44.29854,39.861497],[44.310932,39.857558],[44.317844,39.855396],[44.31705,39.844944],[44.315066,39.837005],[44.311361,39.824304],[44.305539,39.806839],[44.303199,39.799126],[44.297287,39.783461],[44.293149,39.770012],[44.289898,39.750947],[44.289306,39.729961],[44.29241,39.713704],[44.295366,39.705576],[44.287668,39.705744],[44.2646,39.706224],[44.242973,39.707546],[44.209813,39.708267],[44.206929,39.708147],[44.193954,39.704302],[44.177373,39.702019],[44.164638,39.701779],[44.151422,39.7025],[44.130035,39.7031],[44.109851,39.703461],[44.107148,39.703641],[44.104895,39.704092],[44.10084,39.705533],[44.09264,39.709588],[44.085701,39.713013],[44.080295,39.717068],[44.077141,39.719681],[44.073086,39.724907],[44.070743,39.727881],[44.065787,39.731936],[44.058218,39.733107],[44.047314,39.734008],[44.044341,39.733918],[44.037042,39.731485],[44.033798,39.730043],[44.028572,39.726619],[44.026319,39.725718],[44.01875,39.725898],[44.01127,39.72698],[43.993339,39.728331],[43.974506,39.730314],[43.968108,39.731035],[43.956574,39.733017],[43.942066,39.736621],[43.931433,39.740226],[43.906653,39.745993],[43.886919,39.75185],[43.881873,39.752571],[43.875565,39.754914],[43.865743,39.760771],[43.863941,39.762213],[43.854119,39.769782],[43.851505,39.771945],[43.844657,39.775098],[43.838079,39.777621],[43.829338,39.778793],[43.824563,39.779153],[43.820327,39.780775],[43.816363,39.783208],[43.809784,39.783298],[43.801765,39.781136],[43.793024,39.780145],[43.787257,39.777351],[43.78122,39.774017],[43.776804,39.771674],[43.768514,39.769872],[43.753646,39.770142],[43.733191,39.771945],[43.719368,39.775231],[43.722337,39.778512],[43.725227,39.783121],[43.726399,39.785543],[43.728352,39.79226],[43.736554,39.81257],[43.738585,39.817804],[43.740069,39.821319],[43.742803,39.824913],[43.747412,39.829834],[43.748427,39.831006],[43.752411,39.835146],[43.755692,39.837802],[43.75991,39.841864],[43.763347,39.845691],[43.766237,39.847644],[43.773268,39.852097],[43.780298,39.857799],[43.788813,39.864908],[43.795999,39.871235],[43.799358,39.875922],[43.801546,39.878734],[43.802092,39.879984],[43.802405,39.882484],[43.802483,39.886858],[43.802405,39.892873],[43.802952,39.902481],[43.801702,39.908574],[43.800921,39.913339],[43.799124,39.919042],[43.798109,39.928415],[43.797874,39.93818],[43.797327,39.944663],[43.795453,39.953334],[43.794203,39.95849],[43.793422,39.968489],[43.793031,39.977628],[43.794574,39.986201],[43.795687,39.991181],[43.796331,39.995282],[43.797913,40.00325],[43.799729,40.009753],[43.801253,40.01403],[43.805061,40.019713],[43.807111,40.022994],[43.813966,40.030961],[43.818067,40.035883],[43.820059,40.038812],[43.823867,40.044378],[43.825361,40.047846],[43.825412,40.047934]]]}},{"type":"Feature","properties":{"id":"TR-D-76-003","parent_id":"TR-P-76","region_id":"TR-R-DOA","level":"district","municipality_type":null,"municipality_type_label":null,"is_metropolitan_municipality":null,"name":"Karakoyunlu","name_ascii":"karakoyunlu","slug":"karakoyunlu-igdir"},"geometry":{"type":"Polygon","coordinates":[[[44.096788,40.03286],[44.097391,40.032778],[44.098269,40.032757],[44.099023,40.032778],[44.100731,40.032655],[44.101369,40.032819],[44.102298,40.032941],[44.102535,40.032936],[44.1032,40.032881],[44.104801,40.032473],[44.10571,40.032181],[44.106823,40.031849],[44.108755,40.031283],[44.109512,40.031216],[44.109879,40.031183],[44.110991,40.031214],[44.111176,40.031269],[44.111725,40.03144],[44.112123,40.031578],[44.113323,40.03251],[44.114416,40.033378],[44.114547,40.033492],[44.114729,40.033649],[44.115259,40.0338],[44.115689,40.033923],[44.116224,40.03416],[44.116402,40.034239],[44.116528,40.034258],[44.11752,40.03441],[44.118309,40.034458],[44.119447,40.034445],[44.12073,40.034321],[44.122033,40.034129],[44.124043,40.033628],[44.125119,40.033251],[44.127321,40.031872],[44.127899,40.03134],[44.128912,40.030343],[44.129248,40.029746],[44.129557,40.02904],[44.129845,40.028704],[44.130311,40.028409],[44.131415,40.028032],[44.132629,40.027819],[44.133514,40.027833],[44.134193,40.028052],[44.135215,40.028615],[44.136666,40.030146],[44.137306,40.030823],[44.137985,40.031419],[44.13922,40.031968],[44.14079,40.032284],[44.142985,40.032963],[44.143643,40.033011],[44.144185,40.033038],[44.144871,40.032921],[44.145797,40.032633],[44.146289,40.032404],[44.146592,40.032263],[44.147573,40.031742],[44.148149,40.031563],[44.149199,40.031414],[44.150179,40.031392],[44.151921,40.031419],[44.153238,40.031351],[44.154356,40.031207],[44.155837,40.030891],[44.156551,40.030809],[44.15723,40.030775],[44.157798,40.030915],[44.158594,40.031165],[44.159164,40.031536],[44.159768,40.032015],[44.16035,40.032475],[44.160583,40.032853],[44.161166,40.033017],[44.161989,40.0331],[44.163128,40.033106],[44.16356,40.032901],[44.164127,40.032464],[44.164554,40.032187],[44.164945,40.031892],[44.165439,40.031639],[44.166433,40.031357],[44.167215,40.031083],[44.167373,40.030918],[44.167826,40.030541],[44.168244,40.030054],[44.16869,40.029526],[44.169142,40.028888],[44.169506,40.028463],[44.169607,40.028305],[44.169835,40.027949],[44.170658,40.027366],[44.172139,40.027167],[44.17285,40.026933],[44.173202,40.026947],[44.173552,40.02703],[44.17406,40.027256],[44.174512,40.027469],[44.175154,40.028084],[44.175184,40.028113],[44.175939,40.028888],[44.176652,40.029512],[44.177269,40.029704],[44.178873,40.029945],[44.179923,40.030136],[44.181803,40.030404],[44.183023,40.03061],[44.186569,40.030541],[44.187118,40.030637],[44.187673,40.030664],[44.187971,40.030772],[44.188318,40.030898],[44.1891,40.031508],[44.189415,40.031919],[44.189552,40.032338],[44.189525,40.032783],[44.189446,40.033094],[44.189429,40.033161],[44.189114,40.033956],[44.188682,40.034375],[44.188503,40.034553],[44.188146,40.03504],[44.187996,40.035767],[44.188078,40.036274],[44.188393,40.037008],[44.189525,40.038291],[44.189724,40.038432],[44.190245,40.038805],[44.191246,40.039347],[44.191919,40.039566],[44.19281,40.039848],[44.193661,40.040033],[44.193839,40.040064],[44.195046,40.04028],[44.197727,40.040252],[44.1984,40.040245],[44.200046,40.040259],[44.201232,40.040293],[44.202467,40.040259],[44.203502,40.040074],[44.204675,40.039792],[44.205462,40.039493],[44.206348,40.039114],[44.207171,40.038483],[44.208271,40.037484],[44.208296,40.037461],[44.208955,40.036823],[44.209339,40.036329],[44.209812,40.034697],[44.210148,40.034052],[44.21154,40.033215],[44.211931,40.033106],[44.212644,40.033051],[44.212932,40.033078],[44.213282,40.033243],[44.213563,40.033462],[44.213796,40.033887],[44.214208,40.034237],[44.216552,40.035527],[44.217932,40.036528],[44.218234,40.03696],[44.218549,40.037611],[44.218638,40.038475],[44.218988,40.039772],[44.21918,40.040382],[44.220051,40.041719],[44.220853,40.042652],[44.221738,40.043187],[44.222637,40.0434],[44.224296,40.043571],[44.224598,40.043489],[44.224866,40.043351],[44.225058,40.043036],[44.22562,40.042666],[44.22647,40.042439],[44.227746,40.04224],[44.228974,40.042035],[44.23016,40.041458],[44.230627,40.04139],[44.231676,40.041733],[44.232122,40.041987],[44.232252,40.042062],[44.232526,40.042439],[44.23267,40.042844],[44.232711,40.043852],[44.232513,40.044929],[44.232814,40.045711],[44.233095,40.046337],[44.233253,40.046691],[44.233569,40.047117],[44.233871,40.047398],[44.234241,40.047556],[44.235084,40.047597],[44.236826,40.0477],[44.237492,40.047741],[44.238075,40.047583],[44.238431,40.047435],[44.238472,40.047418],[44.239124,40.046876],[44.240063,40.045944],[44.240729,40.045594],[44.241024,40.045477],[44.241367,40.04545],[44.241799,40.045587],[44.242066,40.045752],[44.24226,40.045957],[44.242944,40.047137],[44.243452,40.047775],[44.243958,40.048554],[44.244151,40.048852],[44.244521,40.049167],[44.245097,40.049325],[44.245345,40.049335],[44.245989,40.049346],[44.246497,40.049311],[44.247937,40.049099],[44.251496,40.049503],[44.252525,40.049373],[44.253499,40.04914],[44.254226,40.0489],[44.254679,40.048735],[44.255549,40.048447],[44.257675,40.047946],[44.258403,40.047747],[44.258663,40.047617],[44.258739,40.047391],[44.258781,40.047147],[44.258828,40.046876],[44.258999,40.046698],[44.259232,40.046554],[44.260234,40.046437],[44.260632,40.046424],[44.261125,40.046424],[44.261626,40.046444],[44.262614,40.04678],[44.263587,40.046801],[44.263876,40.046836],[44.263985,40.046849],[44.264269,40.046875],[44.265933,40.047027],[44.266519,40.047276],[44.267065,40.047507],[44.267867,40.048069],[44.268566,40.048337],[44.269259,40.048755],[44.269582,40.048988],[44.269849,40.049084],[44.270617,40.04918],[44.271694,40.049263],[44.272846,40.049414],[44.275528,40.049516],[44.276405,40.049132],[44.276885,40.048975],[44.27788,40.048913],[44.278669,40.048872],[44.279238,40.048687],[44.280123,40.048049],[44.28076,40.047589],[44.281096,40.047287],[44.281405,40.046478],[44.281748,40.046149],[44.282015,40.045744],[44.282269,40.045333],[44.282612,40.04499],[44.283072,40.04464],[44.283545,40.044071],[44.284052,40.043728],[44.284546,40.043694],[44.285911,40.043755],[44.287255,40.043474],[44.288915,40.043529],[44.290588,40.043618],[44.292035,40.044132],[44.292649,40.044254],[44.293037,40.044331],[44.293873,40.044222],[44.294333,40.044023],[44.29471,40.043645],[44.294717,40.043179],[44.29458,40.042507],[44.294484,40.042034],[44.294556,40.041256],[44.294744,40.04047],[44.295073,40.039969],[44.295375,40.039619],[44.295835,40.038796],[44.296349,40.037445],[44.297419,40.036135],[44.297707,40.036026],[44.299984,40.035971],[44.300368,40.036101],[44.300875,40.036307],[44.301692,40.036471],[44.30379,40.036608],[44.304833,40.036951],[44.307555,40.03809],[44.307718,40.038138],[44.308973,40.03851],[44.309661,40.038741],[44.31069,40.03916],[44.311609,40.039297],[44.312281,40.03918],[44.314201,40.039084],[44.315532,40.038906],[44.316313,40.038597],[44.317184,40.038172],[44.318179,40.037747],[44.318721,40.037644],[44.319098,40.037459],[44.319256,40.037178],[44.319412,40.036899],[44.319423,40.03687],[44.319982,40.035429],[44.321107,40.033577],[44.32181,40.033182],[44.323569,40.032308],[44.323995,40.032068],[44.324742,40.031615],[44.326272,40.030854],[44.326507,40.030826],[44.327095,40.030765],[44.328507,40.030751],[44.328994,40.030779],[44.330359,40.03084],[44.330921,40.031025],[44.33103,40.031087],[44.331319,40.031252],[44.331827,40.031649],[44.332122,40.031869],[44.332519,40.032102],[44.332739,40.032226],[44.332951,40.032356],[44.333253,40.032479],[44.333713,40.032671],[44.334241,40.03276],[44.334831,40.032802],[44.335372,40.032706],[44.33601,40.032493],[44.336792,40.032068],[44.33719,40.031361],[44.337615,40.029928],[44.33769,40.029797],[44.337807,40.029619],[44.338047,40.029256],[44.338373,40.02885],[44.338548,40.028632],[44.339165,40.028186],[44.339919,40.027726],[44.340523,40.027486],[44.341188,40.027397],[44.341558,40.027349],[44.341858,40.027227],[44.342292,40.026835],[44.342717,40.026725],[44.343067,40.026629],[44.343534,40.026629],[44.345433,40.026581],[44.345665,40.026593],[44.347038,40.026663],[44.349151,40.027417],[44.350022,40.027459],[44.35055,40.027486],[44.350954,40.027452],[44.351187,40.027424],[44.351983,40.027205],[44.352209,40.027033],[44.352508,40.02686],[44.353757,40.025832],[44.354445,40.024825],[44.354774,40.024166],[44.355124,40.023488],[44.355001,40.022562],[44.355007,40.022239],[44.355103,40.021848],[44.355194,40.021747],[44.357154,40.019551],[44.357593,40.019194],[44.35808,40.018913],[44.358622,40.018481],[44.359013,40.017781],[44.359513,40.017281],[44.359706,40.017165],[44.360329,40.016766],[44.361134,40.016625],[44.36142,40.016574],[44.362181,40.016327],[44.363059,40.015833],[44.363354,40.015662],[44.36448,40.014814],[44.365185,40.014112],[44.36561,40.013563],[44.366214,40.01298],[44.366913,40.012384],[44.367174,40.012027],[44.367199,40.011952],[44.367579,40.010806],[44.367846,40.01045],[44.368237,40.010059],[44.368676,40.009791],[44.369691,40.009428],[44.37092,40.009152],[44.370974,40.00914],[44.372715,40.008317],[44.374656,40.007281],[44.375099,40.006342],[44.375157,40.006218],[44.377749,40.004791],[44.379766,40.003975],[44.380692,40.003769],[44.38102,40.003746],[44.381686,40.003728],[44.382502,40.003797],[44.383366,40.004009],[44.384601,40.004147],[44.385348,40.004284],[44.388798,40.004826],[44.38944,40.004927],[44.389662,40.004963],[44.390307,40.004956],[44.390438,40.004943],[44.391384,40.004853],[44.391973,40.004647],[44.392659,40.004469],[44.393373,40.004092],[44.394415,40.003646],[44.395471,40.00333],[44.397323,40.003083],[44.397762,40.003055],[44.398599,40.003001],[44.399867,40.003001],[44.401349,40.003262],[44.402501,40.003227],[44.403742,40.003262],[44.405333,40.003248],[44.406546,40.003151],[44.406623,40.003145],[44.40796,40.003001],[44.410004,40.002713],[44.41172,40.002266],[44.414407,40.001725],[44.417329,40.000779],[44.418607,40.000357],[44.4187,40.000326],[44.41905,40.000209],[44.419413,39.999976],[44.419852,39.999434],[44.420305,39.99892],[44.420723,39.998179],[44.42145,39.996869],[44.421725,39.996334],[44.422033,39.995564],[44.42215,39.995271],[44.422273,39.994935],[44.422712,39.994345],[44.423464,39.993669],[44.423665,39.993488],[44.425517,39.992116],[44.426704,39.991396],[44.429735,39.989846],[44.430358,39.989365],[44.431246,39.9887],[44.432766,39.987562],[44.434694,39.986534],[44.43601,39.986019],[44.440029,39.984819],[44.441198,39.984388],[44.435666,39.980892],[44.430009,39.978808],[44.422666,39.976327],[44.414628,39.975037],[44.405003,39.973747],[44.393988,39.972258],[44.38734,39.972258],[44.381286,39.972655],[44.374439,39.973747],[44.364516,39.976128],[44.351616,39.982182],[44.345364,39.986349],[44.335937,39.990716],[44.327404,39.992006],[44.318969,39.993196],[44.314404,39.993692],[44.305913,39.992492],[44.30458,39.992303],[44.296046,39.989326],[44.2891,39.985456],[44.283047,39.979105],[44.281856,39.972755],[44.282948,39.959259],[44.287016,39.949038],[44.290489,39.937825],[44.295749,39.927108],[44.299916,39.919169],[44.305539,39.90488],[44.308053,39.898],[44.31189,39.890723],[44.313346,39.885166],[44.314536,39.878815],[44.315992,39.873655],[44.31629,39.870898],[44.316521,39.868759],[44.317447,39.861086],[44.317844,39.855396],[44.310932,39.857558],[44.29854,39.861497],[44.279173,39.868801],[44.254636,39.876104],[44.240931,39.880454],[44.234202,39.883572],[44.217542,39.890712],[44.211552,39.894815],[44.188328,39.910818],[44.181106,39.917137],[44.175526,39.922635],[44.169391,39.928851],[44.160405,39.939561],[44.152158,39.952055],[44.141079,39.974151],[44.133139,39.984676],[44.128031,39.992738],[44.12126,39.999386],[44.118552,40.001294],[44.116583,40.001971],[44.114982,40.003325],[44.114059,40.004433],[44.112274,40.00591],[44.110182,40.006895],[44.108028,40.007695],[44.107227,40.008372],[44.105873,40.011326],[44.103596,40.01545],[44.099965,40.022328],[44.097195,40.028606],[44.096728,40.032559],[44.096788,40.03286]]]}},{"type":"Feature","properties":{"id":"TR-D-76-004","parent_id":"TR-P-76","region_id":"TR-R-DOA","level":"district","municipality_type":null,"municipality_type_label":null,"is_metropolitan_municipality":null,"name":"Tuzluca","name_ascii":"tuzluca","slug":"tuzluca-igdir"},"geometry":{"type":"Polygon","coordinates":[[[43.64859,40.13154],[43.648513,40.131297],[43.648552,40.130973],[43.648836,40.130524],[43.648982,40.130128],[43.649087,40.129394],[43.649345,40.12905],[43.649841,40.128681],[43.649981,40.128632],[43.650303,40.128522],[43.651354,40.127703],[43.652094,40.127313],[43.652801,40.127075],[43.653508,40.12691],[43.653878,40.126843],[43.654254,40.126731],[43.654763,40.126421],[43.655001,40.126163],[43.655312,40.125865],[43.655516,40.125575],[43.655886,40.125106],[43.656197,40.12461],[43.656547,40.124015],[43.656831,40.122806],[43.656897,40.122264],[43.656719,40.121755],[43.656421,40.121194],[43.655589,40.119615],[43.655219,40.118564],[43.655093,40.11785],[43.655027,40.117467],[43.654803,40.116727],[43.654756,40.116159],[43.654766,40.115796],[43.654789,40.11489],[43.654952,40.114272],[43.655047,40.114004],[43.655483,40.113522],[43.656799,40.112631],[43.656893,40.112591],[43.658291,40.111996],[43.659183,40.11156],[43.660333,40.111024],[43.661427,40.110477],[43.661655,40.110364],[43.662421,40.109894],[43.664106,40.108916],[43.665328,40.108275],[43.666855,40.107866],[43.667476,40.107879],[43.668236,40.107945],[43.668996,40.108104],[43.669491,40.108223],[43.670284,40.108447],[43.671592,40.108513],[43.672081,40.108454],[43.672663,40.108236],[43.673284,40.107919],[43.67378,40.107476],[43.67454,40.106624],[43.674791,40.105903],[43.675009,40.104575],[43.675042,40.104047],[43.674883,40.103756],[43.674744,40.103445],[43.674619,40.103062],[43.674572,40.102494],[43.675081,40.101383],[43.675231,40.101298],[43.676409,40.100623],[43.677057,40.100465],[43.67822,40.100306],[43.678702,40.100273],[43.679449,40.100214],[43.679905,40.100121],[43.680453,40.099949],[43.681253,40.099665],[43.682033,40.099256],[43.682681,40.099044],[43.684319,40.098773],[43.686446,40.098482],[43.68905,40.097504],[43.690662,40.097088],[43.692387,40.096645],[43.693041,40.0965],[43.693761,40.096328],[43.694316,40.09617],[43.694964,40.095859],[43.69569,40.095324],[43.696298,40.094742],[43.696662,40.094201],[43.696695,40.094042],[43.69675,40.093504],[43.696853,40.092489],[43.6969,40.09208],[43.697012,40.091505],[43.696886,40.090844],[43.696384,40.089998],[43.696245,40.089364],[43.696239,40.088789],[43.696391,40.088036],[43.696741,40.087467],[43.697184,40.087077],[43.697686,40.086833],[43.698109,40.086701],[43.700811,40.086628],[43.701842,40.086496],[43.702463,40.086509],[43.70395,40.086549],[43.704014,40.086538],[43.70469,40.08643],[43.705602,40.086159],[43.706111,40.085934],[43.707194,40.085458],[43.707901,40.085154],[43.70821,40.084971],[43.709348,40.084295],[43.710557,40.08337],[43.711628,40.082835],[43.712784,40.082333],[43.713894,40.082022],[43.714614,40.081725],[43.715903,40.080892],[43.717502,40.079716],[43.718196,40.079524],[43.719431,40.079313],[43.720852,40.079069],[43.723462,40.078771],[43.727044,40.078408],[43.728282,40.078341],[43.729019,40.078302],[43.729547,40.078267],[43.730308,40.078216],[43.732964,40.077786],[43.735072,40.077291],[43.736842,40.077013],[43.738442,40.076762],[43.741406,40.076251],[43.744329,40.075639],[43.745201,40.075599],[43.745736,40.075672],[43.746622,40.076194],[43.747091,40.07659],[43.747778,40.07696],[43.748518,40.077152],[43.750837,40.07733],[43.751961,40.07735],[43.753718,40.078004],[43.75422,40.078189],[43.755053,40.07846],[43.755674,40.078559],[43.756665,40.078698],[43.757762,40.079174],[43.760762,40.080641],[43.761099,40.080918],[43.761304,40.081083],[43.761846,40.081427],[43.76252,40.08179],[43.763306,40.082022],[43.764211,40.082108],[43.764852,40.082088],[43.765546,40.08179],[43.766352,40.081671],[43.767079,40.081427],[43.7685,40.080667],[43.768909,40.080495],[43.769495,40.080437],[43.769702,40.080416],[43.770006,40.080376],[43.770165,40.080284],[43.770548,40.080019],[43.771196,40.079094],[43.771497,40.078672],[43.771711,40.078374],[43.772187,40.077786],[43.773032,40.076947],[43.773482,40.07663],[43.774261,40.076213],[43.774731,40.076035],[43.775854,40.075156],[43.776918,40.074449],[43.777638,40.074033],[43.778319,40.073782],[43.779885,40.073101],[43.780882,40.072995],[43.780935,40.072986],[43.781444,40.072896],[43.781933,40.072731],[43.782223,40.072544],[43.783796,40.071528],[43.784563,40.071013],[43.785521,40.070478],[43.78638,40.069949],[43.787384,40.069348],[43.788038,40.069196],[43.788752,40.069434],[43.789607,40.070018],[43.789651,40.070048],[43.790067,40.070174],[43.790688,40.07022],[43.791758,40.07018],[43.792545,40.070035],[43.793569,40.069942],[43.79423,40.069955],[43.795254,40.069843],[43.795604,40.069724],[43.798663,40.068859],[43.799086,40.068614],[43.799939,40.067775],[43.800137,40.067312],[43.800329,40.066903],[43.800666,40.066539],[43.801412,40.066103],[43.802146,40.065746],[43.802694,40.065541],[43.803547,40.065297],[43.804961,40.064345],[43.805648,40.063777],[43.805847,40.063622],[43.806758,40.062911],[43.807359,40.062462],[43.808192,40.061933],[43.809044,40.061597],[43.809605,40.061616],[43.810385,40.061682],[43.811922,40.061872],[43.812586,40.061953],[43.814357,40.061927],[43.814954,40.061755],[43.815301,40.061656],[43.818275,40.060783],[43.820369,40.060678],[43.820862,40.060702],[43.820905,40.060704],[43.822682,40.060308],[43.823356,40.06005],[43.823918,40.05964],[43.824889,40.058735],[43.82512,40.058332],[43.825186,40.058015],[43.825193,40.057413],[43.825001,40.057037],[43.82495,40.056965],[43.824684,40.056588],[43.824334,40.056402],[43.823845,40.056191],[43.8236,40.0559],[43.823541,40.055543],[43.823686,40.055147],[43.823884,40.054605],[43.82401,40.054169],[43.824096,40.053548],[43.824184,40.052704],[43.824208,40.052477],[43.8244,40.05072],[43.824493,40.049683],[43.824499,40.049623],[43.824757,40.048797],[43.825054,40.048295],[43.825265,40.04805],[43.825412,40.047934],[43.825361,40.047846],[43.823867,40.044378],[43.820059,40.038812],[43.818067,40.035883],[43.813966,40.030961],[43.807111,40.022994],[43.805061,40.019713],[43.801253,40.01403],[43.799729,40.009753],[43.797913,40.00325],[43.796331,39.995282],[43.795687,39.991181],[43.794574,39.986201],[43.793031,39.977628],[43.793422,39.968489],[43.794203,39.95849],[43.795453,39.953334],[43.797327,39.944663],[43.797874,39.93818],[43.798109,39.928415],[43.799124,39.919042],[43.800921,39.913339],[43.801702,39.908574],[43.802952,39.902481],[43.802405,39.892873],[43.802483,39.886858],[43.802405,39.882484],[43.802092,39.879984],[43.801546,39.878734],[43.799358,39.875922],[43.795999,39.871235],[43.788813,39.864908],[43.780298,39.857799],[43.773268,39.852097],[43.766237,39.847644],[43.763347,39.845691],[43.75991,39.841864],[43.755692,39.837802],[43.752411,39.835146],[43.748427,39.831006],[43.747412,39.829834],[43.742803,39.824913],[43.740069,39.821319],[43.738585,39.817804],[43.736554,39.81257],[43.728352,39.79226],[43.726399,39.785543],[43.725227,39.783121],[43.722337,39.778512],[43.719368,39.775231],[43.714448,39.775999],[43.710393,39.77618],[43.706789,39.777171],[43.700841,39.779514],[43.694173,39.783028],[43.687055,39.786092],[43.677683,39.788074],[43.669393,39.788795],[43.660202,39.788795],[43.654975,39.788705],[43.648668,39.787894],[43.643622,39.786002],[43.640197,39.783929],[43.637404,39.783208],[43.634971,39.783569],[43.626321,39.78492],[43.619022,39.786452],[43.610461,39.788345],[43.603072,39.789606],[43.596314,39.790868],[43.5928,39.79267],[43.587573,39.796995],[43.584329,39.80078],[43.581175,39.805375],[43.577841,39.809611],[43.574958,39.812854],[43.572074,39.818261],[43.568109,39.825109],[43.563964,39.831417],[43.563514,39.831795],[43.558378,39.836103],[43.550808,39.840068],[43.545221,39.84223],[43.5354,39.844303],[43.526659,39.844934],[43.514494,39.843222],[43.509313,39.841825],[43.504131,39.840428],[43.498725,39.837725],[43.496292,39.836103],[43.49476,39.833039],[43.493949,39.829074],[43.491696,39.819433],[43.489353,39.810872],[43.488272,39.806637],[43.48692,39.799879],[43.484848,39.795103],[43.475476,39.787804],[43.468928,39.785595],[43.460248,39.782668],[43.455098,39.78192],[43.454661,39.781857],[43.451237,39.783479],[43.441955,39.791859],[43.430962,39.801591],[43.426907,39.805015],[43.420419,39.810061],[43.420143,39.810509],[43.418527,39.813125],[43.416364,39.818712],[43.41303,39.827542],[43.412309,39.834931],[43.412399,39.84214],[43.411949,39.849259],[43.411588,39.857369],[43.411288,39.863256],[43.411138,39.8662],[43.409606,39.872417],[43.403569,39.884312],[43.398793,39.89134],[43.393026,39.901162],[43.391584,39.905037],[43.390773,39.909272],[43.390683,39.911165],[43.389782,39.912246],[43.387709,39.913958],[43.384736,39.916481],[43.383023,39.917923],[43.381131,39.918463],[43.378969,39.919274],[43.377887,39.920176],[43.376896,39.922068],[43.375725,39.923239],[43.375544,39.92345],[43.374103,39.925132],[43.373021,39.926934],[43.372481,39.928466],[43.372139,39.929286],[43.37203,39.929547],[43.371922,39.929679],[43.371219,39.930538],[43.369056,39.933241],[43.368065,39.934773],[43.365993,39.936756],[43.362839,39.939549],[43.361397,39.941171],[43.358874,39.944956],[43.357522,39.947389],[43.355754,39.949225],[43.355179,39.949822],[43.354494,39.950344],[43.353287,39.951263],[43.350764,39.952345],[43.350043,39.95275],[43.349322,39.953156],[43.348541,39.953847],[43.346979,39.955228],[43.345628,39.957031],[43.343645,39.960094],[43.340221,39.963158],[43.337067,39.96478],[43.335896,39.965501],[43.335355,39.966492],[43.335355,39.967844],[43.335265,39.968835],[43.334364,39.969736],[43.333959,39.970006],[43.332742,39.970817],[43.330309,39.972259],[43.328492,39.972778],[43.327786,39.97298],[43.325804,39.97316],[43.32558,39.973229],[43.324632,39.973521],[43.324272,39.974332],[43.324722,39.975683],[43.325203,39.976324],[43.325804,39.977125],[43.325623,39.978477],[43.324452,39.979017],[43.322796,39.978465],[43.32256,39.978387],[43.322137,39.978324],[43.320127,39.978026],[43.316883,39.978296],[43.31463,39.978387],[43.312828,39.979198],[43.312412,39.979281],[43.311026,39.979558],[43.308953,39.979107],[43.307782,39.978598],[43.306881,39.978206],[43.304718,39.977215],[43.302195,39.977666],[43.299582,39.979378],[43.298633,39.98118],[43.297779,39.982802],[43.29755,39.983683],[43.297239,39.984874],[43.296067,39.988299],[43.294896,39.994426],[43.294865,39.994877],[43.294445,40.000914],[43.293905,40.003978],[43.291291,40.008844],[43.287056,40.012809],[43.281289,40.017494],[43.288705,40.020083],[43.29068,40.020932],[43.29591,40.023182],[43.299848,40.025109],[43.306298,40.029466],[43.308896,40.031141],[43.321295,40.038514],[43.327997,40.042703],[43.331851,40.045216],[43.332843,40.045745],[43.334364,40.046557],[43.342156,40.0515],[43.346764,40.054348],[43.349612,40.056831],[43.350031,40.057197],[43.351958,40.059794],[43.353335,40.061936],[43.35422,40.063312],[43.354692,40.065019],[43.355309,40.06725],[43.355393,40.071942],[43.353131,40.07856],[43.351371,40.084508],[43.350165,40.086921],[43.349863,40.087524],[43.347685,40.090624],[43.344502,40.094227],[43.344165,40.095147],[43.343245,40.097662],[43.342742,40.100343],[43.342801,40.106089],[43.342826,40.108469],[43.342829,40.108579],[43.342874,40.110307],[43.342929,40.112366],[43.342994,40.114836],[43.343496,40.118355],[43.343786,40.120787],[43.343915,40.121874],[43.343636,40.126192],[43.34358,40.127068],[43.343543,40.128019],[43.343512,40.128836],[43.343349,40.131758],[43.343288,40.132844],[43.342818,40.13566],[43.342738,40.138371],[43.343007,40.138352],[43.344255,40.138264],[43.372269,40.128348],[43.390822,40.136014],[43.405419,40.134983],[43.425792,40.126351],[43.45733,40.113413],[43.460708,40.11273],[43.475263,40.109004],[43.488383,40.111525],[43.493423,40.112493],[43.494211,40.112644],[43.513887,40.118149],[43.528779,40.121306],[43.545641,40.120095],[43.560875,40.117847],[43.561382,40.117863],[43.562363,40.117895],[43.568421,40.124252],[43.56947,40.125163],[43.573671,40.127798],[43.57894,40.130575],[43.584067,40.132569],[43.587058,40.133921],[43.590689,40.135132],[43.594748,40.135702],[43.600088,40.135274],[43.60194,40.134776],[43.605287,40.133209],[43.611197,40.131002],[43.616181,40.128866],[43.621166,40.12616],[43.624014,40.125448],[43.625367,40.12559],[43.628642,40.125448],[43.631206,40.125234],[43.632345,40.125519],[43.6332,40.126374],[43.635407,40.128866],[43.636689,40.13029],[43.636937,40.130563],[43.637401,40.131073],[43.637852,40.131424],[43.637936,40.13149],[43.638042,40.131572],[43.638825,40.131572],[43.639145,40.1315],[43.639466,40.131429],[43.640249,40.131144],[43.640498,40.131002],[43.640747,40.13086],[43.641673,40.130717],[43.642741,40.13086],[43.643079,40.130972],[43.64327,40.131036],[43.643596,40.131144],[43.644034,40.131304],[43.644379,40.131429],[43.64559,40.131572],[43.645881,40.131572],[43.64619,40.131572],[43.646735,40.131572],[43.64676,40.131572],[43.646819,40.131572],[43.646872,40.131572],[43.647227,40.131572],[43.64859,40.13154]]]}}]}