{"type":"FeatureCollection","province":"Isparta","province_id":"TR-P-32","features":[{"type":"Feature","properties":{"id":"TR-D-32-001","parent_id":"TR-P-32","region_id":"TR-R-AKD","level":"district","municipality_type":null,"municipality_type_label":null,"is_metropolitan_municipality":null,"name":"Aksu","name_ascii":"aksu","slug":"aksu-isparta"},"geometry":{"type":"Polygon","coordinates":[[[31.086329,37.71754],[31.087114,37.722706],[31.087447,37.726437],[31.08838,37.733966],[31.087713,37.73843],[31.083782,37.744427],[31.082983,37.747692],[31.082716,37.752356],[31.082916,37.760085],[31.083516,37.764349],[31.084249,37.76888],[31.084448,37.773144],[31.083116,37.775477],[31.078985,37.778475],[31.073321,37.779474],[31.061395,37.781007],[31.05693,37.78094],[31.035342,37.780607],[31.014754,37.78194],[31.006425,37.783605],[30.986103,37.788536],[30.980306,37.789069],[30.978441,37.790402],[30.976842,37.792334],[30.974643,37.796731],[30.974443,37.799463],[30.974443,37.80446],[30.976175,37.806926],[30.977841,37.808791],[30.97964,37.810324],[30.981439,37.81139],[30.982905,37.812656],[30.983171,37.813855],[30.982972,37.816454],[30.982838,37.818919],[30.982572,37.820318],[30.982772,37.821184],[30.987769,37.830313],[30.990301,37.833711],[30.993299,37.836909],[30.998629,37.84204],[31.001095,37.844838],[31.005226,37.850302],[31.008224,37.853033],[31.010689,37.853766],[31.015753,37.854499],[31.021817,37.855032],[31.027347,37.855299],[31.032011,37.855232],[31.036075,37.855565],[31.039074,37.856765],[31.043071,37.857298],[31.04587,37.857164],[31.050267,37.855499],[31.054932,37.8531],[31.059329,37.852234],[31.067724,37.851767],[31.077053,37.851834],[31.081917,37.851234],[31.089446,37.849968],[31.093976,37.84697],[31.098574,37.843505],[31.103038,37.842106],[31.121828,37.840707],[31.125492,37.840774],[31.135953,37.843305],[31.146281,37.845904],[31.148479,37.846504],[31.157275,37.847703],[31.176464,37.851368],[31.180195,37.851834],[31.192722,37.854366],[31.200717,37.856898],[31.205048,37.858297],[31.207047,37.860629],[31.210445,37.864227],[31.213577,37.868158],[31.215219,37.869723],[31.216081,37.868802],[31.219273,37.862311],[31.222897,37.855171],[31.225818,37.849816],[31.233607,37.837753],[31.238259,37.829639],[31.241451,37.827259],[31.243777,37.825528],[31.248212,37.822391],[31.251891,37.819848],[31.260221,37.812329],[31.265144,37.807191],[31.267902,37.804756],[31.272717,37.799672],[31.276341,37.794912],[31.27845,37.791828],[31.281642,37.787068],[31.284022,37.7822],[31.285374,37.774735],[31.286402,37.765215],[31.285645,37.762131],[31.284292,37.757047],[31.284509,37.754991],[31.286727,37.748067],[31.290838,37.739899],[31.295327,37.72524],[31.296193,37.722049],[31.297112,37.7181],[31.298789,37.716044],[31.301602,37.713448],[31.303333,37.712312],[31.306687,37.710581],[31.309337,37.706199],[31.310149,37.704252],[31.311772,37.703386],[31.315288,37.702034],[31.319399,37.6996],[31.321508,37.697599],[31.322374,37.69511],[31.323888,37.685157],[31.3247,37.681641],[31.325673,37.679802],[31.326323,37.678666],[31.328324,37.676502],[31.330542,37.675637],[31.332706,37.674934],[31.336763,37.674068],[31.341795,37.673408],[31.339557,37.671035],[31.336922,37.664066],[31.335987,37.663216],[31.334627,37.655566],[31.334117,37.647916],[31.334117,37.640352],[31.334797,37.631682],[31.337177,37.625562],[31.340407,37.619018],[31.344657,37.608138],[31.347802,37.604483],[31.352572,37.597832],[31.353974,37.59439],[31.345198,37.591605],[31.339179,37.589384],[31.331333,37.584943],[31.327041,37.582674],[31.323883,37.579417],[31.32172,37.575898],[31.318891,37.574055],[31.315536,37.571753],[31.310405,37.569121],[31.306786,37.568266],[31.30251,37.567279],[31.299944,37.566029],[31.297839,37.564319],[31.295602,37.562411],[31.292642,37.561095],[31.288629,37.561095],[31.283168,37.561227],[31.275273,37.561687],[31.271721,37.561885],[31.263761,37.563858],[31.258432,37.566424],[31.255274,37.570174],[31.254484,37.572411],[31.253958,37.575437],[31.254484,37.580305],[31.253761,37.582871],[31.25284,37.5857],[31.252248,37.588924],[31.250274,37.592674],[31.248366,37.595831],[31.2458,37.59866],[31.243498,37.600634],[31.240537,37.601555],[31.23705,37.603726],[31.23159,37.608265],[31.22784,37.610963],[31.223432,37.612213],[31.221459,37.613002],[31.216064,37.617147],[31.212117,37.619121],[31.204551,37.620831],[31.200933,37.620568],[31.197183,37.619186],[31.191722,37.618792],[31.184025,37.619581],[31.174946,37.624055],[31.170407,37.627213],[31.166262,37.630634],[31.158499,37.637015],[31.154223,37.641423],[31.148697,37.645896],[31.146723,37.648133],[31.142841,37.65412],[31.140999,37.656817],[31.13942,37.660765],[31.138434,37.663462],[31.136592,37.672212],[31.136197,37.67583],[31.134618,37.681027],[31.131197,37.685041],[31.129815,37.686291],[31.125539,37.690633],[31.121658,37.693856],[31.112908,37.700369],[31.111329,37.701553],[31.106724,37.70333],[31.101132,37.706619],[31.097316,37.708395],[31.093829,37.710895],[31.091263,37.713264],[31.088895,37.715237],[31.086329,37.71754]]]}},{"type":"Feature","properties":{"id":"TR-D-32-002","parent_id":"TR-P-32","region_id":"TR-R-AKD","level":"district","municipality_type":null,"municipality_type_label":null,"is_metropolitan_municipality":null,"name":"Atabey","name_ascii":"atabey","slug":"atabey-isparta"},"geometry":{"type":"Polygon","coordinates":[[[30.524813,37.999576],[30.531981,38.00055],[30.544725,38.003293],[30.550565,38.00524],[30.555079,38.007806],[30.55915,38.009665],[30.561409,38.009995],[30.562778,38.010196],[30.577203,38.010373],[30.584283,38.009222],[30.594725,38.008868],[30.606407,38.01055],[30.617646,38.012939],[30.630744,38.015329],[30.635611,38.016833],[30.645346,38.020904],[30.650567,38.022054],[30.658974,38.025417],[30.670833,38.031524],[30.681541,38.037453],[30.696055,38.047719],[30.702161,38.053028],[30.71402,38.057542],[30.723666,38.059666],[30.733932,38.060993],[30.752095,38.065984],[30.756375,38.066724],[30.756156,38.063521],[30.754846,38.052457],[30.7539,38.049618],[30.753245,38.046052],[30.751425,38.041684],[30.749387,38.038773],[30.747276,38.036516],[30.745456,38.035061],[30.741817,38.032367],[30.738541,38.028801],[30.735994,38.025307],[30.734319,38.022832],[30.731772,38.019411],[30.728205,38.015699],[30.723692,38.012714],[30.720344,38.011477],[30.71634,38.010312],[30.712701,38.009293],[30.710881,38.007473],[30.707824,38.003907],[30.703602,37.99772],[30.7004,37.993134],[30.697124,37.988548],[30.697051,37.986947],[30.697852,37.981124],[30.698216,37.976247],[30.69938,37.972098],[30.700763,37.969914],[30.703675,37.966566],[30.70615,37.96329],[30.709134,37.960597],[30.711172,37.958704],[30.712119,37.957249],[30.712555,37.954774],[30.712774,37.952736],[30.714157,37.95077],[30.71685,37.948368],[30.723255,37.939925],[30.729661,37.932282],[30.732936,37.929589],[30.733155,37.927915],[30.733883,37.924785],[30.73643,37.921363],[30.737668,37.919689],[30.739633,37.916632],[30.739924,37.91423],[30.739851,37.913065],[30.739124,37.912774],[30.735702,37.912556],[30.732572,37.911974],[30.723838,37.910518],[30.719034,37.909353],[30.708552,37.906223],[30.698216,37.902948],[30.691228,37.900546],[30.675506,37.896979],[30.658837,37.888681],[30.65214,37.885114],[30.6477,37.883149],[30.639329,37.880674],[30.636709,37.880674],[30.625208,37.881839],[30.618657,37.883149],[30.61196,37.88657],[30.604536,37.89283],[30.600387,37.89596],[30.596165,37.899745],[30.592234,37.901346],[30.586557,37.902729],[30.576221,37.902438],[30.570325,37.902147],[30.56292,37.90923],[30.556636,37.916045],[30.551769,37.924186],[30.546017,37.935249],[30.54407,37.939585],[30.543716,37.946576],[30.543804,37.950736],[30.546017,37.956842],[30.546813,37.960647],[30.547521,37.966665],[30.547698,37.970824],[30.548052,37.973302],[30.547167,37.97578],[30.545132,37.978878],[30.541238,37.984541],[30.537344,37.989851],[30.533893,37.99348],[30.528229,37.996754],[30.524813,37.999576]]]}},{"type":"Feature","properties":{"id":"TR-D-32-003","parent_id":"TR-P-32","region_id":"TR-R-AKD","level":"district","municipality_type":null,"municipality_type_label":null,"is_metropolitan_municipality":null,"name":"Eğirdir","name_ascii":"egirdir","slug":"egirdir-isparta"},"geometry":{"type":"Polygon","coordinates":[[[30.796515,37.508382],[30.79609,37.50885],[30.795427,37.509564],[30.794754,37.51027],[30.794057,37.510958],[30.793693,37.51129],[30.793313,37.51161],[30.792929,37.511905],[30.79253,37.512189],[30.792119,37.512464],[30.791701,37.512732],[30.790847,37.513257],[30.789541,37.514023],[30.78866,37.514524],[30.787739,37.51503],[30.787708,37.515046],[30.787485,37.515163],[30.786871,37.515487],[30.78562,37.516126],[30.785162,37.516383],[30.785101,37.51642],[30.784844,37.516577],[30.784494,37.516824],[30.784184,37.517094],[30.783944,37.517364],[30.783742,37.517655],[30.783575,37.517963],[30.78344,37.518283],[30.783338,37.518615],[30.78326,37.51902],[30.783237,37.519241],[30.783235,37.519261],[30.783226,37.519348],[30.783197,37.519856],[30.783192,37.520282],[30.783187,37.521585],[30.783175,37.522463],[30.783114,37.524656],[30.783076,37.525608],[30.783074,37.52566],[30.782991,37.527719],[30.782946,37.528717],[30.782941,37.528843],[30.782864,37.530541],[30.78284,37.531092],[30.782825,37.531411],[30.782821,37.531494],[30.782716,37.533832],[30.782246,37.534335],[30.782071,37.534523],[30.782056,37.534539],[30.780529,37.536175],[30.778449,37.538404],[30.777454,37.539453],[30.776783,37.540146],[30.776118,37.540819],[30.775425,37.54152],[30.774271,37.542677],[30.774201,37.542747],[30.769961,37.546996],[30.769498,37.547457],[30.768933,37.54802],[30.768241,37.548698],[30.767592,37.549312],[30.767575,37.549328],[30.767564,37.549339],[30.767174,37.549693],[30.766805,37.550013],[30.76634,37.550388],[30.766296,37.550422],[30.766256,37.550452],[30.766029,37.550625],[30.765208,37.551203],[30.76352,37.552321],[30.762751,37.552846],[30.762719,37.552868],[30.762284,37.553182],[30.761895,37.553485],[30.761516,37.553807],[30.761155,37.554141],[30.760813,37.554486],[30.760492,37.554842],[30.760194,37.555208],[30.759926,37.555588],[30.759693,37.555984],[30.759489,37.556392],[30.759305,37.556809],[30.759136,37.557232],[30.758826,37.558088],[30.758534,37.558953],[30.757114,37.563288],[30.754946,37.569775],[30.75454,37.571076],[30.754305,37.571949],[30.754217,37.57233],[30.757487,37.572421],[30.763394,37.573483],[30.773616,37.576337],[30.779191,37.578461],[30.784766,37.58105],[30.788417,37.581913],[30.798505,37.58543],[30.804346,37.589479],[30.806603,37.591205],[30.808461,37.59532],[30.812112,37.599634],[30.816293,37.602754],[30.820342,37.606205],[30.821736,37.610851],[30.825586,37.616294],[30.833285,37.625785],[30.835409,37.630431],[30.835873,37.633352],[30.835608,37.636338],[30.835409,37.638927],[30.834148,37.643706],[30.833285,37.655719],[30.831957,37.663352],[30.830763,37.669392],[30.82917,37.67364],[30.827577,37.677158],[30.825918,37.680875],[30.823727,37.684591],[30.819147,37.690897],[30.818218,37.694348],[30.816692,37.698795],[30.815497,37.702711],[30.813639,37.707026],[30.811382,37.711273],[30.808329,37.716384],[30.806337,37.720499],[30.803085,37.727203],[30.800895,37.730389],[30.798107,37.733973],[30.795917,37.735699],[30.792532,37.739084],[30.790151,37.74144],[30.788209,37.744725],[30.786168,37.750848],[30.784974,37.75488],[30.783879,37.758564],[30.781091,37.765483],[30.780046,37.767574],[30.778544,37.771009],[30.77715,37.773598],[30.773964,37.782292],[30.772836,37.790191],[30.770911,37.796961],[30.768522,37.80174],[30.764672,37.806585],[30.762813,37.809904],[30.761088,37.81289],[30.758101,37.819196],[30.755446,37.824373],[30.753588,37.828289],[30.751596,37.832006],[30.748278,37.837183],[30.747216,37.839506],[30.746357,37.842471],[30.745648,37.851474],[30.746499,37.855869],[30.747775,37.857287],[30.753092,37.860761],[30.757203,37.862604],[30.759826,37.865156],[30.763229,37.869976],[30.767412,37.87501],[30.768971,37.877136],[30.768971,37.878554],[30.769255,37.886281],[30.768688,37.889259],[30.767057,37.891669],[30.761173,37.897056],[30.75933,37.898403],[30.757132,37.900885],[30.754155,37.903507],[30.74976,37.906627],[30.746145,37.909391],[30.741608,37.91251],[30.739851,37.913065],[30.739924,37.91423],[30.739633,37.916632],[30.737668,37.919689],[30.73643,37.921363],[30.733883,37.924785],[30.733155,37.927915],[30.732936,37.929589],[30.729661,37.932282],[30.723255,37.939925],[30.71685,37.948368],[30.714157,37.95077],[30.712774,37.952736],[30.712555,37.954774],[30.712119,37.957249],[30.711172,37.958704],[30.709134,37.960597],[30.70615,37.96329],[30.703675,37.966566],[30.700763,37.969914],[30.69938,37.972098],[30.698216,37.976247],[30.697852,37.981124],[30.697051,37.986947],[30.697124,37.988548],[30.7004,37.993134],[30.703602,37.99772],[30.707824,38.003907],[30.710881,38.007473],[30.712701,38.009293],[30.71634,38.010312],[30.720344,38.011477],[30.723692,38.012714],[30.728205,38.015699],[30.731772,38.019411],[30.734319,38.022832],[30.735994,38.025307],[30.738541,38.028801],[30.741817,38.032367],[30.745456,38.035061],[30.747276,38.036516],[30.749387,38.038773],[30.751425,38.041684],[30.753245,38.046052],[30.7539,38.049618],[30.754846,38.052457],[30.756156,38.063521],[30.756375,38.066724],[30.75652,38.067452],[30.756375,38.07131],[30.756083,38.074148],[30.755938,38.076041],[30.756375,38.077497],[30.758267,38.079972],[30.760014,38.082446],[30.760888,38.085795],[30.762562,38.090162],[30.764236,38.091327],[30.769768,38.093874],[30.775955,38.096713],[30.778648,38.098096],[30.782433,38.099115],[30.793788,38.102609],[30.80609,38.105957],[30.812422,38.106976],[30.818173,38.108432],[30.822467,38.110252],[30.826689,38.111489],[30.833459,38.113673],[30.837608,38.115274],[30.839427,38.117094],[30.841465,38.122335],[30.84081,38.130123],[30.858664,38.119726],[30.876532,38.104651],[30.88742,38.091529],[30.895516,38.073662],[30.895795,38.042115],[30.89747,38.010568],[30.910312,37.9793],[30.931809,37.961153],[30.952121,37.95624],[30.954373,37.954915],[30.959872,37.954782],[30.964178,37.95518],[30.968153,37.956704],[30.973387,37.959486],[30.976037,37.960215],[30.979548,37.960414],[30.988691,37.962401],[30.997767,37.963527],[31.002338,37.963792],[31.011945,37.963196],[31.023075,37.962666],[31.03129,37.962666],[31.039836,37.962335],[31.054676,37.962799],[31.066932,37.964057],[31.080249,37.966177],[31.087205,37.965647],[31.097209,37.963792],[31.107809,37.962467],[31.118873,37.962269],[31.129738,37.962799],[31.136429,37.964124],[31.149016,37.969424],[31.153124,37.97373],[31.157099,37.977308],[31.161339,37.980721],[31.161231,37.979801],[31.161285,37.968928],[31.162746,37.953782],[31.165775,37.941341],[31.169561,37.936256],[31.174213,37.931172],[31.182544,37.918352],[31.18871,37.913429],[31.190604,37.911211],[31.191145,37.909859],[31.192497,37.906235],[31.193525,37.90353],[31.193957,37.900988],[31.194282,37.899203],[31.194985,37.897309],[31.198826,37.892657],[31.2051,37.884922],[31.207102,37.883029],[31.209536,37.878052],[31.211267,37.874969],[31.214459,37.870533],[31.215219,37.869723],[31.213577,37.868158],[31.210445,37.864227],[31.207047,37.860629],[31.205048,37.858297],[31.200717,37.856898],[31.192722,37.854366],[31.180195,37.851834],[31.176464,37.851368],[31.157275,37.847703],[31.148479,37.846504],[31.146281,37.845904],[31.135953,37.843305],[31.125492,37.840774],[31.121828,37.840707],[31.103038,37.842106],[31.098574,37.843505],[31.093976,37.84697],[31.089446,37.849968],[31.081917,37.851234],[31.077053,37.851834],[31.067724,37.851767],[31.059329,37.852234],[31.054932,37.8531],[31.050267,37.855499],[31.04587,37.857164],[31.043071,37.857298],[31.039074,37.856765],[31.036075,37.855565],[31.032011,37.855232],[31.027347,37.855299],[31.021817,37.855032],[31.015753,37.854499],[31.010689,37.853766],[31.008224,37.853033],[31.005226,37.850302],[31.001095,37.844838],[30.998629,37.84204],[30.993299,37.836909],[30.990301,37.833711],[30.987769,37.830313],[30.982772,37.821184],[30.982572,37.820318],[30.982838,37.818919],[30.982972,37.816454],[30.983171,37.813855],[30.982905,37.812656],[30.981439,37.81139],[30.97964,37.810324],[30.977841,37.808791],[30.976175,37.806926],[30.974443,37.80446],[30.974443,37.799463],[30.974643,37.796731],[30.976842,37.792334],[30.978441,37.790402],[30.980306,37.789069],[30.986103,37.788536],[31.006425,37.783605],[31.014754,37.78194],[31.035342,37.780607],[31.05693,37.78094],[31.061395,37.781007],[31.073321,37.779474],[31.078985,37.778475],[31.083116,37.775477],[31.084448,37.773144],[31.084249,37.76888],[31.083516,37.764349],[31.082916,37.760085],[31.082716,37.752356],[31.082983,37.747692],[31.083782,37.744427],[31.087713,37.73843],[31.08838,37.733966],[31.087447,37.726437],[31.087114,37.722706],[31.086329,37.71754],[31.0835,37.718856],[31.07679,37.721093],[31.071527,37.722277],[31.067974,37.722408],[31.063961,37.722014],[31.056461,37.721487],[31.048369,37.721948],[31.044685,37.721685],[31.038698,37.720698],[31.036264,37.720369],[31.031264,37.718724],[31.02712,37.716158],[31.02337,37.712803],[31.018896,37.703988],[31.017514,37.701356],[31.016264,37.698527],[31.014422,37.694054],[31.013436,37.690764],[31.012975,37.688527],[31.012515,37.685369],[31.012317,37.68083],[31.009554,37.672014],[31.008962,37.669843],[31.007515,37.66787],[31.006528,37.66662],[31.00587,37.665172],[31.006067,37.662607],[31.006396,37.660699],[31.006265,37.658528],[31.006199,37.656357],[31.005738,37.654646],[31.004817,37.653133],[31.002844,37.649515],[31.000738,37.646094],[30.99837,37.643462],[30.996002,37.64037],[30.994949,37.639844],[30.991002,37.638528],[30.988239,37.637344],[30.985212,37.634778],[30.981528,37.632278],[30.978173,37.630568],[30.960805,37.627936],[30.950279,37.626423],[30.93995,37.623594],[30.930345,37.620239],[30.921069,37.616094],[30.916332,37.613134],[30.91074,37.608858],[30.895345,37.595963],[30.893964,37.59491],[30.892516,37.587805],[30.890609,37.582082],[30.887977,37.572937],[30.885214,37.568595],[30.88153,37.565437],[30.877977,37.562608],[30.876661,37.56024],[30.872648,37.555372],[30.870017,37.553135],[30.866398,37.550964],[30.862506,37.549823],[30.857594,37.547104],[30.854085,37.545613],[30.851366,37.545174],[30.84698,37.544999],[30.840226,37.543508],[30.837945,37.54228],[30.835138,37.538946],[30.834085,37.536578],[30.833647,37.532631],[30.832682,37.528771],[30.830752,37.524473],[30.829699,37.522894],[30.824787,37.517192],[30.822857,37.515701],[30.8197,37.514034],[30.812244,37.512631],[30.805752,37.511052],[30.801805,37.510175],[30.797858,37.509122],[30.796515,37.508382]]]}},{"type":"Feature","properties":{"id":"TR-D-32-004","parent_id":"TR-P-32","region_id":"TR-R-AKD","level":"district","municipality_type":null,"municipality_type_label":null,"is_metropolitan_municipality":null,"name":"Gelendost","name_ascii":"gelendost","slug":"gelendost-isparta"},"geometry":{"type":"Polygon","coordinates":[[[30.84081,38.130123],[30.840578,38.132388],[30.840228,38.135801],[30.84081,38.139149],[30.843867,38.14308],[30.847143,38.144973],[30.851656,38.147811],[30.859881,38.152251],[30.866796,38.155745],[30.873566,38.158511],[30.879234,38.163315],[30.882837,38.166919],[30.888515,38.171613],[30.892554,38.172924],[30.89512,38.173743],[30.903145,38.177182],[30.909205,38.179966],[30.91663,38.185371],[30.921215,38.189465],[30.927548,38.193614],[30.929841,38.19487],[30.934972,38.196234],[30.937975,38.196835],[30.940323,38.197927],[30.944144,38.200602],[30.946819,38.202021],[30.94933,38.20224],[30.952333,38.201803],[30.955117,38.201857],[30.956373,38.202676],[30.958829,38.204696],[30.960849,38.205624],[30.963688,38.205679],[30.967619,38.205297],[30.969857,38.204915],[30.972095,38.205133],[30.976899,38.205733],[30.979902,38.206498],[30.982795,38.206934],[30.984706,38.207808],[30.988254,38.209391],[30.993004,38.210319],[30.998026,38.211902],[31.001902,38.213267],[31.005778,38.214468],[31.009491,38.216324],[31.012875,38.217252],[31.018444,38.219709],[31.022429,38.220473],[31.024886,38.220364],[31.028652,38.21889],[31.035367,38.215942],[31.043774,38.214141],[31.052946,38.210701],[31.065393,38.206006],[31.07118,38.203987],[31.080242,38.200711],[31.09056,38.195961],[31.094873,38.194051],[31.101369,38.19154],[31.104918,38.189192],[31.107811,38.187773],[31.114908,38.185698],[31.123588,38.185316],[31.132487,38.181331],[31.14346,38.175435],[31.147609,38.173524],[31.151648,38.171559],[31.15476,38.16872],[31.158691,38.164353],[31.160874,38.160695],[31.16284,38.155072],[31.164641,38.14934],[31.165788,38.147211],[31.167644,38.141479],[31.168736,38.13864],[31.172448,38.132089],[31.177034,38.124664],[31.178956,38.120558],[31.171022,38.117035],[31.168642,38.115087],[31.16637,38.111409],[31.164044,38.107731],[31.160203,38.101889],[31.156471,38.097994],[31.151927,38.092963],[31.147924,38.088203],[31.145111,38.084633],[31.141812,38.08036],[31.139053,38.079278],[31.131534,38.077222],[31.127531,38.074464],[31.126504,38.072462],[31.126774,38.065268],[31.127531,38.061968],[31.129911,38.054125],[31.13478,38.046011],[31.137106,38.041196],[31.142623,38.033569],[31.147005,38.02789],[31.147654,38.024914],[31.147978,38.020154],[31.148682,38.005495],[31.150034,38.000194],[31.152414,37.995163],[31.157012,37.990025],[31.161339,37.980721],[31.157099,37.977308],[31.153124,37.97373],[31.149016,37.969424],[31.136429,37.964124],[31.129738,37.962799],[31.118873,37.962269],[31.107809,37.962467],[31.097209,37.963792],[31.087205,37.965647],[31.080249,37.966177],[31.066932,37.964057],[31.054676,37.962799],[31.039836,37.962335],[31.03129,37.962666],[31.023075,37.962666],[31.011945,37.963196],[31.002338,37.963792],[30.997767,37.963527],[30.988691,37.962401],[30.979548,37.960414],[30.976037,37.960215],[30.973387,37.959486],[30.968153,37.956704],[30.964178,37.95518],[30.959872,37.954782],[30.954373,37.954915],[30.952121,37.95624],[30.931809,37.961153],[30.910312,37.9793],[30.89747,38.010568],[30.895795,38.042115],[30.895516,38.073662],[30.88742,38.091529],[30.876532,38.104651],[30.858664,38.119726],[30.84081,38.130123]]]}},{"type":"Feature","properties":{"id":"TR-D-32-005","parent_id":"TR-P-32","region_id":"TR-R-AKD","level":"district","municipality_type":null,"municipality_type_label":null,"is_metropolitan_municipality":null,"name":"Gönen","name_ascii":"gonen","slug":"gonen-isparta"},"geometry":{"type":"Polygon","coordinates":[[[30.408989,37.813964],[30.407942,37.81476],[30.406905,37.816041],[30.405319,37.817078],[30.403245,37.818237],[30.400439,37.820006],[30.39623,37.822995],[30.391472,37.826045],[30.389215,37.827997],[30.387324,37.829522],[30.385617,37.831596],[30.381774,37.832877],[30.377819,37.832097],[30.37987,37.844161],[30.381404,37.850584],[30.383033,37.855185],[30.387635,37.865538],[30.388593,37.867551],[30.391948,37.879822],[30.394633,37.889599],[30.39655,37.898419],[30.395112,37.903307],[30.392044,37.907238],[30.390319,37.910305],[30.389073,37.914811],[30.38706,37.921042],[30.386005,37.923247],[30.379103,37.932257],[30.374981,37.937338],[30.371434,37.942515],[30.367983,37.949033],[30.363478,37.958715],[30.359739,37.966959],[30.357343,37.971848],[30.355617,37.979421],[30.355234,37.981434],[30.35515,37.982992],[30.354,37.985652],[30.352274,37.987377],[30.351986,37.989031],[30.351986,37.990541],[30.352346,37.992482],[30.352993,37.994064],[30.353137,37.995358],[30.352921,37.996077],[30.352418,37.99658],[30.351843,37.997227],[30.351843,37.998306],[30.351555,37.999744],[30.351267,38.000822],[30.35062,38.001469],[30.349542,38.002116],[30.348535,38.003266],[30.34796,38.004632],[30.347601,38.006214],[30.347745,38.00758],[30.34796,38.008587],[30.347816,38.010528],[30.347313,38.012038],[30.346882,38.013619],[30.346738,38.015201],[30.346019,38.016998],[30.345372,38.019946],[30.344797,38.021887],[30.344006,38.023829],[30.344006,38.025985],[30.345516,38.029365],[30.346235,38.03224],[30.34681,38.035332],[30.347026,38.038927],[30.355429,38.039842],[30.35888,38.040639],[30.36242,38.041435],[30.365075,38.041347],[30.367111,38.040373],[30.370474,38.038692],[30.373925,38.036037],[30.378969,38.033028],[30.383571,38.030373],[30.391005,38.02701],[30.396315,38.024621],[30.400917,38.02347],[30.421802,38.015329],[30.432245,38.013382],[30.439501,38.013028],[30.445342,38.01347],[30.449413,38.01409],[30.452333,38.014178],[30.456935,38.01232],[30.462422,38.010992],[30.470387,38.009488],[30.477378,38.008868],[30.484015,38.008072],[30.49021,38.006656],[30.494193,38.004798],[30.498175,38.002143],[30.504812,37.999399],[30.50968,37.997275],[30.516317,37.998249],[30.524813,37.999576],[30.528229,37.996754],[30.533893,37.99348],[30.537344,37.989851],[30.541238,37.984541],[30.545132,37.978878],[30.547167,37.97578],[30.548052,37.973302],[30.547698,37.970824],[30.547521,37.966665],[30.546813,37.960647],[30.546017,37.956842],[30.543804,37.950736],[30.543716,37.946576],[30.54407,37.939585],[30.546017,37.935249],[30.551769,37.924186],[30.556636,37.916045],[30.56292,37.90923],[30.570325,37.902147],[30.56159,37.900182],[30.555476,37.897852],[30.549798,37.893922],[30.531892,37.879364],[30.52636,37.875142],[30.520173,37.871357],[30.514277,37.868737],[30.507216,37.864661],[30.502485,37.863132],[30.498918,37.862113],[30.495716,37.861458],[30.492731,37.860803],[30.488146,37.859784],[30.484943,37.858401],[30.481886,37.856726],[30.47861,37.854761],[30.474316,37.851267],[30.469439,37.848137],[30.464926,37.845735],[30.461068,37.84377],[30.455245,37.840276],[30.450514,37.838238],[30.444618,37.83569],[30.440614,37.834307],[30.435301,37.832269],[30.430496,37.831032],[30.428458,37.829794],[30.42642,37.827756],[30.423509,37.82499],[30.421616,37.822734],[30.420888,37.821569],[30.420524,37.818075],[30.419505,37.816401],[30.41703,37.814873],[30.414847,37.81429],[30.410552,37.813999],[30.408989,37.813964]]]}},{"type":"Feature","properties":{"id":"TR-D-32-006","parent_id":"TR-P-32","region_id":"TR-R-AKD","level":"district","municipality_type":null,"municipality_type_label":null,"is_metropolitan_municipality":null,"name":"Isparta","name_ascii":"isparta","slug":"isparta-isparta"},"geometry":{"type":"Polygon","coordinates":[[[30.754217,37.57233],[30.754042,37.573215],[30.753834,37.574489],[30.753714,37.57534],[30.753608,37.576181],[30.753389,37.578148],[30.753381,37.578217],[30.753377,37.578251],[30.753204,37.579971],[30.753099,37.581236],[30.75306,37.581937],[30.753026,37.582546],[30.752969,37.583921],[30.752967,37.583964],[30.752935,37.584725],[30.752906,37.585158],[30.752863,37.585588],[30.752801,37.586015],[30.752712,37.586438],[30.752588,37.586858],[30.752436,37.587273],[30.752275,37.587653],[30.752268,37.587669],[30.752072,37.588093],[30.75187,37.588498],[30.751536,37.589113],[30.75152,37.589142],[30.751485,37.589207],[30.751202,37.589695],[30.750959,37.590084],[30.7507,37.590465],[30.750422,37.590836],[30.750119,37.591192],[30.7498,37.591515],[30.749457,37.591826],[30.749097,37.592126],[30.748724,37.592419],[30.747954,37.592992],[30.745974,37.594396],[30.745187,37.594964],[30.7448,37.595253],[30.74406,37.595833],[30.743349,37.596428],[30.743008,37.596732],[30.742682,37.597041],[30.742375,37.597356],[30.742095,37.597679],[30.74185,37.598012],[30.741652,37.59836],[30.741502,37.598754],[30.741409,37.599164],[30.741363,37.599584],[30.741356,37.600011],[30.741385,37.600442],[30.741446,37.60086],[30.741532,37.601279],[30.741634,37.601698],[30.741748,37.602118],[30.741959,37.602851],[30.742353,37.60422],[30.742499,37.604774],[30.742576,37.605064],[30.742892,37.60633],[30.743196,37.607598],[30.743488,37.608866],[30.743666,37.609713],[30.743814,37.610559],[30.743868,37.610982],[30.743901,37.611406],[30.743909,37.611828],[30.743894,37.612249],[30.743859,37.612668],[30.743805,37.613085],[30.743731,37.613498],[30.743633,37.613906],[30.743507,37.614306],[30.743346,37.614696],[30.743138,37.61508],[30.742899,37.615456],[30.74211,37.61657],[30.741849,37.616964],[30.741358,37.617769],[30.741164,37.618115],[30.740897,37.618589],[30.740452,37.619417],[30.739803,37.620666],[30.739169,37.621933],[30.738938,37.622428],[30.738699,37.622972],[30.738612,37.623184],[30.738585,37.623248],[30.73686,37.626649],[30.736159,37.630683],[30.734386,37.633438],[30.733846,37.634217],[30.733175,37.634766],[30.732077,37.63501],[30.731406,37.635681],[30.730857,37.636352],[30.730064,37.637572],[30.729393,37.638853],[30.728539,37.63989],[30.727807,37.640683],[30.727197,37.641659],[30.727018,37.642108],[30.726709,37.642879],[30.726264,37.643688],[30.726038,37.644099],[30.725062,37.645624],[30.723964,37.647088],[30.723964,37.648125],[30.724086,37.649406],[30.724696,37.650077],[30.725733,37.65087],[30.725733,37.651145],[30.725733,37.651419],[30.725611,37.652456],[30.725428,37.653127],[30.725733,37.65392],[30.72677,37.655384],[30.727136,37.655811],[30.727197,37.656024],[30.727258,37.656238],[30.727197,37.656848],[30.727075,37.65697],[30.726953,37.657092],[30.726221,37.657397],[30.725611,37.658129],[30.72555,37.659044],[30.725367,37.660264],[30.725184,37.661179],[30.724971,37.66127],[30.724757,37.661362],[30.724208,37.660935],[30.723781,37.660325],[30.723507,37.660233],[30.723232,37.660142],[30.722622,37.660325],[30.721768,37.66063],[30.720426,37.660569],[30.718108,37.660081],[30.717498,37.659532],[30.716705,37.658678],[30.715668,37.658373],[30.714509,37.658068],[30.713106,37.657519],[30.711154,37.656665],[30.709629,37.655872],[30.708043,37.654774],[30.70603,37.65392],[30.704505,37.65331],[30.702919,37.652029],[30.702248,37.651541],[30.701913,37.651541],[30.701577,37.651541],[30.700418,37.65209],[30.698344,37.652029],[30.697368,37.652151],[30.695111,37.653005],[30.693831,37.65392],[30.692977,37.654835],[30.691879,37.655506],[30.689805,37.655933],[30.68828,37.656909],[30.687426,37.657519],[30.686267,37.657336],[30.68523,37.657153],[30.684254,37.657092],[30.683461,37.657763],[30.682546,37.658312],[30.680716,37.658373],[30.679679,37.658861],[30.678947,37.65941],[30.677849,37.659898],[30.676385,37.660325],[30.674738,37.66063],[30.67364,37.660874],[30.672054,37.661057],[30.670346,37.661118],[30.668943,37.660813],[30.667479,37.660386],[30.665466,37.659959],[30.663331,37.66002],[30.660952,37.660142],[30.659122,37.660386],[30.657841,37.660691],[30.657048,37.661301],[30.656072,37.661484],[30.654913,37.661362],[30.653754,37.661423],[30.651497,37.661728],[30.650651,37.661896],[30.647814,37.661392],[30.644246,37.661164],[30.640449,37.661118],[30.637292,37.66153],[30.634867,37.661713],[30.631985,37.662536],[30.629514,37.662536],[30.625946,37.662079],[30.623109,37.661941],[30.620548,37.662033],[30.618718,37.662582],[30.615286,37.662536],[30.612953,37.662216],[30.611169,37.661941],[30.609934,37.661941],[30.608927,37.66217],[30.608104,37.662673],[30.607234,37.663588],[30.606457,37.664595],[30.60577,37.665327],[30.605084,37.66583],[30.604215,37.666105],[30.603437,37.666288],[30.602431,37.666516],[30.60179,37.666928],[30.601241,37.667569],[30.601104,37.667774],[30.600967,37.66798],[30.600692,37.668804],[30.600235,37.669719],[30.599732,37.670314],[30.599526,37.670542],[30.59932,37.670771],[30.598359,37.67164],[30.597307,37.67251],[30.596255,37.674706],[30.595889,37.676718],[30.59534,37.67864],[30.594425,37.680058],[30.593555,37.682025],[30.592915,37.683215],[30.591359,37.684313],[30.588386,37.685685],[30.586739,37.686417],[30.585275,37.686738],[30.583033,37.686875],[30.580974,37.687378],[30.578321,37.687973],[30.575484,37.688568],[30.573837,37.689025],[30.571458,37.688842],[30.569171,37.688659],[30.566883,37.687744],[30.564093,37.686738],[30.562583,37.686646],[30.560067,37.686921],[30.55723,37.687836],[30.555492,37.688019],[30.552998,37.688552],[30.549705,37.68904],[30.546655,37.690321],[30.544154,37.692639],[30.54147,37.694042],[30.537932,37.695628],[30.534211,37.696787],[30.531771,37.697519],[30.526647,37.6988],[30.523475,37.699959],[30.519083,37.700447],[30.518044,37.70052],[30.515606,37.700691],[30.511031,37.701606],[30.508164,37.702643],[30.505236,37.704534],[30.500051,37.705205],[30.493463,37.705144],[30.487546,37.705632],[30.486204,37.706486],[30.483276,37.708987],[30.482056,37.71039],[30.47925,37.712098],[30.47681,37.712586],[30.474248,37.71344],[30.470527,37.715636],[30.467539,37.717588],[30.465343,37.719235],[30.46211,37.720821],[30.459792,37.721675],[30.456315,37.722346],[30.452472,37.724237],[30.448141,37.726494],[30.445823,37.727165],[30.444298,37.728324],[30.443017,37.730093],[30.441919,37.733021],[30.440516,37.734912],[30.43893,37.736925],[30.437405,37.739365],[30.435819,37.743086],[30.435148,37.745343],[30.434416,37.75004],[30.433745,37.754676],[30.433013,37.757543],[30.431549,37.762178],[30.431061,37.76596],[30.430329,37.768156],[30.430817,37.770169],[30.430817,37.773097],[30.430756,37.77633],[30.430756,37.779685],[30.430268,37.784748],[30.429719,37.788286],[30.427584,37.792129],[30.425266,37.796399],[30.422338,37.79951],[30.420203,37.801584],[30.415445,37.806098],[30.414103,37.807928],[30.412029,37.810673],[30.410931,37.812259],[30.409467,37.813601],[30.408989,37.813964],[30.410552,37.813999],[30.414847,37.81429],[30.41703,37.814873],[30.419505,37.816401],[30.420524,37.818075],[30.420888,37.821569],[30.421616,37.822734],[30.423509,37.82499],[30.42642,37.827756],[30.428458,37.829794],[30.430496,37.831032],[30.435301,37.832269],[30.440614,37.834307],[30.444618,37.83569],[30.450514,37.838238],[30.455245,37.840276],[30.461068,37.84377],[30.464926,37.845735],[30.469439,37.848137],[30.474316,37.851267],[30.47861,37.854761],[30.481886,37.856726],[30.484943,37.858401],[30.488146,37.859784],[30.492731,37.860803],[30.495716,37.861458],[30.498918,37.862113],[30.502485,37.863132],[30.507216,37.864661],[30.514277,37.868737],[30.520173,37.871357],[30.52636,37.875142],[30.531892,37.879364],[30.549798,37.893922],[30.555476,37.897852],[30.56159,37.900182],[30.570325,37.902147],[30.576221,37.902438],[30.586557,37.902729],[30.592234,37.901346],[30.596165,37.899745],[30.600387,37.89596],[30.604536,37.89283],[30.61196,37.88657],[30.618657,37.883149],[30.625208,37.881839],[30.636709,37.880674],[30.639329,37.880674],[30.6477,37.883149],[30.65214,37.885114],[30.658837,37.888681],[30.675506,37.896979],[30.691228,37.900546],[30.698216,37.902948],[30.708552,37.906223],[30.719034,37.909353],[30.723838,37.910518],[30.732572,37.911974],[30.735702,37.912556],[30.739124,37.912774],[30.739851,37.913065],[30.741608,37.91251],[30.746145,37.909391],[30.74976,37.906627],[30.754155,37.903507],[30.757132,37.900885],[30.75933,37.898403],[30.761173,37.897056],[30.767057,37.891669],[30.768688,37.889259],[30.769255,37.886281],[30.768971,37.878554],[30.768971,37.877136],[30.767412,37.87501],[30.763229,37.869976],[30.759826,37.865156],[30.757203,37.862604],[30.753092,37.860761],[30.747775,37.857287],[30.746499,37.855869],[30.745648,37.851474],[30.746357,37.842471],[30.747216,37.839506],[30.748278,37.837183],[30.751596,37.832006],[30.753588,37.828289],[30.755446,37.824373],[30.758101,37.819196],[30.761088,37.81289],[30.762813,37.809904],[30.764672,37.806585],[30.768522,37.80174],[30.770911,37.796961],[30.772836,37.790191],[30.773964,37.782292],[30.77715,37.773598],[30.778544,37.771009],[30.780046,37.767574],[30.781091,37.765483],[30.783879,37.758564],[30.784974,37.75488],[30.786168,37.750848],[30.788209,37.744725],[30.790151,37.74144],[30.792532,37.739084],[30.795917,37.735699],[30.798107,37.733973],[30.800895,37.730389],[30.803085,37.727203],[30.806337,37.720499],[30.808329,37.716384],[30.811382,37.711273],[30.813639,37.707026],[30.815497,37.702711],[30.816692,37.698795],[30.818218,37.694348],[30.819147,37.690897],[30.823727,37.684591],[30.825918,37.680875],[30.827577,37.677158],[30.82917,37.67364],[30.830763,37.669392],[30.831957,37.663352],[30.833285,37.655719],[30.834148,37.643706],[30.835409,37.638927],[30.835608,37.636338],[30.835873,37.633352],[30.835409,37.630431],[30.833285,37.625785],[30.825586,37.616294],[30.821736,37.610851],[30.820342,37.606205],[30.816293,37.602754],[30.812112,37.599634],[30.808461,37.59532],[30.806603,37.591205],[30.804346,37.589479],[30.798505,37.58543],[30.788417,37.581913],[30.784766,37.58105],[30.779191,37.578461],[30.773616,37.576337],[30.763394,37.573483],[30.757487,37.572421],[30.754217,37.57233]]]}},{"type":"Feature","properties":{"id":"TR-D-32-007","parent_id":"TR-P-32","region_id":"TR-R-AKD","level":"district","municipality_type":null,"municipality_type_label":null,"is_metropolitan_municipality":null,"name":"Keçiborlu","name_ascii":"keciborlu","slug":"keciborlu-isparta"},"geometry":{"type":"Polygon","coordinates":[[[30.339463,38.056385],[30.342784,38.055103],[30.345084,38.053593],[30.345875,38.052443],[30.346522,38.050789],[30.347026,38.048561],[30.346954,38.047195],[30.347241,38.044463],[30.347098,38.041803],[30.347026,38.038927],[30.34681,38.035332],[30.346235,38.03224],[30.345516,38.029365],[30.344006,38.025985],[30.344006,38.023829],[30.344797,38.021887],[30.345372,38.019946],[30.346019,38.016998],[30.346738,38.015201],[30.346882,38.013619],[30.347313,38.012038],[30.347816,38.010528],[30.34796,38.008587],[30.347745,38.00758],[30.347601,38.006214],[30.34796,38.004632],[30.348535,38.003266],[30.349542,38.002116],[30.35062,38.001469],[30.351267,38.000822],[30.351555,37.999744],[30.351843,37.998306],[30.351843,37.997227],[30.352418,37.99658],[30.352921,37.996077],[30.353137,37.995358],[30.352993,37.994064],[30.352346,37.992482],[30.351986,37.990541],[30.351986,37.989031],[30.352274,37.987377],[30.354,37.985652],[30.35515,37.982992],[30.355234,37.981434],[30.355617,37.979421],[30.357343,37.971848],[30.359739,37.966959],[30.363478,37.958715],[30.367983,37.949033],[30.371434,37.942515],[30.374981,37.937338],[30.379103,37.932257],[30.386005,37.923247],[30.38706,37.921042],[30.389073,37.914811],[30.390319,37.910305],[30.392044,37.907238],[30.395112,37.903307],[30.39655,37.898419],[30.394633,37.889599],[30.391948,37.879822],[30.388593,37.867551],[30.387635,37.865538],[30.383033,37.855185],[30.381404,37.850584],[30.37987,37.844161],[30.377819,37.832097],[30.371312,37.82841],[30.356889,37.821253],[30.345919,37.816673],[30.335851,37.812469],[30.316657,37.802926],[30.299414,37.79501],[30.27675,37.787852],[30.263737,37.785792],[30.250723,37.783732],[30.241289,37.781671],[30.228384,37.775924],[30.217648,37.774839],[30.209407,37.774731],[30.203008,37.77549],[30.185766,37.779177],[30.180019,37.781454],[30.175415,37.783234],[30.17239,37.784403],[30.169401,37.786964],[30.165558,37.789099],[30.163362,37.78977],[30.159763,37.789526],[30.156652,37.789709],[30.149759,37.788245],[30.148357,37.787757],[30.145368,37.787635],[30.141647,37.788855],[30.139207,37.790258],[30.136523,37.792515],[30.134266,37.794223],[30.130057,37.796602],[30.127861,37.797639],[30.125604,37.799164],[30.123957,37.800323],[30.121395,37.803861],[30.119382,37.805813],[30.117369,37.806911],[30.115051,37.808436],[30.112794,37.810144],[30.111574,37.812157],[30.110768,37.813279],[30.116841,37.818699],[30.118096,37.821409],[30.1191,37.825073],[30.119551,37.825826],[30.122512,37.829891],[30.123516,37.831698],[30.125674,37.834157],[30.129137,37.838875],[30.130994,37.841334],[30.133202,37.844445],[30.136113,37.848511],[30.138422,37.851622],[30.141734,37.855587],[30.14339,37.858899],[30.144745,37.86171],[30.147054,37.864922],[30.149664,37.867582],[30.150617,37.869489],[30.15122,37.872701],[30.150818,37.878272],[30.150467,37.881233],[30.150166,37.883893],[30.149664,37.887858],[30.150417,37.891521],[30.15137,37.895486],[30.152173,37.898046],[30.152775,37.902613],[30.153076,37.907682],[30.152926,37.90994],[30.151822,37.912801],[30.149965,37.91802],[30.149932,37.919452],[30.149915,37.920229],[30.151119,37.922587],[30.152575,37.924846],[30.155837,37.929363],[30.159601,37.932675],[30.167656,37.937911],[30.170266,37.940186],[30.17147,37.942662],[30.172006,37.94748],[30.172742,37.950692],[30.173678,37.952968],[30.176556,37.957116],[30.178965,37.959592],[30.182378,37.963473],[30.185389,37.966685],[30.187664,37.970366],[30.188935,37.97418],[30.190675,37.979199],[30.194548,37.98139],[30.199968,37.98395],[30.210658,37.989069],[30.215828,37.991629],[30.221499,37.993686],[30.22973,37.997601],[30.232691,37.99991],[30.234999,38.003322],[30.236555,38.005832],[30.237659,38.011101],[30.237609,38.014916],[30.239115,38.019031],[30.242578,38.023849],[30.247697,38.027613],[30.250758,38.030273],[30.256831,38.033987],[30.261749,38.035191],[30.274948,38.041415],[30.280921,38.04292],[30.287395,38.043472],[30.29397,38.043824],[30.300644,38.044526],[30.305563,38.04543],[30.308674,38.046433],[30.3154,38.049344],[30.32082,38.051101],[30.324835,38.051402],[30.329251,38.051603],[30.332313,38.052406],[30.335475,38.05366],[30.338335,38.055116],[30.339463,38.056385]]]}},{"type":"Feature","properties":{"id":"TR-D-32-008","parent_id":"TR-P-32","region_id":"TR-R-AKD","level":"district","municipality_type":null,"municipality_type_label":null,"is_metropolitan_municipality":null,"name":"Senirkent","name_ascii":"senirkent","slug":"senirkent-isparta"},"geometry":{"type":"Polygon","coordinates":[[[30.840578,38.132388],[30.84081,38.130123],[30.841465,38.122335],[30.839427,38.117094],[30.837608,38.115274],[30.833459,38.113673],[30.826689,38.111489],[30.822467,38.110252],[30.818173,38.108432],[30.812422,38.106976],[30.80609,38.105957],[30.793788,38.102609],[30.782433,38.099115],[30.778648,38.098096],[30.775955,38.096713],[30.769768,38.093874],[30.764236,38.091327],[30.762562,38.090162],[30.760888,38.085795],[30.760014,38.082446],[30.758267,38.079972],[30.756375,38.077497],[30.755938,38.076041],[30.756083,38.074148],[30.756375,38.07131],[30.75652,38.067452],[30.756375,38.066724],[30.752095,38.065984],[30.733932,38.060993],[30.723666,38.059666],[30.71402,38.057542],[30.702161,38.053028],[30.696055,38.047719],[30.681541,38.037453],[30.670833,38.031524],[30.658974,38.025417],[30.650567,38.022054],[30.645346,38.020904],[30.635611,38.016833],[30.630744,38.015329],[30.617646,38.012939],[30.606407,38.01055],[30.594725,38.008868],[30.584283,38.009222],[30.577203,38.010373],[30.562778,38.010196],[30.561409,38.009995],[30.56113,38.012158],[30.560798,38.014348],[30.560665,38.017335],[30.560731,38.020521],[30.560931,38.022512],[30.560931,38.024835],[30.560466,38.027091],[30.558475,38.031472],[30.55801,38.033397],[30.558276,38.035123],[30.559603,38.038441],[30.560864,38.042357],[30.561993,38.045477],[30.562391,38.04707],[30.562059,38.049791],[30.562125,38.052711],[30.561329,38.054437],[30.559669,38.056893],[30.557678,38.058884],[30.554559,38.062136],[30.552103,38.065654],[30.549913,38.067844],[30.546262,38.070831],[30.544005,38.072557],[30.541682,38.073818],[30.537501,38.07488],[30.535045,38.076937],[30.530996,38.079128],[30.527412,38.080522],[30.524226,38.083774],[30.519448,38.088221],[30.516992,38.091208],[30.514934,38.093863],[30.513009,38.096916],[30.511615,38.100102],[30.511085,38.105279],[30.510952,38.109858],[30.511416,38.11696],[30.511483,38.123465],[30.511549,38.128244],[30.511416,38.133023],[30.511615,38.136142],[30.512213,38.139063],[30.51281,38.14351],[30.513673,38.145833],[30.515332,38.147293],[30.517257,38.149483],[30.517921,38.152403],[30.519182,38.155324],[30.520111,38.159107],[30.520775,38.161696],[30.523164,38.164417],[30.524691,38.165877],[30.52704,38.167021],[30.530089,38.166039],[30.534603,38.164845],[30.538386,38.164115],[30.543563,38.164247],[30.547944,38.164712],[30.55166,38.165442],[30.555311,38.167566],[30.557435,38.170553],[30.558962,38.174602],[30.559824,38.178783],[30.561683,38.182168],[30.562347,38.18396],[30.565732,38.186283],[30.569183,38.189004],[30.571506,38.190597],[30.576484,38.194248],[30.579471,38.196106],[30.584581,38.199956],[30.587236,38.202611],[30.591484,38.20666],[30.595201,38.210708],[30.597922,38.212169],[30.605684,38.218225],[30.610653,38.22219],[30.613305,38.224246],[30.614668,38.225302],[30.619586,38.227359],[30.625709,38.229819],[30.63394,38.232378],[30.638958,38.236042],[30.644529,38.241111],[30.651154,38.245427],[30.65813,38.249291],[30.662798,38.251198],[30.669021,38.252152],[30.674943,38.254611],[30.677001,38.255515],[30.679962,38.256368],[30.685583,38.258676],[30.692458,38.262892],[30.69833,38.264147],[30.704052,38.265652],[30.710978,38.266556],[30.715745,38.267258],[30.721868,38.268563],[30.729045,38.27293],[30.732257,38.275389],[30.735519,38.278751],[30.74109,38.286129],[30.744252,38.289291],[30.750375,38.292252],[30.751513,38.292402],[30.75362,38.287696],[30.754555,38.284509],[30.755269,38.281541],[30.757083,38.273957],[30.757742,38.271869],[30.759336,38.268132],[30.76027,38.266098],[30.763128,38.261482],[30.765161,38.25802],[30.767579,38.254832],[30.772031,38.251315],[30.776042,38.247578],[30.777361,38.245985],[30.782748,38.239771],[30.787097,38.231673],[30.790246,38.223124],[30.793695,38.214726],[30.795645,38.205278],[30.798194,38.19508],[30.803593,38.179034],[30.807792,38.168836],[30.813491,38.156989],[30.81979,38.147091],[30.828488,38.138542],[30.834937,38.134493],[30.840578,38.132388]]]}},{"type":"Feature","properties":{"id":"TR-D-32-009","parent_id":"TR-P-32","region_id":"TR-R-AKD","level":"district","municipality_type":null,"municipality_type_label":null,"is_metropolitan_municipality":null,"name":"Sütçüler","name_ascii":"sutculer","slug":"sutculer-isparta"},"geometry":{"type":"Polygon","coordinates":[[[31.374437,37.490737],[31.374947,37.487168],[31.374182,37.484171],[31.373736,37.481622],[31.373545,37.47939],[31.373417,37.476203],[31.372971,37.47104],[31.372652,37.468362],[31.372612,37.463501],[31.371465,37.45829],[31.369505,37.453653],[31.368788,37.451501],[31.36721,37.446146],[31.365871,37.436393],[31.363767,37.428839],[31.362142,37.425444],[31.361254,37.424705],[31.360708,37.424249],[31.360043,37.42381],[31.35803,37.42248],[31.356455,37.42183],[31.355018,37.421237],[31.353957,37.420769],[31.353393,37.42052],[31.350102,37.420233],[31.346341,37.421126],[31.337525,37.424859],[31.335504,37.425715],[31.334654,37.426247],[31.332954,37.427309],[31.326579,37.431134],[31.321671,37.433301],[31.318802,37.434321],[31.314212,37.435915],[31.307072,37.437062],[31.301654,37.437572],[31.298148,37.436744],[31.294004,37.434321],[31.288713,37.43158],[31.286163,37.430985],[31.281064,37.429795],[31.279406,37.429346],[31.278004,37.428967],[31.276816,37.42848],[31.274115,37.427373],[31.272522,37.426795],[31.269717,37.425779],[31.266274,37.425078],[31.262322,37.425269],[31.257768,37.425092],[31.257414,37.425078],[31.253907,37.423484],[31.250848,37.422146],[31.24664,37.419404],[31.245514,37.418766],[31.244728,37.418321],[31.243364,37.417951],[31.240266,37.41711],[31.231277,37.415707],[31.226942,37.414815],[31.222926,37.414305],[31.219038,37.413348],[31.209986,37.410735],[31.192264,37.405316],[31.185379,37.404233],[31.183212,37.403978],[31.181045,37.403723],[31.179685,37.403638],[31.176965,37.403468],[31.171998,37.402177],[31.168869,37.401364],[31.164407,37.401364],[31.163164,37.4013],[31.16192,37.401237],[31.160709,37.400344],[31.158797,37.399324],[31.157873,37.399324],[31.156948,37.399324],[31.155538,37.398981],[31.15459,37.39875],[31.152677,37.397922],[31.151062,37.397454],[31.150255,37.39722],[31.146876,37.395818],[31.143816,37.394097],[31.142471,37.393161],[31.140884,37.392057],[31.136341,37.390097],[31.134382,37.389252],[31.133681,37.389148],[31.129664,37.388551],[31.123609,37.388168],[31.118126,37.388678],[31.112198,37.390272],[31.109584,37.390718],[31.108245,37.390463],[31.106779,37.389762],[31.106031,37.389092],[31.105568,37.388678],[31.105249,37.388269],[31.104676,37.387531],[31.103528,37.385555],[31.103222,37.385147],[31.102763,37.384535],[31.101552,37.383834],[31.100723,37.38326],[31.100532,37.382304],[31.099767,37.381284],[31.09862,37.380774],[31.097472,37.380328],[31.09709,37.379881],[31.097052,37.379792],[31.096994,37.379658],[31.096899,37.379435],[31.096835,37.378734],[31.096795,37.378602],[31.096644,37.378096],[31.095879,37.377459],[31.094922,37.376758],[31.093842,37.376162],[31.093074,37.375738],[31.092339,37.375325],[31.092054,37.375164],[31.091289,37.374144],[31.090843,37.373379],[31.09046,37.372487],[31.089631,37.371977],[31.088101,37.371339],[31.086635,37.369809],[31.084404,37.368662],[31.08332,37.367833],[31.081918,37.367323],[31.081311,37.367262],[31.080643,37.367196],[31.078858,37.367257],[31.078794,37.367259],[31.077201,37.367387],[31.075798,37.367642],[31.074715,37.367451],[31.073758,37.366941],[31.072483,37.366303],[31.070635,37.366176],[31.069934,37.366176],[31.068531,37.366176],[31.066619,37.366239],[31.065025,37.366494],[31.063878,37.366239],[31.062475,37.365921],[31.060499,37.366558],[31.059352,37.366558],[31.058077,37.365793],[31.057924,37.365717],[31.057312,37.365411],[31.057152,37.365188],[31.056993,37.364964],[31.056929,37.364391],[31.056419,37.363753],[31.055686,37.363584],[31.05559,37.363562],[31.055017,37.36369],[31.05473,37.363721],[31.054443,37.363753],[31.053545,37.363504],[31.053296,37.363435],[31.052212,37.363243],[31.051574,37.362606],[31.051001,37.361458],[31.050523,37.360662],[31.050236,37.360183],[31.049754,37.359964],[31.049534,37.359865],[31.048132,37.359673],[31.046985,37.358909],[31.045582,37.357697],[31.04367,37.356231],[31.042204,37.355211],[31.04212,37.355103],[31.041566,37.354382],[31.040992,37.353108],[31.039972,37.351386],[31.038889,37.349665],[31.037231,37.346605],[31.035,37.344693],[31.032323,37.343992],[31.031021,37.343731],[31.030092,37.343545],[31.026458,37.342712],[31.025053,37.34238],[31.022003,37.341659],[31.017792,37.339958],[31.016837,37.33935],[31.013337,37.337123],[31.008639,37.335584],[31.00378,37.33445],[30.999476,37.334294],[30.999325,37.334288],[30.995437,37.334774],[30.991064,37.335908],[30.985151,37.339958],[30.979481,37.344494],[30.973893,37.347976],[30.970977,37.349353],[30.967491,37.350737],[30.960367,37.353565],[30.952753,37.356886],[30.944897,37.360526],[30.943705,37.361934],[30.941917,37.36513],[30.941267,37.367134],[30.940685,37.368984],[30.940347,37.370059],[30.939263,37.372117],[30.937205,37.374176],[30.935472,37.375096],[30.933413,37.376071],[30.931301,37.377534],[30.930001,37.378942],[30.928863,37.380188],[30.925884,37.38138],[30.924097,37.381705],[30.920034,37.382409],[30.915647,37.382842],[30.911801,37.383438],[30.909851,37.384034],[30.908605,37.385496],[30.905464,37.387446],[30.901781,37.388692],[30.899451,37.389017],[30.896364,37.390913],[30.894509,37.391544],[30.891051,37.392173],[30.888837,37.392367],[30.88629,37.394416],[30.8848,37.395534],[30.883744,37.396652],[30.881508,37.397708],[30.878279,37.398018],[30.875236,37.397086],[30.873187,37.396465],[30.869771,37.396031],[30.866852,37.396279],[30.863871,37.397335],[30.860828,37.398142],[30.855449,37.399246],[30.851233,37.400432],[30.848036,37.40229],[30.846396,37.40534],[30.846228,37.406577],[30.846128,37.407435],[30.846053,37.408295],[30.846015,37.409172],[30.846003,37.410491],[30.846083,37.418408],[30.846115,37.419727],[30.84616,37.420604],[30.846195,37.421042],[30.846242,37.42149],[30.8463,37.421937],[30.846434,37.42283],[30.846661,37.424168],[30.847217,37.427289],[30.847433,37.428627],[30.847546,37.429519],[30.847583,37.429965],[30.847601,37.430411],[30.847597,37.430843],[30.847575,37.431275],[30.84754,37.431707],[30.847496,37.432139],[30.847389,37.433004],[30.847145,37.434733],[30.846699,37.437759],[30.846492,37.439053],[30.846335,37.439913],[30.846244,37.440341],[30.846027,37.44122],[30.845784,37.442094],[30.845527,37.442967],[30.844771,37.445461],[30.844395,37.446699],[30.843676,37.449069],[30.842486,37.453062],[30.842126,37.45427],[30.84212,37.454289],[30.841714,37.455618],[30.841432,37.456469],[30.841283,37.456884],[30.841124,37.457295],[30.840954,37.457702],[30.840767,37.458103],[30.840558,37.458494],[30.84036,37.458816],[30.840143,37.459129],[30.839907,37.459434],[30.839651,37.459728],[30.839326,37.460058],[30.838978,37.460375],[30.838613,37.460683],[30.838236,37.460983],[30.837848,37.461277],[30.835772,37.46277],[30.83537,37.463077],[30.834982,37.463395],[30.834652,37.463689],[30.834336,37.463994],[30.834036,37.464307],[30.833752,37.464629],[30.833486,37.464961],[30.83322,37.465334],[30.832974,37.465718],[30.832744,37.466108],[30.832528,37.466505],[30.832324,37.466907],[30.832132,37.467313],[30.83195,37.467725],[30.831613,37.468559],[30.831295,37.469398],[30.830518,37.471502],[30.83022,37.472278],[30.8299,37.473047],[30.829726,37.473427],[30.829538,37.473802],[30.829315,37.474206],[30.829075,37.474604],[30.828823,37.474999],[30.828297,37.475781],[30.827753,37.476556],[30.826917,37.47771],[30.826343,37.478469],[30.826046,37.478842],[30.825739,37.479209],[30.825419,37.479567],[30.82508,37.479913],[30.824713,37.480248],[30.824327,37.48057],[30.823927,37.480883],[30.823517,37.48119],[30.822679,37.481791],[30.820973,37.482974],[30.820596,37.483231],[30.820577,37.483244],[30.819255,37.484146],[30.817952,37.485007],[30.817491,37.485297],[30.81747,37.48531],[30.817064,37.485555],[30.816609,37.485815],[30.816142,37.48606],[30.815675,37.486281],[30.814239,37.486906],[30.813362,37.487308],[30.812501,37.487735],[30.812078,37.487958],[30.811662,37.488189],[30.811223,37.488448],[30.810364,37.488988],[30.809942,37.489266],[30.809111,37.489833],[30.8083,37.490416],[30.807906,37.490715],[30.807523,37.491021],[30.807156,37.491337],[30.80681,37.491667],[30.806508,37.491992],[30.806227,37.49233],[30.805963,37.492677],[30.805714,37.493032],[30.805465,37.493416],[30.805451,37.493439],[30.805258,37.49376],[30.805054,37.494134],[30.804892,37.494464],[30.80488,37.494488],[30.804712,37.494885],[30.80454,37.495351],[30.804405,37.495777],[30.804286,37.496207],[30.804033,37.497252],[30.804018,37.497313],[30.804007,37.49736],[30.803865,37.497885],[30.803728,37.498296],[30.80356,37.498701],[30.803331,37.499166],[30.803295,37.499233],[30.803155,37.499493],[30.802929,37.499883],[30.802449,37.500658],[30.801694,37.50181],[30.801462,37.502152],[30.800658,37.503338],[30.799858,37.504473],[30.799297,37.505215],[30.798991,37.505593],[30.798988,37.505597],[30.798984,37.505601],[30.798369,37.506323],[30.797726,37.507049],[30.796515,37.508382],[30.797858,37.509122],[30.801805,37.510175],[30.805752,37.511052],[30.812244,37.512631],[30.8197,37.514034],[30.822857,37.515701],[30.824787,37.517192],[30.829699,37.522894],[30.830752,37.524473],[30.832682,37.528771],[30.833647,37.532631],[30.834085,37.536578],[30.835138,37.538946],[30.837945,37.54228],[30.840226,37.543508],[30.84698,37.544999],[30.851366,37.545174],[30.854085,37.545613],[30.857594,37.547104],[30.862506,37.549823],[30.866398,37.550964],[30.870017,37.553135],[30.872648,37.555372],[30.876661,37.56024],[30.877977,37.562608],[30.88153,37.565437],[30.885214,37.568595],[30.887977,37.572937],[30.890609,37.582082],[30.892516,37.587805],[30.893964,37.59491],[30.895345,37.595963],[30.91074,37.608858],[30.916332,37.613134],[30.921069,37.616094],[30.930345,37.620239],[30.93995,37.623594],[30.950279,37.626423],[30.960805,37.627936],[30.978173,37.630568],[30.981528,37.632278],[30.985212,37.634778],[30.988239,37.637344],[30.991002,37.638528],[30.994949,37.639844],[30.996002,37.64037],[30.99837,37.643462],[31.000738,37.646094],[31.002844,37.649515],[31.004817,37.653133],[31.005738,37.654646],[31.006199,37.656357],[31.006265,37.658528],[31.006396,37.660699],[31.006067,37.662607],[31.00587,37.665172],[31.006528,37.66662],[31.007515,37.66787],[31.008962,37.669843],[31.009554,37.672014],[31.012317,37.68083],[31.012515,37.685369],[31.012975,37.688527],[31.013436,37.690764],[31.014422,37.694054],[31.016264,37.698527],[31.017514,37.701356],[31.018896,37.703988],[31.02337,37.712803],[31.02712,37.716158],[31.031264,37.718724],[31.036264,37.720369],[31.038698,37.720698],[31.044685,37.721685],[31.048369,37.721948],[31.056461,37.721487],[31.063961,37.722014],[31.067974,37.722408],[31.071527,37.722277],[31.07679,37.721093],[31.0835,37.718856],[31.086329,37.71754],[31.088895,37.715237],[31.091263,37.713264],[31.093829,37.710895],[31.097316,37.708395],[31.101132,37.706619],[31.106724,37.70333],[31.111329,37.701553],[31.112908,37.700369],[31.121658,37.693856],[31.125539,37.690633],[31.129815,37.686291],[31.131197,37.685041],[31.134618,37.681027],[31.136197,37.67583],[31.136592,37.672212],[31.138434,37.663462],[31.13942,37.660765],[31.140999,37.656817],[31.142841,37.65412],[31.146723,37.648133],[31.148697,37.645896],[31.154223,37.641423],[31.158499,37.637015],[31.166262,37.630634],[31.170407,37.627213],[31.174946,37.624055],[31.184025,37.619581],[31.191722,37.618792],[31.197183,37.619186],[31.200933,37.620568],[31.204551,37.620831],[31.212117,37.619121],[31.216064,37.617147],[31.221459,37.613002],[31.223432,37.612213],[31.22784,37.610963],[31.23159,37.608265],[31.23705,37.603726],[31.240537,37.601555],[31.243498,37.600634],[31.2458,37.59866],[31.248366,37.595831],[31.250274,37.592674],[31.252248,37.588924],[31.25284,37.5857],[31.253761,37.582871],[31.254484,37.580305],[31.253958,37.575437],[31.254484,37.572411],[31.255274,37.570174],[31.258432,37.566424],[31.263761,37.563858],[31.271721,37.561885],[31.275273,37.561687],[31.283168,37.561227],[31.288629,37.561095],[31.292642,37.561095],[31.295602,37.562411],[31.297839,37.564319],[31.299944,37.566029],[31.30251,37.567279],[31.306786,37.568266],[31.310405,37.569121],[31.315536,37.571753],[31.318891,37.574055],[31.32172,37.575898],[31.323883,37.579417],[31.327041,37.582674],[31.331333,37.584943],[31.339179,37.589384],[31.345198,37.591605],[31.353974,37.59439],[31.355186,37.59133],[31.356333,37.589609],[31.358054,37.585848],[31.361242,37.575648],[31.36513,37.56564],[31.367616,37.560987],[31.368827,37.557481],[31.370166,37.550978],[31.370039,37.544667],[31.37023,37.533002],[31.371569,37.518212],[31.371951,37.516236],[31.37329,37.512921],[31.373927,37.508969],[31.373927,37.504634],[31.374118,37.497303],[31.374055,37.493797],[31.374437,37.490737]]]}},{"type":"Feature","properties":{"id":"TR-D-32-010","parent_id":"TR-P-32","region_id":"TR-R-AKD","level":"district","municipality_type":null,"municipality_type_label":null,"is_metropolitan_municipality":null,"name":"Şarkikaraağaç","name_ascii":"sarkikaraagac","slug":"sarkikaraagac-isparta"},"geometry":{"type":"Polygon","coordinates":[[[31.441776,37.870004],[31.432647,37.865082],[31.418367,37.857521],[31.40795,37.850801],[31.389973,37.842904],[31.372332,37.836016],[31.35812,37.832341],[31.353961,37.831868],[31.343755,37.831679],[31.33421,37.831396],[31.329012,37.830829],[31.322586,37.830734],[31.313891,37.829695],[31.302078,37.829222],[31.296408,37.828939],[31.289698,37.82875],[31.281949,37.828466],[31.274672,37.828277],[31.270608,37.827899],[31.26645,37.826293],[31.261157,37.823457],[31.255771,37.821378],[31.251891,37.819848],[31.248212,37.822391],[31.243777,37.825528],[31.241451,37.827259],[31.238259,37.829639],[31.233607,37.837753],[31.225818,37.849816],[31.222897,37.855171],[31.219273,37.862311],[31.216081,37.868802],[31.215219,37.869723],[31.214459,37.870533],[31.211267,37.874969],[31.209536,37.878052],[31.207102,37.883029],[31.2051,37.884922],[31.198826,37.892657],[31.194985,37.897309],[31.194282,37.899203],[31.193957,37.900988],[31.193525,37.90353],[31.192497,37.906235],[31.191145,37.909859],[31.190604,37.911211],[31.18871,37.913429],[31.182544,37.918352],[31.174213,37.931172],[31.169561,37.936256],[31.165775,37.941341],[31.162746,37.953782],[31.161285,37.968928],[31.161231,37.979801],[31.161339,37.980721],[31.157012,37.990025],[31.152414,37.995163],[31.150034,38.000194],[31.148682,38.005495],[31.147978,38.020154],[31.147654,38.024914],[31.147005,38.02789],[31.142623,38.033569],[31.137106,38.041196],[31.13478,38.046011],[31.129911,38.054125],[31.127531,38.061968],[31.126774,38.065268],[31.126504,38.072462],[31.127531,38.074464],[31.131534,38.077222],[31.139053,38.079278],[31.141812,38.08036],[31.145111,38.084633],[31.147924,38.088203],[31.151927,38.092963],[31.156471,38.097994],[31.160203,38.101889],[31.164044,38.107731],[31.16637,38.111409],[31.168642,38.115087],[31.171022,38.117035],[31.178956,38.120558],[31.181021,38.120248],[31.191446,38.119938],[31.201149,38.119887],[31.206774,38.120506],[31.215445,38.122828],[31.222154,38.125719],[31.227418,38.12639],[31.233199,38.126854],[31.236192,38.127473],[31.238927,38.128454],[31.242953,38.130931],[31.248114,38.135008],[31.252036,38.137486],[31.258901,38.139447],[31.264836,38.141563],[31.275003,38.145537],[31.283157,38.15075],[31.285841,38.152969],[31.289093,38.156066],[31.292963,38.161485],[31.295286,38.162517],[31.301118,38.164014],[31.303956,38.164581],[31.30855,38.164272],[31.315104,38.163446],[31.32202,38.161897],[31.328884,38.159627],[31.332858,38.15813],[31.335748,38.157717],[31.3374,38.157253],[31.340032,38.15653],[31.345193,38.156788],[31.350715,38.157614],[31.356909,38.159214],[31.360108,38.159627],[31.365424,38.159781],[31.371669,38.159472],[31.375437,38.15942],[31.379101,38.15973],[31.383023,38.160607],[31.387978,38.162723],[31.390559,38.164323],[31.392623,38.166388],[31.396236,38.170362],[31.39861,38.172736],[31.400158,38.175058],[31.401655,38.177948],[31.405113,38.181974],[31.407487,38.184761],[31.410171,38.188528],[31.412648,38.193173],[31.414248,38.195547],[31.416157,38.199676],[31.41719,38.203805],[31.418015,38.209895],[31.419202,38.214747],[31.419873,38.218411],[31.42137,38.224294],[31.421628,38.226204],[31.42279,38.229256],[31.42332,38.228963],[31.427145,38.228538],[31.43794,38.226583],[31.444739,38.222928],[31.451114,38.218763],[31.457744,38.213493],[31.461484,38.210263],[31.468708,38.202699],[31.476273,38.196579],[31.479758,38.194879],[31.483498,38.193179],[31.488767,38.191054],[31.499222,38.186635],[31.509421,38.18026],[31.512821,38.17907],[31.517156,38.177965],[31.524381,38.175415],[31.5356,38.170485],[31.539425,38.168105],[31.5424,38.164961],[31.548095,38.156716],[31.553194,38.150596],[31.558039,38.144647],[31.563649,38.137082],[31.565349,38.133257],[31.567389,38.129602],[31.569089,38.126032],[31.571554,38.120338],[31.572829,38.115493],[31.572999,38.111158],[31.573254,38.106143],[31.571469,38.100959],[31.568664,38.096964],[31.564159,38.092544],[31.558974,38.089144],[31.555149,38.085829],[31.553279,38.083194],[31.55107,38.079795],[31.54835,38.076225],[31.54665,38.074015],[31.5458,38.072315],[31.54546,38.06968],[31.544355,38.06747],[31.54121,38.061435],[31.53645,38.056336],[31.534325,38.054296],[31.53305,38.050641],[31.531435,38.047581],[31.529651,38.044691],[31.528595,38.044142],[31.527526,38.043586],[31.523446,38.042396],[31.520981,38.041376],[31.517071,38.037552],[31.514351,38.034662],[31.513076,38.031687],[31.511801,38.028202],[31.509931,38.023782],[31.507892,38.019872],[31.506192,38.016473],[31.504322,38.013328],[31.503812,38.009588],[31.504067,38.006188],[31.504747,38.002533],[31.505767,37.999133],[31.506532,37.995818],[31.506617,37.992844],[31.506022,37.988679],[31.505852,37.983664],[31.505342,37.980604],[31.504662,37.975844],[31.502877,37.971255],[31.499647,37.966325],[31.497012,37.963435],[31.494037,37.95927],[31.488512,37.95298],[31.484532,37.949666],[31.480792,37.947172],[31.475692,37.944339],[31.462546,37.937653],[31.455746,37.933006],[31.45348,37.931193],[31.436821,37.915441],[31.434254,37.90815],[31.43506,37.883705],[31.441776,37.870004]]]}},{"type":"Feature","properties":{"id":"TR-D-32-011","parent_id":"TR-P-32","region_id":"TR-R-AKD","level":"district","municipality_type":null,"municipality_type_label":null,"is_metropolitan_municipality":null,"name":"Uluborlu","name_ascii":"uluborlu","slug":"uluborlu-isparta"},"geometry":{"type":"Polygon","coordinates":[[[30.561409,38.009995],[30.55915,38.009665],[30.555079,38.007806],[30.550565,38.00524],[30.544725,38.003293],[30.531981,38.00055],[30.524813,37.999576],[30.516317,37.998249],[30.50968,37.997275],[30.504812,37.999399],[30.498175,38.002143],[30.494193,38.004798],[30.49021,38.006656],[30.484015,38.008072],[30.477378,38.008868],[30.470387,38.009488],[30.462422,38.010992],[30.456935,38.01232],[30.452333,38.014178],[30.449413,38.01409],[30.445342,38.01347],[30.439501,38.013028],[30.432245,38.013382],[30.421802,38.015329],[30.400917,38.02347],[30.396315,38.024621],[30.391005,38.02701],[30.383571,38.030373],[30.378969,38.033028],[30.373925,38.036037],[30.370474,38.038692],[30.367111,38.040373],[30.365075,38.041347],[30.36242,38.041435],[30.35888,38.040639],[30.355429,38.039842],[30.347026,38.038927],[30.347098,38.041803],[30.347241,38.044463],[30.346954,38.047195],[30.347026,38.048561],[30.346522,38.050789],[30.345875,38.052443],[30.345084,38.053593],[30.342784,38.055103],[30.339463,38.056385],[30.339941,38.056923],[30.341397,38.059633],[30.344057,38.064953],[30.34496,38.067663],[30.346014,38.069419],[30.348674,38.072029],[30.349828,38.074087],[30.350631,38.077048],[30.351033,38.080009],[30.351535,38.08292],[30.352739,38.084476],[30.3556,38.086734],[30.359765,38.088741],[30.363479,38.091351],[30.369201,38.096521],[30.37161,38.098428],[30.376578,38.10169],[30.383604,38.105755],[30.38777,38.107562],[30.39053,38.109619],[30.39309,38.111727],[30.397757,38.116043],[30.400417,38.118352],[30.403077,38.122869],[30.403981,38.125981],[30.406741,38.130247],[30.408447,38.132957],[30.410756,38.135566],[30.412312,38.136821],[30.414921,38.13918],[30.417581,38.14199],[30.421847,38.145805],[30.425712,38.149719],[30.428572,38.151978],[30.431534,38.154688],[30.434796,38.157799],[30.43856,38.161564],[30.442374,38.165579],[30.446891,38.168891],[30.449852,38.170748],[30.451307,38.171802],[30.452713,38.173257],[30.454469,38.175014],[30.458283,38.178376],[30.459558,38.179213],[30.463849,38.183031],[30.466836,38.186615],[30.468163,38.187611],[30.468982,38.187707],[30.469962,38.187821],[30.472212,38.187279],[30.476858,38.185354],[30.480281,38.183539],[30.480561,38.183451],[30.480841,38.183363],[30.486217,38.181637],[30.490996,38.18031],[30.494779,38.179115],[30.499757,38.17792],[30.502943,38.177456],[30.510244,38.177389],[30.51343,38.176194],[30.516151,38.17427],[30.518607,38.172478],[30.52093,38.170354],[30.526173,38.167301],[30.52704,38.167021],[30.524691,38.165877],[30.523164,38.164417],[30.520775,38.161696],[30.520111,38.159107],[30.519182,38.155324],[30.517921,38.152403],[30.517257,38.149483],[30.515332,38.147293],[30.513673,38.145833],[30.51281,38.14351],[30.512213,38.139063],[30.511615,38.136142],[30.511416,38.133023],[30.511549,38.128244],[30.511483,38.123465],[30.511416,38.11696],[30.510952,38.109858],[30.511085,38.105279],[30.511615,38.100102],[30.513009,38.096916],[30.514934,38.093863],[30.516992,38.091208],[30.519448,38.088221],[30.524226,38.083774],[30.527412,38.080522],[30.530996,38.079128],[30.535045,38.076937],[30.537501,38.07488],[30.541682,38.073818],[30.544005,38.072557],[30.546262,38.070831],[30.549913,38.067844],[30.552103,38.065654],[30.554559,38.062136],[30.557678,38.058884],[30.559669,38.056893],[30.561329,38.054437],[30.562125,38.052711],[30.562059,38.049791],[30.562391,38.04707],[30.561993,38.045477],[30.560864,38.042357],[30.559603,38.038441],[30.558276,38.035123],[30.55801,38.033397],[30.558475,38.031472],[30.560466,38.027091],[30.560931,38.024835],[30.560931,38.022512],[30.560731,38.020521],[30.560665,38.017335],[30.560798,38.014348],[30.56113,38.012158],[30.561409,38.009995]]]}},{"type":"Feature","properties":{"id":"TR-D-32-012","parent_id":"TR-P-32","region_id":"TR-R-AKD","level":"district","municipality_type":null,"municipality_type_label":null,"is_metropolitan_municipality":null,"name":"Yalvaç","name_ascii":"yalvac","slug":"yalvac-isparta"},"geometry":{"type":"Polygon","coordinates":[[[31.241413,38.427936],[31.239729,38.423094],[31.239389,38.417229],[31.239389,38.411279],[31.240664,38.407539],[31.242704,38.404479],[31.246869,38.39598],[31.257068,38.3851],[31.265568,38.379066],[31.273642,38.373456],[31.278402,38.368611],[31.281037,38.361726],[31.281972,38.357137],[31.284267,38.345067],[31.285542,38.340902],[31.289282,38.333933],[31.292257,38.329768],[31.294551,38.325603],[31.297441,38.317613],[31.300756,38.310474],[31.304921,38.302654],[31.309596,38.29526],[31.312401,38.29203],[31.321495,38.28472],[31.327615,38.281235],[31.333905,38.278515],[31.342064,38.273756],[31.349799,38.268316],[31.355154,38.263216],[31.360338,38.258456],[31.367988,38.254461],[31.372918,38.253611],[31.378443,38.253102],[31.385157,38.250977],[31.388557,38.250127],[31.399352,38.245197],[31.405641,38.241202],[31.410911,38.238312],[31.414481,38.235422],[31.419326,38.231173],[31.42279,38.229256],[31.421628,38.226204],[31.42137,38.224294],[31.419873,38.218411],[31.419202,38.214747],[31.418015,38.209895],[31.41719,38.203805],[31.416157,38.199676],[31.414248,38.195547],[31.412648,38.193173],[31.410171,38.188528],[31.407487,38.184761],[31.405113,38.181974],[31.401655,38.177948],[31.400158,38.175058],[31.39861,38.172736],[31.396236,38.170362],[31.392623,38.166388],[31.390559,38.164323],[31.387978,38.162723],[31.383023,38.160607],[31.379101,38.15973],[31.375437,38.15942],[31.371669,38.159472],[31.365424,38.159781],[31.360108,38.159627],[31.356909,38.159214],[31.350715,38.157614],[31.345193,38.156788],[31.340032,38.15653],[31.3374,38.157253],[31.335748,38.157717],[31.332858,38.15813],[31.328884,38.159627],[31.32202,38.161897],[31.315104,38.163446],[31.30855,38.164272],[31.303956,38.164581],[31.301118,38.164014],[31.295286,38.162517],[31.292963,38.161485],[31.289093,38.156066],[31.285841,38.152969],[31.283157,38.15075],[31.275003,38.145537],[31.264836,38.141563],[31.258901,38.139447],[31.252036,38.137486],[31.248114,38.135008],[31.242953,38.130931],[31.238927,38.128454],[31.236192,38.127473],[31.233199,38.126854],[31.227418,38.12639],[31.222154,38.125719],[31.215445,38.122828],[31.206774,38.120506],[31.201149,38.119887],[31.191446,38.119938],[31.181021,38.120248],[31.178956,38.120558],[31.177034,38.124664],[31.172448,38.132089],[31.168736,38.13864],[31.167644,38.141479],[31.165788,38.147211],[31.164641,38.14934],[31.16284,38.155072],[31.160874,38.160695],[31.158691,38.164353],[31.15476,38.16872],[31.151648,38.171559],[31.147609,38.173524],[31.14346,38.175435],[31.132487,38.181331],[31.123588,38.185316],[31.114908,38.185698],[31.107811,38.187773],[31.104918,38.189192],[31.101369,38.19154],[31.094873,38.194051],[31.09056,38.195961],[31.080242,38.200711],[31.07118,38.203987],[31.065393,38.206006],[31.052946,38.210701],[31.043774,38.214141],[31.035367,38.215942],[31.028652,38.21889],[31.024886,38.220364],[31.022429,38.220473],[31.018444,38.219709],[31.012875,38.217252],[31.009491,38.216324],[31.005778,38.214468],[31.001902,38.213267],[30.998026,38.211902],[30.993004,38.210319],[30.988254,38.209391],[30.984706,38.207808],[30.982795,38.206934],[30.979902,38.206498],[30.976899,38.205733],[30.972095,38.205133],[30.969857,38.204915],[30.967619,38.205297],[30.963688,38.205679],[30.960849,38.205624],[30.958829,38.204696],[30.956373,38.202676],[30.955117,38.201857],[30.952333,38.201803],[30.94933,38.20224],[30.946819,38.202021],[30.944144,38.200602],[30.940323,38.197927],[30.937975,38.196835],[30.934972,38.196234],[30.929841,38.19487],[30.927548,38.193614],[30.921215,38.189465],[30.91663,38.185371],[30.909205,38.179966],[30.903145,38.177182],[30.89512,38.173743],[30.892554,38.172924],[30.888515,38.171613],[30.882837,38.166919],[30.879234,38.163315],[30.873566,38.158511],[30.866796,38.155745],[30.859881,38.152251],[30.851656,38.147811],[30.847143,38.144973],[30.843867,38.14308],[30.84081,38.139149],[30.840228,38.135801],[30.840578,38.132388],[30.834937,38.134493],[30.828488,38.138542],[30.81979,38.147091],[30.813491,38.156989],[30.807792,38.168836],[30.803593,38.179034],[30.798194,38.19508],[30.795645,38.205278],[30.793695,38.214726],[30.790246,38.223124],[30.787097,38.231673],[30.782748,38.239771],[30.777361,38.245985],[30.776042,38.247578],[30.772031,38.251315],[30.767579,38.254832],[30.765161,38.25802],[30.763128,38.261482],[30.76027,38.266098],[30.759336,38.268132],[30.757742,38.271869],[30.757083,38.273957],[30.755269,38.281541],[30.754555,38.284509],[30.75362,38.287696],[30.751513,38.292402],[30.752282,38.292503],[30.758053,38.292202],[30.761818,38.292653],[30.766836,38.293808],[30.774214,38.296919],[30.780287,38.300533],[30.783699,38.303444],[30.787714,38.306605],[30.794339,38.31042],[30.800663,38.314535],[30.804728,38.317295],[30.808191,38.320005],[30.812356,38.322615],[30.814866,38.32402],[30.818479,38.325175],[30.823096,38.327132],[30.827111,38.329842],[30.829621,38.333104],[30.830223,38.33722],[30.832281,38.340683],[30.83464,38.343644],[30.838203,38.347458],[30.841064,38.353731],[30.843071,38.357245],[30.845631,38.360155],[30.848441,38.364271],[30.852807,38.367985],[30.856471,38.372953],[30.859332,38.377771],[30.859633,38.382639],[30.86159,38.386855],[30.863949,38.388762],[30.871929,38.389415],[30.873635,38.390268],[30.875994,38.394032],[30.87755,38.39629],[30.88026,38.397746],[30.883673,38.398649],[30.889846,38.400657],[30.89898,38.402714],[30.904701,38.404672],[30.911677,38.407532],[30.926332,38.408938],[30.935366,38.411146],[30.940987,38.412752],[30.946006,38.414107],[30.954036,38.416315],[30.959456,38.417771],[30.961765,38.421083],[30.963672,38.424948],[30.964675,38.427808],[30.966833,38.432877],[30.966934,38.435336],[30.966733,38.4389],[30.966984,38.441259],[30.968239,38.444721],[30.969995,38.447231],[30.973057,38.44969],[30.975165,38.451948],[30.976168,38.454207],[30.977574,38.457218],[30.97928,38.459426],[30.98189,38.461384],[30.985202,38.46319],[30.990622,38.464746],[30.994085,38.466804],[30.996093,38.468109],[30.999154,38.470267],[31.002968,38.473529],[31.005578,38.476289],[31.00879,38.479652],[31.012604,38.483065],[31.014863,38.485574],[31.018878,38.48974],[31.021688,38.491998],[31.025402,38.494357],[31.030321,38.497719],[31.034185,38.499376],[31.036694,38.500931],[31.038953,38.50324],[31.04076,38.505348],[31.043319,38.506452],[31.045678,38.506402],[31.049292,38.506051],[31.052704,38.506502],[31.05682,38.507606],[31.058827,38.508811],[31.061939,38.509564],[31.067309,38.509915],[31.07283,38.509313],[31.081211,38.507857],[31.084875,38.506603],[31.088237,38.5059],[31.090696,38.505599],[31.093005,38.505047],[31.098224,38.504645],[31.100884,38.504394],[31.1051,38.504445],[31.108563,38.504545],[31.111624,38.504294],[31.113272,38.503412],[31.114435,38.502788],[31.115288,38.50048],[31.117095,38.496816],[31.118299,38.494307],[31.120106,38.491446],[31.12372,38.488234],[31.12919,38.484922],[31.134058,38.482663],[31.139529,38.480154],[31.141737,38.479301],[31.145401,38.477695],[31.148613,38.476641],[31.152176,38.473981],[31.15584,38.471421],[31.158299,38.468761],[31.16131,38.466051],[31.165626,38.46304],[31.171097,38.459376],[31.17466,38.457068],[31.178374,38.451497],[31.180231,38.449238],[31.183192,38.448486],[31.185902,38.448335],[31.189716,38.447331],[31.193079,38.445725],[31.199252,38.443918],[31.20422,38.442664],[31.208637,38.441158],[31.212351,38.440054],[31.216215,38.438799],[31.221083,38.437896],[31.226102,38.436842],[31.229113,38.435587],[31.232928,38.433329],[31.235588,38.431472],[31.236892,38.430267],[31.240305,38.428611],[31.241413,38.427936]]]}},{"type":"Feature","properties":{"id":"TR-D-32-013","parent_id":"TR-P-32","region_id":"TR-R-AKD","level":"district","municipality_type":null,"municipality_type_label":null,"is_metropolitan_municipality":null,"name":"Yenişarbademli","name_ascii":"yenisarbademli","slug":"yenisarbademli-isparta"},"geometry":{"type":"Polygon","coordinates":[[[31.441776,37.870004],[31.461923,37.852006],[31.468101,37.834814],[31.46837,37.811712],[31.462729,37.795325],[31.449835,37.780551],[31.438821,37.769],[31.431299,37.75805],[31.430137,37.754648],[31.429578,37.753014],[31.429578,37.746193],[31.430662,37.742368],[31.432256,37.73695],[31.432574,37.73287],[31.432829,37.729555],[31.432702,37.718017],[31.432383,37.711132],[31.432001,37.706734],[31.432192,37.705076],[31.432511,37.701889],[31.431746,37.700168],[31.431045,37.699148],[31.429323,37.697936],[31.426008,37.695897],[31.422003,37.695429],[31.415458,37.696364],[31.410869,37.697724],[31.406704,37.699339],[31.401094,37.700019],[31.38639,37.700274],[31.38163,37.699424],[31.3784,37.698914],[31.375765,37.697639],[31.373725,37.697129],[31.372535,37.696789],[31.37024,37.695429],[31.367691,37.694069],[31.364886,37.692709],[31.362506,37.691434],[31.361061,37.689819],[31.359446,37.688289],[31.357491,37.68676],[31.355791,37.68489],[31.354176,37.682255],[31.349416,37.67945],[31.343807,37.67554],[31.341795,37.673408],[31.336763,37.674068],[31.332706,37.674934],[31.330542,37.675637],[31.328324,37.676502],[31.326323,37.678666],[31.325673,37.679802],[31.3247,37.681641],[31.323888,37.685157],[31.322374,37.69511],[31.321508,37.697599],[31.319399,37.6996],[31.315288,37.702034],[31.311772,37.703386],[31.310149,37.704252],[31.309337,37.706199],[31.306687,37.710581],[31.303333,37.712312],[31.301602,37.713448],[31.298789,37.716044],[31.297112,37.7181],[31.296193,37.722049],[31.295327,37.72524],[31.290838,37.739899],[31.286727,37.748067],[31.284509,37.754991],[31.284292,37.757047],[31.285645,37.762131],[31.286402,37.765215],[31.285374,37.774735],[31.284022,37.7822],[31.281642,37.787068],[31.27845,37.791828],[31.276341,37.794912],[31.272717,37.799672],[31.267902,37.804756],[31.265144,37.807191],[31.260221,37.812329],[31.251891,37.819848],[31.255771,37.821378],[31.261157,37.823457],[31.26645,37.826293],[31.270608,37.827899],[31.274672,37.828277],[31.281949,37.828466],[31.289698,37.82875],[31.296408,37.828939],[31.302078,37.829222],[31.313891,37.829695],[31.322586,37.830734],[31.329012,37.830829],[31.33421,37.831396],[31.343755,37.831679],[31.353961,37.831868],[31.35812,37.832341],[31.372332,37.836016],[31.389973,37.842904],[31.40795,37.850801],[31.418367,37.857521],[31.432647,37.865082],[31.441776,37.870004]]]}}]}