{"type":"FeatureCollection","province":"Karaman","province_id":"TR-P-70","features":[{"type":"Feature","properties":{"id":"TR-D-70-001","parent_id":"TR-P-70","region_id":"TR-R-ICA","level":"district","municipality_type":null,"municipality_type_label":null,"is_metropolitan_municipality":null,"name":"Ayrancı","name_ascii":"ayranci","slug":"ayranci-karaman"},"geometry":{"type":"Polygon","coordinates":[[[33.520811,37.518725],[33.525726,37.528007],[33.528258,37.536027],[33.527977,37.552629],[33.530509,37.561914],[33.533745,37.576828],[33.536278,37.583581],[33.539514,37.596665],[33.544156,37.606514],[33.55386,37.61179],[33.563119,37.612581],[33.576177,37.613056],[33.591372,37.612819],[33.605063,37.611553],[33.617554,37.609996],[33.641507,37.603032],[33.697116,37.585727],[33.706296,37.580978],[33.734153,37.56209],[33.743545,37.555337],[33.762222,37.544574],[33.779843,37.536554],[33.791345,37.530012],[33.807068,37.515134],[33.835136,37.489598],[33.850225,37.477674],[33.857611,37.467756],[33.864681,37.45446],[33.866053,37.447074],[33.870485,37.440004],[33.874495,37.433145],[33.879348,37.429874],[33.887262,37.42597],[33.898342,37.421432],[33.905306,37.419744],[33.910371,37.418267],[33.920079,37.416895],[33.92525,37.416684],[33.931053,37.413941],[33.938545,37.410353],[33.948464,37.406343],[33.958383,37.402756],[33.971467,37.401278],[33.980858,37.399695],[33.991199,37.397374],[34.002068,37.393259],[34.013464,37.389143],[34.021378,37.382918],[34.033724,37.376692],[34.05736,37.368673],[34.064113,37.36614],[34.071711,37.361181],[34.083846,37.353478],[34.089333,37.350207],[34.097141,37.341449],[34.098829,37.339127],[34.103156,37.334273],[34.107588,37.330686],[34.113075,37.326887],[34.119828,37.322877],[34.124576,37.320872],[34.131857,37.316968],[34.141459,37.313486],[34.147474,37.311164],[34.153911,37.307577],[34.15982,37.30325],[34.163724,37.300296],[34.169105,37.296392],[34.178075,37.291327],[34.185989,37.286156],[34.190209,37.283202],[34.200326,37.279218],[34.204679,37.278031],[34.209981,37.27542],[34.215125,37.272254],[34.222564,37.265765],[34.229924,37.2607],[34.236968,37.255476],[34.241795,37.250965],[34.247177,37.246534],[34.254062,37.240202],[34.262293,37.236166],[34.272897,37.228569],[34.277725,37.225166],[34.285955,37.220101],[34.291891,37.215511],[34.284471,37.213456],[34.279301,37.212567],[34.274455,37.210871],[34.270335,37.209982],[34.266781,37.208448],[34.264035,37.207317],[34.253615,37.205782],[34.249253,37.204328],[34.243437,37.20239],[34.236733,37.202228],[34.232856,37.201501],[34.229302,37.199563],[34.226394,37.196978],[34.223163,37.193989],[34.220821,37.192374],[34.217428,37.190354],[34.210562,37.188093],[34.202324,37.186881],[34.194731,37.18575],[34.18843,37.18365],[34.182615,37.183408],[34.178657,37.183246],[34.174457,37.183246],[34.169126,37.184943],[34.166379,37.185912],[34.161452,37.1868],[34.161093,37.186881],[34.160913,37.186921],[34.156541,37.187898],[34.154586,37.188335],[34.149417,37.188739],[34.14142,37.190031],[34.138028,37.190678],[34.133908,37.191808],[34.129869,37.19197],[34.125588,37.191162],[34.11898,37.190549],[34.117753,37.190435],[34.116946,37.190383],[34.111534,37.190031],[34.103618,37.188577],[34.092713,37.187204],[34.074782,37.184296],[34.07386,37.184183],[34.068239,37.183489],[34.061777,37.182196],[34.055315,37.180096],[34.05168,37.178238],[34.049338,37.176784],[34.046753,37.174927],[34.042068,37.174765],[34.037949,37.174684],[34.032295,37.172342],[34.028014,37.169919],[34.024298,37.16903],[34.022117,37.168626],[34.018886,37.168465],[34.016221,37.167899],[34.01404,37.16692],[34.012263,37.166122],[34.011642,37.16593],[34.00887,37.165072],[34.006851,37.164264],[34.005478,37.162649],[34.003862,37.159741],[34.003104,37.157894],[34.00257,37.156591],[33.998367,37.147947],[33.998289,37.147787],[33.996835,37.144233],[33.993442,37.135024],[33.992554,37.13244],[33.991585,37.129209],[33.989969,37.124039],[33.986819,37.11887],[33.986284,37.118566],[33.984396,37.117496],[33.977207,37.112488],[33.969453,37.107723],[33.966222,37.105623],[33.962814,37.104053],[33.960083,37.102796],[33.951198,37.099888],[33.947061,37.09766],[33.945947,37.097061],[33.944593,37.096486],[33.940051,37.094557],[33.930681,37.091083],[33.927198,37.089396],[33.925512,37.088579],[33.921957,37.086898],[33.918,37.085025],[33.911295,37.082441],[33.90548,37.080664],[33.90136,37.079129],[33.896271,37.075413],[33.896107,37.075255],[33.888275,37.06774],[33.883034,37.06239],[33.880521,37.059824],[33.879349,37.058048],[33.875674,37.052473],[33.874793,37.051409],[33.873332,37.049646],[33.870996,37.046254],[33.869939,37.044719],[33.866789,37.040357],[33.864568,37.037378],[33.863477,37.035915],[33.861135,37.033492],[33.854511,37.031068],[33.852544,37.0297],[33.848938,37.027191],[33.844576,37.024176],[33.843445,37.023395],[33.836095,37.019033],[33.827129,37.014267],[33.82694,37.014241],[33.826751,37.014215],[33.81811,37.013009],[33.816709,37.012813],[33.813801,37.012571],[33.800716,37.011198],[33.789569,37.009179],[33.783138,37.00826],[33.782219,37.008129],[33.777453,37.008048],[33.775191,37.008425],[33.770668,37.009179],[33.761783,37.010713],[33.750071,37.012894],[33.744417,37.014914],[33.739409,37.016125],[33.73222,37.018306],[33.726566,37.019841],[33.720831,37.021779],[33.715742,37.023799],[33.709845,37.025818],[33.702414,37.027191],[33.695548,37.029695],[33.690944,37.031068],[33.685688,37.032621],[33.683836,37.033168],[33.682801,37.033454],[33.679151,37.034461],[33.673551,37.035633],[33.672205,37.035915],[33.667278,37.036427],[33.665985,37.036561],[33.663519,37.038841],[33.659536,37.043143],[33.658182,37.045055],[33.656111,37.053021],[33.654597,37.057721],[33.652606,37.064332],[33.652287,37.067359],[33.651889,37.075086],[33.653164,37.080901],[33.654836,37.094045],[33.655553,37.100657],[33.65874,37.108942],[33.664874,37.122484],[33.668299,37.128538],[33.669653,37.131087],[33.671406,37.136504],[33.672999,37.139929],[33.673955,37.142637],[33.678017,37.152037],[33.678973,37.154666],[33.680726,37.16072],[33.681204,37.168527],[33.681921,37.178325],[33.681522,37.186689],[33.681921,37.192265],[33.68208,37.196647],[33.681522,37.199753],[33.67969,37.203736],[33.678256,37.20517],[33.674592,37.207878],[33.67037,37.208675],[33.662165,37.210587],[33.652128,37.213375],[33.648703,37.215127],[33.645835,37.215924],[33.638745,37.218633],[33.629505,37.223173],[33.621061,37.227953],[33.611422,37.235998],[33.602261,37.24261],[33.596446,37.24962],[33.591587,37.255276],[33.588002,37.260852],[33.585214,37.265074],[33.581151,37.271925],[33.579399,37.274872],[33.572708,37.283635],[33.567609,37.290645],[33.56291,37.298053],[33.556696,37.307214],[33.550323,37.31741],[33.547217,37.32434],[33.542198,37.352062],[33.541162,37.363692],[33.53941,37.367038],[33.536224,37.373092],[33.532719,37.381377],[33.530647,37.388546],[33.530169,37.391971],[33.530329,37.395636],[33.531205,37.405752],[33.533675,37.413798],[33.53463,37.417303],[33.535825,37.422879],[33.5371,37.429013],[33.538374,37.44128],[33.538135,37.452433],[33.53718,37.460717],[33.53745,37.477445],[33.537884,37.488518],[33.538101,37.499482],[33.536147,37.51088],[33.533868,37.515114],[33.529091,37.517177],[33.523012,37.518262],[33.520811,37.518725]]]}},{"type":"Feature","properties":{"id":"TR-D-70-002","parent_id":"TR-P-70","region_id":"TR-R-ICA","level":"district","municipality_type":null,"municipality_type_label":null,"is_metropolitan_municipality":null,"name":"Başyayla","name_ascii":"basyayla","slug":"basyayla-karaman"},"geometry":{"type":"Polygon","coordinates":[[[32.720589,36.826163],[32.721386,36.825477],[32.72331,36.8235],[32.725287,36.821737],[32.72705,36.818638],[32.728279,36.814844],[32.730737,36.80902],[32.730576,36.807043],[32.730042,36.80325],[32.729401,36.799616],[32.728706,36.794915],[32.727424,36.790587],[32.726355,36.7869],[32.726142,36.784709],[32.725821,36.77803],[32.723684,36.769749],[32.723096,36.767611],[32.722722,36.76478],[32.721814,36.760933],[32.721226,36.75778],[32.721653,36.755322],[32.722722,36.750674],[32.724806,36.747041],[32.726088,36.746346],[32.729615,36.744903],[32.740247,36.740682],[32.746873,36.738812],[32.757986,36.736996],[32.761459,36.736354],[32.768672,36.733736],[32.772359,36.732668],[32.774657,36.731332],[32.775351,36.729836],[32.775886,36.727378],[32.777008,36.723317],[32.777542,36.717547],[32.777115,36.710547],[32.77658,36.708624],[32.775672,36.707716],[32.774069,36.706593],[32.771558,36.704937],[32.770115,36.704403],[32.767016,36.703601],[32.760337,36.702586],[32.757933,36.701892],[32.755528,36.701785],[32.750025,36.700556],[32.747567,36.700128],[32.746232,36.700502],[32.742385,36.702159],[32.73982,36.703975],[32.736187,36.706433],[32.734584,36.707342],[32.731217,36.707395],[32.727691,36.706861],[32.723363,36.705525],[32.719623,36.704136],[32.716364,36.702212],[32.715028,36.701464],[32.713051,36.698579],[32.711395,36.697029],[32.708189,36.695213],[32.705624,36.693182],[32.700815,36.690618],[32.697503,36.686984],[32.694457,36.681428],[32.69419,36.680199],[32.694511,36.678863],[32.695205,36.677046],[32.696808,36.676085],[32.703006,36.67539],[32.715295,36.675283],[32.719142,36.675016],[32.7216,36.674802],[32.724485,36.673413],[32.725981,36.67165],[32.726676,36.669139],[32.726943,36.666574],[32.726943,36.663849],[32.726409,36.660376],[32.726569,36.658292],[32.726409,36.656315],[32.726783,36.654498],[32.726943,36.649423],[32.726729,36.645789],[32.726035,36.642209],[32.725714,36.637775],[32.725607,36.635905],[32.72518,36.634195],[32.72363,36.632111],[32.721653,36.630241],[32.720585,36.627997],[32.71973,36.625753],[32.719016,36.623637],[32.717218,36.625221],[32.715273,36.627703],[32.713998,36.630118],[32.712321,36.632064],[32.708766,36.634479],[32.704405,36.637229],[32.700581,36.639711],[32.697294,36.641187],[32.694544,36.641992],[32.692598,36.643132],[32.689982,36.645011],[32.685957,36.648231],[32.680926,36.651719],[32.676498,36.65447],[32.672808,36.658294],[32.669253,36.662453],[32.664624,36.665941],[32.65966,36.667954],[32.657178,36.668759],[32.652213,36.671308],[32.649195,36.673991],[32.64792,36.675803],[32.647249,36.67862],[32.646109,36.681169],[32.643895,36.684792],[32.64148,36.68875],[32.640406,36.690427],[32.638394,36.694385],[32.637186,36.698947],[32.635845,36.702167],[32.634503,36.707467],[32.634436,36.715517],[32.635174,36.725781],[32.635241,36.730275],[32.63504,36.741143],[32.634973,36.744497],[32.6341,36.74812],[32.633161,36.7502],[32.631954,36.751944],[32.631149,36.75295],[32.629472,36.754023],[32.628063,36.755768],[32.62719,36.756674],[32.62978,36.757723],[32.636349,36.760809],[32.651926,36.771335],[32.657097,36.7764],[32.660895,36.782731],[32.6648,36.78674],[32.668915,36.791489],[32.673452,36.795921],[32.679045,36.800564],[32.683582,36.804362],[32.687064,36.808055],[32.691074,36.810693],[32.695717,36.814598],[32.699938,36.817658],[32.704158,36.819979],[32.710279,36.821879],[32.716293,36.824094],[32.720589,36.826163]]]}},{"type":"Feature","properties":{"id":"TR-D-70-003","parent_id":"TR-P-70","region_id":"TR-R-ICA","level":"district","municipality_type":null,"municipality_type_label":null,"is_metropolitan_municipality":null,"name":"Ermenek","name_ascii":"ermenek","slug":"ermenek-karaman"},"geometry":{"type":"Polygon","coordinates":[[[33.221168,36.52912],[33.220386,36.528771],[33.219866,36.528544],[33.219219,36.528261],[33.218936,36.528137],[33.21648,36.5271],[33.215676,36.526773],[33.215491,36.526698],[33.214993,36.526504],[33.214867,36.526456],[33.214492,36.526317],[33.214191,36.526212],[33.213906,36.526114],[33.213824,36.526088],[33.21356,36.526004],[33.213476,36.525977],[33.21334,36.52594],[33.212986,36.525841],[33.212491,36.525721],[33.211991,36.525616],[33.211576,36.525542],[33.211487,36.525526],[33.210979,36.525454],[33.210469,36.525403],[33.210012,36.525379],[33.209553,36.525371],[33.209092,36.525377],[33.208631,36.525394],[33.208169,36.525421],[33.207708,36.525457],[33.207174,36.52551],[33.206462,36.525597],[33.206107,36.52564],[33.205575,36.525718],[33.204511,36.525873],[33.203453,36.526047],[33.202402,36.526245],[33.201871,36.526359],[33.200816,36.526607],[33.199766,36.52687],[33.191394,36.529047],[33.191003,36.529155],[33.190355,36.529332],[33.190049,36.52942],[33.18984,36.529481],[33.189328,36.529636],[33.188822,36.529802],[33.188383,36.52996],[33.188354,36.529971],[33.187835,36.530177],[33.187353,36.530387],[33.186406,36.530835],[33.185009,36.531543],[33.184324,36.531904],[33.1841,36.532022],[33.182766,36.53274],[33.182322,36.532981],[33.181508,36.533425],[33.17877,36.534916],[33.167972,36.540876],[33.166632,36.54163],[33.165855,36.542089],[33.165754,36.542148],[33.165672,36.542199],[33.165324,36.542415],[33.164902,36.54269],[33.164488,36.542978],[33.164082,36.543274],[33.163683,36.543576],[33.162897,36.544192],[33.155545,36.55016],[33.154394,36.551109],[33.153645,36.551752],[33.153282,36.552081],[33.152931,36.552416],[33.152595,36.552761],[33.152292,36.553103],[33.152003,36.553455],[33.151456,36.554175],[33.150676,36.555281],[33.149415,36.557146],[33.148677,36.558273],[33.14819,36.559046],[33.147708,36.559839],[33.146283,36.562228],[33.145795,36.563018],[33.145284,36.563796],[33.145093,36.564065],[33.145013,36.564177],[33.144966,36.564239],[33.144749,36.564525],[33.144472,36.564867],[33.144184,36.565203],[33.143884,36.565533],[33.143545,36.565883],[33.143194,36.566226],[33.142836,36.566565],[33.142163,36.567181],[33.142134,36.567208],[33.139357,36.569666],[33.136898,36.571844],[33.136779,36.57195],[33.136511,36.572187],[33.13168,36.576497],[33.130925,36.577149],[33.130653,36.577375],[33.13054,36.577469],[33.130428,36.577559],[33.130149,36.577783],[33.129748,36.578086],[33.129332,36.578377],[33.128904,36.578649],[33.128682,36.578778],[33.128461,36.578908],[33.128381,36.578952],[33.128007,36.579156],[33.127077,36.579629],[33.126628,36.579843],[33.125719,36.580258],[33.124798,36.580656],[33.124333,36.580846],[33.123865,36.581028],[33.123473,36.58117],[33.123393,36.581199],[33.122915,36.581355],[33.122429,36.581489],[33.122355,36.581506],[33.121944,36.581596],[33.121762,36.581627],[33.121451,36.58168],[33.121089,36.581727],[33.120955,36.581745],[33.12081,36.581758],[33.120455,36.58179],[33.119955,36.581815],[33.119456,36.581817],[33.118959,36.581793],[33.118486,36.581739],[33.118017,36.58166],[33.117554,36.581559],[33.117097,36.581439],[33.116649,36.5813],[33.116212,36.58114],[33.115788,36.580958],[33.115333,36.580726],[33.114894,36.580468],[33.114467,36.580193],[33.114048,36.579906],[33.113572,36.579561],[33.113227,36.579311],[33.111587,36.578077],[33.111573,36.578067],[33.111568,36.578064],[33.110384,36.577196],[33.109146,36.576329],[33.108302,36.575768],[33.1083,36.575767],[33.108297,36.575765],[33.108097,36.57564],[33.107879,36.575503],[33.107495,36.575275],[33.107444,36.575245],[33.107418,36.57523],[33.107,36.575002],[33.106541,36.574778],[33.106088,36.574587],[33.105622,36.574414],[33.105146,36.574254],[33.104814,36.574151],[33.104664,36.574104],[33.104102,36.573942],[33.103687,36.573823],[33.103235,36.5737],[33.1027,36.573555],[33.101874,36.573338],[33.100715,36.573034],[33.098757,36.572531],[33.097919,36.572323],[33.097782,36.572289],[33.097681,36.572266],[33.096805,36.572064],[33.096315,36.571962],[33.096248,36.57195],[33.095824,36.571871],[33.095559,36.57183],[33.09533,36.571794],[33.094834,36.571738],[33.094298,36.571703],[33.093758,36.571691],[33.09322,36.571696],[33.093215,36.571696],[33.093201,36.571696],[33.092672,36.571712],[33.091581,36.571766],[33.090488,36.571837],[33.084879,36.572232],[33.083091,36.572358],[33.080606,36.571114],[33.079,36.570423],[33.076072,36.569163],[33.075638,36.568975],[33.075208,36.568845],[33.074954,36.568768],[33.074736,36.568702],[33.073954,36.568465],[33.072511,36.568029],[33.069188,36.567023],[33.064928,36.564774],[33.060879,36.562202],[33.059898,36.561578],[33.057856,36.560303],[33.054217,36.558028],[33.052027,36.556581],[33.050903,36.555838],[33.048654,36.553294],[33.047352,36.550158],[33.044216,36.548501],[33.042723,36.547709],[33.041316,36.546962],[33.039282,36.544743],[33.037504,36.543417],[33.036841,36.542923],[33.034844,36.538796],[33.033024,36.535378],[33.032629,36.533293],[33.032536,36.532804],[33.032803,36.527834],[33.03647,36.520369],[33.036575,36.520156],[33.039815,36.513631],[33.041368,36.510747],[33.04343,36.506422],[33.043632,36.505998],[33.046428,36.500805],[33.04878,36.498408],[33.049882,36.496929],[33.051717,36.49184],[33.052604,36.487994],[33.053078,36.485094],[33.053078,36.482313],[33.052326,36.473514],[33.052249,36.472608],[33.052162,36.471839],[33.05148,36.465803],[33.050872,36.463524],[33.049823,36.459589],[33.049212,36.456404],[33.048699,36.453731],[33.046983,36.447281],[33.044379,36.4416],[33.042722,36.44018],[33.040059,36.438286],[33.034496,36.436037],[33.033254,36.435978],[33.032858,36.436014],[33.0242,36.436807],[33.019643,36.437813],[33.017158,36.437813],[33.016172,36.437753],[33.014199,36.437635],[33.010649,36.436866],[33.01059,36.436864],[33.008873,36.436807],[33.002009,36.436984],[32.995736,36.437398],[32.989701,36.436511],[32.98544,36.436333],[32.980587,36.436511],[32.977274,36.436925],[32.976996,36.43701],[32.976857,36.437053],[32.971297,36.438759],[32.966859,36.440476],[32.963308,36.442073],[32.957687,36.443494],[32.950704,36.446038],[32.947508,36.447932],[32.937804,36.45095],[32.930821,36.453198],[32.921708,36.456098],[32.915435,36.457992],[32.910524,36.459471],[32.907624,36.460122],[32.904428,36.462015],[32.901825,36.462903],[32.894605,36.464323],[32.887859,36.46675],[32.882593,36.46817],[32.878983,36.469117],[32.8749,36.470478],[32.868805,36.472608],[32.864662,36.474146],[32.86052,36.475685],[32.858883,36.476218],[32.855609,36.477283],[32.853301,36.478052],[32.848508,36.479531],[32.848271,36.479531],[32.848034,36.479531],[32.846496,36.479879],[32.841229,36.48107],[32.831465,36.48249],[32.823299,36.482727],[32.814896,36.482904],[32.81244,36.482727],[32.809984,36.482549],[32.809764,36.482516],[32.806848,36.482076],[32.798585,36.482592],[32.798327,36.482609],[32.798297,36.482609],[32.792113,36.482668],[32.789805,36.482964],[32.782152,36.483871],[32.778325,36.484325],[32.773354,36.484887],[32.768384,36.485449],[32.757377,36.487165],[32.754655,36.487343],[32.752347,36.486573],[32.747574,36.486139],[32.74714,36.4861],[32.746548,36.486066],[32.741932,36.485804],[32.735896,36.486041],[32.730807,36.48539],[32.719623,36.48539],[32.711634,36.4861],[32.708971,36.486514],[32.707433,36.487106],[32.7033,36.489355],[32.698961,36.492274],[32.694621,36.495035],[32.688704,36.497008],[32.678526,36.500874],[32.676277,36.501821],[32.674028,36.502768],[32.662588,36.505924],[32.655802,36.506792],[32.637418,36.509395],[32.627082,36.50979],[32.624753,36.509898],[32.628461,36.513459],[32.634089,36.518945],[32.638364,36.523219],[32.640002,36.52557],[32.642424,36.528348],[32.645559,36.531554],[32.647269,36.53248],[32.652113,36.533407],[32.655025,36.533905],[32.659513,36.534814],[32.663254,36.535134],[32.665391,36.535562],[32.667742,36.536844],[32.6702,36.538233],[32.674421,36.540264],[32.676558,36.541439],[32.680084,36.543576],[32.684092,36.546889],[32.68703,36.549507],[32.690236,36.553354],[32.694243,36.556346],[32.697449,36.561048],[32.701029,36.564842],[32.703327,36.57462],[32.706158,36.581993],[32.709151,36.586909],[32.710967,36.591664],[32.712196,36.597007],[32.713211,36.600373],[32.713799,36.605022],[32.717486,36.618646],[32.718287,36.621478],[32.719016,36.623637],[32.71973,36.625753],[32.720585,36.627997],[32.721653,36.630241],[32.72363,36.632111],[32.72518,36.634195],[32.725607,36.635905],[32.725714,36.637775],[32.726035,36.642209],[32.726729,36.645789],[32.726943,36.649423],[32.726783,36.654498],[32.726409,36.656315],[32.726569,36.658292],[32.726409,36.660376],[32.726943,36.663849],[32.726943,36.666574],[32.726676,36.669139],[32.725981,36.67165],[32.724485,36.673413],[32.7216,36.674802],[32.719142,36.675016],[32.715295,36.675283],[32.703006,36.67539],[32.696808,36.676085],[32.695205,36.677046],[32.694511,36.678863],[32.69419,36.680199],[32.694457,36.681428],[32.697503,36.686984],[32.700815,36.690618],[32.705624,36.693182],[32.708189,36.695213],[32.711395,36.697029],[32.713051,36.698579],[32.715028,36.701464],[32.716364,36.702212],[32.719623,36.704136],[32.723363,36.705525],[32.727691,36.706861],[32.731217,36.707395],[32.734584,36.707342],[32.736187,36.706433],[32.73982,36.703975],[32.742385,36.702159],[32.746232,36.700502],[32.747567,36.700128],[32.750025,36.700556],[32.755528,36.701785],[32.757933,36.701892],[32.760337,36.702586],[32.767016,36.703601],[32.770115,36.704403],[32.771558,36.704937],[32.774069,36.706593],[32.775672,36.707716],[32.77658,36.708624],[32.777115,36.710547],[32.777542,36.717547],[32.777008,36.723317],[32.775886,36.727378],[32.775351,36.729836],[32.774657,36.731332],[32.772359,36.732668],[32.768672,36.733736],[32.761459,36.736354],[32.757986,36.736996],[32.746873,36.738812],[32.740247,36.740682],[32.729615,36.744903],[32.726088,36.746346],[32.724806,36.747041],[32.722722,36.750674],[32.721653,36.755322],[32.721226,36.75778],[32.721814,36.760933],[32.722722,36.76478],[32.723096,36.767611],[32.723684,36.769749],[32.725821,36.77803],[32.726142,36.784709],[32.726355,36.7869],[32.727424,36.790587],[32.728706,36.794915],[32.729401,36.799616],[32.730042,36.80325],[32.730576,36.807043],[32.730737,36.80902],[32.728279,36.814844],[32.72705,36.818638],[32.725287,36.821737],[32.72331,36.8235],[32.721386,36.825477],[32.720589,36.826163],[32.721991,36.826838],[32.730116,36.833064],[32.739296,36.837601],[32.750587,36.842349],[32.758501,36.846359],[32.76441,36.849103],[32.777706,36.856806],[32.784459,36.859866],[32.790051,36.862504],[32.795855,36.864508],[32.799865,36.866724],[32.802034,36.865726],[32.806029,36.864349],[32.809955,36.862558],[32.813398,36.861387],[32.816704,36.86001],[32.825451,36.856429],[32.830685,36.85512],[32.836746,36.853398],[32.840809,36.852503],[32.849143,36.851263],[32.861815,36.849197],[32.86643,36.847889],[32.872284,36.846787],[32.877449,36.846236],[32.882064,36.845271],[32.885852,36.843687],[32.888331,36.841966],[32.890673,36.839693],[32.895563,36.836938],[32.899695,36.834527],[32.904447,36.832323],[32.910026,36.831153],[32.914709,36.830257],[32.920357,36.828191],[32.922354,36.827916],[32.929379,36.827296],[32.940054,36.828535],[32.944324,36.830257],[32.947211,36.831017],[32.946825,36.830143],[32.944826,36.825842],[32.944463,36.823601],[32.943614,36.819481],[32.94319,36.814514],[32.942766,36.808577],[32.943009,36.804518],[32.944038,36.799793],[32.947189,36.792584],[32.948219,36.790221],[32.949854,36.789191],[32.953913,36.786707],[32.957487,36.785314],[32.959244,36.783981],[32.959396,36.78386],[32.959547,36.783739],[32.962091,36.779014],[32.964454,36.773622],[32.966271,36.770351],[32.968149,36.76714],[32.970573,36.764414],[32.971542,36.763505],[32.974874,36.760234],[32.978993,36.755024],[32.98069,36.752419],[32.982265,36.748299],[32.982386,36.743877],[32.982144,36.740787],[32.98178,36.735093],[32.981174,36.730913],[32.980508,36.727581],[32.979296,36.72546],[32.978509,36.723643],[32.978024,36.720917],[32.977115,36.717524],[32.975994,36.71508],[32.976127,36.713127],[32.976393,36.710908],[32.97666,36.709],[32.976882,36.706647],[32.977459,36.704428],[32.977725,36.702476],[32.978036,36.7007],[32.977991,36.697993],[32.977192,36.695863],[32.976748,36.694487],[32.976305,36.693244],[32.976282,36.693022],[32.97626,36.6928],[32.976571,36.691735],[32.977414,36.690271],[32.977769,36.689427],[32.977858,36.688451],[32.97808,36.687696],[32.978834,36.687475],[32.981009,36.687563],[32.986912,36.687785],[32.996898,36.690404],[33.003599,36.692623],[33.011588,36.69462],[33.01687,36.696173],[33.026012,36.699014],[33.032048,36.700878],[33.03551,36.701144],[33.040081,36.701632],[33.043987,36.702032],[33.049135,36.702342],[33.053307,36.702786],[33.054816,36.702742],[33.057168,36.702254],[33.058677,36.701677],[33.060807,36.699458],[33.062583,36.697061],[33.065468,36.692046],[33.067553,36.682992],[33.067864,36.681794],[33.068086,36.67922],[33.068574,36.677089],[33.068841,36.673095],[33.069817,36.67061],[33.071548,36.667547],[33.0739,36.665062],[33.077761,36.662887],[33.079892,36.662177],[33.083043,36.659736],[33.08504,36.656185],[33.085972,36.653434],[33.088857,36.648951],[33.092407,36.642871],[33.09325,36.641318],[33.094493,36.637456],[33.098177,36.631021],[33.100041,36.628669],[33.104568,36.62281],[33.107142,36.619792],[33.111225,36.61713],[33.119746,36.614822],[33.127735,36.613402],[33.135857,36.612825],[33.139585,36.612469],[33.143357,36.612336],[33.146242,36.611626],[33.15108,36.609673],[33.154675,36.608076],[33.161421,36.604658],[33.166835,36.60133],[33.174469,36.596093],[33.176821,36.595072],[33.180727,36.590856],[33.1841,36.586506],[33.186782,36.583355],[33.188671,36.581136],[33.193864,36.575366],[33.195796,36.572741],[33.197024,36.571072],[33.197947,36.569819],[33.201091,36.56649],[33.204464,36.562821],[33.208073,36.560158],[33.209146,36.559196],[33.209789,36.55862],[33.211801,36.555128],[33.212548,36.553543],[33.212884,36.55283],[33.215174,36.547968],[33.216654,36.543352],[33.218074,36.540216],[33.219469,36.538247],[33.220402,36.537432],[33.223012,36.53245],[33.222061,36.529518],[33.221622,36.529322],[33.221168,36.52912]]]}},{"type":"Feature","properties":{"id":"TR-D-70-004","parent_id":"TR-P-70","region_id":"TR-R-ICA","level":"district","municipality_type":null,"municipality_type_label":null,"is_metropolitan_municipality":null,"name":"Karaman","name_ascii":"karaman","slug":"karaman-karaman"},"geometry":{"type":"Polygon","coordinates":[[[32.799865,36.866724],[32.802925,36.869468],[32.80609,36.872317],[32.809045,36.875271],[32.811472,36.878859],[32.812844,36.883397],[32.816748,36.896375],[32.818436,36.900702],[32.819702,36.904817],[32.821285,36.912098],[32.821602,36.917268],[32.820758,36.926554],[32.824134,36.939427],[32.825084,36.944703],[32.825717,36.950085],[32.8254,36.956416],[32.824556,36.960953],[32.822551,36.965069],[32.819702,36.968762],[32.815798,36.971505],[32.808412,36.97541],[32.803241,36.978997],[32.799759,36.98153],[32.797016,36.984379],[32.795749,36.986173],[32.795842,36.988309],[32.797266,36.993295],[32.798928,36.997885],[32.799878,37.00113],[32.800986,37.006828],[32.801302,37.011735],[32.801144,37.015613],[32.800986,37.020282],[32.800669,37.02598],[32.800828,37.028829],[32.800748,37.031124],[32.800907,37.033973],[32.799957,37.03888],[32.798849,37.042837],[32.797979,37.045132],[32.796791,37.048297],[32.795921,37.051938],[32.795367,37.057003],[32.79558,37.059706],[32.795842,37.063017],[32.796,37.068082],[32.795446,37.07291],[32.793547,37.075284],[32.791489,37.078212],[32.78959,37.080982],[32.788798,37.084385],[32.78959,37.087946],[32.790698,37.09127],[32.791568,37.095623],[32.79236,37.098076],[32.793151,37.102666],[32.793151,37.106782],[32.793468,37.112084],[32.793151,37.116437],[32.79228,37.120235],[32.790935,37.124192],[32.789431,37.126725],[32.787611,37.129653],[32.78587,37.133689],[32.784841,37.135272],[32.783417,37.137488],[32.781992,37.139783],[32.780805,37.141603],[32.779539,37.143977],[32.776927,37.146431],[32.77487,37.149517],[32.774237,37.153632],[32.774157,37.158618],[32.774553,37.162733],[32.775661,37.169223],[32.777323,37.172942],[32.779539,37.175],[32.783654,37.176583],[32.78682,37.178403],[32.789115,37.180223],[32.790619,37.181648],[32.792597,37.18331],[32.795367,37.185209],[32.796342,37.186238],[32.799378,37.184225],[32.803456,37.180656],[32.811273,37.178447],[32.816626,37.178872],[32.821639,37.179297],[32.836254,37.186519],[32.844835,37.187709],[32.854607,37.191447],[32.864463,37.192467],[32.866672,37.192382],[32.87109,37.191362],[32.876273,37.191362],[32.878907,37.190598],[32.882221,37.189323],[32.884345,37.189153],[32.886809,37.189153],[32.888168,37.188643],[32.889953,37.186774],[32.891992,37.18363],[32.892927,37.181506],[32.899044,37.178787],[32.905757,37.178107],[32.911789,37.177173],[32.914593,37.176238],[32.920881,37.173434],[32.926659,37.169866],[32.930482,37.168336],[32.935665,37.166807],[32.940253,37.164853],[32.945606,37.163493],[32.947645,37.163918],[32.951979,37.166382],[32.954273,37.167826],[32.957502,37.170121],[32.96056,37.173179],[32.967358,37.177853],[32.972116,37.182356],[32.974495,37.185839],[32.976959,37.188898],[32.979338,37.192042],[32.981802,37.195781],[32.98707,37.203428],[32.992168,37.20929],[32.997266,37.215663],[33.001429,37.219656],[33.007802,37.221186],[33.017913,37.223565],[33.027259,37.22365],[33.046547,37.22161],[33.054024,37.224075],[33.056998,37.225859],[33.059802,37.228918],[33.060566,37.231552],[33.060481,37.233591],[33.060142,37.235205],[33.059207,37.241408],[33.056573,37.246421],[33.053429,37.251944],[33.050795,37.255682],[33.049181,37.259166],[33.047906,37.262395],[33.046547,37.266898],[33.046462,37.269107],[33.048246,37.272166],[33.050965,37.274205],[33.055129,37.276159],[33.061005,37.278737],[33.06735,37.282588],[33.070069,37.284741],[33.072787,37.287347],[33.0746,37.290179],[33.07596,37.295503],[33.076526,37.300601],[33.068822,37.312044],[33.060439,37.313516],[33.050469,37.314309],[33.038574,37.314196],[33.028378,37.314989],[33.02226,37.318841],[33.011725,37.326545],[32.994618,37.340253],[32.98816,37.345577],[32.985895,37.348296],[32.980697,37.353649],[32.97441,37.356878],[32.961155,37.366309],[32.952658,37.372597],[32.950279,37.374636],[32.945351,37.379224],[32.941698,37.384322],[32.93694,37.393414],[32.933541,37.401825],[32.931855,37.409048],[32.934257,37.41052],[32.939955,37.413052],[32.947553,37.415981],[32.955941,37.421125],[32.961956,37.42429],[32.965755,37.42706],[32.973985,37.434737],[32.979763,37.44368],[32.982691,37.455709],[32.987997,37.46568],[32.993625,37.473981],[33.002067,37.48791],[33.007413,37.494382],[33.015855,37.497477],[33.024859,37.49804],[33.038647,37.495367],[33.054264,37.491568],[33.06763,37.491146],[33.076493,37.49199],[33.086623,37.493819],[33.094502,37.494522],[33.113496,37.497899],[33.13066,37.501416],[33.138539,37.504512],[33.147403,37.508873],[33.152749,37.51239],[33.156829,37.519706],[33.158236,37.525897],[33.158658,37.534761],[33.161894,37.542921],[33.164848,37.547423],[33.170054,37.554036],[33.1754,37.557553],[33.182998,37.558678],[33.192706,37.5591],[33.200162,37.556146],[33.204946,37.551644],[33.222251,37.544187],[33.227738,37.540529],[33.236602,37.535323],[33.246169,37.530399],[33.253626,37.525756],[33.259675,37.522098],[33.267132,37.51633],[33.272338,37.51239],[33.280357,37.506622],[33.284156,37.50423],[33.293582,37.499165],[33.296396,37.494663],[33.296959,37.488613],[33.298225,37.482423],[33.299351,37.475388],[33.30118,37.469901],[33.304134,37.466102],[33.307933,37.463992],[33.314124,37.46357],[33.326927,37.466947],[33.346764,37.468776],[33.368431,37.468494],[33.391364,37.470745],[33.414297,37.474966],[33.440184,37.481016],[33.464806,37.487206],[33.493507,37.495507],[33.505325,37.499587],[33.516862,37.511265],[33.520811,37.518725],[33.523012,37.518262],[33.529091,37.517177],[33.533868,37.515114],[33.536147,37.51088],[33.538101,37.499482],[33.537884,37.488518],[33.53745,37.477445],[33.53718,37.460717],[33.538135,37.452433],[33.538374,37.44128],[33.5371,37.429013],[33.535825,37.422879],[33.53463,37.417303],[33.533675,37.413798],[33.531205,37.405752],[33.530329,37.395636],[33.530169,37.391971],[33.530647,37.388546],[33.532719,37.381377],[33.536224,37.373092],[33.53941,37.367038],[33.541162,37.363692],[33.542198,37.352062],[33.547217,37.32434],[33.550323,37.31741],[33.556696,37.307214],[33.56291,37.298053],[33.567609,37.290645],[33.572708,37.283635],[33.579399,37.274872],[33.581151,37.271925],[33.585214,37.265074],[33.588002,37.260852],[33.591587,37.255276],[33.596446,37.24962],[33.602261,37.24261],[33.611422,37.235998],[33.621061,37.227953],[33.629505,37.223173],[33.638745,37.218633],[33.645835,37.215924],[33.648703,37.215127],[33.652128,37.213375],[33.662165,37.210587],[33.67037,37.208675],[33.674592,37.207878],[33.678256,37.20517],[33.67969,37.203736],[33.681522,37.199753],[33.68208,37.196647],[33.681921,37.192265],[33.681522,37.186689],[33.681921,37.178325],[33.681204,37.168527],[33.680726,37.16072],[33.678973,37.154666],[33.678017,37.152037],[33.673955,37.142637],[33.672999,37.139929],[33.671406,37.136504],[33.669653,37.131087],[33.668299,37.128538],[33.664874,37.122484],[33.65874,37.108942],[33.655553,37.100657],[33.654836,37.094045],[33.653164,37.080901],[33.651889,37.075086],[33.652287,37.067359],[33.652606,37.064332],[33.654597,37.057721],[33.656111,37.053021],[33.658182,37.045055],[33.659536,37.043143],[33.663519,37.038841],[33.665985,37.036561],[33.659927,37.036803],[33.651527,37.036561],[33.646761,37.036238],[33.640299,37.037046],[33.637957,37.036965],[33.634887,37.036319],[33.628829,37.033734],[33.62156,37.028564],[33.617682,37.025899],[33.615427,37.023233],[33.615017,37.022749],[33.608151,37.015802],[33.603789,37.008532],[33.600801,37.00304],[33.59757,36.999082],[33.593443,36.992224],[33.592077,36.989954],[33.591693,36.98945],[33.58925,36.986239],[33.583721,36.983448],[33.58093,36.982039],[33.57358,36.977515],[33.567764,36.976384],[33.557587,36.97485],[33.548782,36.974527],[33.541836,36.973719],[33.53812,36.9738],[33.534001,36.974527],[33.530527,36.975657],[33.523258,36.976627],[33.517765,36.977919],[33.51405,36.978485],[33.509365,36.978969],[33.499914,36.978646],[33.49321,36.977758],[33.483436,36.976465],[33.473743,36.976384],[33.464777,36.976465],[33.46082,36.976223],[33.454438,36.974769],[33.445311,36.971215],[33.431579,36.966288],[33.42011,36.964268],[33.405489,36.961684],[33.397977,36.959987],[33.390546,36.959907],[33.381015,36.959745],[33.373099,36.959664],[33.368737,36.959503],[33.366233,36.959503],[33.360175,36.96023],[33.356944,36.959987],[33.353875,36.959099],[33.349836,36.957403],[33.344586,36.954414],[33.342244,36.952637],[33.339982,36.951102],[33.336589,36.949325],[33.333278,36.947064],[33.330935,36.944883],[33.32835,36.941813],[33.327543,36.941248],[33.322696,36.939067],[33.308803,36.933332],[33.299837,36.930747],[33.287398,36.926385],[33.280532,36.924932],[33.277624,36.924124],[33.272778,36.923639],[33.265751,36.923397],[33.257593,36.925012],[33.252988,36.927193],[33.249596,36.928243],[33.24273,36.929455],[33.237641,36.929939],[33.23336,36.930182],[33.227222,36.929374],[33.219306,36.928889],[33.216236,36.928082],[33.213167,36.926466],[33.208967,36.92065],[33.20727,36.917662],[33.20412,36.912492],[33.202909,36.910635],[33.200889,36.908534],[33.197093,36.906273],[33.192731,36.90498],[33.190227,36.904577],[33.184169,36.905142],[33.179727,36.9049],[33.175526,36.903769],[33.173911,36.90183],[33.173345,36.899569],[33.173022,36.898034],[33.17278,36.894318],[33.172295,36.89036],[33.171568,36.886806],[33.170195,36.880506],[33.168337,36.874771],[33.166156,36.870248],[33.16446,36.865563],[33.159533,36.856193],[33.15509,36.850216],[33.149759,36.845369],[33.147417,36.844481],[33.140794,36.843915],[33.137078,36.844158],[33.131101,36.844238],[33.127143,36.844965],[33.123023,36.847469],[33.122135,36.847792],[33.121004,36.848035],[33.120196,36.848035],[33.118985,36.847792],[33.117531,36.848277],[33.115915,36.849085],[33.114946,36.849893],[33.114623,36.850943],[33.114784,36.852235],[33.114623,36.854174],[33.113896,36.854901],[33.113007,36.855466],[33.111796,36.855708],[33.111069,36.856031],[33.111069,36.856314],[33.111069,36.856597],[33.11123,36.857728],[33.110988,36.85797],[33.110746,36.858212],[33.109857,36.858535],[33.109292,36.85902],[33.109534,36.859828],[33.110261,36.861201],[33.111069,36.862574],[33.111634,36.863382],[33.111392,36.86419],[33.110907,36.864836],[33.109776,36.864674],[33.107838,36.864432],[33.105415,36.864432],[33.103961,36.864674],[33.103314,36.865159],[33.103314,36.866128],[33.103557,36.866936],[33.10388,36.867905],[33.103638,36.869117],[33.102991,36.870409],[33.102426,36.871459],[33.102426,36.872025],[33.102386,36.872227],[33.102345,36.872429],[33.10178,36.87259],[33.100568,36.872671],[33.099195,36.872832],[33.096045,36.872509],[33.092248,36.870813],[33.087725,36.869682],[33.081829,36.868713],[33.07359,36.868794],[33.06422,36.868551],[33.055092,36.868794],[33.044026,36.868794],[33.037241,36.869198],[33.035545,36.868874],[33.028437,36.866774],[33.024802,36.864836],[33.020117,36.863947],[33.013494,36.861686],[33.008971,36.859182],[33.007032,36.858132],[33.002993,36.856112],[32.999358,36.854739],[32.993624,36.855466],[32.989827,36.856193],[32.985465,36.856678],[32.982234,36.856516],[32.977953,36.856193],[32.973269,36.854981],[32.964787,36.8528],[32.96088,36.851892],[32.95779,36.851347],[32.95573,36.850438],[32.953913,36.848378],[32.953247,36.845167],[32.952277,36.841957],[32.949612,36.836141],[32.947976,36.832748],[32.947211,36.831017],[32.944324,36.830257],[32.940054,36.828535],[32.929379,36.827296],[32.922354,36.827916],[32.920357,36.828191],[32.914709,36.830257],[32.910026,36.831153],[32.904447,36.832323],[32.899695,36.834527],[32.895563,36.836938],[32.890673,36.839693],[32.888331,36.841966],[32.885852,36.843687],[32.882064,36.845271],[32.877449,36.846236],[32.872284,36.846787],[32.86643,36.847889],[32.861815,36.849197],[32.849143,36.851263],[32.840809,36.852503],[32.836746,36.853398],[32.830685,36.85512],[32.825451,36.856429],[32.816704,36.86001],[32.813398,36.861387],[32.809955,36.862558],[32.806029,36.864349],[32.802034,36.865726],[32.799865,36.866724]]]}},{"type":"Feature","properties":{"id":"TR-D-70-005","parent_id":"TR-P-70","region_id":"TR-R-ICA","level":"district","municipality_type":null,"municipality_type_label":null,"is_metropolitan_municipality":null,"name":"Kazımkarabekir","name_ascii":"kazimkarabekir","slug":"kazimkarabekir-karaman"},"geometry":{"type":"Polygon","coordinates":[[[32.796342,37.186238],[32.796791,37.186713],[32.798453,37.189483],[32.799878,37.192411],[32.801302,37.197871],[32.800986,37.201749],[32.800274,37.203728],[32.79782,37.204994],[32.794892,37.206181],[32.792993,37.207685],[32.792122,37.209347],[32.791252,37.212512],[32.790539,37.216074],[32.790144,37.219477],[32.790144,37.222959],[32.789827,37.226916],[32.788798,37.230477],[32.788719,37.233564],[32.789511,37.236492],[32.789511,37.238628],[32.788719,37.241082],[32.783971,37.249391],[32.781913,37.252478],[32.77946,37.256593],[32.778273,37.258651],[32.77764,37.261816],[32.777323,37.267673],[32.777165,37.27527],[32.777402,37.28176],[32.776927,37.288882],[32.77669,37.298062],[32.776057,37.30566],[32.777877,37.312624],[32.779856,37.315711],[32.782942,37.320301],[32.786187,37.324099],[32.789352,37.327819],[32.792755,37.331459],[32.794655,37.33328],[32.797425,37.3351],[32.799403,37.335496],[32.803756,37.335575],[32.810245,37.335812],[32.815389,37.335733],[32.819742,37.33597],[32.822828,37.33597],[32.831771,37.334388],[32.840556,37.332805],[32.846729,37.331222],[32.849499,37.33051],[32.854326,37.33051],[32.86042,37.332093],[32.867226,37.334783],[32.878701,37.339848],[32.884637,37.343172],[32.890176,37.346575],[32.894687,37.351798],[32.89627,37.359079],[32.895479,37.362957],[32.894292,37.36913],[32.893342,37.37277],[32.892946,37.37554],[32.892551,37.378231],[32.892709,37.379893],[32.894687,37.383375],[32.897853,37.387411],[32.901889,37.391368],[32.904105,37.392793],[32.911386,37.398174],[32.9193,37.401182],[32.926897,37.406009],[32.931855,37.409048],[32.933541,37.401825],[32.93694,37.393414],[32.941698,37.384322],[32.945351,37.379224],[32.950279,37.374636],[32.952658,37.372597],[32.961155,37.366309],[32.97441,37.356878],[32.980697,37.353649],[32.985895,37.348296],[32.98816,37.345577],[32.994618,37.340253],[33.011725,37.326545],[33.02226,37.318841],[33.028378,37.314989],[33.038574,37.314196],[33.050469,37.314309],[33.060439,37.313516],[33.068822,37.312044],[33.076526,37.300601],[33.07596,37.295503],[33.0746,37.290179],[33.072787,37.287347],[33.070069,37.284741],[33.06735,37.282588],[33.061005,37.278737],[33.055129,37.276159],[33.050965,37.274205],[33.048246,37.272166],[33.046462,37.269107],[33.046547,37.266898],[33.047906,37.262395],[33.049181,37.259166],[33.050795,37.255682],[33.053429,37.251944],[33.056573,37.246421],[33.059207,37.241408],[33.060142,37.235205],[33.060481,37.233591],[33.060566,37.231552],[33.059802,37.228918],[33.056998,37.225859],[33.054024,37.224075],[33.046547,37.22161],[33.027259,37.22365],[33.017913,37.223565],[33.007802,37.221186],[33.001429,37.219656],[32.997266,37.215663],[32.992168,37.20929],[32.98707,37.203428],[32.981802,37.195781],[32.979338,37.192042],[32.976959,37.188898],[32.974495,37.185839],[32.972116,37.182356],[32.967358,37.177853],[32.96056,37.173179],[32.957502,37.170121],[32.954273,37.167826],[32.951979,37.166382],[32.947645,37.163918],[32.945606,37.163493],[32.940253,37.164853],[32.935665,37.166807],[32.930482,37.168336],[32.926659,37.169866],[32.920881,37.173434],[32.914593,37.176238],[32.911789,37.177173],[32.905757,37.178107],[32.899044,37.178787],[32.892927,37.181506],[32.891992,37.18363],[32.889953,37.186774],[32.888168,37.188643],[32.886809,37.189153],[32.884345,37.189153],[32.882221,37.189323],[32.878907,37.190598],[32.876273,37.191362],[32.87109,37.191362],[32.866672,37.192382],[32.864463,37.192467],[32.854607,37.191447],[32.844835,37.187709],[32.836254,37.186519],[32.821639,37.179297],[32.816626,37.178872],[32.811273,37.178447],[32.803456,37.180656],[32.799378,37.184225],[32.796342,37.186238]]]}},{"type":"Feature","properties":{"id":"TR-D-70-006","parent_id":"TR-P-70","region_id":"TR-R-ICA","level":"district","municipality_type":null,"municipality_type_label":null,"is_metropolitan_municipality":null,"name":"Sarıveliler","name_ascii":"sariveliler","slug":"sariveliler-karaman"},"geometry":{"type":"Polygon","coordinates":[[[32.62719,36.756674],[32.628063,36.755768],[32.629472,36.754023],[32.631149,36.75295],[32.631954,36.751944],[32.633161,36.7502],[32.6341,36.74812],[32.634973,36.744497],[32.63504,36.741143],[32.635241,36.730275],[32.635174,36.725781],[32.634436,36.715517],[32.634503,36.707467],[32.635845,36.702167],[32.637186,36.698947],[32.638394,36.694385],[32.640406,36.690427],[32.64148,36.68875],[32.643895,36.684792],[32.646109,36.681169],[32.647249,36.67862],[32.64792,36.675803],[32.649195,36.673991],[32.652213,36.671308],[32.657178,36.668759],[32.65966,36.667954],[32.664624,36.665941],[32.669253,36.662453],[32.672808,36.658294],[32.676498,36.65447],[32.680926,36.651719],[32.685957,36.648231],[32.689982,36.645011],[32.692598,36.643132],[32.694544,36.641992],[32.697294,36.641187],[32.700581,36.639711],[32.704405,36.637229],[32.708766,36.634479],[32.712321,36.632064],[32.713998,36.630118],[32.715273,36.627703],[32.717218,36.625221],[32.719016,36.623637],[32.718287,36.621478],[32.717486,36.618646],[32.713799,36.605022],[32.713211,36.600373],[32.712196,36.597007],[32.710967,36.591664],[32.709151,36.586909],[32.706158,36.581993],[32.703327,36.57462],[32.701029,36.564842],[32.697449,36.561048],[32.694243,36.556346],[32.690236,36.553354],[32.68703,36.549507],[32.684092,36.546889],[32.680084,36.543576],[32.676558,36.541439],[32.674421,36.540264],[32.6702,36.538233],[32.667742,36.536844],[32.665391,36.535562],[32.663254,36.535134],[32.659513,36.534814],[32.655025,36.533905],[32.652113,36.533407],[32.647269,36.53248],[32.645559,36.531554],[32.642424,36.528348],[32.640002,36.52557],[32.638364,36.523219],[32.634089,36.518945],[32.628461,36.513459],[32.624753,36.509898],[32.620297,36.510106],[32.61793,36.509908],[32.614616,36.509632],[32.610347,36.507202],[32.609487,36.506713],[32.609095,36.506158],[32.607199,36.503478],[32.605148,36.501426],[32.604122,36.500401],[32.603179,36.499768],[32.597652,36.496061],[32.590946,36.492037],[32.584626,36.486371],[32.581793,36.483832],[32.581201,36.48357],[32.579111,36.482648],[32.576033,36.482096],[32.568597,36.480086],[32.567819,36.480975],[32.565789,36.482615],[32.559151,36.484333],[32.551029,36.487769],[32.541814,36.490581],[32.531975,36.495422],[32.520886,36.504637],[32.516903,36.508542],[32.512374,36.511353],[32.504721,36.516117],[32.499488,36.518537],[32.488722,36.525214],[32.475192,36.52867],[32.470389,36.531364],[32.467578,36.534761],[32.464825,36.538217],[32.46137,36.543312],[32.460882,36.544288],[32.459906,36.546241],[32.458881,36.547324],[32.457856,36.548408],[32.455162,36.550399],[32.452526,36.551453],[32.452354,36.551625],[32.452268,36.551711],[32.450359,36.55362],[32.447899,36.554909],[32.444971,36.555494],[32.441691,36.556139],[32.437708,36.557134],[32.435951,36.557954],[32.434252,36.559243],[32.433608,36.561293],[32.433023,36.563811],[32.432495,36.566915],[32.430387,36.570488],[32.427986,36.572597],[32.424764,36.574705],[32.42125,36.576521],[32.417619,36.578512],[32.415803,36.578805],[32.411176,36.580503],[32.407369,36.582612],[32.406666,36.584076],[32.406891,36.585784],[32.406959,36.586302],[32.407164,36.587019],[32.407779,36.589172],[32.410532,36.596844],[32.412172,36.600417],[32.413695,36.603872],[32.41469,36.606157],[32.415862,36.611721],[32.41592,36.615001],[32.415803,36.618339],[32.417033,36.626714],[32.418322,36.634738],[32.419142,36.640829],[32.419319,36.641446],[32.420375,36.64512],[32.420445,36.649757],[32.420447,36.649828],[32.42045,36.649968],[32.420589,36.655034],[32.419876,36.66074],[32.418878,36.663949],[32.417582,36.665715],[32.417308,36.666089],[32.41626,36.667729],[32.415668,36.668656],[32.414491,36.670189],[32.413315,36.671723],[32.412935,36.672365],[32.41146,36.674861],[32.410462,36.678356],[32.410319,36.68128],[32.411817,36.683419],[32.414812,36.686272],[32.417665,36.689196],[32.419591,36.691265],[32.420946,36.693119],[32.421981,36.694223],[32.423085,36.695401],[32.423993,36.697619],[32.424364,36.698526],[32.423577,36.700821],[32.422548,36.704857],[32.421678,36.708339],[32.420016,36.712296],[32.418829,36.715779],[32.416296,36.72211],[32.414793,36.726542],[32.412181,36.733506],[32.412011,36.733983],[32.416736,36.736592],[32.422671,36.7396],[32.427974,36.742053],[32.434542,36.743319],[32.440478,36.744823],[32.444039,36.745218],[32.452665,36.745456],[32.459788,36.745772],[32.465328,36.745852],[32.47253,36.746247],[32.478069,36.74696],[32.483451,36.747434],[32.48812,36.747593],[32.493027,36.747593],[32.499516,36.748305],[32.507351,36.747909],[32.515819,36.747514],[32.520646,36.747514],[32.525711,36.747276],[32.530302,36.747672],[32.538295,36.748305],[32.545022,36.748463],[32.554993,36.748859],[32.559346,36.748859],[32.564173,36.748463],[32.569555,36.747909],[32.576757,36.747751],[32.582059,36.748147],[32.58934,36.74878],[32.5967,36.750363],[32.604455,36.751787],[32.616406,36.753845],[32.623132,36.755032],[32.62719,36.756674]]]}}]}