{"type":"FeatureCollection","province":"Karabük","province_id":"TR-P-78","features":[{"type":"Feature","properties":{"id":"TR-D-78-001","parent_id":"TR-P-78","region_id":"TR-R-KAR","level":"district","municipality_type":null,"municipality_type_label":null,"is_metropolitan_municipality":null,"name":"Eflani","name_ascii":"eflani","slug":"eflani-karabuk"},"geometry":{"type":"Polygon","coordinates":[[[32.819741,41.553297],[32.82452,41.558693],[32.831612,41.564552],[32.834696,41.568021],[32.83909,41.570487],[32.844178,41.571181],[32.847334,41.57167],[32.851764,41.571848],[32.856903,41.571759],[32.862219,41.570784],[32.867712,41.568481],[32.874268,41.565646],[32.879939,41.563874],[32.886141,41.562279],[32.889596,41.562102],[32.894114,41.562279],[32.898367,41.562279],[32.903594,41.561659],[32.915644,41.561216],[32.923883,41.562988],[32.931414,41.566443],[32.935756,41.568215],[32.945502,41.573531],[32.950109,41.57867],[32.95126,41.580264],[32.95507,41.581682],[32.9595,41.583011],[32.96393,41.582922],[32.970486,41.582302],[32.975093,41.581682],[32.979346,41.580264],[32.983865,41.576455],[32.987763,41.573354],[32.99237,41.57105],[32.995825,41.569455],[33.000964,41.568481],[33.006723,41.568481],[33.010799,41.569987],[33.015849,41.572645],[33.020013,41.573974],[33.026481,41.575037],[33.035075,41.57424],[33.042251,41.57424],[33.051997,41.573265],[33.057047,41.571139],[33.058908,41.568481],[33.06254,41.563962],[33.064312,41.560507],[33.065287,41.554039],[33.065464,41.549964],[33.065818,41.546331],[33.06573,41.543319],[33.065641,41.540041],[33.066084,41.534105],[33.06697,41.531447],[33.067324,41.525954],[33.066084,41.520815],[33.064224,41.515145],[33.062097,41.51036],[33.06192,41.507525],[33.063072,41.502121],[33.065375,41.498134],[33.06697,41.496273],[33.071754,41.492109],[33.078222,41.487768],[33.085753,41.485907],[33.090006,41.484667],[33.093107,41.481123],[33.094081,41.479794],[33.096651,41.475098],[33.097714,41.47244],[33.100638,41.465175],[33.101258,41.463226],[33.101524,41.458353],[33.102409,41.455252],[33.103827,41.453037],[33.110826,41.44781],[33.116585,41.445063],[33.122256,41.442494],[33.127306,41.440545],[33.133951,41.438418],[33.143874,41.435052],[33.148304,41.434166],[33.153442,41.433014],[33.156366,41.429824],[33.158227,41.425837],[33.158138,41.423002],[33.157961,41.420699],[33.156986,41.418218],[33.155303,41.414319],[33.153619,41.410155],[33.152468,41.406877],[33.151759,41.403776],[33.151936,41.400232],[33.151847,41.396777],[33.14981,41.39279],[33.147648,41.388467],[33.147329,41.387828],[33.144494,41.384196],[33.142102,41.381627],[33.141966,41.381526],[33.141831,41.381426],[33.139963,41.380038],[33.13758,41.377997],[33.135816,41.377485],[33.133463,41.377197],[33.128502,41.378614],[33.122241,41.38015],[33.117752,41.380977],[33.113853,41.380859],[33.107947,41.380504],[33.103694,41.379559],[33.100032,41.378142],[33.097669,41.376488],[33.09637,41.375188],[33.096134,41.371999],[33.0986,41.361633],[33.100372,41.357026],[33.101435,41.35357],[33.102498,41.349495],[33.103207,41.346748],[33.104181,41.344002],[33.10427,41.341521],[33.10427,41.337888],[33.102941,41.335231],[33.101524,41.332838],[33.099131,41.329206],[33.097005,41.326459],[33.094613,41.324599],[33.092221,41.323093],[33.086373,41.3207],[33.078311,41.317599],[33.075919,41.316536],[33.07202,41.316093],[33.070071,41.316005],[33.06821,41.316448],[33.064046,41.318308],[33.061034,41.319017],[33.057579,41.319992],[33.05368,41.320523],[33.049782,41.321143],[33.047213,41.321143],[33.045706,41.320878],[33.042251,41.319283],[33.041099,41.318485],[33.039948,41.316979],[33.037644,41.314498],[33.035518,41.312904],[33.033391,41.311841],[33.03029,41.311043],[33.028075,41.309803],[33.022671,41.307056],[33.01452,41.303069],[33.011507,41.301209],[33.002293,41.295361],[32.998749,41.292969],[32.994408,41.289868],[32.990067,41.287476],[32.986523,41.286324],[32.980409,41.285172],[32.975536,41.284286],[32.972081,41.283843],[32.96774,41.28278],[32.962601,41.281097],[32.957197,41.280034],[32.953314,41.279639],[32.944892,41.283055],[32.933501,41.286461],[32.927007,41.287739],[32.919875,41.28859],[32.9137,41.289336],[32.907739,41.291571],[32.903055,41.295084],[32.893048,41.300301],[32.887086,41.303175],[32.883467,41.30541],[32.879847,41.308498],[32.874418,41.316482],[32.871437,41.320208],[32.86835,41.323401],[32.863986,41.327127],[32.855469,41.339476],[32.852808,41.343096],[32.845462,41.351186],[32.835775,41.362151],[32.828749,41.367581],[32.825661,41.371626],[32.821616,41.375884],[32.817358,41.380036],[32.815442,41.383442],[32.81459,41.385784],[32.8131,41.390575],[32.812567,41.39164],[32.811184,41.394833],[32.809587,41.398879],[32.808203,41.402924],[32.806925,41.407289],[32.807138,41.410482],[32.808841,41.413676],[32.809906,41.415805],[32.811184,41.418679],[32.812035,41.421554],[32.813313,41.425812],[32.814909,41.42858],[32.815442,41.432519],[32.814697,41.436457],[32.813632,41.439864],[32.813526,41.442525],[32.813206,41.446571],[32.813951,41.451042],[32.815122,41.45349],[32.816293,41.455513],[32.817571,41.456471],[32.822148,41.459345],[32.824278,41.460623],[32.826513,41.462113],[32.83141,41.465626],[32.834604,41.467755],[32.835775,41.468926],[32.838968,41.471375],[32.840459,41.473291],[32.841949,41.475314],[32.842269,41.476911],[32.842481,41.481062],[32.84163,41.48415],[32.839607,41.489579],[32.839501,41.491601],[32.839607,41.493411],[32.840246,41.49554],[32.840672,41.497776],[32.840778,41.501289],[32.840672,41.503418],[32.839501,41.505228],[32.83833,41.506612],[32.835988,41.508315],[32.834817,41.510231],[32.834071,41.513744],[32.833113,41.518428],[32.832475,41.521728],[32.831091,41.525348],[32.829494,41.530245],[32.827578,41.53429],[32.825555,41.53759],[32.823639,41.541529],[32.822255,41.544616],[32.821403,41.548449],[32.819741,41.553297]]]}},{"type":"Feature","properties":{"id":"TR-D-78-002","parent_id":"TR-P-78","region_id":"TR-R-KAR","level":"district","municipality_type":null,"municipality_type_label":null,"is_metropolitan_municipality":null,"name":"Eskipazar","name_ascii":"eskipazar","slug":"eskipazar-karabuk"},"geometry":{"type":"Polygon","coordinates":[[[32.802139,40.993634],[32.80339,40.992848],[32.808394,40.990612],[32.812439,40.988164],[32.816059,40.985502],[32.819784,40.982628],[32.823617,40.978689],[32.828194,40.974324],[32.829259,40.972408],[32.831814,40.969002],[32.83405,40.965489],[32.835859,40.960911],[32.840159,40.956547],[32.838757,40.956834],[32.829707,40.958278],[32.821813,40.95953],[32.814207,40.959915],[32.806121,40.959818],[32.799959,40.959048],[32.794568,40.95693],[32.790813,40.955294],[32.78754,40.951443],[32.785422,40.948073],[32.78417,40.942682],[32.783304,40.938157],[32.781956,40.931899],[32.780705,40.927182],[32.778683,40.921694],[32.776372,40.916784],[32.774062,40.913511],[32.770115,40.90735],[32.759621,40.896182],[32.752497,40.890309],[32.74672,40.885014],[32.74104,40.880586],[32.736708,40.875869],[32.732953,40.873173],[32.729295,40.872114],[32.724192,40.87144],[32.720823,40.870862],[32.71495,40.869322],[32.7085,40.867397],[32.703012,40.865567],[32.697621,40.86239],[32.692422,40.860754],[32.686357,40.858539],[32.680388,40.85748],[32.674227,40.855748],[32.668643,40.854303],[32.662963,40.852378],[32.659016,40.851223],[32.649196,40.844387],[32.644639,40.840504],[32.640499,40.837905],[32.637419,40.836653],[32.633086,40.835691],[32.630294,40.834824],[32.627599,40.833476],[32.625577,40.832129],[32.623074,40.830492],[32.620763,40.830011],[32.618068,40.829818],[32.614891,40.829818],[32.611714,40.829818],[32.608922,40.829337],[32.604493,40.828085],[32.601027,40.825967],[32.598621,40.82356],[32.597754,40.820961],[32.595732,40.815858],[32.593711,40.810467],[32.591689,40.80729],[32.588031,40.804209],[32.584661,40.802669],[32.58004,40.801032],[32.573975,40.7993],[32.570316,40.797374],[32.569301,40.800104],[32.56845,40.803764],[32.56862,40.808614],[32.568875,40.812529],[32.568365,40.815762],[32.565301,40.820528],[32.562578,40.824102],[32.557472,40.827931],[32.55143,40.832867],[32.547941,40.83559],[32.543942,40.838909],[32.540368,40.841717],[32.5379,40.845036],[32.535347,40.848099],[32.532794,40.850737],[32.530496,40.852865],[32.529135,40.854907],[32.527858,40.858311],[32.526582,40.861204],[32.52488,40.86631],[32.523774,40.869203],[32.522327,40.872011],[32.521646,40.873884],[32.520285,40.876862],[32.519689,40.878309],[32.519008,40.87967],[32.517477,40.881712],[32.515349,40.8835],[32.512796,40.885712],[32.510073,40.885882],[32.504372,40.885797],[32.501478,40.885797],[32.492458,40.886223],[32.486416,40.886138],[32.482332,40.885797],[32.478162,40.884861],[32.47212,40.882393],[32.46778,40.880011],[32.465908,40.879245],[32.459015,40.876181],[32.454955,40.874802],[32.449785,40.872889],[32.446011,40.870408],[32.443477,40.869012],[32.441461,40.868029],[32.439186,40.86684],[32.436911,40.86591],[32.433344,40.865496],[32.428794,40.865755],[32.426105,40.866323],[32.417936,40.8641],[32.413076,40.863221],[32.409147,40.862859],[32.404391,40.862394],[32.399582,40.861825],[32.395084,40.861929],[32.386304,40.86117],[32.380513,40.860619],[32.377135,40.860343],[32.371907,40.860389],[32.369885,40.860757],[32.368323,40.861308],[32.36529,40.863238],[32.360786,40.866455],[32.358488,40.867191],[32.355271,40.86811],[32.351135,40.868937],[32.34755,40.8705],[32.34277,40.873809],[32.340013,40.877301],[32.33937,40.878772],[32.339737,40.882265],[32.340197,40.88493],[32.342403,40.890721],[32.344241,40.893846],[32.346845,40.897339],[32.349327,40.901751],[32.35089,40.905519],[32.35236,40.910483],[32.352452,40.919398],[32.352728,40.923534],[32.353279,40.925465],[32.353923,40.927211],[32.355485,40.931715],[32.357691,40.93484],[32.360081,40.938425],[32.361092,40.939803],[32.362379,40.942009],[32.365228,40.948535],[32.365688,40.950282],[32.366055,40.955429],[32.365412,40.958462],[32.364125,40.961863],[32.363022,40.963517],[32.362103,40.963701],[32.359713,40.963517],[32.356404,40.96223],[32.353096,40.960668],[32.348684,40.959841],[32.340595,40.958278],[32.336459,40.958278],[32.332691,40.958554],[32.329841,40.960484],[32.328554,40.963058],[32.327359,40.965815],[32.326716,40.97087],[32.32644,40.975742],[32.325154,40.980981],[32.323683,40.984014],[32.320282,40.988702],[32.316789,40.991735],[32.313021,40.996147],[32.308057,41.002121],[32.306127,41.004879],[32.301164,41.01168],[32.299693,41.013427],[32.298498,41.014254],[32.29427,41.017379],[32.291513,41.019769],[32.28848,41.022894],[32.28609,41.026295],[32.283792,41.028593],[32.28177,41.030431],[32.278277,41.03181],[32.280693,41.03394],[32.283567,41.036707],[32.28559,41.039795],[32.28889,41.042775],[32.291764,41.043627],[32.295703,41.044798],[32.300068,41.044798],[32.304965,41.045011],[32.308584,41.044798],[32.313694,41.043521],[32.318378,41.042882],[32.324872,41.041924],[32.331792,41.041924],[32.345524,41.040114],[32.353402,41.040114],[32.359044,41.040007],[32.367987,41.039901],[32.376397,41.040007],[32.386829,41.041498],[32.395452,41.045437],[32.40184,41.04863],[32.406204,41.050866],[32.409378,41.051449],[32.411421,41.051824],[32.420043,41.052569],[32.432499,41.052356],[32.44357,41.052463],[32.454322,41.052995],[32.463797,41.052995],[32.475933,41.052889],[32.488601,41.053102],[32.499992,41.05374],[32.515534,41.053634],[32.527457,41.053314],[32.535122,41.053527],[32.544171,41.053421],[32.549281,41.052037],[32.554923,41.049482],[32.558436,41.047034],[32.561736,41.045543],[32.566633,41.043308],[32.57121,41.039901],[32.577172,41.036175],[32.581963,41.03213],[32.587498,41.029043],[32.590905,41.026381],[32.593566,41.024465],[32.597186,41.021378],[32.601444,41.018503],[32.606021,41.014777],[32.611451,41.012116],[32.613686,41.011903],[32.618157,41.011371],[32.621032,41.011264],[32.625077,41.011477],[32.630613,41.012861],[32.633593,41.014352],[32.637426,41.017226],[32.641897,41.021058],[32.645942,41.023294],[32.652543,41.027978],[32.656694,41.029255],[32.664785,41.030746],[32.672556,41.030639],[32.678837,41.029788],[32.687141,41.028617],[32.693528,41.027659],[32.702044,41.027339],[32.709816,41.026168],[32.715032,41.024891],[32.719716,41.023081],[32.722271,41.019887],[32.727913,41.016268],[32.734194,41.013606],[32.738452,41.011477],[32.743562,41.009881],[32.748991,41.007432],[32.754314,41.005303],[32.758572,41.002961],[32.765279,41.000725],[32.769431,40.999874],[32.773157,40.999767],[32.776563,40.999661],[32.780715,41.000087],[32.787103,40.999661],[32.790296,40.998703],[32.794448,40.997638],[32.799664,40.99519],[32.802139,40.993634]]]}},{"type":"Feature","properties":{"id":"TR-D-78-003","parent_id":"TR-P-78","region_id":"TR-R-KAR","level":"district","municipality_type":null,"municipality_type_label":null,"is_metropolitan_municipality":null,"name":"Karabük","name_ascii":"karabuk","slug":"karabuk-karabuk"},"geometry":{"type":"Polygon","coordinates":[[[32.489666,41.333397],[32.500972,41.335247],[32.5061,41.336258],[32.50827,41.336686],[32.517726,41.337508],[32.531294,41.340591],[32.535302,41.342442],[32.543114,41.345525],[32.548664,41.348609],[32.555037,41.349431],[32.558634,41.350356],[32.564493,41.352103],[32.571585,41.353542],[32.581452,41.354364],[32.591422,41.354981],[32.595328,41.355392],[32.600056,41.355187],[32.603756,41.355701],[32.606326,41.35642],[32.610848,41.357551],[32.613829,41.358784],[32.614042,41.35904],[32.614149,41.359168],[32.616758,41.353849],[32.618894,41.34851],[32.62014,41.345396],[32.622899,41.340145],[32.625123,41.336675],[32.62717,41.334272],[32.629395,41.329734],[32.630018,41.325462],[32.630374,41.319945],[32.634289,41.310513],[32.637242,41.306641],[32.639672,41.30421],[32.642573,41.300133],[32.644847,41.296291],[32.646807,41.292606],[32.649159,41.288764],[32.652028,41.2858],[32.652656,41.285138],[32.653351,41.284245],[32.65431,41.283121],[32.655071,41.281963],[32.655534,41.280904],[32.655666,41.279978],[32.655567,41.278821],[32.655368,41.278159],[32.655005,41.276869],[32.654806,41.276141],[32.654707,41.275381],[32.654542,41.274653],[32.654641,41.273594],[32.654641,41.267508],[32.657952,41.263193],[32.658138,41.262862],[32.65857,41.262032],[32.658982,41.261193],[32.660595,41.257831],[32.662018,41.2549],[32.667747,41.243197],[32.668549,41.241521],[32.668931,41.240678],[32.66911,41.240263],[32.669787,41.238593],[32.670928,41.23566],[32.671398,41.2344],[32.671688,41.233558],[32.67182,41.233135],[32.671937,41.232711],[32.672034,41.232284],[32.67211,41.231845],[32.672166,41.231403],[32.672207,41.23096],[32.672262,41.23007],[32.672342,41.228285],[32.672402,41.227395],[32.672447,41.226951],[32.672508,41.226509],[32.672588,41.226065],[32.672684,41.225623],[32.672908,41.224741],[32.673415,41.222984],[32.678771,41.203825],[32.688395,41.196208],[32.693916,41.193419],[32.700518,41.189605],[32.723455,41.184995],[32.731025,41.183629],[32.739677,41.183401],[32.741156,41.183288],[32.747133,41.183572],[32.75863,41.183344],[32.765858,41.182548],[32.76768,41.181865],[32.771493,41.179531],[32.773884,41.177197],[32.775363,41.173555],[32.776616,41.169115],[32.777526,41.164505],[32.778095,41.159553],[32.778152,41.154943],[32.778152,41.150731],[32.77764,41.148967],[32.776843,41.146861],[32.774623,41.144812],[32.772461,41.141511],[32.771721,41.138096],[32.772176,41.135534],[32.772745,41.132973],[32.773599,41.131323],[32.787849,41.129022],[32.788534,41.128716],[32.789148,41.128535],[32.789744,41.128296],[32.79038,41.128024],[32.79102,41.127725],[32.791629,41.127406],[32.792171,41.127072],[32.792594,41.126752],[32.79293,41.126437],[32.793237,41.126109],[32.793527,41.125769],[32.79382,41.125398],[32.7941,41.125019],[32.794372,41.124635],[32.794903,41.123858],[32.79905,41.117588],[32.803485,41.110943],[32.804256,41.109769],[32.804757,41.108984],[32.805233,41.108195],[32.805455,41.107798],[32.805658,41.107397],[32.805837,41.106992],[32.805983,41.106581],[32.806089,41.10616],[32.806161,41.105733],[32.80621,41.105301],[32.806241,41.104866],[32.806303,41.103113],[32.806349,41.102235],[32.806391,41.101797],[32.806449,41.101362],[32.806522,41.100928],[32.806605,41.100495],[32.806794,41.09963],[32.807001,41.098768],[32.807223,41.097909],[32.807466,41.097056],[32.8076,41.096634],[32.807748,41.096217],[32.807914,41.095806],[32.808104,41.095405],[32.808329,41.095016],[32.808586,41.094654],[32.808875,41.094304],[32.809186,41.093962],[32.809514,41.093626],[32.810884,41.092298],[32.81122,41.091962],[32.811544,41.091621],[32.81185,41.091271],[32.812142,41.090901],[32.812411,41.09052],[32.812658,41.090132],[32.812884,41.089736],[32.813085,41.089333],[32.813259,41.088921],[32.813411,41.088502],[32.813545,41.08808],[32.813662,41.087654],[32.813765,41.087226],[32.813853,41.086795],[32.813922,41.086364],[32.813969,41.085931],[32.81399,41.085508],[32.813992,41.085084],[32.813978,41.084659],[32.813924,41.083809],[32.813847,41.082958],[32.813755,41.082108],[32.813588,41.080837],[32.813437,41.079995],[32.81334,41.079578],[32.813222,41.079157],[32.813088,41.078738],[32.812943,41.078322],[32.81263,41.077491],[32.811795,41.075423],[32.811282,41.074185],[32.81093,41.073364],[32.81056,41.07255],[32.810361,41.072149],[32.810149,41.071753],[32.809919,41.071365],[32.809663,41.070987],[32.809371,41.070615],[32.809053,41.070253],[32.808717,41.069899],[32.808368,41.06955],[32.806937,41.068169],[32.806591,41.067819],[32.80626,41.067464],[32.805949,41.0671],[32.805667,41.066725],[32.805417,41.066329],[32.805198,41.06592],[32.805001,41.065503],[32.804821,41.065079],[32.804497,41.06422],[32.804208,41.06335],[32.804076,41.062913],[32.803957,41.062475],[32.803852,41.062035],[32.803768,41.061592],[32.803711,41.061167],[32.803672,41.06074],[32.803647,41.060312],[32.803628,41.059453],[32.803638,41.058593],[32.803652,41.058162],[32.803734,41.05685],[32.803846,41.055539],[32.803975,41.054274],[32.804124,41.053032],[32.804242,41.052207],[32.80431,41.051795],[32.804387,41.051385],[32.804477,41.050975],[32.804584,41.050556],[32.804704,41.050138],[32.80495,41.049356],[32.810026,41.045151],[32.813725,41.044468],[32.819872,41.04276],[32.823458,41.040825],[32.82471,41.039801],[32.825792,41.038207],[32.826247,41.036784],[32.82619,41.03519],[32.82545,41.033084],[32.824653,41.031946],[32.82249,41.029214],[32.819417,41.026141],[32.816116,41.023352],[32.81475,41.021872],[32.814124,41.019538],[32.813725,41.015497],[32.812815,41.011627],[32.811505,41.008952],[32.809912,41.005594],[32.808034,41.002122],[32.803253,40.995633],[32.802139,40.993634],[32.799664,40.99519],[32.794448,40.997638],[32.790296,40.998703],[32.787103,40.999661],[32.780715,41.000087],[32.776563,40.999661],[32.773157,40.999767],[32.769431,40.999874],[32.765279,41.000725],[32.758572,41.002961],[32.754314,41.005303],[32.748991,41.007432],[32.743562,41.009881],[32.738452,41.011477],[32.734194,41.013606],[32.727913,41.016268],[32.722271,41.019887],[32.719716,41.023081],[32.715032,41.024891],[32.709816,41.026168],[32.702044,41.027339],[32.693528,41.027659],[32.687141,41.028617],[32.678837,41.029788],[32.672556,41.030639],[32.664785,41.030746],[32.656694,41.029255],[32.652543,41.027978],[32.645942,41.023294],[32.641897,41.021058],[32.637426,41.017226],[32.633593,41.014352],[32.630613,41.012861],[32.625077,41.011477],[32.621032,41.011264],[32.618157,41.011371],[32.613686,41.011903],[32.611451,41.012116],[32.606021,41.014777],[32.601444,41.018503],[32.597186,41.021378],[32.593566,41.024465],[32.590905,41.026381],[32.587498,41.029043],[32.581963,41.03213],[32.577172,41.036175],[32.57121,41.039901],[32.566633,41.043308],[32.561736,41.045543],[32.558436,41.047034],[32.554923,41.049482],[32.549281,41.052037],[32.544171,41.053421],[32.535122,41.053527],[32.527457,41.053314],[32.515534,41.053634],[32.499992,41.05374],[32.488601,41.053102],[32.475933,41.052889],[32.463797,41.052995],[32.454322,41.052995],[32.44357,41.052463],[32.432499,41.052356],[32.420043,41.052569],[32.411421,41.051824],[32.409378,41.051449],[32.409092,41.05298],[32.409092,41.056331],[32.40884,41.058258],[32.408505,41.072834],[32.408589,41.08297],[32.409259,41.089253],[32.410516,41.095201],[32.411102,41.099976],[32.41261,41.103076],[32.414956,41.10827],[32.420987,41.116731],[32.428611,41.126616],[32.432883,41.134323],[32.435731,41.138511],[32.439417,41.143119],[32.445114,41.150742],[32.448464,41.155098],[32.452821,41.159035],[32.457679,41.162638],[32.461449,41.165402],[32.465805,41.169172],[32.466559,41.170345],[32.467229,41.173444],[32.468151,41.17646],[32.468318,41.179057],[32.469324,41.182492],[32.472758,41.192377],[32.475439,41.199162],[32.477617,41.20377],[32.482225,41.217173],[32.48767,41.228566],[32.490015,41.234765],[32.489178,41.239875],[32.488591,41.24398],[32.486832,41.247582],[32.485994,41.249928],[32.485827,41.252274],[32.486078,41.254033],[32.486413,41.25596],[32.487837,41.260316],[32.488926,41.265091],[32.488759,41.272798],[32.488508,41.282097],[32.487921,41.287374],[32.487921,41.292819],[32.487335,41.30061],[32.487754,41.30815],[32.48834,41.316862],[32.488675,41.32038],[32.488843,41.324234],[32.489345,41.328171],[32.489666,41.333397]]]}},{"type":"Feature","properties":{"id":"TR-D-78-004","parent_id":"TR-P-78","region_id":"TR-R-KAR","level":"district","municipality_type":null,"municipality_type_label":null,"is_metropolitan_municipality":null,"name":"Ovacık","name_ascii":"ovacik","slug":"ovacik-karabuk"},"geometry":{"type":"Polygon","coordinates":[[[32.840159,40.956547],[32.835859,40.960911],[32.83405,40.965489],[32.831814,40.969002],[32.829259,40.972408],[32.828194,40.974324],[32.823617,40.978689],[32.819784,40.982628],[32.816059,40.985502],[32.812439,40.988164],[32.808394,40.990612],[32.80339,40.992848],[32.802139,40.993634],[32.803253,40.995633],[32.808034,41.002122],[32.809912,41.005594],[32.811505,41.008952],[32.812815,41.011627],[32.813725,41.015497],[32.814124,41.019538],[32.81475,41.021872],[32.816116,41.023352],[32.819417,41.026141],[32.82249,41.029214],[32.824653,41.031946],[32.82545,41.033084],[32.82619,41.03519],[32.826247,41.036784],[32.825792,41.038207],[32.82471,41.039801],[32.823458,41.040825],[32.819872,41.04276],[32.813725,41.044468],[32.810026,41.045151],[32.80495,41.049356],[32.804704,41.050138],[32.804584,41.050556],[32.804477,41.050975],[32.804387,41.051385],[32.80431,41.051795],[32.804242,41.052207],[32.804124,41.053032],[32.803975,41.054274],[32.803846,41.055539],[32.803734,41.05685],[32.803652,41.058162],[32.803638,41.058593],[32.803628,41.059453],[32.803647,41.060312],[32.803672,41.06074],[32.803711,41.061167],[32.803768,41.061592],[32.803852,41.062035],[32.803957,41.062475],[32.804076,41.062913],[32.804208,41.06335],[32.804497,41.06422],[32.804821,41.065079],[32.805001,41.065503],[32.805198,41.06592],[32.805417,41.066329],[32.805667,41.066725],[32.805949,41.0671],[32.80626,41.067464],[32.806591,41.067819],[32.806937,41.068169],[32.808368,41.06955],[32.808717,41.069899],[32.809053,41.070253],[32.809371,41.070615],[32.809663,41.070987],[32.809919,41.071365],[32.810149,41.071753],[32.810361,41.072149],[32.81056,41.07255],[32.81093,41.073364],[32.811282,41.074185],[32.811795,41.075423],[32.81263,41.077491],[32.812943,41.078322],[32.813088,41.078738],[32.813222,41.079157],[32.81334,41.079578],[32.813437,41.079995],[32.813588,41.080837],[32.813755,41.082108],[32.813847,41.082958],[32.813924,41.083809],[32.813978,41.084659],[32.813992,41.085084],[32.81399,41.085508],[32.813969,41.085931],[32.813922,41.086364],[32.813853,41.086795],[32.813765,41.087226],[32.813662,41.087654],[32.813545,41.08808],[32.813411,41.088502],[32.813259,41.088921],[32.813085,41.089333],[32.812884,41.089736],[32.812658,41.090132],[32.812411,41.09052],[32.812142,41.090901],[32.81185,41.091271],[32.811544,41.091621],[32.81122,41.091962],[32.810884,41.092298],[32.809514,41.093626],[32.809186,41.093962],[32.808875,41.094304],[32.808586,41.094654],[32.808329,41.095016],[32.808104,41.095405],[32.807914,41.095806],[32.807748,41.096217],[32.8076,41.096634],[32.807466,41.097056],[32.807223,41.097909],[32.807001,41.098768],[32.806794,41.09963],[32.806605,41.100495],[32.806522,41.100928],[32.806449,41.101362],[32.806391,41.101797],[32.806349,41.102235],[32.806303,41.103113],[32.806241,41.104866],[32.80621,41.105301],[32.806161,41.105733],[32.806089,41.10616],[32.805983,41.106581],[32.805837,41.106992],[32.805658,41.107397],[32.805455,41.107798],[32.805233,41.108195],[32.804757,41.108984],[32.804256,41.109769],[32.803485,41.110943],[32.79905,41.117588],[32.794903,41.123858],[32.794372,41.124635],[32.7941,41.125019],[32.79382,41.125398],[32.793527,41.125769],[32.793237,41.126109],[32.79293,41.126437],[32.792594,41.126752],[32.792171,41.127072],[32.791629,41.127406],[32.79102,41.127725],[32.79038,41.128024],[32.789744,41.128296],[32.789148,41.128535],[32.788534,41.128716],[32.789396,41.129127],[32.790884,41.129807],[32.793383,41.130922],[32.79489,41.131574],[32.795907,41.131985],[32.796422,41.132175],[32.796943,41.132351],[32.797475,41.132506],[32.798016,41.132636],[32.798566,41.132746],[32.799124,41.132841],[32.799686,41.132926],[32.800821,41.133075],[32.802534,41.133275],[32.807688,41.133854],[32.808832,41.133971],[32.809974,41.134064],[32.810544,41.134095],[32.811112,41.134109],[32.811679,41.134101],[32.812225,41.134066],[32.812768,41.134008],[32.813309,41.133933],[32.813847,41.133842],[32.814382,41.133737],[32.814912,41.133619],[32.815436,41.133488],[32.815953,41.13334],[32.816469,41.133173],[32.817997,41.132633],[32.818513,41.132463],[32.819057,41.132304],[32.819609,41.132159],[32.820167,41.132024],[32.820729,41.131899],[32.821864,41.131666],[32.823007,41.131458],[32.82358,41.131364],[32.824155,41.131281],[32.824731,41.131211],[32.825308,41.13116],[32.825843,41.131135],[32.826377,41.13113],[32.826911,41.131145],[32.827443,41.131181],[32.828001,41.131245],[32.828556,41.13133],[32.829107,41.13143],[32.829656,41.131544],[32.830202,41.131668],[32.830743,41.131801],[32.831279,41.131945],[32.831808,41.1321],[32.832328,41.13227],[32.832835,41.132459],[32.833306,41.132659],[32.833766,41.132875],[32.834219,41.133101],[32.836011,41.134037],[32.836467,41.134261],[32.836932,41.134473],[32.837446,41.134685],[32.837971,41.134883],[32.839042,41.13525],[32.840131,41.135594],[32.841777,41.136091],[32.851136,41.138871],[32.852791,41.139352],[32.853902,41.139655],[32.854462,41.139797],[32.855025,41.139927],[32.855585,41.140043],[32.856149,41.140149],[32.856716,41.140247],[32.857855,41.14043],[32.859572,41.140685],[32.861291,41.14092],[32.862435,41.141051],[32.863005,41.141102],[32.863573,41.141136],[32.864138,41.141148],[32.864698,41.141129],[32.865213,41.141077],[32.865723,41.140996],[32.866228,41.140893],[32.86673,41.140771],[32.867226,41.140632],[32.867717,41.140478],[32.8682,41.140309],[32.868724,41.140104],[32.86924,41.139885],[32.869751,41.139655],[32.871775,41.138705],[32.872285,41.138473],[32.873246,41.138063],[32.873734,41.137872],[32.874228,41.137693],[32.874731,41.137529],[32.875231,41.137388],[32.875739,41.137261],[32.876253,41.137147],[32.876771,41.137043],[32.877292,41.136949],[32.87786,41.136856],[32.878431,41.136773],[32.879003,41.136702],[32.879578,41.136645],[32.880155,41.136605],[32.880722,41.136586],[32.881292,41.136582],[32.881862,41.13659],[32.882433,41.136607],[32.883577,41.136655],[32.887585,41.13687],[32.88987,41.13701],[32.891004,41.137104],[32.891567,41.137163],[32.892126,41.137235],[32.892679,41.137326],[32.893227,41.137438],[32.893768,41.137569],[32.894306,41.137713],[32.895372,41.138026],[32.896964,41.138527],[32.900679,41.139724],[32.901738,41.140069],[32.902788,41.140425],[32.903304,41.140611],[32.903812,41.140805],[32.904276,41.140998],[32.904725,41.141205],[32.905155,41.141428],[32.905558,41.141673],[32.905945,41.141956],[32.906298,41.142263],[32.906622,41.142591],[32.906915,41.142936],[32.907174,41.143298],[32.9074,41.143677],[32.907597,41.14407],[32.907773,41.144471],[32.908085,41.145289],[32.908917,41.147789],[32.909213,41.148616],[32.909374,41.149026],[32.90955,41.149431],[32.909744,41.14983],[32.909958,41.150213],[32.910192,41.150588],[32.910445,41.150957],[32.910716,41.151319],[32.911004,41.151672],[32.911319,41.152024],[32.911651,41.152367],[32.911996,41.152704],[32.912352,41.153033],[32.912719,41.153355],[32.913096,41.153668],[32.913486,41.153969],[32.913892,41.154257],[32.914317,41.154525],[32.914735,41.154754],[32.915171,41.154964],[32.915621,41.155159],[32.916084,41.15534],[32.916557,41.155506],[32.9171,41.155677],[32.917651,41.155834],[32.918771,41.156124],[32.92047,41.156529],[32.923876,41.157317],[32.925012,41.157575],[32.92615,41.157821],[32.927294,41.158042],[32.927871,41.158136],[32.928394,41.158207],[32.929448,41.15832],[32.930507,41.158407],[32.931571,41.158477],[32.932635,41.158531],[32.933788,41.158565],[32.93494,41.158568],[32.935514,41.158554],[32.936086,41.158525],[32.936659,41.158478],[32.937229,41.158417],[32.937798,41.158345],[32.938935,41.158181],[32.941774,41.157726],[32.944038,41.157342],[32.945157,41.157131],[32.945709,41.157014],[32.946254,41.156884],[32.946787,41.156737],[32.947304,41.156567],[32.947767,41.156382],[32.948215,41.156177],[32.948652,41.155954],[32.949079,41.155719],[32.949498,41.155473],[32.949908,41.155217],[32.950309,41.154953],[32.950699,41.15468],[32.951077,41.154398],[32.951438,41.154103],[32.951784,41.153793],[32.952115,41.153473],[32.953704,41.151823],[32.954037,41.151502],[32.954379,41.151194],[32.954735,41.150896],[32.955103,41.150606],[32.955483,41.150327],[32.955877,41.150059],[32.956286,41.149804],[32.956738,41.149553],[32.957204,41.149316],[32.957682,41.149089],[32.95866,41.148657],[32.959156,41.148449],[32.960156,41.148045],[32.961162,41.147666],[32.961666,41.14749],[32.962136,41.14734],[32.962606,41.147205],[32.963076,41.147092],[32.963543,41.147006],[32.964008,41.146957],[32.964469,41.146954],[32.964982,41.147018],[32.965492,41.147139],[32.965998,41.147299],[32.966504,41.147487],[32.968036,41.148113],[32.968558,41.148317],[32.969089,41.148506],[32.96963,41.148679],[32.970178,41.148835],[32.970734,41.14897],[32.971298,41.149079],[32.971829,41.149153],[32.972364,41.149206],[32.972905,41.149242],[32.973447,41.149264],[32.973992,41.149275],[32.974537,41.149277],[32.975083,41.149268],[32.975627,41.149249],[32.976178,41.149216],[32.976725,41.149172],[32.977268,41.149114],[32.977805,41.149042],[32.978333,41.148953],[32.97885,41.148841],[32.979352,41.148701],[32.979838,41.148526],[32.98031,41.148324],[32.980772,41.148104],[32.982141,41.1474],[32.982604,41.147169],[32.983076,41.14695],[32.983572,41.146744],[32.984081,41.146552],[32.984598,41.146373],[32.985122,41.146205],[32.985653,41.146046],[32.986188,41.145898],[32.986729,41.145761],[32.986889,41.145726],[32.987275,41.145639],[32.987845,41.145529],[32.988419,41.145435],[32.988997,41.145354],[32.989577,41.145286],[32.990159,41.145233],[32.990741,41.145197],[32.991324,41.145183],[32.991895,41.145194],[32.992466,41.145227],[32.993034,41.145278],[32.993599,41.145345],[32.994159,41.145429],[32.994712,41.145531],[32.995255,41.145655],[32.995786,41.145804],[32.996283,41.145978],[32.996769,41.146174],[32.997247,41.146384],[32.99867,41.147037],[32.99915,41.147241],[32.999639,41.147425],[33.000077,41.147565],[33.000522,41.147683],[33.000974,41.147777],[33.00143,41.147845],[33.001889,41.147881],[33.00238,41.147882],[33.002872,41.147849],[33.003363,41.147786],[33.003852,41.1477],[33.004337,41.14759],[33.004843,41.14745],[33.005342,41.147292],[33.005838,41.14712],[33.006817,41.146747],[33.007783,41.146346],[33.008258,41.146136],[33.008728,41.145919],[33.009189,41.145692],[33.009604,41.145475],[33.010412,41.145018],[33.010808,41.144781],[33.011585,41.144296],[33.012416,41.143737],[33.012816,41.143449],[33.013201,41.143151],[33.013566,41.142842],[33.013884,41.14254],[33.014178,41.142226],[33.014446,41.141899],[33.014685,41.141561],[33.014913,41.141169],[33.01511,41.140765],[33.015289,41.140353],[33.015794,41.139102],[33.015981,41.138689],[33.016166,41.138325],[33.016368,41.137967],[33.016588,41.137614],[33.016824,41.137269],[33.017079,41.136933],[33.017356,41.136607],[33.017698,41.136252],[33.018065,41.13591],[33.018449,41.135577],[33.018847,41.13525],[33.019253,41.134928],[33.020081,41.134292],[33.026812,41.129263],[33.028926,41.1277],[33.03218,41.125371],[33.033382,41.124487],[33.034154,41.123881],[33.034524,41.123568],[33.034877,41.123245],[33.03523,41.122891],[33.035564,41.122526],[33.035885,41.122154],[33.036197,41.121775],[33.036804,41.121009],[33.037987,41.119457],[33.039741,41.117115],[33.040886,41.115541],[33.04142,41.11477],[33.042672,41.112894],[33.04319,41.11216],[33.043462,41.111804],[33.043748,41.11146],[33.044053,41.111132],[33.044373,41.110833],[33.044716,41.110559],[33.045081,41.110313],[33.045472,41.110102],[33.04589,41.109936],[33.046331,41.109822],[33.046796,41.109746],[33.047279,41.109693],[33.048279,41.109605],[33.0488,41.109546],[33.049324,41.109476],[33.050379,41.109307],[33.051433,41.109107],[33.05248,41.10888],[33.052998,41.108753],[33.053508,41.108616],[33.054009,41.108464],[33.054492,41.108297],[33.054962,41.108115],[33.055417,41.107918],[33.055855,41.107709],[33.056272,41.107485],[33.056662,41.107244],[33.057016,41.106982],[33.057322,41.106696],[33.057567,41.106388],[33.057765,41.106057],[33.057926,41.105708],[33.058057,41.105345],[33.058162,41.104973],[33.058242,41.104593],[33.0583,41.104208],[33.058336,41.103769],[33.058349,41.103327],[33.058332,41.102436],[33.058285,41.101543],[33.058042,41.097976],[33.057962,41.097091],[33.057911,41.096652],[33.057848,41.096216],[33.057767,41.095783],[33.057662,41.095356],[33.057533,41.094965],[33.057524,41.094937],[33.057343,41.094524],[33.057242,41.094331],[33.05713,41.094118],[33.056895,41.093716],[33.055889,41.092116],[33.05544,41.091323],[33.055021,41.090518],[33.054617,41.089708],[33.054028,41.088487],[33.053455,41.087262],[33.053092,41.086444],[33.052921,41.086034],[33.052764,41.085622],[33.052623,41.08521],[33.052507,41.084795],[33.052424,41.084378],[33.052384,41.083999],[33.052373,41.083618],[33.052386,41.083236],[33.052416,41.082853],[33.052463,41.082469],[33.052525,41.082085],[33.0526,41.081702],[33.052703,41.081265],[33.05282,41.080828],[33.053081,41.079957],[33.053622,41.078306],[33.057297,41.075438],[33.057357,41.07541],[33.058839,41.074739],[33.058839,41.07439],[33.058869,41.07395],[33.058936,41.073483],[33.059043,41.072983],[33.059189,41.072471],[33.059371,41.071967],[33.059586,41.071493],[33.059587,41.071491],[33.05983,41.071071],[33.060102,41.070721],[33.060435,41.070389],[33.060804,41.070075],[33.061199,41.069774],[33.061612,41.069481],[33.06247,41.068912],[33.063792,41.068076],[33.06956,41.064476],[33.07088,41.063688],[33.071327,41.063434],[33.07178,41.063189],[33.072242,41.062956],[33.072715,41.062738],[33.073184,41.062547],[33.073664,41.062373],[33.074153,41.062213],[33.074651,41.062069],[33.075156,41.061939],[33.075668,41.061827],[33.076225,41.061727],[33.076789,41.061645],[33.077358,41.061575],[33.077641,41.061544],[33.077929,41.061514],[33.078142,41.061494],[33.078301,41.061479],[33.079079,41.061408],[33.083695,41.061043],[33.084846,41.060945],[33.085379,41.060893],[33.085943,41.060838],[33.086818,41.060736],[33.086976,41.060718],[33.086977,41.060718],[33.087004,41.060714],[33.085408,41.057246],[33.08406,41.053973],[33.082231,41.048293],[33.079054,41.043479],[33.073952,41.037511],[33.069716,41.033371],[33.066924,41.030964],[33.054408,41.024321],[33.051135,41.021626],[33.048728,41.018545],[33.04738,41.014598],[33.044107,41.006896],[33.042952,41.003334],[33.038427,40.996306],[33.035539,40.993706],[33.032939,40.992166],[33.022638,40.987641],[33.007138,40.980998],[33.000207,40.977918],[32.987787,40.974548],[32.980856,40.972526],[32.976042,40.97089],[32.97094,40.970216],[32.963238,40.968772],[32.957654,40.967328],[32.949471,40.965691],[32.941576,40.963958],[32.932238,40.962322],[32.925595,40.961455],[32.921937,40.960781],[32.908459,40.958663],[32.899505,40.9577],[32.873897,40.955101],[32.863981,40.953849],[32.850117,40.954042],[32.842993,40.955967],[32.840159,40.956547]]]}},{"type":"Feature","properties":{"id":"TR-D-78-005","parent_id":"TR-P-78","region_id":"TR-R-KAR","level":"district","municipality_type":null,"municipality_type_label":null,"is_metropolitan_municipality":null,"name":"Safranbolu","name_ascii":"safranbolu","slug":"safranbolu-karabuk"},"geometry":{"type":"Polygon","coordinates":[[[32.953314,41.279639],[32.951969,41.279502],[32.947451,41.278262],[32.940983,41.275958],[32.93673,41.274275],[32.93425,41.273034],[32.932887,41.270864],[32.931891,41.268538],[32.929964,41.264684],[32.928502,41.261893],[32.927505,41.258238],[32.927372,41.25558],[32.927439,41.253255],[32.927704,41.248803],[32.926907,41.24362],[32.927106,41.23744],[32.92704,41.234848],[32.926774,41.230662],[32.926508,41.22734],[32.926309,41.225678],[32.925777,41.222688],[32.924913,41.216176],[32.924515,41.213253],[32.92385,41.211325],[32.922854,41.208003],[32.922787,41.206608],[32.923119,41.205013],[32.925179,41.202554],[32.926907,41.200627],[32.928502,41.198966],[32.930628,41.195843],[32.933618,41.189995],[32.935545,41.186806],[32.937805,41.183151],[32.940595,41.180693],[32.946177,41.177437],[32.95043,41.174978],[32.953486,41.172652],[32.958204,41.170592],[32.96166,41.168732],[32.967964,41.167436],[32.971403,41.167336],[32.974542,41.166639],[32.977981,41.165542],[32.980611,41.165466],[32.983086,41.164086],[32.983677,41.163028],[32.98399,41.162468],[32.984529,41.159951],[32.984704,41.159137],[32.984989,41.157519],[32.985212,41.15502],[32.985198,41.154369],[32.98516,41.152514],[32.985132,41.151143],[32.985128,41.149079],[32.985122,41.146205],[32.984598,41.146373],[32.984081,41.146552],[32.983572,41.146744],[32.983076,41.14695],[32.982604,41.147169],[32.982141,41.1474],[32.980772,41.148104],[32.98031,41.148324],[32.979838,41.148526],[32.979352,41.148701],[32.97885,41.148841],[32.978333,41.148953],[32.977805,41.149042],[32.977268,41.149114],[32.976725,41.149172],[32.976178,41.149216],[32.975627,41.149249],[32.975083,41.149268],[32.974537,41.149277],[32.973992,41.149275],[32.973447,41.149264],[32.972905,41.149242],[32.972364,41.149206],[32.971829,41.149153],[32.971298,41.149079],[32.970734,41.14897],[32.970178,41.148835],[32.96963,41.148679],[32.969089,41.148506],[32.968558,41.148317],[32.968036,41.148113],[32.966504,41.147487],[32.965998,41.147299],[32.965492,41.147139],[32.964982,41.147018],[32.964469,41.146954],[32.964008,41.146957],[32.963543,41.147006],[32.963076,41.147092],[32.962606,41.147205],[32.962136,41.14734],[32.961666,41.14749],[32.961162,41.147666],[32.960156,41.148045],[32.959156,41.148449],[32.95866,41.148657],[32.957682,41.149089],[32.957204,41.149316],[32.956738,41.149553],[32.956286,41.149804],[32.955877,41.150059],[32.955483,41.150327],[32.955103,41.150606],[32.954735,41.150896],[32.954379,41.151194],[32.954037,41.151502],[32.953704,41.151823],[32.952115,41.153473],[32.951784,41.153793],[32.951438,41.154103],[32.951077,41.154398],[32.950699,41.15468],[32.950309,41.154953],[32.949908,41.155217],[32.949498,41.155473],[32.949079,41.155719],[32.948652,41.155954],[32.948215,41.156177],[32.947767,41.156382],[32.947304,41.156567],[32.946787,41.156737],[32.946254,41.156884],[32.945709,41.157014],[32.945157,41.157131],[32.944038,41.157342],[32.941774,41.157726],[32.938935,41.158181],[32.937798,41.158345],[32.937229,41.158417],[32.936659,41.158478],[32.936086,41.158525],[32.935514,41.158554],[32.93494,41.158568],[32.933788,41.158565],[32.932635,41.158531],[32.931571,41.158477],[32.930507,41.158407],[32.929448,41.15832],[32.928394,41.158207],[32.927871,41.158136],[32.927294,41.158042],[32.92615,41.157821],[32.925012,41.157575],[32.923876,41.157317],[32.92047,41.156529],[32.918771,41.156124],[32.917651,41.155834],[32.9171,41.155677],[32.916557,41.155506],[32.916084,41.15534],[32.915621,41.155159],[32.915171,41.154964],[32.914735,41.154754],[32.914317,41.154525],[32.913892,41.154257],[32.913486,41.153969],[32.913096,41.153668],[32.912719,41.153355],[32.912352,41.153033],[32.911996,41.152704],[32.911651,41.152367],[32.911319,41.152024],[32.911004,41.151672],[32.910716,41.151319],[32.910445,41.150957],[32.910192,41.150588],[32.909958,41.150213],[32.909744,41.14983],[32.90955,41.149431],[32.909374,41.149026],[32.909213,41.148616],[32.908917,41.147789],[32.908085,41.145289],[32.907773,41.144471],[32.907597,41.14407],[32.9074,41.143677],[32.907174,41.143298],[32.906915,41.142936],[32.906622,41.142591],[32.906298,41.142263],[32.905945,41.141956],[32.905558,41.141673],[32.905155,41.141428],[32.904725,41.141205],[32.904276,41.140998],[32.903812,41.140805],[32.903304,41.140611],[32.902788,41.140425],[32.901738,41.140069],[32.900679,41.139724],[32.896964,41.138527],[32.895372,41.138026],[32.894306,41.137713],[32.893768,41.137569],[32.893227,41.137438],[32.892679,41.137326],[32.892126,41.137235],[32.891567,41.137163],[32.891004,41.137104],[32.88987,41.13701],[32.887585,41.13687],[32.883577,41.136655],[32.882433,41.136607],[32.881862,41.13659],[32.881292,41.136582],[32.880722,41.136586],[32.880155,41.136605],[32.879578,41.136645],[32.879003,41.136702],[32.878431,41.136773],[32.87786,41.136856],[32.877292,41.136949],[32.876771,41.137043],[32.876253,41.137147],[32.875739,41.137261],[32.875231,41.137388],[32.874731,41.137529],[32.874228,41.137693],[32.873734,41.137872],[32.873246,41.138063],[32.872285,41.138473],[32.871775,41.138705],[32.869751,41.139655],[32.86924,41.139885],[32.868724,41.140104],[32.8682,41.140309],[32.867717,41.140478],[32.867226,41.140632],[32.86673,41.140771],[32.866228,41.140893],[32.865723,41.140996],[32.865213,41.141077],[32.864698,41.141129],[32.864138,41.141148],[32.863573,41.141136],[32.863005,41.141102],[32.862435,41.141051],[32.861291,41.14092],[32.859572,41.140685],[32.857855,41.14043],[32.856716,41.140247],[32.856149,41.140149],[32.855585,41.140043],[32.855025,41.139927],[32.854462,41.139797],[32.853902,41.139655],[32.852791,41.139352],[32.851136,41.138871],[32.841777,41.136091],[32.840131,41.135594],[32.839042,41.13525],[32.837971,41.134883],[32.837446,41.134685],[32.836932,41.134473],[32.836467,41.134261],[32.836011,41.134037],[32.834219,41.133101],[32.833766,41.132875],[32.833306,41.132659],[32.832835,41.132459],[32.832328,41.13227],[32.831808,41.1321],[32.831279,41.131945],[32.830743,41.131801],[32.830202,41.131668],[32.829656,41.131544],[32.829107,41.13143],[32.828556,41.13133],[32.828001,41.131245],[32.827443,41.131181],[32.826911,41.131145],[32.826377,41.13113],[32.825843,41.131135],[32.825308,41.13116],[32.824731,41.131211],[32.824155,41.131281],[32.82358,41.131364],[32.823007,41.131458],[32.821864,41.131666],[32.820729,41.131899],[32.820167,41.132024],[32.819609,41.132159],[32.819057,41.132304],[32.818513,41.132463],[32.817997,41.132633],[32.816469,41.133173],[32.815953,41.13334],[32.815436,41.133488],[32.814912,41.133619],[32.814382,41.133737],[32.813847,41.133842],[32.813309,41.133933],[32.812768,41.134008],[32.812225,41.134066],[32.811679,41.134101],[32.811112,41.134109],[32.810544,41.134095],[32.809974,41.134064],[32.808832,41.133971],[32.807688,41.133854],[32.802534,41.133275],[32.800821,41.133075],[32.799686,41.132926],[32.799124,41.132841],[32.798566,41.132746],[32.798016,41.132636],[32.797475,41.132506],[32.796943,41.132351],[32.796422,41.132175],[32.795907,41.131985],[32.79489,41.131574],[32.793383,41.130922],[32.790884,41.129807],[32.789396,41.129127],[32.788534,41.128716],[32.787849,41.129022],[32.773599,41.131323],[32.772745,41.132973],[32.772176,41.135534],[32.771721,41.138096],[32.772461,41.141511],[32.774623,41.144812],[32.776843,41.146861],[32.77764,41.148967],[32.778152,41.150731],[32.778152,41.154943],[32.778095,41.159553],[32.777526,41.164505],[32.776616,41.169115],[32.775363,41.173555],[32.773884,41.177197],[32.771493,41.179531],[32.76768,41.181865],[32.765858,41.182548],[32.75863,41.183344],[32.747133,41.183572],[32.741156,41.183288],[32.739677,41.183401],[32.731025,41.183629],[32.723455,41.184995],[32.700518,41.189605],[32.693916,41.193419],[32.688395,41.196208],[32.678771,41.203825],[32.673415,41.222984],[32.672908,41.224741],[32.672684,41.225623],[32.672588,41.226065],[32.672508,41.226509],[32.672447,41.226951],[32.672402,41.227395],[32.672342,41.228285],[32.672262,41.23007],[32.672207,41.23096],[32.672166,41.231403],[32.67211,41.231845],[32.672034,41.232284],[32.671937,41.232711],[32.67182,41.233135],[32.671688,41.233558],[32.671398,41.2344],[32.670928,41.23566],[32.669787,41.238593],[32.66911,41.240263],[32.668931,41.240678],[32.668549,41.241521],[32.667747,41.243197],[32.662018,41.2549],[32.660595,41.257831],[32.658982,41.261193],[32.65857,41.262032],[32.658138,41.262862],[32.657952,41.263193],[32.654641,41.267508],[32.654641,41.273594],[32.654542,41.274653],[32.654707,41.275381],[32.654806,41.276141],[32.655005,41.276869],[32.655368,41.278159],[32.655567,41.278821],[32.655666,41.279978],[32.655534,41.280904],[32.655071,41.281963],[32.65431,41.283121],[32.653351,41.284245],[32.652656,41.285138],[32.652028,41.2858],[32.649159,41.288764],[32.646807,41.292606],[32.644847,41.296291],[32.642573,41.300133],[32.639672,41.30421],[32.637242,41.306641],[32.634289,41.310513],[32.630374,41.319945],[32.630018,41.325462],[32.629395,41.329734],[32.62717,41.334272],[32.625123,41.336675],[32.622899,41.340145],[32.62014,41.345396],[32.618894,41.34851],[32.616758,41.353849],[32.614149,41.359168],[32.614857,41.360018],[32.615371,41.362895],[32.616296,41.364951],[32.61681,41.367726],[32.618866,41.377388],[32.619277,41.379752],[32.620716,41.384275],[32.622257,41.387975],[32.626369,41.393114],[32.628116,41.394861],[32.633255,41.398356],[32.636647,41.400823],[32.641786,41.403392],[32.650523,41.408634],[32.657409,41.413671],[32.663988,41.418296],[32.668109,41.423018],[32.668032,41.425254],[32.667569,41.429031],[32.666799,41.434042],[32.665951,41.436432],[32.66464,41.439207],[32.663407,41.441982],[32.66225,41.447147],[32.661017,41.450462],[32.659706,41.453006],[32.657085,41.456629],[32.655158,41.460021],[32.651535,41.465571],[32.649531,41.470042],[32.647912,41.473819],[32.646524,41.477211],[32.643518,41.480911],[32.64082,41.483378],[32.64082,41.48677],[32.640897,41.489314],[32.641899,41.491704],[32.644289,41.494016],[32.649762,41.497562],[32.65855,41.503421],[32.661479,41.505348],[32.664794,41.50689],[32.668957,41.507584],[32.67204,41.50743],[32.676589,41.50743],[32.680751,41.507507],[32.687998,41.509048],[32.694704,41.510899],[32.703569,41.512517],[32.715904,41.512826],[32.720452,41.512903],[32.727852,41.513057],[32.732477,41.513134],[32.736717,41.513597],[32.743038,41.514136],[32.745737,41.513828],[32.756837,41.51298],[32.759844,41.513597],[32.765086,41.515601],[32.771021,41.518145],[32.778653,41.521768],[32.782199,41.523849],[32.78667,41.526085],[32.791064,41.528012],[32.79646,41.531018],[32.805171,41.538573],[32.808409,41.541811],[32.811724,41.544817],[32.814268,41.548595],[32.818122,41.552449],[32.819741,41.553297],[32.821403,41.548449],[32.822255,41.544616],[32.823639,41.541529],[32.825555,41.53759],[32.827578,41.53429],[32.829494,41.530245],[32.831091,41.525348],[32.832475,41.521728],[32.833113,41.518428],[32.834071,41.513744],[32.834817,41.510231],[32.835988,41.508315],[32.83833,41.506612],[32.839501,41.505228],[32.840672,41.503418],[32.840778,41.501289],[32.840672,41.497776],[32.840246,41.49554],[32.839607,41.493411],[32.839501,41.491601],[32.839607,41.489579],[32.84163,41.48415],[32.842481,41.481062],[32.842269,41.476911],[32.841949,41.475314],[32.840459,41.473291],[32.838968,41.471375],[32.835775,41.468926],[32.834604,41.467755],[32.83141,41.465626],[32.826513,41.462113],[32.824278,41.460623],[32.822148,41.459345],[32.817571,41.456471],[32.816293,41.455513],[32.815122,41.45349],[32.813951,41.451042],[32.813206,41.446571],[32.813526,41.442525],[32.813632,41.439864],[32.814697,41.436457],[32.815442,41.432519],[32.814909,41.42858],[32.813313,41.425812],[32.812035,41.421554],[32.811184,41.418679],[32.809906,41.415805],[32.808841,41.413676],[32.807138,41.410482],[32.806925,41.407289],[32.808203,41.402924],[32.809587,41.398879],[32.811184,41.394833],[32.812567,41.39164],[32.8131,41.390575],[32.81459,41.385784],[32.815442,41.383442],[32.817358,41.380036],[32.821616,41.375884],[32.825661,41.371626],[32.828749,41.367581],[32.835775,41.362151],[32.845462,41.351186],[32.852808,41.343096],[32.855469,41.339476],[32.863986,41.327127],[32.86835,41.323401],[32.871437,41.320208],[32.874418,41.316482],[32.879847,41.308498],[32.883467,41.30541],[32.887086,41.303175],[32.893048,41.300301],[32.903055,41.295084],[32.907739,41.291571],[32.9137,41.289336],[32.919875,41.28859],[32.927007,41.287739],[32.933501,41.286461],[32.944892,41.283055],[32.953314,41.279639]]]}},{"type":"Feature","properties":{"id":"TR-D-78-006","parent_id":"TR-P-78","region_id":"TR-R-KAR","level":"district","municipality_type":null,"municipality_type_label":null,"is_metropolitan_municipality":null,"name":"Yenice","name_ascii":"yenice","slug":"yenice-karabuk"},"geometry":{"type":"Polygon","coordinates":[[[32.147207,41.213433],[32.148769,41.217201],[32.150424,41.220878],[32.153089,41.22483],[32.15695,41.231632],[32.159248,41.234114],[32.163752,41.238526],[32.168255,41.24496],[32.173311,41.249555],[32.177906,41.254611],[32.181123,41.258103],[32.184157,41.260493],[32.187557,41.262791],[32.190315,41.264445],[32.196105,41.267111],[32.199139,41.26849],[32.20208,41.268949],[32.207503,41.270052],[32.215132,41.270879],[32.221382,41.271431],[32.226345,41.271982],[32.229562,41.272258],[32.234434,41.272993],[32.242155,41.27428],[32.252541,41.276486],[32.262744,41.278692],[32.272578,41.281082],[32.282138,41.28485],[32.287285,41.288987],[32.291605,41.294685],[32.293167,41.296983],[32.295373,41.29873],[32.30337,41.302958],[32.308241,41.306267],[32.312377,41.308197],[32.317525,41.312792],[32.320282,41.315642],[32.322951,41.32024],[32.328193,41.319932],[32.337135,41.319726],[32.343919,41.319726],[32.349572,41.319418],[32.357178,41.31839],[32.365092,41.318185],[32.37866,41.316643],[32.384724,41.316437],[32.390891,41.31654],[32.396441,41.317568],[32.404047,41.318596],[32.411242,41.319726],[32.418951,41.321576],[32.425529,41.323735],[32.431388,41.325585],[32.439713,41.327641],[32.452561,41.329491],[32.460064,41.330416],[32.470548,41.331238],[32.481444,41.332471],[32.489666,41.333397],[32.489345,41.328171],[32.488843,41.324234],[32.488675,41.32038],[32.48834,41.316862],[32.487754,41.30815],[32.487335,41.30061],[32.487921,41.292819],[32.487921,41.287374],[32.488508,41.282097],[32.488759,41.272798],[32.488926,41.265091],[32.487837,41.260316],[32.486413,41.25596],[32.486078,41.254033],[32.485827,41.252274],[32.485994,41.249928],[32.486832,41.247582],[32.488591,41.24398],[32.489178,41.239875],[32.490015,41.234765],[32.48767,41.228566],[32.482225,41.217173],[32.477617,41.20377],[32.475439,41.199162],[32.472758,41.192377],[32.469324,41.182492],[32.468318,41.179057],[32.468151,41.17646],[32.467229,41.173444],[32.466559,41.170345],[32.465805,41.169172],[32.461449,41.165402],[32.457679,41.162638],[32.452821,41.159035],[32.448464,41.155098],[32.445114,41.150742],[32.439417,41.143119],[32.435731,41.138511],[32.432883,41.134323],[32.428611,41.126616],[32.420987,41.116731],[32.414956,41.10827],[32.41261,41.103076],[32.411102,41.099976],[32.410516,41.095201],[32.409259,41.089253],[32.408589,41.08297],[32.408505,41.072834],[32.40884,41.058258],[32.409092,41.056331],[32.409092,41.05298],[32.409378,41.051449],[32.406204,41.050866],[32.40184,41.04863],[32.395452,41.045437],[32.386829,41.041498],[32.376397,41.040007],[32.367987,41.039901],[32.359044,41.040007],[32.353402,41.040114],[32.345524,41.040114],[32.331792,41.041924],[32.324872,41.041924],[32.318378,41.042882],[32.313694,41.043521],[32.308584,41.044798],[32.304965,41.045011],[32.300068,41.044798],[32.295703,41.044798],[32.291764,41.043627],[32.28889,41.042775],[32.28559,41.039795],[32.283567,41.036707],[32.280693,41.03394],[32.278277,41.03181],[32.273498,41.032637],[32.268994,41.033188],[32.263111,41.03328],[32.256953,41.033005],[32.248589,41.03328],[32.245004,41.032913],[32.240133,41.031718],[32.235629,41.029512],[32.232687,41.027674],[32.229011,41.025468],[32.226162,41.023262],[32.222853,41.021056],[32.218808,41.019677],[32.214305,41.01839],[32.208606,41.016644],[32.204745,41.015357],[32.201896,41.01407],[32.198863,41.013151],[32.195554,41.012508],[32.191694,41.012691],[32.187833,41.013243],[32.183513,41.013151],[32.180388,41.012967],[32.176803,41.012691],[32.173035,41.013059],[32.16991,41.013978],[32.165774,41.015081],[32.162097,41.016],[32.159248,41.016184],[32.153641,41.016184],[32.149229,41.015357],[32.144541,41.014162],[32.141233,41.012967],[32.139854,41.016552],[32.138751,41.020228],[32.137832,41.023262],[32.13535,41.034291],[32.133604,41.039531],[32.131581,41.044034],[32.129284,41.047711],[32.126342,41.051571],[32.122666,41.05488],[32.118897,41.057913],[32.114577,41.061222],[32.110073,41.064439],[32.106397,41.069035],[32.104099,41.073998],[32.102812,41.077951],[32.102169,41.083558],[32.102353,41.086223],[32.103548,41.091462],[32.106948,41.097712],[32.109798,41.101941],[32.114118,41.104055],[32.122298,41.107455],[32.125975,41.109753],[32.128548,41.111408],[32.131398,41.113797],[32.136729,41.119129],[32.140865,41.12354],[32.144633,41.127585],[32.149229,41.132456],[32.151803,41.135949],[32.153549,41.139625],[32.153733,41.14321],[32.153457,41.148817],[32.153365,41.152769],[32.152722,41.156905],[32.151895,41.160031],[32.149597,41.16527],[32.14785,41.168854],[32.147391,41.171704],[32.146104,41.17731],[32.145552,41.179976],[32.144817,41.184296],[32.144541,41.186961],[32.144633,41.188524],[32.144909,41.190914],[32.145185,41.193487],[32.145552,41.197256],[32.14638,41.200565],[32.147023,41.207275],[32.147023,41.211503],[32.147207,41.213433]]]}}]}