{"type":"FeatureCollection","province":"Kilis","province_id":"TR-P-79","features":[{"type":"Feature","properties":{"id":"TR-D-79-001","parent_id":"TR-P-79","region_id":"TR-R-GDA","level":"district","municipality_type":null,"municipality_type_label":null,"is_metropolitan_municipality":null,"name":"Elbeyli","name_ascii":"elbeyli","slug":"elbeyli-kilis"},"geometry":{"type":"Polygon","coordinates":[[[37.567045,36.702998],[37.567004,36.70298],[37.56676,36.702874],[37.566619,36.702804],[37.564957,36.701987],[37.564488,36.701859],[37.563019,36.701457],[37.559652,36.700123],[37.553765,36.697921],[37.549065,36.696142],[37.543919,36.694236],[37.537905,36.692076],[37.532252,36.690065],[37.53084,36.689498],[37.529245,36.688858],[37.522021,36.686051],[37.519138,36.684834],[37.517524,36.68412],[37.514575,36.682863],[37.511401,36.681422],[37.508544,36.680152],[37.506706,36.679345],[37.504563,36.678446],[37.503651,36.678155],[37.50331,36.67803],[37.502751,36.677824],[37.50131,36.677229],[37.499643,36.676264],[37.499477,36.676154],[37.498281,36.675364],[37.497064,36.674452],[37.495345,36.673156],[37.492845,36.671212],[37.491398,36.670099],[37.491073,36.669849],[37.489869,36.668857],[37.489393,36.668077],[37.488983,36.667204],[37.488897,36.665938],[37.488613,36.661755],[37.48855,36.660228],[37.488322,36.654693],[37.488281,36.652969],[37.488243,36.65136],[37.487754,36.649984],[37.485637,36.64726],[37.483971,36.645184],[37.480969,36.641375],[37.479369,36.639457],[37.478849,36.638832],[37.476432,36.635926],[37.475336,36.634472],[37.474687,36.633611],[37.474184,36.633135],[37.473073,36.632368],[37.472253,36.632077],[37.470635,36.632226],[37.470534,36.632236],[37.465336,36.632937],[37.462929,36.633188],[37.462003,36.633294],[37.460826,36.633466],[37.459041,36.633386],[37.456509,36.633158],[37.4557,36.633085],[37.453551,36.632802],[37.452038,36.632604],[37.451409,36.632727],[37.451098,36.632788],[37.450221,36.632717],[37.449514,36.632682],[37.448871,36.63264],[37.447782,36.632541],[37.445647,36.632343],[37.444804,36.632265],[37.443872,36.63218],[37.443653,36.632145],[37.442338,36.632852],[37.441653,36.633227],[37.440929,36.633623],[37.440698,36.63375],[37.439348,36.634563],[37.437856,36.635447],[37.435502,36.636797],[37.431819,36.63901],[37.429895,36.64012],[37.427845,36.641216],[37.425526,36.642757],[37.420507,36.643111],[37.415035,36.643408],[37.407695,36.643876],[37.40706,36.643917],[37.40612,36.644285],[37.398321,36.647339],[37.394517,36.64888],[37.385751,36.650619],[37.381947,36.651482],[37.377479,36.6525],[37.374142,36.653051],[37.372251,36.653403],[37.370564,36.653716],[37.36919,36.653978],[37.367001,36.654395],[37.366187,36.654531],[37.363777,36.654932],[37.361543,36.655314],[37.358729,36.655597],[37.357004,36.655809],[37.35436,36.656162],[37.352281,36.656728],[37.350585,36.657237],[37.349521,36.657597],[37.348831,36.657831],[37.348644,36.657869],[37.346921,36.665248],[37.344352,36.670007],[37.341782,36.673243],[37.339973,36.680191],[37.340164,36.682856],[37.341591,36.686472],[37.345208,36.690565],[37.350919,36.696371],[37.353393,36.702748],[37.354726,36.707507],[37.355773,36.718643],[37.357296,36.724829],[37.358638,36.731665],[37.36254,36.729095],[37.365903,36.728394],[37.367109,36.728143],[37.369234,36.728051],[37.373676,36.727857],[37.379261,36.729441],[37.380053,36.729666],[37.38377,36.732627],[37.385669,36.734139],[37.387186,36.736328],[37.390618,36.741278],[37.39115,36.742725],[37.392331,36.745941],[37.395567,36.752128],[37.396424,36.756316],[37.396722,36.757696],[37.397185,36.759837],[37.396909,36.760818],[37.396138,36.763549],[37.392712,36.77183],[37.388048,36.778207],[37.386652,36.78157],[37.385954,36.783251],[37.385907,36.785678],[37.385859,36.788105],[37.386145,36.792008],[37.387382,36.79591],[37.388572,36.798035],[37.388714,36.798289],[37.390214,36.79955],[37.391094,36.800288],[37.394901,36.802858],[37.397661,36.804666],[37.400041,36.807046],[37.401849,36.810187],[37.402325,36.812947],[37.403022,36.815337],[37.403657,36.817516],[37.404514,36.821608],[37.405656,36.824464],[37.407155,36.827367],[37.407179,36.827414],[37.408687,36.828402],[37.409939,36.829222],[37.412794,36.830841],[37.417744,36.831126],[37.422312,36.831221],[37.42926,36.829318],[37.43421,36.826272],[37.438873,36.821323],[37.444774,36.814184],[37.448296,36.809425],[37.451913,36.804095],[37.454863,36.800479],[37.45829,36.796291],[37.461526,36.792579],[37.463905,36.79039],[37.466285,36.789628],[37.471044,36.789343],[37.476088,36.789343],[37.4798,36.788867],[37.484369,36.788581],[37.487414,36.787249],[37.491126,36.785536],[37.494077,36.783251],[37.497027,36.780396],[37.49836,36.777921],[37.499883,36.775161],[37.501596,36.772401],[37.503214,36.767547],[37.504261,36.763645],[37.504261,36.760218],[37.50369,36.756982],[37.502928,36.754032],[37.502833,36.750605],[37.50388,36.746988],[37.505118,36.744514],[37.508639,36.741849],[37.510352,36.741087],[37.513398,36.740802],[37.516063,36.740135],[37.518157,36.739184],[37.520061,36.737946],[37.521583,36.73709],[37.524724,36.736709],[37.52796,36.736709],[37.532053,36.736519],[37.535099,36.735472],[37.539953,36.733378],[37.542903,36.731474],[37.545188,36.729856],[37.5489,36.727857],[37.552516,36.724526],[37.555752,36.720338],[37.558671,36.716246],[37.562986,36.710535],[37.564763,36.707362],[37.567072,36.703011],[37.567045,36.702998]]]}},{"type":"Feature","properties":{"id":"TR-D-79-002","parent_id":"TR-P-79","region_id":"TR-R-GDA","level":"district","municipality_type":null,"municipality_type_label":null,"is_metropolitan_municipality":null,"name":"Kilis","name_ascii":"kilis","slug":"kilis-kilis"},"geometry":{"type":"Polygon","coordinates":[[[37.348644,36.657869],[37.346951,36.658213],[37.343699,36.658708],[37.341394,36.659061],[37.339725,36.659302],[37.339341,36.659345],[37.336247,36.659698],[37.324248,36.661885],[37.322275,36.662337],[37.320523,36.662738],[37.316304,36.663644],[37.312893,36.664216],[37.307131,36.665233],[37.305134,36.665609],[37.302881,36.666034],[37.298532,36.666809],[37.293857,36.667709],[37.292182,36.668134],[37.290506,36.668604],[37.290133,36.668709],[37.288008,36.669284],[37.286989,36.669442],[37.283508,36.669984],[37.281042,36.670527],[37.279309,36.670909],[37.279409,36.669059],[37.279677,36.666602],[37.279734,36.666084],[37.279359,36.665359],[37.279159,36.664659],[37.279409,36.663985],[37.279084,36.663785],[37.278009,36.664034],[37.277483,36.664054],[37.276634,36.664085],[37.274554,36.663784],[37.27421,36.663735],[37.272935,36.663635],[37.27191,36.664435],[37.271073,36.665186],[37.270185,36.665984],[37.269144,36.6663],[37.267386,36.666834],[37.265086,36.667384],[37.263986,36.667509],[37.261311,36.667659],[37.260286,36.667884],[37.257112,36.668759],[37.255163,36.669425],[37.255137,36.669434],[37.255046,36.66944],[37.253637,36.669534],[37.252755,36.669685],[37.250713,36.670034],[37.249122,36.670045],[37.247188,36.670059],[37.245096,36.670275],[37.239877,36.670039],[37.239494,36.670148],[37.239074,36.67044],[37.238342,36.670842],[37.237634,36.67129],[37.235556,36.671385],[37.234564,36.671314],[37.233572,36.671125],[37.232249,36.671715],[37.231234,36.672022],[37.230738,36.672046],[37.230195,36.671597],[37.229534,36.67129],[37.22781,36.671361],[37.226653,36.671645],[37.225708,36.672022],[37.225495,36.672707],[37.225236,36.672825],[37.224763,36.672377],[37.224126,36.671833],[37.222307,36.672589],[37.221764,36.673109],[37.221032,36.673227],[37.219403,36.674124],[37.21749,36.674478],[37.217414,36.674492],[37.215766,36.674785],[37.214976,36.674435],[37.212625,36.673392],[37.211893,36.672873],[37.210051,36.672849],[37.209099,36.672645],[37.207737,36.672353],[37.206505,36.671697],[37.203793,36.670251],[37.201171,36.669023],[37.196543,36.667724],[37.195348,36.667422],[37.194488,36.667205],[37.189033,36.665434],[37.187687,36.66508],[37.185136,36.663498],[37.18346,36.662458],[37.180343,36.659955],[37.179493,36.659577],[37.178501,36.659506],[37.174391,36.658798],[37.17289,36.658597],[37.171038,36.658349],[37.167661,36.657499],[37.164945,36.656342],[37.163828,36.655806],[37.163174,36.655492],[37.162513,36.655539],[37.161994,36.65587],[37.161793,36.656106],[37.160388,36.657759],[37.158168,36.660711],[37.155942,36.660186],[37.155665,36.66012],[37.154903,36.661368],[37.153445,36.663757],[37.153091,36.664631],[37.152242,36.664723],[37.152217,36.664725],[37.149005,36.668173],[37.146266,36.670299],[37.145104,36.672036],[37.145027,36.672168],[37.142125,36.677156],[37.140216,36.675622],[37.137859,36.673345],[37.137518,36.673105],[37.137056,36.672778],[37.133584,36.670629],[37.133142,36.670381],[37.129806,36.668504],[37.127161,36.666804],[37.126853,36.66663],[37.125106,36.665646],[37.123548,36.665977],[37.122013,36.666473],[37.120478,36.667158],[37.119082,36.668441],[37.118423,36.669047],[37.118069,36.669299],[37.11736,36.669803],[37.116912,36.670063],[37.116321,36.670228],[37.115381,36.671105],[37.114196,36.672212],[37.112473,36.671915],[37.112141,36.671857],[37.110465,36.671975],[37.108207,36.671915],[37.106025,36.671857],[37.105765,36.671669],[37.10514,36.668829],[37.104726,36.666945],[37.104485,36.666108],[37.103734,36.663498],[37.102729,36.659266],[37.102719,36.659223],[37.102678,36.659101],[37.09943,36.649354],[37.099191,36.648637],[37.098514,36.647913],[37.096281,36.645527],[37.089383,36.637991],[37.087146,36.635478],[37.086791,36.635081],[37.086074,36.634243],[37.082485,36.635439],[37.080485,36.636281],[37.078259,36.637218],[37.077701,36.637365],[37.076385,36.637712],[37.074916,36.638436],[37.074433,36.638675],[37.073938,36.63881],[37.073741,36.638863],[37.0735,36.638977],[37.072003,36.63968],[37.071018,36.640267],[37.06643,36.641922],[37.062303,36.643451],[37.060962,36.643786],[37.059998,36.644184],[37.059433,36.644373],[37.057421,36.645043],[37.05696,36.645337],[37.057107,36.647243],[37.057109,36.647286],[37.057294,36.651182],[37.057379,36.652397],[37.057526,36.653947],[37.057484,36.65489],[37.055976,36.655665],[37.054258,36.656336],[37.053106,36.656252],[37.05254,36.656252],[37.050487,36.657236],[37.048001,36.658424],[37.047386,36.65862],[37.046339,36.658954],[37.045831,36.659307],[37.045584,36.659478],[37.044788,36.65996],[37.043934,36.660144],[37.04372,36.66019],[37.041783,36.660984],[37.041415,36.661196],[37.040724,36.66151],[37.039995,36.661805],[37.039739,36.661908],[37.038189,36.662956],[37.035968,36.664757],[37.02895,36.665344],[37.025535,36.665197],[37.022016,36.665114],[37.021779,36.665072],[37.020947,36.664925],[37.020696,36.665218],[37.019879,36.66725],[37.019816,36.66769],[37.020109,36.669681],[37.020269,36.670437],[37.020423,36.671168],[37.020612,36.672844],[37.020549,36.674415],[37.019565,36.682356],[37.01946,36.683047],[37.018617,36.683573],[37.016736,36.684786],[37.014998,36.685058],[37.014618,36.68513],[37.012567,36.685519],[37.012421,36.68577],[37.013049,36.686608],[37.013258,36.686791],[37.013887,36.687342],[37.014977,36.688452],[37.016296,36.689835],[37.018391,36.691825],[37.01858,36.692454],[37.018182,36.693292],[37.01793,36.694968],[37.017993,36.695261],[37.018606,36.696121],[37.019292,36.697083],[37.020591,36.697796],[37.022267,36.69855],[37.022938,36.698718],[37.024339,36.698725],[37.027065,36.698739],[37.030899,36.698718],[37.031779,36.698885],[37.033287,36.698969],[37.03473,36.700108],[37.035173,36.700456],[37.036702,36.701462],[37.036854,36.701541],[37.037351,36.701797],[37.037445,36.701957],[37.037561,36.702153],[37.039551,36.70362],[37.040086,36.704007],[37.040913,36.704605],[37.040895,36.704905],[37.040892,36.704961],[37.040557,36.705547],[37.040494,36.705904],[37.042023,36.708418],[37.041835,36.709737],[37.041918,36.710177],[37.042484,36.710596],[37.043322,36.711015],[37.044223,36.714388],[37.045019,36.714535],[37.045491,36.714674],[37.046444,36.714954],[37.046392,36.71667],[37.046381,36.71705],[37.046611,36.717657],[37.046884,36.718264],[37.047219,36.719081],[37.048036,36.720401],[37.049544,36.723711],[37.049652,36.723891],[37.050445,36.72522],[37.05034,36.72568],[37.049832,36.725975],[37.049146,36.726372],[37.047638,36.726833],[37.046863,36.72677],[37.046611,36.727231],[37.04592,36.728153],[37.044663,36.730143],[37.04372,36.733034],[37.043448,36.733432],[37.043008,36.73383],[37.042275,36.734207],[37.041535,36.735107],[37.040767,36.73578],[37.040745,36.735799],[37.039616,36.736589],[37.039152,36.736657],[37.038638,36.736802],[37.037718,36.736899],[37.03734,36.736919],[37.035877,36.737199],[37.035122,36.737161],[37.035112,36.737161],[37.035099,36.737164],[37.034434,36.737316],[37.032768,36.737403],[37.032158,36.737316],[37.031972,36.737239],[37.031547,36.737064],[37.030792,36.737171],[37.030625,36.737205],[37.030327,36.737267],[37.030182,36.737219],[37.030161,36.737194],[37.030027,36.737025],[37.029881,36.736948],[37.029436,36.736909],[37.028583,36.736696],[37.027934,36.736967],[37.027266,36.736754],[37.026733,36.736977],[37.026423,36.736977],[37.025786,36.737083],[37.025536,36.737125],[37.025125,36.737103],[37.024939,36.737062],[37.024815,36.737035],[37.024428,36.736919],[37.024206,36.737044],[37.023827,36.737258],[37.023546,36.737316],[37.023081,36.737271],[37.022669,36.737393],[37.021785,36.737378],[37.021313,36.737332],[37.021039,36.73718],[37.020734,36.737073],[37.02049,36.737149],[37.020322,36.737363],[37.020109,36.737515],[37.019591,36.736974],[37.019438,36.736814],[37.019149,36.736753],[37.018933,36.736968],[37.018905,36.736997],[37.018798,36.737408],[37.018326,36.737576],[37.018021,36.737546],[37.017808,36.737347],[37.017564,36.736997],[37.017471,36.73697],[37.017198,36.73689],[37.016909,36.736936],[37.016832,36.73698],[37.016619,36.737103],[37.016238,36.737286],[37.015949,36.737256],[37.015639,36.737024],[37.015522,36.736936],[37.015141,36.736829],[37.014948,36.737052],[37.014851,36.737164],[37.014668,36.737241],[37.014394,36.737241],[37.014013,36.73718],[37.013852,36.737115],[37.013708,36.737058],[37.01361,36.737129],[37.013266,36.737378],[37.013099,36.737408],[37.012428,36.737332],[37.011864,36.737378],[37.011738,36.737289],[37.011712,36.737271],[37.011361,36.737332],[37.011357,36.737337],[37.011209,36.737485],[37.010752,36.737652],[37.010371,36.737606],[37.009548,36.737911],[37.008984,36.737896],[37.00874,36.738231],[37.008422,36.738441],[37.008059,36.738513],[37.007279,36.738604],[37.006662,36.738804],[37.005664,36.739076],[37.005101,36.73913],[37.003505,36.739258],[37.00267,36.739784],[37.002143,36.739947],[37.00169,36.739893],[37.001207,36.739649],[37.000419,36.739711],[36.999821,36.739947],[36.999403,36.741417],[36.997972,36.746517],[36.999512,36.748785],[36.999331,36.749856],[36.999548,36.750146],[36.999784,36.750527],[36.999748,36.750926],[36.999331,36.751308],[36.999222,36.751689],[36.998931,36.751979],[36.998206,36.752178],[36.997008,36.752578],[36.996645,36.752505],[36.996282,36.752814],[36.996082,36.75314],[36.996155,36.753413],[36.996209,36.75412],[36.996137,36.75481],[36.996191,36.75579],[36.996137,36.757096],[36.995828,36.757514],[36.994866,36.758113],[36.994235,36.758332],[36.994032,36.758403],[36.993524,36.758821],[36.993542,36.759329],[36.994299,36.759775],[36.994558,36.759928],[36.995828,36.760526],[36.996554,36.761706],[36.997371,36.762559],[36.997625,36.763521],[36.997552,36.764283],[36.995647,36.764519],[36.99405,36.76461],[36.993197,36.764247],[36.992181,36.763974],[36.990311,36.763666],[36.989676,36.763448],[36.989114,36.763212],[36.984507,36.76176],[36.98445,36.761742],[36.984422,36.761749],[36.983597,36.761942],[36.982399,36.761833],[36.981183,36.761633],[36.979986,36.762341],[36.978243,36.762232],[36.976955,36.762269],[36.976501,36.762359],[36.974995,36.762849],[36.973307,36.763049],[36.972491,36.763031],[36.971993,36.763162],[36.971801,36.763212],[36.971752,36.76323],[36.969261,36.76412],[36.968408,36.764519],[36.966665,36.765553],[36.963798,36.766914],[36.96231,36.767822],[36.958354,36.76931],[36.956707,36.769647],[36.956049,36.769782],[36.955541,36.769981],[36.955233,36.770258],[36.954488,36.770925],[36.951821,36.772558],[36.946812,36.775625],[36.945977,36.776442],[36.945868,36.776841],[36.945669,36.77695],[36.945524,36.776533],[36.945288,36.776188],[36.942493,36.774591],[36.941477,36.774046],[36.940914,36.773992],[36.940424,36.774282],[36.940007,36.774555],[36.939735,36.774845],[36.939481,36.775026],[36.938737,36.775226],[36.938192,36.775135],[36.937781,36.774945],[36.937448,36.774791],[36.936141,36.774137],[36.935651,36.773919],[36.935143,36.773756],[36.934563,36.773538],[36.933928,36.773484],[36.933383,36.773738],[36.932984,36.774137],[36.932893,36.774827],[36.932657,36.775571],[36.932748,36.77597],[36.933075,36.776406],[36.933674,36.777023],[36.934005,36.777405],[36.934145,36.777567],[36.934781,36.778529],[36.934799,36.778964],[36.934635,36.7794],[36.934327,36.779636],[36.934036,36.779745],[36.933528,36.780035],[36.93253,36.780126],[36.931804,36.780017],[36.931097,36.780103],[36.93106,36.780108],[36.930679,36.779709],[36.930461,36.779091],[36.929935,36.778366],[36.929645,36.778329],[36.929245,36.778384],[36.928647,36.778529],[36.928447,36.77871],[36.928701,36.779146],[36.928901,36.780416],[36.928883,36.781324],[36.928756,36.781959],[36.928502,36.782249],[36.927939,36.782558],[36.927358,36.782848],[36.926342,36.783138],[36.925852,36.783084],[36.92538,36.783193],[36.924781,36.783701],[36.924545,36.784082],[36.924654,36.784391],[36.924582,36.784735],[36.924201,36.785472],[36.923985,36.78589],[36.923656,36.785963],[36.92342,36.785837],[36.921942,36.785051],[36.921104,36.784796],[36.91999,36.784772],[36.916472,36.784468],[36.913955,36.783592],[36.912971,36.783009],[36.911345,36.782474],[36.910308,36.782134],[36.907427,36.7798],[36.907222,36.779553],[36.906698,36.778924],[36.905566,36.778551],[36.902832,36.777648],[36.900024,36.777064],[36.897265,36.776963],[36.897033,36.776955],[36.896816,36.776984],[36.895939,36.777101],[36.894845,36.777465],[36.89376,36.777298],[36.893423,36.777247],[36.893018,36.7774],[36.891599,36.777939],[36.89025,36.778705],[36.888779,36.778606],[36.887843,36.77856],[36.886858,36.778851],[36.883021,36.778952],[36.8827,36.778961],[36.880085,36.779511],[36.876464,36.780274],[36.871504,36.781733],[36.870446,36.781878],[36.868841,36.782024],[36.866544,36.782535],[36.865169,36.782764],[36.864137,36.782936],[36.863231,36.783261],[36.862714,36.783447],[36.860745,36.783994],[36.859525,36.784278],[36.855894,36.785124],[36.848786,36.787184],[36.839026,36.789869],[36.833543,36.791574],[36.832881,36.79178],[36.832271,36.791842],[36.82529,36.792555],[36.819093,36.793226],[36.816098,36.793381],[36.812205,36.793649],[36.809726,36.79385],[36.808535,36.793838],[36.80761,36.793998],[36.807113,36.794326],[36.80624,36.794816],[36.806176,36.794848],[36.805635,36.795119],[36.804994,36.79535],[36.803874,36.795368],[36.802672,36.795353],[36.80245,36.79535],[36.801187,36.795404],[36.799782,36.795635],[36.798465,36.795831],[36.79722,36.796008],[36.793074,36.796916],[36.789232,36.797628],[36.787808,36.79809],[36.785264,36.798784],[36.782311,36.800047],[36.780283,36.801221],[36.779286,36.801666],[36.776952,36.803059],[36.776155,36.803534],[36.775865,36.803631],[36.775408,36.803783],[36.773914,36.804584],[36.77185,36.805669],[36.770416,36.806499],[36.768345,36.807697],[36.766637,36.808605],[36.766478,36.808593],[36.766157,36.808569],[36.76251,36.810846],[36.762011,36.810971],[36.761602,36.811273],[36.761211,36.811931],[36.761157,36.811977],[36.760766,36.812305],[36.760229,36.812651],[36.760019,36.812785],[36.759343,36.81307],[36.755964,36.815751],[36.753917,36.817376],[36.752956,36.818461],[36.752333,36.818674],[36.747476,36.82008],[36.746569,36.820453],[36.745715,36.820525],[36.744843,36.820276],[36.743743,36.819738],[36.742548,36.819155],[36.741089,36.818977],[36.739898,36.818925],[36.739221,36.818995],[36.738812,36.819333],[36.738545,36.819653],[36.737816,36.820009],[36.737772,36.820017],[36.736837,36.820204],[36.735954,36.82024],[36.735715,36.820227],[36.735628,36.820222],[36.735165,36.820222],[36.734667,36.820169],[36.733902,36.820436],[36.733796,36.820463],[36.732603,36.820774],[36.730806,36.821236],[36.730092,36.821042],[36.729365,36.820845],[36.72796,36.821325],[36.726483,36.822357],[36.726181,36.822731],[36.726412,36.822998],[36.726412,36.823329],[36.726412,36.823976],[36.726003,36.824368],[36.725291,36.824526],[36.725202,36.824545],[36.725102,36.824657],[36.7249,36.824883],[36.724489,36.825009],[36.722925,36.825488],[36.720932,36.825684],[36.720185,36.826164],[36.719509,36.826271],[36.719029,36.826253],[36.718406,36.826093],[36.718215,36.826083],[36.717904,36.826116],[36.717454,36.826741],[36.717129,36.827465],[36.716753,36.827535],[36.716898,36.827535],[36.717895,36.828676],[36.718747,36.830337],[36.719152,36.831338],[36.719663,36.832872],[36.719769,36.833916],[36.719812,36.835343],[36.719833,36.836515],[36.719769,36.837538],[36.718853,36.839476],[36.717724,36.842267],[36.716872,36.844099],[36.716127,36.845164],[36.714998,36.846123],[36.714188,36.846719],[36.71405,36.846964],[36.713911,36.847209],[36.713719,36.848573],[36.713613,36.849744],[36.713687,36.850011],[36.713762,36.850277],[36.714572,36.850852],[36.715424,36.851449],[36.716169,36.85294],[36.71651,36.854559],[36.717064,36.855496],[36.718449,36.856753],[36.719301,36.857349],[36.722539,36.858613],[36.725749,36.859835],[36.727737,36.86063],[36.730322,36.862022],[36.732821,36.864124],[36.735548,36.866396],[36.736798,36.867589],[36.739269,36.86918],[36.741229,36.870231],[36.743302,36.870628],[36.744183,36.870799],[36.745887,36.871168],[36.74756,36.871726],[36.750703,36.86953],[36.752988,36.867436],[36.755938,36.863533],[36.759174,36.859631],[36.762601,36.857537],[36.763426,36.857061],[36.765075,36.85611],[36.76755,36.854396],[36.769929,36.851826],[36.771833,36.848686],[36.773356,36.847068],[36.773813,36.846896],[36.77564,36.846211],[36.779923,36.845259],[36.785158,36.844498],[36.788775,36.844688],[36.792582,36.845259],[36.794866,36.846116],[36.796865,36.847163],[36.798626,36.847781],[36.800386,36.8484],[36.801624,36.848733],[36.802861,36.849066],[36.806097,36.850304],[36.810095,36.850684],[36.814663,36.851065],[36.816376,36.851065],[36.817899,36.850732],[36.819422,36.850399],[36.82181,36.849642],[36.823324,36.849161],[36.824728,36.848614],[36.827227,36.847639],[36.828417,36.84683],[36.829606,36.846021],[36.830273,36.845069],[36.830273,36.843641],[36.830463,36.839834],[36.830844,36.838121],[36.831319,36.836027],[36.832747,36.833267],[36.834841,36.831078],[36.837411,36.829174],[36.838648,36.827842],[36.840552,36.824796],[36.841979,36.822131],[36.844073,36.820037],[36.846738,36.817467],[36.849784,36.815944],[36.85283,36.815183],[36.853096,36.815202],[36.856827,36.815468],[36.859587,36.81623],[36.862348,36.817182],[36.867202,36.817943],[36.870819,36.818324],[36.871152,36.818383],[36.87453,36.81899],[36.876572,36.819856],[36.877671,36.820322],[36.878814,36.820703],[36.880527,36.821274],[36.882335,36.821274],[36.886527,36.821365],[36.886713,36.821369],[36.89052,36.821369],[36.8929,36.821465],[36.895089,36.822226],[36.89823,36.823463],[36.900499,36.82424],[36.901847,36.824701],[36.904226,36.825462],[36.907082,36.826128],[36.909651,36.826795],[36.911936,36.827461],[36.912482,36.827962],[36.913078,36.828508],[36.913292,36.8289],[36.913649,36.829555],[36.914125,36.830792],[36.914696,36.831839],[36.916409,36.832696],[36.918313,36.833013],[36.918693,36.833076],[36.922025,36.833076],[36.922291,36.833114],[36.926022,36.833647],[36.9304,36.834599],[36.936587,36.836027],[36.942964,36.83755],[36.947532,36.839168],[36.950673,36.840405],[36.953909,36.840881],[36.958192,36.841452],[36.961048,36.841357],[36.966187,36.841833],[36.969994,36.842785],[36.973611,36.843451],[36.975134,36.844212],[36.97561,36.844589],[36.977418,36.846021],[36.978656,36.847924],[36.979703,36.849542],[36.98075,36.850684],[36.982653,36.851922],[36.984557,36.852969],[36.985239,36.853424],[36.985751,36.853765],[36.988248,36.852168],[36.989845,36.851146],[36.991368,36.850543],[36.994414,36.849337],[36.99765,36.847338],[36.999744,36.84572],[36.999909,36.844829],[37.000219,36.843151],[37.001647,36.838868],[37.00336,36.836107],[37.005169,36.832205],[37.009928,36.82659],[37.013735,36.822973],[37.01678,36.819927],[37.019541,36.816025],[37.022777,36.811932],[37.025347,36.808125],[37.028583,36.804794],[37.033342,36.802319],[37.041051,36.800891],[37.043811,36.800416],[37.047809,36.799178],[37.05114,36.797751],[37.054683,36.796449],[37.055804,36.796037],[37.057984,36.795553],[37.05923,36.795276],[37.062752,36.79499],[37.067001,36.794797],[37.069033,36.794705],[37.070315,36.794857],[37.073031,36.795181],[37.079598,36.795752],[37.085499,36.795657],[37.091591,36.795847],[37.097777,36.795561],[37.103774,36.795276],[37.107486,36.794419],[37.111864,36.792516],[37.116337,36.790231],[37.121477,36.787566],[37.124332,36.786044],[37.127663,36.785282],[37.133945,36.784616],[37.143844,36.784045],[37.154789,36.783759],[37.161424,36.784454],[37.162975,36.784616],[37.164909,36.785157],[37.171826,36.787091],[37.180522,36.789721],[37.183152,36.790517],[37.186293,36.791945],[37.191147,36.795276],[37.193717,36.796704],[37.196477,36.797751],[37.199333,36.798512],[37.207708,36.800796],[37.216465,36.802795],[37.219511,36.802985],[37.222556,36.803176],[37.222764,36.803156],[37.227506,36.8027],[37.233026,36.803366],[37.235786,36.804413],[37.23807,36.806317],[37.239879,36.809838],[37.240321,36.811238],[37.241021,36.813455],[37.241211,36.818024],[37.241179,36.818436],[37.240355,36.828874],[37.239688,36.834585],[37.238832,36.841247],[37.239022,36.843627],[37.239718,36.845483],[37.239879,36.845911],[37.240783,36.846815],[37.241687,36.847719],[37.243971,36.849623],[37.244375,36.849764],[37.245875,36.850289],[37.250158,36.851146],[37.255774,36.853144],[37.25827,36.854424],[37.259485,36.855048],[37.263864,36.858284],[37.266719,36.860378],[37.268718,36.862377],[37.271144,36.865778],[37.272882,36.86539],[37.274232,36.865087],[37.277546,36.864343],[37.281924,36.863582],[37.284073,36.863113],[37.287159,36.86244],[37.291537,36.861202],[37.296582,36.859109],[37.300579,36.855872],[37.301119,36.855206],[37.303434,36.852351],[37.305814,36.847782],[37.307527,36.845212],[37.309145,36.841786],[37.310858,36.836456],[37.312191,36.832459],[37.312476,36.828366],[37.312218,36.827007],[37.312096,36.826367],[37.310324,36.823951],[37.310002,36.823512],[37.306099,36.817135],[37.30353,36.812757],[37.300103,36.807331],[37.298086,36.804666],[37.297438,36.80381],[37.29661,36.802477],[37.295249,36.800288],[37.294297,36.797243],[37.294295,36.797194],[37.294202,36.794768],[37.294488,36.791627],[37.296011,36.788296],[37.298485,36.784203],[37.30082,36.780846],[37.301531,36.779825],[37.305624,36.775827],[37.307527,36.775161],[37.30924,36.774019],[37.31162,36.772211],[37.313619,36.76907],[37.31438,36.766532],[37.314761,36.765263],[37.315081,36.764069],[37.315808,36.76136],[37.317806,36.755745],[37.319995,36.752889],[37.322089,36.751367],[37.330846,36.747179],[37.337032,36.74537],[37.34122,36.744418],[37.345979,36.742515],[37.350928,36.739755],[37.353498,36.737756],[37.355783,36.734996],[37.358638,36.731665],[37.357296,36.724829],[37.355773,36.718643],[37.354726,36.707507],[37.353393,36.702748],[37.350919,36.696371],[37.345208,36.690565],[37.341591,36.686472],[37.340164,36.682856],[37.339973,36.680191],[37.341782,36.673243],[37.344352,36.670007],[37.346921,36.665248],[37.348644,36.657869]]]}},{"type":"Feature","properties":{"id":"TR-D-79-003","parent_id":"TR-P-79","region_id":"TR-R-GDA","level":"district","municipality_type":null,"municipality_type_label":null,"is_metropolitan_municipality":null,"name":"Musabeyli","name_ascii":"musabeyli","slug":"musabeyli-kilis"},"geometry":{"type":"Polygon","coordinates":[[[36.958365,37.014946],[36.960183,37.01516],[36.962136,37.015901],[36.964559,37.01691],[36.966849,37.018526],[36.968263,37.019132],[36.970686,37.019469],[36.972504,37.0192],[36.97386,37.019075],[36.977734,37.019865],[36.979446,37.020047],[36.982517,37.019745],[36.984238,37.020175],[36.985815,37.020677],[36.98725,37.020892],[36.989329,37.020749],[36.991122,37.018956],[36.994277,37.018454],[36.995855,37.018454],[36.997289,37.018239],[36.99901,37.017163],[37.001592,37.017737],[37.003958,37.01702],[37.00532,37.015514],[37.005392,37.013578],[37.005034,37.011641],[37.005392,37.010064],[37.006468,37.009203],[37.008332,37.008199],[37.008978,37.007482],[37.009121,37.005618],[37.009766,37.004614],[37.010161,37.004578],[37.010555,37.004542],[37.012205,37.003897],[37.013495,37.002893],[37.015503,37.00153],[37.016722,37.0011],[37.017439,37.000455],[37.017511,36.999738],[37.016937,36.998662],[37.016794,36.997443],[37.017224,36.995937],[37.018085,36.995292],[37.018892,36.99511],[37.022753,36.994547],[37.029796,36.994833],[37.035507,36.995404],[37.040076,36.99569],[37.043217,36.99569],[37.048737,36.995118],[37.055685,36.99312],[37.060539,36.991216],[37.06349,36.989503],[37.064537,36.98817],[37.065393,36.985886],[37.065869,36.983316],[37.066345,36.979033],[37.066821,36.970182],[37.067011,36.964566],[37.067202,36.961521],[37.067202,36.958284],[37.066535,36.955619],[37.065298,36.95343],[37.064061,36.95067],[37.063775,36.946006],[37.064727,36.941247],[37.066059,36.937631],[37.068439,36.93449],[37.072056,36.931159],[37.076434,36.928874],[37.077957,36.928018],[37.080051,36.926019],[37.081383,36.923639],[37.08224,36.920974],[37.082716,36.918881],[37.083572,36.917453],[37.085571,36.915169],[37.089188,36.912884],[37.0929,36.911266],[37.094902,36.91096],[37.090776,36.903604],[37.088206,36.899035],[37.085541,36.895323],[37.080973,36.891516],[37.076214,36.88847],[37.073929,36.887328],[37.070788,36.885044],[37.066981,36.881903],[37.059653,36.876573],[37.054132,36.872766],[37.049564,36.870672],[37.045566,36.869054],[37.041283,36.868768],[37.039951,36.869054],[37.037857,36.870196],[37.036239,36.870481],[37.032432,36.869815],[37.030338,36.868863],[37.026435,36.867055],[37.02358,36.866103],[37.021105,36.865342],[37.019107,36.864866],[37.016917,36.86439],[37.015299,36.863533],[37.013777,36.863153],[37.011968,36.863153],[37.01054,36.863343],[37.008256,36.863819],[37.006353,36.8642],[37.003878,36.864105],[37.001403,36.863914],[36.997882,36.862582],[36.995026,36.861059],[36.991695,36.85925],[36.988174,36.856205],[36.98627,36.854111],[36.985751,36.853765],[36.985239,36.853424],[36.984557,36.852969],[36.982653,36.851922],[36.98075,36.850684],[36.979703,36.849542],[36.978656,36.847924],[36.977418,36.846021],[36.97561,36.844589],[36.975134,36.844212],[36.973611,36.843451],[36.969994,36.842785],[36.966187,36.841833],[36.961048,36.841357],[36.958192,36.841452],[36.953909,36.840881],[36.950673,36.840405],[36.947532,36.839168],[36.942964,36.83755],[36.936587,36.836027],[36.9304,36.834599],[36.926022,36.833647],[36.922291,36.833114],[36.922025,36.833076],[36.918693,36.833076],[36.918313,36.833013],[36.916409,36.832696],[36.914696,36.831839],[36.914125,36.830792],[36.913649,36.829555],[36.913292,36.8289],[36.913078,36.828508],[36.912482,36.827962],[36.911936,36.827461],[36.909651,36.826795],[36.907082,36.826128],[36.904226,36.825462],[36.901847,36.824701],[36.900499,36.82424],[36.89823,36.823463],[36.895089,36.822226],[36.8929,36.821465],[36.89052,36.821369],[36.886713,36.821369],[36.886527,36.821365],[36.882335,36.821274],[36.880527,36.821274],[36.878814,36.820703],[36.877671,36.820322],[36.876572,36.819856],[36.87453,36.81899],[36.871152,36.818383],[36.870819,36.818324],[36.867202,36.817943],[36.862348,36.817182],[36.859587,36.81623],[36.856827,36.815468],[36.853096,36.815202],[36.85283,36.815183],[36.849784,36.815944],[36.846738,36.817467],[36.844073,36.820037],[36.841979,36.822131],[36.840552,36.824796],[36.838648,36.827842],[36.837411,36.829174],[36.834841,36.831078],[36.832747,36.833267],[36.831319,36.836027],[36.830844,36.838121],[36.830463,36.839834],[36.830273,36.843641],[36.830273,36.845069],[36.829606,36.846021],[36.828417,36.84683],[36.827227,36.847639],[36.824728,36.848614],[36.823324,36.849161],[36.82181,36.849642],[36.819422,36.850399],[36.817899,36.850732],[36.816376,36.851065],[36.814663,36.851065],[36.810095,36.850684],[36.806097,36.850304],[36.802861,36.849066],[36.801624,36.848733],[36.800386,36.8484],[36.798626,36.847781],[36.796865,36.847163],[36.794866,36.846116],[36.792582,36.845259],[36.788775,36.844688],[36.785158,36.844498],[36.779923,36.845259],[36.77564,36.846211],[36.773813,36.846896],[36.773356,36.847068],[36.771833,36.848686],[36.769929,36.851826],[36.76755,36.854396],[36.765075,36.85611],[36.763426,36.857061],[36.762601,36.857537],[36.759174,36.859631],[36.755938,36.863533],[36.752988,36.867436],[36.750703,36.86953],[36.74756,36.871726],[36.747741,36.871786],[36.747861,36.871826],[36.748103,36.871907],[36.750091,36.873128],[36.75171,36.874406],[36.752392,36.875003],[36.752846,36.8754],[36.753434,36.875784],[36.755374,36.877048],[36.760089,36.880513],[36.765259,36.884575],[36.771195,36.889432],[36.772201,36.89026],[36.773609,36.89142],[36.774859,36.892698],[36.776081,36.896022],[36.776705,36.897584],[36.777614,36.900055],[36.778126,36.901106],[36.779208,36.903544],[36.78077,36.907065],[36.783447,36.915447],[36.7838,36.918527],[36.785063,36.921052],[36.786325,36.921708],[36.793041,36.922971],[36.798242,36.923324],[36.804453,36.921961],[36.808442,36.921102],[36.811573,36.9209],[36.814754,36.920496],[36.815966,36.91984],[36.819349,36.917315],[36.822733,36.913882],[36.825409,36.909539],[36.826065,36.908882],[36.828287,36.908125],[36.831216,36.90767],[36.834448,36.907418],[36.836316,36.907065],[36.838992,36.906206],[36.840602,36.905133],[36.841568,36.904489],[36.842402,36.903836],[36.843891,36.902671],[36.845658,36.901207],[36.849243,36.899288],[36.852525,36.897521],[36.856616,36.895551],[36.857626,36.895299],[36.860655,36.895753],[36.86392,36.896324],[36.867876,36.897016],[36.871416,36.897551],[36.873885,36.897925],[36.877016,36.898733],[36.879187,36.899591],[36.880096,36.899995],[36.88045,36.900702],[36.881106,36.901005],[36.88146,36.90103],[36.881813,36.901055],[36.883429,36.901308],[36.884186,36.901863],[36.884742,36.902924],[36.884773,36.903361],[36.884792,36.903631],[36.884775,36.90369],[36.884717,36.903883],[36.884641,36.904136],[36.884136,36.904742],[36.882621,36.905701],[36.881965,36.906257],[36.881864,36.906484],[36.881763,36.906711],[36.881965,36.907115],[36.882015,36.907216],[36.882217,36.907342],[36.882419,36.907468],[36.883126,36.907595],[36.883833,36.907721],[36.884085,36.907818],[36.884489,36.907973],[36.88459,36.908251],[36.884691,36.908529],[36.884691,36.908716],[36.884691,36.909135],[36.884789,36.909315],[36.884843,36.909413],[36.884994,36.90969],[36.885802,36.909943],[36.886257,36.910125],[36.88656,36.910246],[36.887216,36.910751],[36.887772,36.911609],[36.887885,36.911723],[36.887999,36.911836],[36.888226,36.912064],[36.888984,36.91272],[36.889287,36.913629],[36.890397,36.915396],[36.891458,36.917113],[36.892518,36.920295],[36.893629,36.921809],[36.894071,36.922276],[36.894538,36.922769],[36.896205,36.926203],[36.897265,36.928576],[36.898074,36.92933],[36.899487,36.930646],[36.900938,36.9329],[36.901406,36.933625],[36.901583,36.934258],[36.90186,36.935241],[36.902163,36.938423],[36.90287,36.939837],[36.905294,36.942917],[36.908475,36.946855],[36.911404,36.949633],[36.912261,36.950135],[36.914333,36.95135],[36.91605,36.952107],[36.917107,36.952416],[36.918473,36.952814],[36.919157,36.953125],[36.919584,36.953319],[36.920069,36.953965],[36.92019,36.954127],[36.920392,36.954935],[36.920493,36.955339],[36.920539,36.955591],[36.920998,36.958116],[36.922026,36.961499],[36.92221,36.962105],[36.922975,36.963511],[36.924381,36.966095],[36.925795,36.968417],[36.927563,36.970841],[36.928078,36.971599],[36.929179,36.973214],[36.930087,36.974931],[36.93052,36.977552],[36.930626,36.978197],[36.930963,36.980284],[36.932781,36.983314],[36.934166,36.985045],[36.935204,36.986343],[36.935967,36.987107],[36.937494,36.988633],[36.938975,36.991932],[36.939581,36.994692],[36.940254,36.99853],[36.940793,37.00129],[36.941146,37.002115],[36.941803,37.003647],[36.944496,37.007821],[36.94665,37.010649],[36.948603,37.012938],[36.95143,37.013881],[36.954004,37.014546],[36.955336,37.014891],[36.957894,37.014891],[36.958142,37.01492],[36.958208,37.014928],[36.958226,37.01493],[36.958365,37.014946]]]}},{"type":"Feature","properties":{"id":"TR-D-79-004","parent_id":"TR-P-79","region_id":"TR-R-GDA","level":"district","municipality_type":null,"municipality_type_label":null,"is_metropolitan_municipality":null,"name":"Polateli","name_ascii":"polateli","slug":"polateli-kilis"},"geometry":{"type":"Polygon","coordinates":[[[37.094902,36.91096],[37.099753,36.910219],[37.107748,36.9106],[37.11717,36.910981],[37.121644,36.910886],[37.125736,36.909648],[37.1304,36.907364],[37.136016,36.904128],[37.141536,36.900321],[37.147247,36.896038],[37.152291,36.893182],[37.160001,36.890517],[37.168757,36.888043],[37.174848,36.88652],[37.184271,36.884902],[37.187888,36.884807],[37.192171,36.885854],[37.196549,36.887186],[37.200166,36.887757],[37.203402,36.887852],[37.207495,36.887186],[37.212729,36.884902],[37.220915,36.881761],[37.227006,36.878049],[37.232051,36.87586],[37.238428,36.873766],[37.246898,36.871291],[37.261366,36.86796],[37.271144,36.865778],[37.268718,36.862377],[37.266719,36.860378],[37.263864,36.858284],[37.259485,36.855048],[37.25827,36.854424],[37.255774,36.853144],[37.250158,36.851146],[37.245875,36.850289],[37.244375,36.849764],[37.243971,36.849623],[37.241687,36.847719],[37.240783,36.846815],[37.239879,36.845911],[37.239718,36.845483],[37.239022,36.843627],[37.238832,36.841247],[37.239688,36.834585],[37.240355,36.828874],[37.241179,36.818436],[37.241211,36.818024],[37.241021,36.813455],[37.240321,36.811238],[37.239879,36.809838],[37.23807,36.806317],[37.235786,36.804413],[37.233026,36.803366],[37.227506,36.8027],[37.222764,36.803156],[37.222556,36.803176],[37.219511,36.802985],[37.216465,36.802795],[37.207708,36.800796],[37.199333,36.798512],[37.196477,36.797751],[37.193717,36.796704],[37.191147,36.795276],[37.186293,36.791945],[37.183152,36.790517],[37.180522,36.789721],[37.171826,36.787091],[37.164909,36.785157],[37.162975,36.784616],[37.161424,36.784454],[37.154789,36.783759],[37.143844,36.784045],[37.133945,36.784616],[37.127663,36.785282],[37.124332,36.786044],[37.121477,36.787566],[37.116337,36.790231],[37.111864,36.792516],[37.107486,36.794419],[37.103774,36.795276],[37.097777,36.795561],[37.091591,36.795847],[37.085499,36.795657],[37.079598,36.795752],[37.073031,36.795181],[37.070315,36.794857],[37.069033,36.794705],[37.067001,36.794797],[37.062752,36.79499],[37.05923,36.795276],[37.057984,36.795553],[37.055804,36.796037],[37.054683,36.796449],[37.05114,36.797751],[37.047809,36.799178],[37.043811,36.800416],[37.041051,36.800891],[37.033342,36.802319],[37.028583,36.804794],[37.025347,36.808125],[37.022777,36.811932],[37.019541,36.816025],[37.01678,36.819927],[37.013735,36.822973],[37.009928,36.82659],[37.005169,36.832205],[37.00336,36.836107],[37.001647,36.838868],[37.000219,36.843151],[36.999909,36.844829],[36.999744,36.84572],[36.99765,36.847338],[36.994414,36.849337],[36.991368,36.850543],[36.989845,36.851146],[36.988248,36.852168],[36.985751,36.853765],[36.98627,36.854111],[36.988174,36.856205],[36.991695,36.85925],[36.995026,36.861059],[36.997882,36.862582],[37.001403,36.863914],[37.003878,36.864105],[37.006353,36.8642],[37.008256,36.863819],[37.01054,36.863343],[37.011968,36.863153],[37.013777,36.863153],[37.015299,36.863533],[37.016917,36.86439],[37.019107,36.864866],[37.021105,36.865342],[37.02358,36.866103],[37.026435,36.867055],[37.030338,36.868863],[37.032432,36.869815],[37.036239,36.870481],[37.037857,36.870196],[37.039951,36.869054],[37.041283,36.868768],[37.045566,36.869054],[37.049564,36.870672],[37.054132,36.872766],[37.059653,36.876573],[37.066981,36.881903],[37.070788,36.885044],[37.073929,36.887328],[37.076214,36.88847],[37.080973,36.891516],[37.085541,36.895323],[37.088206,36.899035],[37.090776,36.903604],[37.094902,36.91096]]]}}]}