{"type":"FeatureCollection","province":"Kırıkkale","province_id":"TR-P-71","features":[{"type":"Feature","properties":{"id":"TR-D-71-001","parent_id":"TR-P-71","region_id":"TR-R-ICA","level":"district","municipality_type":null,"municipality_type_label":null,"is_metropolitan_municipality":null,"name":"Bahşili","name_ascii":"bahsili","slug":"bahsili-kirikkale"},"geometry":{"type":"Polygon","coordinates":[[[33.455028,39.681788],[33.454549,39.681107],[33.454027,39.680343],[33.453524,39.679574],[33.453285,39.679187],[33.453058,39.678796],[33.452851,39.678401],[33.452667,39.678],[33.452516,39.677595],[33.452388,39.677183],[33.452279,39.676768],[33.452183,39.676349],[33.452014,39.675505],[33.451719,39.673805],[33.451227,39.670836],[33.451106,39.670012],[33.451007,39.669188],[33.450973,39.668777],[33.450956,39.668365],[33.45096,39.667955],[33.450993,39.667517],[33.451053,39.66708],[33.451135,39.666645],[33.451237,39.666212],[33.451359,39.665783],[33.451502,39.665359],[33.451671,39.664941],[33.451862,39.664551],[33.452078,39.664168],[33.452317,39.663795],[33.452578,39.663433],[33.452863,39.663084],[33.453134,39.662791],[33.453425,39.662513],[33.453739,39.662251],[33.454076,39.662009],[33.454517,39.661746],[33.454986,39.661509],[33.455477,39.661291],[33.455984,39.661087],[33.4565,39.660894],[33.457025,39.66071],[33.458091,39.660366],[33.458631,39.660207],[33.459177,39.660059],[33.459717,39.659927],[33.460809,39.65969],[33.465803,39.658724],[33.470862,39.657702],[33.472544,39.657351],[33.474219,39.656978],[33.475294,39.656714],[33.476898,39.656292],[33.477962,39.655997],[33.479017,39.655686],[33.47954,39.655522],[33.480057,39.655347],[33.480578,39.655158],[33.481092,39.654958],[33.482109,39.654538],[33.483112,39.654096],[33.484094,39.65363],[33.484572,39.653383],[33.485037,39.653124],[33.485475,39.652856],[33.485894,39.652572],[33.486295,39.652276],[33.486673,39.651966],[33.487023,39.65164],[33.487337,39.651295],[33.487562,39.650994],[33.487759,39.650681],[33.48795,39.650321],[33.488114,39.649952],[33.488255,39.649576],[33.488372,39.649194],[33.488463,39.648807],[33.488524,39.648418],[33.488551,39.648019],[33.488547,39.647618],[33.488515,39.647217],[33.488457,39.646818],[33.488373,39.646421],[33.488271,39.646063],[33.488147,39.645709],[33.488001,39.645361],[33.487833,39.645019],[33.487639,39.644681],[33.487422,39.644353],[33.487181,39.644035],[33.486915,39.643729],[33.486564,39.643381],[33.486182,39.643051],[33.485776,39.642735],[33.48535,39.642434],[33.48495,39.642174],[33.484538,39.641924],[33.484117,39.641684],[33.483688,39.641453],[33.483252,39.641233],[33.482808,39.641025],[33.482355,39.640833],[33.481891,39.640661],[33.481394,39.640508],[33.480886,39.64038],[33.480368,39.640277],[33.479843,39.640198],[33.479367,39.64015],[33.478887,39.640121],[33.478405,39.640108],[33.477922,39.640112],[33.477438,39.640132],[33.476876,39.640177],[33.476314,39.640238],[33.475753,39.640311],[33.474285,39.640519],[33.473832,39.640576],[33.473379,39.640624],[33.472833,39.640663],[33.472288,39.640681],[33.471793,39.640677],[33.469689,39.641513],[33.467138,39.642504],[33.461904,39.644336],[33.456146,39.645907],[33.453267,39.645972],[33.445808,39.645514],[33.437956,39.644205],[33.427683,39.643224],[33.415448,39.642242],[33.408512,39.64113],[33.402296,39.640803],[33.396538,39.641588],[33.393299,39.641261],[33.387716,39.640738],[33.383005,39.639254],[33.375764,39.635678],[33.374401,39.634783],[33.366745,39.631446],[33.361576,39.630334],[33.355687,39.629941],[33.348294,39.629876],[33.341685,39.62968],[33.336255,39.629091],[33.327945,39.628633],[33.324542,39.628502],[33.319962,39.628633],[33.317443,39.628481],[33.315006,39.638398],[33.3124,39.646467],[33.307526,39.652939],[33.301054,39.655712],[33.295339,39.657561],[33.289035,39.659158],[33.287354,39.65941],[33.276428,39.662688],[33.263232,39.666134],[33.254491,39.66916],[33.24844,39.671849],[33.240371,39.676472],[33.235245,39.682355],[33.23348,39.686306],[33.232975,39.691096],[33.233143,39.693786],[33.234488,39.698913],[33.236085,39.703283],[33.238102,39.707149],[33.24096,39.709335],[33.244826,39.71236],[33.250709,39.714209],[33.251928,39.715061],[33.257722,39.71911],[33.264639,39.72457],[33.268193,39.728646],[33.272192,39.730849],[33.279017,39.734034],[33.284204,39.736947],[33.287844,39.741315],[33.290756,39.745319],[33.292212,39.747139],[33.295761,39.749687],[33.300493,39.752599],[33.306408,39.756057],[33.311414,39.760152],[33.31287,39.762973],[33.31378,39.764884],[33.313962,39.768615],[33.313689,39.773893],[33.312142,39.778352],[33.310504,39.782902],[33.30923,39.78536],[33.314872,39.787999],[33.318227,39.790729],[33.322118,39.794482],[33.325394,39.798714],[33.328465,39.802604],[33.32827,39.798996],[33.327064,39.78995],[33.329174,39.780753],[33.333697,39.778794],[33.347115,39.78211],[33.353296,39.788744],[33.35993,39.793719],[33.365056,39.800503],[33.369428,39.803971],[33.375006,39.805629],[33.38164,39.808343],[33.38571,39.807438],[33.397319,39.806534],[33.420838,39.812112],[33.43516,39.816786],[33.453704,39.819198],[33.464154,39.821982],[33.465079,39.82116],[33.46734,39.820441],[33.47217,39.819311],[33.476897,39.819105],[33.478281,39.818655],[33.479842,39.817326],[33.480478,39.815881],[33.481171,39.814436],[33.481865,39.812702],[33.482096,39.811083],[33.481518,39.809002],[33.479957,39.807557],[33.478281,39.806863],[33.475795,39.806574],[33.47383,39.806574],[33.472038,39.806517],[33.471056,39.806343],[33.470073,39.80565],[33.468512,39.804436],[33.467529,39.803626],[33.466547,39.802239],[33.465911,39.800678],[33.465449,39.79958],[33.465217,39.798829],[33.464813,39.797326],[33.464292,39.796054],[33.463425,39.794551],[33.462732,39.793395],[33.46198,39.792066],[33.461287,39.790794],[33.460709,39.789522],[33.460073,39.787846],[33.459842,39.786921],[33.459495,39.785649],[33.458917,39.78484],[33.457298,39.784204],[33.455737,39.78299],[33.453483,39.781083],[33.451807,39.779985],[33.45013,39.779233],[33.44909,39.778597],[33.448265,39.777666],[33.445336,39.772425],[33.442793,39.767107],[33.437706,39.762483],[33.434006,39.759323],[33.430461,39.758552],[33.422446,39.757704],[33.415509,39.756934],[33.409575,39.755007],[33.404411,39.752541],[33.400557,39.750768],[33.396318,39.74676],[33.393081,39.744217],[33.391386,39.741596],[33.389382,39.738051],[33.388765,39.731654],[33.387147,39.727261],[33.386482,39.721731],[33.388505,39.718725],[33.393072,39.71387],[33.398505,39.708725],[33.403476,39.704621],[33.40891,39.701268],[33.412378,39.69965],[33.416945,39.698609],[33.422147,39.697049],[33.42706,39.695488],[33.43891,39.690633],[33.441511,39.689419],[33.451689,39.683673],[33.455028,39.681788]]]}},{"type":"Feature","properties":{"id":"TR-D-71-002","parent_id":"TR-P-71","region_id":"TR-R-ICA","level":"district","municipality_type":null,"municipality_type_label":null,"is_metropolitan_municipality":null,"name":"Balışeyh","name_ascii":"baliseyh","slug":"baliseyh-kirikkale"},"geometry":{"type":"Polygon","coordinates":[[[33.878115,40.112023],[33.879401,40.107525],[33.879791,40.104174],[33.881583,40.097549],[33.884311,40.08843],[33.885013,40.084689],[33.887819,40.080402],[33.890546,40.075258],[33.891793,40.07066],[33.892807,40.066841],[33.893508,40.059982],[33.893898,40.052656],[33.893586,40.049694],[33.892105,40.042524],[33.890936,40.038159],[33.888988,40.03473],[33.88548,40.030677],[33.881194,40.026001],[33.878232,40.020623],[33.876673,40.01618],[33.876907,40.012595],[33.877764,40.005892],[33.881895,39.996695],[33.882441,39.990772],[33.882753,39.98633],[33.882986,39.981419],[33.883142,39.975808],[33.882441,39.971989],[33.881194,39.966455],[33.875582,39.938865],[33.874335,39.932473],[33.871685,39.925693],[33.869893,39.919224],[33.866385,39.9133],[33.859293,39.90309],[33.856097,39.898648],[33.848849,39.891399],[33.844406,39.888594],[33.839652,39.886723],[33.837158,39.885164],[33.835599,39.883683],[33.832949,39.880254],[33.831079,39.877059],[33.829754,39.87472],[33.827727,39.870901],[33.826247,39.867316],[33.823675,39.86038],[33.822505,39.856015],[33.822194,39.851027],[33.823908,39.844012],[33.825389,39.839102],[33.828429,39.834426],[33.83482,39.828892],[33.840821,39.823982],[33.845575,39.819851],[33.850119,39.814932],[33.848546,39.814183],[33.843077,39.813284],[33.837159,39.812984],[33.829517,39.811936],[33.822849,39.809463],[33.814309,39.804444],[33.801723,39.799125],[33.789511,39.79433],[33.784192,39.792082],[33.778049,39.790809],[33.775052,39.790884],[33.768085,39.790884],[33.760218,39.790734],[33.753551,39.791333],[33.748906,39.792382],[33.745611,39.793361],[33.744088,39.793796],[33.739641,39.795826],[33.735584,39.796953],[33.731358,39.797122],[33.727809,39.797235],[33.725273,39.797291],[33.720427,39.797122],[33.715751,39.796559],[33.712483,39.796615],[33.708257,39.797122],[33.706398,39.796953],[33.70375,39.796728],[33.700763,39.796559],[33.698735,39.796559],[33.69558,39.796897],[33.695502,39.800558],[33.694803,39.80297],[33.694264,39.805023],[33.692402,39.809509],[33.690455,39.813656],[33.686984,39.817719],[33.685038,39.820597],[33.682583,39.824406],[33.680721,39.827199],[33.677928,39.829061],[33.674542,39.831939],[33.670394,39.835833],[33.668617,39.839134],[33.667601,39.845397],[33.665993,39.857163],[33.665062,39.863342],[33.664385,39.866304],[33.663284,39.872399],[33.661168,39.878239],[33.659729,39.881794],[33.657021,39.885349],[33.654651,39.888481],[33.65245,39.891697],[33.647625,39.898384],[33.644578,39.902616],[33.640769,39.90888],[33.637384,39.91235],[33.633151,39.91599],[33.631712,39.918275],[33.63112,39.920053],[33.629766,39.925978],[33.627226,39.936389],[33.621894,39.95391],[33.620116,39.962882],[33.618254,39.969654],[33.615038,39.973378],[33.609451,39.982689],[33.606912,39.987937],[33.605642,39.992846],[33.605388,39.997924],[33.605642,40.003088],[33.606489,40.006981],[33.608351,40.010621],[33.612245,40.015953],[33.61343,40.018323],[33.613768,40.024249],[33.613683,40.02865],[33.613768,40.035591],[33.613768,40.037876],[33.613937,40.043378],[33.614107,40.050319],[33.614615,40.054297],[33.615651,40.0571],[33.616339,40.057046],[33.626099,40.056748],[33.63288,40.057344],[33.635636,40.057419],[33.643311,40.058611],[33.652699,40.05958],[33.66231,40.061219],[33.665663,40.062038],[33.670208,40.064348],[33.675722,40.068297],[33.678404,40.070905],[33.681757,40.074556],[33.683768,40.078653],[33.687345,40.084763],[33.689878,40.088041],[33.690921,40.088638],[33.693827,40.088712],[33.698148,40.088414],[33.703886,40.087743],[33.707834,40.08752],[33.715658,40.088414],[33.723407,40.089457],[33.725418,40.089532],[33.729814,40.08983],[33.736669,40.090426],[33.744939,40.091096],[33.751719,40.091171],[33.758053,40.091171],[33.765503,40.091245],[33.768633,40.092288],[33.775338,40.096088],[33.778766,40.097802],[33.782119,40.098696],[33.785471,40.100186],[33.787856,40.100559],[33.793071,40.10108],[33.796797,40.101304],[33.802385,40.100708],[33.810133,40.099516],[33.815871,40.098473],[33.821012,40.097355],[33.825557,40.096461],[33.829207,40.095939],[33.835988,40.096088],[33.846717,40.096014],[33.858936,40.098249],[33.862885,40.099739],[33.864822,40.101378],[33.8681,40.104433],[33.871081,40.106221],[33.875626,40.110245],[33.878115,40.112023]]]}},{"type":"Feature","properties":{"id":"TR-D-71-003","parent_id":"TR-P-71","region_id":"TR-R-ICA","level":"district","municipality_type":null,"municipality_type_label":null,"is_metropolitan_municipality":null,"name":"Çelebi","name_ascii":"celebi","slug":"celebi-kirikkale"},"geometry":{"type":"Polygon","coordinates":[[[33.419479,39.395837],[33.419457,39.395859],[33.419161,39.396158],[33.418799,39.396495],[33.418421,39.396824],[33.418032,39.397145],[33.417635,39.397455],[33.417231,39.397752],[33.416822,39.398029],[33.416407,39.398278],[33.415986,39.398488],[33.415556,39.398644],[33.415115,39.398724],[33.414688,39.398717],[33.414251,39.398644],[33.413805,39.398521],[33.413354,39.398364],[33.412897,39.398184],[33.4115,39.397587],[33.411024,39.397393],[33.41054,39.397214],[33.410046,39.397058],[33.409544,39.396933],[33.409034,39.396838],[33.408516,39.396771],[33.407996,39.396734],[33.407476,39.396729],[33.406956,39.396753],[33.406439,39.396802],[33.405928,39.396875],[33.405424,39.396973],[33.404932,39.397101],[33.404458,39.397259],[33.403996,39.397442],[33.403543,39.397644],[33.403097,39.39786],[33.402657,39.398087],[33.40179,39.398562],[33.40094,39.399061],[33.400523,39.399318],[33.399648,39.399888],[33.398788,39.400473],[33.393696,39.404023],[33.388581,39.407557],[33.387743,39.408158],[33.387359,39.408445],[33.386611,39.409033],[33.386251,39.409335],[33.385905,39.409644],[33.385744,39.4098],[33.385576,39.409963],[33.385272,39.410295],[33.384988,39.410653],[33.384731,39.411023],[33.384493,39.411404],[33.384392,39.411582],[33.384272,39.411792],[33.384064,39.412186],[33.383869,39.412584],[33.383689,39.412986],[33.383525,39.413391],[33.383383,39.413799],[33.38327,39.414211],[33.383198,39.414592],[33.383154,39.414973],[33.383138,39.415354],[33.383145,39.415612],[33.383149,39.415732],[33.383191,39.416104],[33.38327,39.416468],[33.383394,39.416821],[33.383576,39.417169],[33.383805,39.417501],[33.384075,39.417817],[33.384378,39.418116],[33.384715,39.418396],[33.385084,39.418653],[33.385475,39.418877],[33.385892,39.41908],[33.386327,39.419268],[33.386774,39.419446],[33.387231,39.419617],[33.388664,39.420135],[33.389672,39.420512],[33.390664,39.420907],[33.391149,39.421116],[33.391622,39.421336],[33.39208,39.421569],[33.392517,39.421823],[33.392869,39.422058],[33.393202,39.422309],[33.393518,39.422573],[33.393817,39.422849],[33.394097,39.423136],[33.394392,39.423477],[33.394658,39.423829],[33.394894,39.424194],[33.395092,39.42457],[33.395244,39.42495],[33.395361,39.425338],[33.395447,39.425733],[33.395507,39.426131],[33.395507,39.426133],[33.395541,39.426534],[33.395549,39.426916],[33.395532,39.427297],[33.395489,39.427675],[33.395417,39.428049],[33.39531,39.428416],[33.395149,39.428806],[33.39495,39.429188],[33.394722,39.429564],[33.394473,39.429934],[33.394208,39.4303],[33.393929,39.43066],[33.393639,39.431015],[33.393337,39.431364],[33.393023,39.431704],[33.392694,39.432033],[33.392346,39.432348],[33.391972,39.432644],[33.391595,39.432902],[33.391478,39.432972],[33.391195,39.433142],[33.390781,39.433371],[33.39056,39.433486],[33.390356,39.433592],[33.389057,39.434237],[33.38822,39.434675],[33.387823,39.434902],[33.387443,39.435136],[33.387083,39.43538],[33.386752,39.435635],[33.386457,39.435905],[33.386212,39.436193],[33.38601,39.436535],[33.385876,39.436898],[33.385803,39.437273],[33.385791,39.437654],[33.385846,39.438036],[33.385969,39.43841],[33.386147,39.43878],[33.386364,39.439148],[33.386607,39.439515],[33.386866,39.439882],[33.38879,39.442484],[33.389326,39.443233],[33.389837,39.443988],[33.390078,39.444369],[33.390304,39.444755],[33.390511,39.445146],[33.390701,39.445556],[33.390871,39.445973],[33.390948,39.446192],[33.391169,39.446818],[33.391564,39.4481],[33.393545,39.454977],[33.393776,39.455838],[33.393978,39.456702],[33.394059,39.457136],[33.394061,39.457149],[33.394116,39.45753],[33.394159,39.457924],[33.394188,39.458319],[33.394204,39.458714],[33.394206,39.459108],[33.394191,39.4595],[33.394156,39.459891],[33.394095,39.460279],[33.393996,39.4607],[33.393867,39.461118],[33.393718,39.461533],[33.393378,39.462359],[33.39301,39.463182],[33.391888,39.465626],[33.391882,39.465639],[33.391348,39.466893],[33.390685,39.468557],[33.389867,39.470656],[33.389548,39.471502],[33.389243,39.47236],[33.388973,39.473214],[33.388863,39.473635],[33.388778,39.474048],[33.388728,39.47445],[33.388729,39.474835],[33.388798,39.475195],[33.388937,39.475497],[33.389138,39.475765],[33.38939,39.475991],[33.389687,39.476166],[33.390023,39.476274],[33.390422,39.476304],[33.390852,39.47626],[33.391303,39.476161],[33.391766,39.47602],[33.392235,39.475845],[33.392727,39.475634],[33.393219,39.475403],[33.394198,39.474902],[33.396083,39.473876],[33.396953,39.473416],[33.397394,39.473202],[33.397844,39.473005],[33.398305,39.472831],[33.398817,39.472676],[33.399343,39.472548],[33.39988,39.472439],[33.400423,39.472345],[33.400973,39.472261],[33.402081,39.472112],[33.406558,39.471582],[33.410499,39.471101],[33.411625,39.470975],[33.412186,39.470921],[33.412744,39.470878],[33.413296,39.47085],[33.41384,39.470844],[33.414371,39.470869],[33.414883,39.470937],[33.415339,39.471049],[33.415771,39.471203],[33.416175,39.471392],[33.416545,39.471613],[33.416871,39.471865],[33.417143,39.472151],[33.417363,39.4725],[33.417518,39.47288],[33.417619,39.473284],[33.417676,39.473703],[33.417693,39.474118],[33.417678,39.474539],[33.417638,39.474963],[33.417575,39.475387],[33.417487,39.47581],[33.417372,39.47623],[33.417239,39.476615],[33.417084,39.476996],[33.416913,39.477373],[33.416728,39.477748],[33.416532,39.478119],[33.416086,39.478892],[33.415328,39.48009],[33.413241,39.483256],[33.412708,39.484041],[33.412434,39.484429],[33.412152,39.484812],[33.411863,39.485182],[33.411563,39.485543],[33.411249,39.485893],[33.410917,39.486229],[33.410563,39.486546],[33.410181,39.486838],[33.409753,39.487103],[33.409295,39.487341],[33.408815,39.487554],[33.40832,39.487747],[33.407813,39.48792],[33.407297,39.488071],[33.406774,39.488197],[33.406246,39.48829],[33.405711,39.488342],[33.405167,39.488346],[33.404618,39.488314],[33.402944,39.488151],[33.402474,39.488122],[33.402002,39.488106],[33.401528,39.488102],[33.401054,39.48811],[33.400579,39.488129],[33.400085,39.488163],[33.399593,39.48821],[33.399103,39.488271],[33.398618,39.488347],[33.398138,39.488441],[33.397676,39.488552],[33.39722,39.48868],[33.396769,39.488821],[33.396324,39.488975],[33.395885,39.489139],[33.395451,39.489314],[33.394964,39.489528],[33.394485,39.489754],[33.394014,39.489991],[33.393553,39.490238],[33.393103,39.490496],[33.392667,39.490767],[33.39225,39.491053],[33.391886,39.491334],[33.39154,39.491628],[33.391209,39.491933],[33.390893,39.492247],[33.390592,39.492569],[33.390309,39.492898],[33.390046,39.493235],[33.38981,39.493581],[33.3896,39.493947],[33.389426,39.494322],[33.389287,39.494703],[33.389189,39.495089],[33.389138,39.495478],[33.389143,39.495885],[33.389197,39.496295],[33.389288,39.496704],[33.389409,39.497114],[33.389553,39.497522],[33.389719,39.497928],[33.389911,39.498344],[33.390119,39.498758],[33.390563,39.49958],[33.392421,39.502855],[33.392891,39.50367],[33.393375,39.504473],[33.39363,39.504865],[33.393898,39.505246],[33.394185,39.505611],[33.3945,39.505953],[33.394853,39.506264],[33.395207,39.506507],[33.395594,39.506721],[33.396007,39.506907],[33.396439,39.507066],[33.39689,39.507195],[33.397355,39.507291],[33.397837,39.50735],[33.398329,39.507377],[33.398828,39.507376],[33.39933,39.50735],[33.399835,39.507301],[33.400406,39.507219],[33.400977,39.507114],[33.401546,39.506994],[33.402115,39.506865],[33.404366,39.506328],[33.404917,39.50621],[33.405458,39.50611],[33.405984,39.506035],[33.40649,39.505997],[33.406965,39.506012],[33.4074,39.506099],[33.407732,39.506244],[33.408028,39.506446],[33.408292,39.506692],[33.408526,39.506974],[33.408728,39.507284],[33.408913,39.507651],[33.409068,39.508039],[33.4092,39.508442],[33.409316,39.508854],[33.409514,39.509698],[33.409678,39.510552],[33.409747,39.510981],[33.409805,39.511411],[33.409848,39.51184],[33.409871,39.512269],[33.40987,39.512674],[33.409849,39.513077],[33.409813,39.51348],[33.409761,39.513882],[33.409696,39.514281],[33.409614,39.514678],[33.409511,39.515084],[33.409388,39.515484],[33.409243,39.515877],[33.409069,39.51626],[33.408861,39.516628],[33.408623,39.516966],[33.408352,39.517288],[33.408052,39.517594],[33.407726,39.517884],[33.407376,39.518155],[33.407,39.518404],[33.406593,39.518629],[33.406163,39.51883],[33.405715,39.519009],[33.405251,39.519167],[33.404758,39.51931],[33.404254,39.519431],[33.403742,39.519533],[33.403224,39.519613],[33.402682,39.519675],[33.401595,39.519779],[33.401055,39.519847],[33.40053,39.51994],[33.40001,39.520057],[33.399497,39.520191],[33.39899,39.520342],[33.39849,39.520506],[33.397999,39.520683],[33.397521,39.520874],[33.397061,39.521082],[33.396668,39.521283],[33.396296,39.5215],[33.39595,39.52173],[33.395635,39.521977],[33.395359,39.522241],[33.395132,39.522527],[33.394939,39.522895],[33.394811,39.523289],[33.39473,39.523703],[33.394682,39.52413],[33.394658,39.524566],[33.39465,39.525008],[33.394654,39.525455],[33.394682,39.526354],[33.39476,39.527706],[33.394843,39.528604],[33.394901,39.529051],[33.394975,39.529496],[33.395154,39.53038],[33.395465,39.531702],[33.39688,39.53742],[33.397112,39.538298],[33.397237,39.538735],[33.397373,39.53917],[33.397523,39.539601],[33.397694,39.540027],[33.397874,39.540412],[33.398073,39.540792],[33.398288,39.541168],[33.398516,39.541538],[33.398756,39.541904],[33.39901,39.542263],[33.399278,39.542614],[33.399548,39.542936],[33.399834,39.543248],[33.400136,39.543545],[33.400456,39.543826],[33.400799,39.544085],[33.401169,39.544315],[33.401589,39.544521],[33.402038,39.544697],[33.402509,39.544849],[33.402994,39.544983],[33.403491,39.545103],[33.403996,39.545211],[33.404506,39.545308],[33.405019,39.545393],[33.405533,39.545465],[33.406013,39.545516],[33.40649,39.545552],[33.406962,39.545568],[33.407426,39.545561],[33.407879,39.545524],[33.408316,39.545448],[33.408767,39.545316],[33.409196,39.545137],[33.409601,39.54492],[33.409981,39.54467],[33.41033,39.544387],[33.410669,39.544051],[33.410976,39.543688],[33.41126,39.543306],[33.411526,39.542912],[33.41178,39.54251],[33.412502,39.541317],[33.412751,39.540943],[33.41302,39.540594],[33.413319,39.540283],[33.413661,39.540025],[33.413997,39.539857],[33.414365,39.539738],[33.414755,39.539664],[33.415159,39.539637],[33.415568,39.53966],[33.415968,39.539733],[33.416363,39.539849],[33.416754,39.539999],[33.417138,39.540178],[33.417514,39.54038],[33.417921,39.54063],[33.418313,39.540901],[33.41869,39.541189],[33.419049,39.54149],[33.419385,39.541805],[33.419692,39.542133],[33.419961,39.542478],[33.420185,39.542842],[33.420369,39.543221],[33.420519,39.543609],[33.420637,39.544005],[33.420724,39.544406],[33.420777,39.544809],[33.420791,39.545214],[33.420757,39.54565],[33.420682,39.546084],[33.420574,39.546517],[33.42044,39.546948],[33.420284,39.547375],[33.420107,39.547798],[33.419907,39.548215],[33.41968,39.548626],[33.419431,39.549029],[33.419161,39.549423],[33.418872,39.549808],[33.418562,39.550182],[33.418226,39.55054],[33.417864,39.550878],[33.41748,39.551201],[33.417079,39.551514],[33.416665,39.551819],[33.416243,39.552118],[33.415394,39.552691],[33.413694,39.553788],[33.411124,39.555411],[33.410256,39.555937],[33.409816,39.556192],[33.40937,39.556439],[33.408915,39.556675],[33.408445,39.556897],[33.407966,39.557105],[33.407478,39.557301],[33.406983,39.557483],[33.406481,39.55765],[33.405998,39.557793],[33.405509,39.557918],[33.405014,39.558024],[33.404513,39.558107],[33.403999,39.558164],[33.403481,39.558202],[33.401915,39.558276],[33.401395,39.558312],[33.400878,39.558366],[33.400401,39.558438],[33.399928,39.55853],[33.399459,39.558638],[33.398994,39.55876],[33.398531,39.558893],[33.397995,39.559062],[33.397462,39.559243],[33.396934,39.559433],[33.395888,39.559834],[33.395374,39.560047],[33.394868,39.560268],[33.394413,39.560483],[33.393971,39.560709],[33.393548,39.560948],[33.393147,39.561204],[33.392779,39.561481],[33.392449,39.561784],[33.39216,39.56211],[33.391913,39.562456],[33.391715,39.562819],[33.391576,39.563173],[33.391479,39.563539],[33.391417,39.563913],[33.391388,39.564292],[33.39139,39.564675],[33.391423,39.565046],[33.391482,39.565418],[33.391561,39.565789],[33.391658,39.56616],[33.391772,39.566529],[33.391903,39.566895],[33.392077,39.567321],[33.392272,39.567742],[33.392485,39.568157],[33.392717,39.568564],[33.392971,39.568962],[33.393252,39.569346],[33.393536,39.569685],[33.393845,39.570009],[33.394174,39.57032],[33.394522,39.570616],[33.394889,39.570893],[33.395277,39.571149],[33.395704,39.571385],[33.396154,39.571591],[33.396623,39.571764],[33.39711,39.571898],[33.397586,39.571986],[33.398073,39.572042],[33.39857,39.572072],[33.399073,39.572081],[33.399579,39.572073],[33.400086,39.572049],[33.400594,39.572008],[33.401099,39.57195],[33.401653,39.571863],[33.402203,39.571756],[33.402748,39.571634],[33.403288,39.571501],[33.403821,39.571356],[33.404345,39.571199],[33.404857,39.571029],[33.405353,39.570843],[33.405828,39.570634],[33.406274,39.570396],[33.406663,39.570137],[33.407025,39.569852],[33.407368,39.569548],[33.407697,39.569229],[33.408014,39.568899],[33.408324,39.568562],[33.40893,39.567874],[33.410702,39.565791],[33.411296,39.565113],[33.411912,39.564451],[33.412234,39.56413],[33.412571,39.563819],[33.412922,39.563524],[33.413289,39.563241],[33.413668,39.562971],[33.414057,39.562713],[33.414456,39.562471],[33.414865,39.562248],[33.415286,39.562048],[33.415719,39.56188],[33.416169,39.561752],[33.416648,39.561671],[33.417142,39.561633],[33.417648,39.561628],[33.418161,39.561648],[33.418678,39.561689],[33.419197,39.561748],[33.419716,39.561823],[33.420231,39.561916],[33.42074,39.562029],[33.42125,39.562167],[33.421751,39.562325],[33.422243,39.562499],[33.422725,39.562688],[33.423195,39.562891],[33.423649,39.56311],[33.424082,39.563348],[33.42449,39.563609],[33.424835,39.563871],[33.425157,39.564152],[33.425461,39.564449],[33.42575,39.564757],[33.426026,39.565074],[33.42629,39.5654],[33.426546,39.565736],[33.429806,39.563521],[33.439335,39.560437],[33.450405,39.560382],[33.456353,39.561098],[33.462522,39.56242],[33.471114,39.563962],[33.476457,39.564403],[33.481028,39.563907],[33.485214,39.563246],[33.490777,39.561043],[33.498653,39.557959],[33.50394,39.555866],[33.509393,39.553277],[33.514515,39.551404],[33.517103,39.549587],[33.521399,39.545456],[33.524043,39.543473],[33.526577,39.542317],[33.529551,39.540885],[33.531203,39.539067],[33.532194,39.536644],[33.5328,39.533284],[33.532855,39.528713],[33.533296,39.525904],[33.535169,39.521057],[33.540291,39.514778],[33.544201,39.511914],[33.549981,39.509607],[33.554449,39.509264],[33.557386,39.509044],[33.561205,39.508677],[33.56517,39.507575],[33.56752,39.506621],[33.572147,39.503904],[33.576112,39.50104],[33.579197,39.498176],[33.5861,39.492374],[33.59146,39.488776],[33.597996,39.484296],[33.605413,39.478128],[33.609232,39.475117],[33.614813,39.469829],[33.620499,39.463996],[33.605295,39.457193],[33.597797,39.452333],[33.589188,39.447612],[33.581551,39.44303],[33.573845,39.438933],[33.567944,39.433726],[33.565861,39.430394],[33.560793,39.423035],[33.556627,39.419772],[33.552809,39.417967],[33.550726,39.417619],[33.545172,39.4188],[33.535313,39.423798],[33.525663,39.429144],[33.522122,39.430116],[33.514346,39.43088],[33.506432,39.432199],[33.499003,39.433657],[33.489283,39.436017],[33.48484,39.437406],[33.481368,39.438378],[33.477828,39.438725],[33.473801,39.437614],[33.470816,39.436781],[33.465053,39.435184],[33.460055,39.434073],[33.455403,39.433102],[33.449918,39.430741],[33.443531,39.426298],[33.437719,39.422566],[33.435297,39.420731],[33.433138,39.418914],[33.433129,39.418906],[33.432837,39.418661],[33.42944,39.417567],[33.427292,39.415732],[33.427253,39.415686],[33.425573,39.413701],[33.424516,39.410302],[33.42448,39.410186],[33.423958,39.408606],[33.423113,39.406047],[33.419479,39.395837]]]}},{"type":"Feature","properties":{"id":"TR-D-71-004","parent_id":"TR-P-71","region_id":"TR-R-ICA","level":"district","municipality_type":null,"municipality_type_label":null,"is_metropolitan_municipality":null,"name":"Delice","name_ascii":"delice","slug":"delice-kirikkale"},"geometry":{"type":"Polygon","coordinates":[[[33.850119,39.814932],[33.845575,39.819851],[33.840821,39.823982],[33.83482,39.828892],[33.828429,39.834426],[33.825389,39.839102],[33.823908,39.844012],[33.822194,39.851027],[33.822505,39.856015],[33.823675,39.86038],[33.826247,39.867316],[33.827727,39.870901],[33.829754,39.87472],[33.831079,39.877059],[33.832949,39.880254],[33.835599,39.883683],[33.837158,39.885164],[33.839652,39.886723],[33.844406,39.888594],[33.848849,39.891399],[33.856097,39.898648],[33.859293,39.90309],[33.866385,39.9133],[33.869893,39.919224],[33.871685,39.925693],[33.874335,39.932473],[33.875582,39.938865],[33.881194,39.966455],[33.882441,39.971989],[33.883142,39.975808],[33.882986,39.981419],[33.882753,39.98633],[33.882441,39.990772],[33.881895,39.996695],[33.877764,40.005892],[33.876907,40.012595],[33.876673,40.01618],[33.878232,40.020623],[33.881194,40.026001],[33.88548,40.030677],[33.888988,40.03473],[33.890936,40.038159],[33.892105,40.042524],[33.893586,40.049694],[33.893898,40.052656],[33.893508,40.059982],[33.892807,40.066841],[33.891793,40.07066],[33.890546,40.075258],[33.887819,40.080402],[33.885013,40.084689],[33.884311,40.08843],[33.881583,40.097549],[33.879791,40.104174],[33.879401,40.107525],[33.878115,40.112023],[33.878755,40.11248],[33.883598,40.114641],[33.901256,40.125668],[33.911613,40.132299],[33.918095,40.136322],[33.921746,40.137067],[33.926142,40.13893],[33.930538,40.140867],[33.935753,40.144146],[33.938436,40.145263],[33.942161,40.146977],[33.946631,40.149585],[33.94842,40.151522],[33.949686,40.153683],[33.951922,40.157334],[33.955051,40.160835],[33.95818,40.164114],[33.96809,40.173502],[33.972933,40.178494],[33.976211,40.18289],[33.97867,40.18669],[33.979713,40.188776],[33.981054,40.190042],[33.982842,40.191756],[33.985301,40.193842],[33.986642,40.195109],[33.987685,40.19645],[33.989101,40.198015],[33.989995,40.198983],[33.990367,40.200325],[33.99074,40.20107],[33.99156,40.202113],[33.992305,40.202709],[33.992975,40.203156],[33.993273,40.203603],[33.992975,40.204497],[33.992677,40.20554],[33.992677,40.206285],[33.993348,40.20703],[33.994018,40.207775],[33.993869,40.20852],[33.993869,40.209489],[33.994242,40.210234],[33.994912,40.211128],[33.995136,40.211799],[33.995732,40.212991],[33.99603,40.213587],[33.996701,40.214034],[33.99752,40.214481],[33.998191,40.215226],[33.999383,40.215897],[33.999979,40.216269],[34.000575,40.216791],[34.00129,40.217662],[34.00714,40.215611],[34.013864,40.213846],[34.018319,40.213174],[34.023361,40.212165],[34.027564,40.210904],[34.03227,40.208971],[34.037061,40.205357],[34.041768,40.202079],[34.046643,40.198213],[34.049668,40.195187],[34.053535,40.189556],[34.055888,40.185942],[34.058914,40.181235],[34.059191,40.180649],[34.059374,40.180264],[34.059549,40.179895],[34.059658,40.179618],[34.059894,40.179019],[34.060515,40.177447],[34.061111,40.175935],[34.06058,40.173649],[34.060012,40.173031],[34.059102,40.172008],[34.058212,40.170973],[34.057305,40.169868],[34.053726,40.165404],[34.053134,40.164659],[34.052565,40.163915],[34.052299,40.163542],[34.052052,40.16317],[34.051834,40.162797],[34.051655,40.162425],[34.051532,40.162051],[34.051484,40.161678],[34.051523,40.161319],[34.051633,40.160959],[34.051795,40.160599],[34.051995,40.16024],[34.052223,40.15988],[34.052471,40.15952],[34.053005,40.158801],[34.054149,40.157342],[34.054731,40.15657],[34.054998,40.156178],[34.055238,40.155781],[34.055441,40.155374],[34.055597,40.154959],[34.055716,40.154535],[34.055807,40.154103],[34.055879,40.153668],[34.055984,40.152787],[34.056063,40.151899],[34.056384,40.147443],[34.05645,40.146153],[34.056459,40.145311],[34.056444,40.144891],[34.05641,40.144472],[34.056352,40.144056],[34.056273,40.143641],[34.056174,40.143229],[34.056054,40.14282],[34.055913,40.142415],[34.05574,40.141989],[34.054965,40.140318],[34.054796,40.139906],[34.054659,40.139496],[34.05457,40.139088],[34.054548,40.138684],[34.054601,40.13832],[34.054715,40.13796],[34.054877,40.137605],[34.055077,40.137256],[34.055312,40.136914],[34.055578,40.136581],[34.055876,40.136261],[34.056231,40.135933],[34.056614,40.135618],[34.057017,40.135314],[34.057434,40.135016],[34.058293,40.134435],[34.060047,40.133293],[34.062687,40.1316],[34.063578,40.131051],[34.06403,40.130784],[34.064488,40.130527],[34.064957,40.130281],[34.065358,40.130088],[34.065767,40.129905],[34.066184,40.129732],[34.066608,40.12957],[34.067039,40.12942],[34.06749,40.129278],[34.067947,40.129147],[34.068408,40.129023],[34.06982,40.128664],[34.070301,40.128535],[34.070773,40.128396],[34.071231,40.128241],[34.071669,40.128062],[34.072084,40.127852],[34.072475,40.127615],[34.072846,40.127356],[34.073195,40.127078],[34.073523,40.126781],[34.073845,40.126449],[34.074147,40.126103],[34.074434,40.125746],[34.07471,40.125381],[34.075242,40.124638],[34.075754,40.123884],[34.076248,40.123122],[34.076714,40.122351],[34.076931,40.12196],[34.077128,40.121576],[34.077313,40.121187],[34.077655,40.120404],[34.077933,40.119694],[34.077965,40.119615],[34.078236,40.118823],[34.078351,40.118426],[34.078447,40.118028],[34.078516,40.117629],[34.078551,40.11723],[34.078543,40.116794],[34.078498,40.116358],[34.078429,40.11592],[34.078182,40.114598],[34.078125,40.114207],[34.07808,40.113815],[34.078047,40.113423],[34.078027,40.113032],[34.078022,40.112641],[34.078036,40.112252],[34.078071,40.111865],[34.078136,40.111482],[34.078242,40.111075],[34.078382,40.110673],[34.078549,40.110275],[34.078738,40.109881],[34.078947,40.109491],[34.079173,40.109111],[34.079412,40.108734],[34.079918,40.107987],[34.081237,40.106136],[34.081755,40.105392],[34.082274,40.104608],[34.082764,40.103817],[34.082994,40.103418],[34.083209,40.103015],[34.083406,40.102608],[34.083577,40.102196],[34.083708,40.101806],[34.083816,40.101411],[34.083906,40.101012],[34.083982,40.100611],[34.084047,40.100207],[34.084149,40.099396],[34.084213,40.098582],[34.084227,40.098174],[34.084226,40.097736],[34.084212,40.097297],[34.084176,40.096736],[34.084156,40.096419],[34.084071,40.095554],[34.084027,40.095103],[34.083854,40.093788],[34.083665,40.092617],[34.08355,40.09184],[34.083507,40.091452],[34.08348,40.091066],[34.083474,40.090677],[34.083492,40.090291],[34.083538,40.08991],[34.083616,40.089535],[34.083736,40.089169],[34.08392,40.088781],[34.084151,40.088405],[34.08442,40.088038],[34.084718,40.087681],[34.085041,40.087334],[34.085388,40.086996],[34.085763,40.086664],[34.086154,40.08634],[34.087763,40.085068],[34.088149,40.084741],[34.088516,40.084404],[34.088829,40.084085],[34.089122,40.083755],[34.089392,40.083417],[34.08964,40.083071],[34.08986,40.082718],[34.090048,40.082357],[34.090195,40.081987],[34.090302,40.081568],[34.090362,40.081139],[34.090389,40.080704],[34.090392,40.080265],[34.090389,40.080172],[34.090379,40.079873],[34.090378,40.079821],[34.090318,40.078929],[34.090109,40.076683],[34.090037,40.075783],[34.089994,40.074883],[34.089992,40.074434],[34.090012,40.073987],[34.09005,40.073607],[34.090106,40.07323],[34.090181,40.072854],[34.090275,40.072482],[34.09039,40.072113],[34.090529,40.071751],[34.090723,40.07134],[34.090946,40.070938],[34.091191,40.070544],[34.091452,40.070156],[34.091725,40.069777],[34.092009,40.06941],[34.092195,40.069187],[34.092303,40.069057],[34.092607,40.068726],[34.092924,40.068425],[34.093256,40.068165],[34.09361,40.067962],[34.093993,40.067837],[34.094412,40.067806],[34.094858,40.067851],[34.095326,40.067952],[34.095808,40.06809],[34.0963,40.068253],[34.096512,40.068327],[34.097808,40.068781],[34.098314,40.068936],[34.098818,40.069062],[34.099318,40.069145],[34.099813,40.069167],[34.100272,40.069119],[34.100724,40.069014],[34.101169,40.068864],[34.101606,40.06868],[34.102033,40.068467],[34.102447,40.06823],[34.102845,40.067971],[34.103198,40.06771],[34.103534,40.067433],[34.103851,40.067143],[34.10415,40.066841],[34.104158,40.066833],[34.104427,40.066529],[34.104678,40.066206],[34.104896,40.06587],[34.105093,40.065483],[34.111678,40.064704],[34.113092,40.063896],[34.123376,40.061044],[34.130409,40.058724],[34.130432,40.058717],[34.134711,40.05684],[34.137579,40.054046],[34.137639,40.053987],[34.142293,40.049333],[34.145971,40.046481],[34.147697,40.04543],[34.151826,40.040926],[34.154303,40.036947],[34.157006,40.032143],[34.158282,40.030192],[34.164737,40.023961],[34.169692,40.021109],[34.172995,40.019682],[34.173295,40.01957],[34.173595,40.019457],[34.174571,40.018631],[34.175847,40.01683],[34.179075,40.013227],[34.182002,40.007747],[34.18433,40.003768],[34.188758,39.996262],[34.193262,39.990632],[34.19574,39.987929],[34.199643,39.984476],[34.204372,39.980723],[34.208276,39.97772],[34.211353,39.974718],[34.216983,39.969163],[34.220511,39.964659],[34.226892,39.955426],[34.228168,39.951372],[34.230016,39.946137],[34.235309,39.935665],[34.240038,39.931161],[34.244762,39.927902],[34.244069,39.927403],[34.240692,39.924629],[34.238401,39.922518],[34.236772,39.921433],[34.235687,39.921433],[34.235295,39.921342],[34.234903,39.921252],[34.233697,39.921071],[34.23237,39.921312],[34.231345,39.921674],[34.23044,39.922277],[34.229355,39.92282],[34.228269,39.922699],[34.225857,39.922217],[34.224048,39.922156],[34.22248,39.922096],[34.221274,39.922458],[34.220189,39.922759],[34.219827,39.922699],[34.219465,39.922639],[34.217596,39.922277],[34.215726,39.922277],[34.214219,39.922217],[34.212651,39.921795],[34.211143,39.921372],[34.210058,39.920227],[34.208731,39.919865],[34.206198,39.919021],[34.203786,39.919382],[34.198902,39.920347],[34.196429,39.92083],[34.195163,39.921252],[34.190278,39.922518],[34.184971,39.923302],[34.180509,39.923905],[34.176649,39.923483],[34.171885,39.922337],[34.168931,39.921011],[34.163624,39.918659],[34.153553,39.915161],[34.144688,39.913473],[34.137814,39.91305],[34.136728,39.91299],[34.132567,39.91287],[34.128768,39.913111],[34.125633,39.913473],[34.122436,39.913834],[34.115622,39.914076],[34.109471,39.914076],[34.105853,39.913895],[34.102898,39.914196],[34.098194,39.913834],[34.094636,39.913654],[34.089933,39.913231],[34.085531,39.913111],[34.082576,39.912447],[34.081249,39.911422],[34.077932,39.907804],[34.075279,39.904729],[34.072203,39.899904],[34.071781,39.895743],[34.072867,39.889291],[34.074676,39.883863],[34.076545,39.879883],[34.077812,39.874818],[34.077851,39.874092],[34.077993,39.871501],[34.077631,39.866315],[34.076244,39.858777],[34.075882,39.858002],[34.075822,39.857873],[34.072565,39.855581],[34.070295,39.854392],[34.070286,39.854382],[34.068222,39.851956],[34.06488,39.849629],[34.065223,39.845605],[34.06548,39.8426],[34.06561,39.832732],[34.065625,39.831632],[34.06572,39.82448],[34.071443,39.812602],[34.08951,39.80225],[34.115495,39.79324],[34.121533,39.792253],[34.115601,39.788173],[34.112202,39.785835],[34.111261,39.785791],[34.109217,39.785696],[34.106023,39.784238],[34.103315,39.783127],[34.100261,39.781184],[34.09797,39.77924],[34.093804,39.777296],[34.089361,39.775838],[34.085542,39.775143],[34.080544,39.775629],[34.076309,39.776393],[34.071032,39.777365],[34.066242,39.777782],[34.061451,39.77792],[34.053606,39.77681],[34.048121,39.775213],[34.044303,39.773338],[34.039721,39.769659],[34.036458,39.766604],[34.034653,39.763063],[34.030765,39.757509],[34.028612,39.754593],[34.024239,39.751538],[34.021253,39.749733],[34.016949,39.746609],[34.012922,39.745012],[34.008618,39.744179],[34.000772,39.742652],[33.993899,39.741124],[33.992747,39.740767],[33.984385,39.738649],[33.983987,39.738333],[33.983592,39.738046],[33.983216,39.737795],[33.982763,39.737492],[33.981043,39.736411],[33.980189,39.735864],[33.979771,39.735585],[33.979364,39.735299],[33.978971,39.735003],[33.978598,39.734695],[33.978251,39.734372],[33.977926,39.734034],[33.977623,39.733686],[33.97734,39.733329],[33.977079,39.732962],[33.976892,39.732665],[33.976224,39.73308],[33.96409,39.739666],[33.939362,39.754648],[33.934272,39.759448],[33.929399,39.766575],[33.923944,39.771593],[33.922344,39.772466],[33.91529,39.774721],[33.904381,39.777702],[33.888745,39.782139],[33.877617,39.786357],[33.872017,39.789557],[33.868599,39.79123],[33.86249,39.794866],[33.859727,39.798357],[33.853908,39.80912],[33.850119,39.814932]]]}},{"type":"Feature","properties":{"id":"TR-D-71-005","parent_id":"TR-P-71","region_id":"TR-R-ICA","level":"district","municipality_type":null,"municipality_type_label":null,"is_metropolitan_municipality":null,"name":"Karakeçili","name_ascii":"karakecili","slug":"karakecili-kirikkale"},"geometry":{"type":"Polygon","coordinates":[[[33.426546,39.565736],[33.42629,39.5654],[33.426026,39.565074],[33.42575,39.564757],[33.425461,39.564449],[33.425157,39.564152],[33.424835,39.563871],[33.42449,39.563609],[33.424082,39.563348],[33.423649,39.56311],[33.423195,39.562891],[33.422725,39.562688],[33.422243,39.562499],[33.421751,39.562325],[33.42125,39.562167],[33.42074,39.562029],[33.420231,39.561916],[33.419716,39.561823],[33.419197,39.561748],[33.418678,39.561689],[33.418161,39.561648],[33.417648,39.561628],[33.417142,39.561633],[33.416648,39.561671],[33.416169,39.561752],[33.415719,39.56188],[33.415286,39.562048],[33.414865,39.562248],[33.414456,39.562471],[33.414057,39.562713],[33.413668,39.562971],[33.413289,39.563241],[33.412922,39.563524],[33.412571,39.563819],[33.412234,39.56413],[33.411912,39.564451],[33.411296,39.565113],[33.410702,39.565791],[33.40893,39.567874],[33.408324,39.568562],[33.408014,39.568899],[33.407697,39.569229],[33.407368,39.569548],[33.407025,39.569852],[33.406663,39.570137],[33.406274,39.570396],[33.405828,39.570634],[33.405353,39.570843],[33.404857,39.571029],[33.404345,39.571199],[33.403821,39.571356],[33.403288,39.571501],[33.402748,39.571634],[33.402203,39.571756],[33.401653,39.571863],[33.401099,39.57195],[33.400594,39.572008],[33.400086,39.572049],[33.399579,39.572073],[33.399073,39.572081],[33.39857,39.572072],[33.398073,39.572042],[33.397586,39.571986],[33.39711,39.571898],[33.396623,39.571764],[33.396154,39.571591],[33.395704,39.571385],[33.395277,39.571149],[33.394889,39.570893],[33.394522,39.570616],[33.394174,39.57032],[33.393845,39.570009],[33.393536,39.569685],[33.393252,39.569346],[33.392971,39.568962],[33.392717,39.568564],[33.392485,39.568157],[33.392272,39.567742],[33.392077,39.567321],[33.391903,39.566895],[33.391772,39.566529],[33.391658,39.56616],[33.391561,39.565789],[33.391482,39.565418],[33.391423,39.565046],[33.39139,39.564675],[33.391388,39.564292],[33.391417,39.563913],[33.391479,39.563539],[33.391576,39.563173],[33.391715,39.562819],[33.391913,39.562456],[33.39216,39.56211],[33.392449,39.561784],[33.392779,39.561481],[33.393147,39.561204],[33.393548,39.560948],[33.393971,39.560709],[33.394413,39.560483],[33.394868,39.560268],[33.395374,39.560047],[33.395888,39.559834],[33.396934,39.559433],[33.397462,39.559243],[33.397995,39.559062],[33.398531,39.558893],[33.398994,39.55876],[33.399459,39.558638],[33.399928,39.55853],[33.400401,39.558438],[33.400878,39.558366],[33.401395,39.558312],[33.401915,39.558276],[33.403481,39.558202],[33.403999,39.558164],[33.404513,39.558107],[33.405014,39.558024],[33.405509,39.557918],[33.405998,39.557793],[33.406481,39.55765],[33.406983,39.557483],[33.407478,39.557301],[33.407966,39.557105],[33.408445,39.556897],[33.408915,39.556675],[33.40937,39.556439],[33.409816,39.556192],[33.410256,39.555937],[33.411124,39.555411],[33.413694,39.553788],[33.415394,39.552691],[33.416243,39.552118],[33.416665,39.551819],[33.417079,39.551514],[33.41748,39.551201],[33.417864,39.550878],[33.418226,39.55054],[33.418562,39.550182],[33.418872,39.549808],[33.419161,39.549423],[33.419431,39.549029],[33.41968,39.548626],[33.419907,39.548215],[33.420107,39.547798],[33.420284,39.547375],[33.42044,39.546948],[33.420574,39.546517],[33.420682,39.546084],[33.420757,39.54565],[33.420791,39.545214],[33.420777,39.544809],[33.420724,39.544406],[33.420637,39.544005],[33.420519,39.543609],[33.420369,39.543221],[33.420185,39.542842],[33.419961,39.542478],[33.419692,39.542133],[33.419385,39.541805],[33.419049,39.54149],[33.41869,39.541189],[33.418313,39.540901],[33.417921,39.54063],[33.417514,39.54038],[33.417138,39.540178],[33.416754,39.539999],[33.416363,39.539849],[33.415968,39.539733],[33.415568,39.53966],[33.415159,39.539637],[33.414755,39.539664],[33.414365,39.539738],[33.413997,39.539857],[33.413661,39.540025],[33.413319,39.540283],[33.41302,39.540594],[33.412751,39.540943],[33.412502,39.541317],[33.41178,39.54251],[33.411526,39.542912],[33.41126,39.543306],[33.410976,39.543688],[33.410669,39.544051],[33.41033,39.544387],[33.409981,39.54467],[33.409601,39.54492],[33.409196,39.545137],[33.408767,39.545316],[33.408316,39.545448],[33.407879,39.545524],[33.407426,39.545561],[33.406962,39.545568],[33.40649,39.545552],[33.406013,39.545516],[33.405533,39.545465],[33.405019,39.545393],[33.404506,39.545308],[33.403996,39.545211],[33.403491,39.545103],[33.402994,39.544983],[33.402509,39.544849],[33.402038,39.544697],[33.401589,39.544521],[33.401169,39.544315],[33.400799,39.544085],[33.400456,39.543826],[33.400136,39.543545],[33.399834,39.543248],[33.399548,39.542936],[33.399278,39.542614],[33.39901,39.542263],[33.398756,39.541904],[33.398516,39.541538],[33.398288,39.541168],[33.398073,39.540792],[33.397874,39.540412],[33.397694,39.540027],[33.397523,39.539601],[33.397373,39.53917],[33.397237,39.538735],[33.397112,39.538298],[33.39688,39.53742],[33.395465,39.531702],[33.395154,39.53038],[33.394975,39.529496],[33.394901,39.529051],[33.394843,39.528604],[33.39476,39.527706],[33.394682,39.526354],[33.394654,39.525455],[33.39465,39.525008],[33.394658,39.524566],[33.394682,39.52413],[33.39473,39.523703],[33.394811,39.523289],[33.394939,39.522895],[33.395132,39.522527],[33.395359,39.522241],[33.395635,39.521977],[33.39595,39.52173],[33.396296,39.5215],[33.396668,39.521283],[33.397061,39.521082],[33.397521,39.520874],[33.397999,39.520683],[33.39849,39.520506],[33.39899,39.520342],[33.399497,39.520191],[33.40001,39.520057],[33.40053,39.51994],[33.401055,39.519847],[33.401595,39.519779],[33.402682,39.519675],[33.403224,39.519613],[33.403742,39.519533],[33.404254,39.519431],[33.404758,39.51931],[33.405251,39.519167],[33.405715,39.519009],[33.406163,39.51883],[33.406593,39.518629],[33.407,39.518404],[33.407376,39.518155],[33.407726,39.517884],[33.408052,39.517594],[33.408352,39.517288],[33.408623,39.516966],[33.408861,39.516628],[33.409069,39.51626],[33.409243,39.515877],[33.409388,39.515484],[33.409511,39.515084],[33.409614,39.514678],[33.409696,39.514281],[33.409761,39.513882],[33.409813,39.51348],[33.409849,39.513077],[33.40987,39.512674],[33.409871,39.512269],[33.409848,39.51184],[33.409805,39.511411],[33.409747,39.510981],[33.409678,39.510552],[33.409514,39.509698],[33.409316,39.508854],[33.4092,39.508442],[33.409068,39.508039],[33.408913,39.507651],[33.408728,39.507284],[33.408526,39.506974],[33.408292,39.506692],[33.408028,39.506446],[33.407732,39.506244],[33.4074,39.506099],[33.406965,39.506012],[33.40649,39.505997],[33.405984,39.506035],[33.405458,39.50611],[33.404917,39.50621],[33.404366,39.506328],[33.402115,39.506865],[33.401546,39.506994],[33.400977,39.507114],[33.400406,39.507219],[33.399835,39.507301],[33.39933,39.50735],[33.398828,39.507376],[33.398329,39.507377],[33.397837,39.50735],[33.397355,39.507291],[33.39689,39.507195],[33.396439,39.507066],[33.396007,39.506907],[33.395594,39.506721],[33.395207,39.506507],[33.394853,39.506264],[33.3945,39.505953],[33.394185,39.505611],[33.393898,39.505246],[33.39363,39.504865],[33.393375,39.504473],[33.392891,39.50367],[33.392421,39.502855],[33.390563,39.49958],[33.390119,39.498758],[33.389911,39.498344],[33.389719,39.497928],[33.389553,39.497522],[33.389409,39.497114],[33.389288,39.496704],[33.389197,39.496295],[33.389143,39.495885],[33.389138,39.495478],[33.389189,39.495089],[33.389287,39.494703],[33.389426,39.494322],[33.3896,39.493947],[33.38981,39.493581],[33.390046,39.493235],[33.390309,39.492898],[33.390592,39.492569],[33.390893,39.492247],[33.391209,39.491933],[33.39154,39.491628],[33.391886,39.491334],[33.39225,39.491053],[33.392667,39.490767],[33.393103,39.490496],[33.393553,39.490238],[33.394014,39.489991],[33.394485,39.489754],[33.394964,39.489528],[33.395451,39.489314],[33.395885,39.489139],[33.396324,39.488975],[33.396769,39.488821],[33.39722,39.48868],[33.397676,39.488552],[33.398138,39.488441],[33.398618,39.488347],[33.399103,39.488271],[33.399593,39.48821],[33.400085,39.488163],[33.400579,39.488129],[33.401054,39.48811],[33.401528,39.488102],[33.402002,39.488106],[33.402474,39.488122],[33.402944,39.488151],[33.404618,39.488314],[33.405167,39.488346],[33.405711,39.488342],[33.406246,39.48829],[33.406774,39.488197],[33.407297,39.488071],[33.407813,39.48792],[33.40832,39.487747],[33.408815,39.487554],[33.409295,39.487341],[33.409753,39.487103],[33.410181,39.486838],[33.410563,39.486546],[33.410917,39.486229],[33.411249,39.485893],[33.411563,39.485543],[33.411863,39.485182],[33.412152,39.484812],[33.412434,39.484429],[33.412708,39.484041],[33.413241,39.483256],[33.415328,39.48009],[33.416086,39.478892],[33.416532,39.478119],[33.416728,39.477748],[33.416913,39.477373],[33.417084,39.476996],[33.417239,39.476615],[33.417372,39.47623],[33.417487,39.47581],[33.417575,39.475387],[33.417638,39.474963],[33.417678,39.474539],[33.417693,39.474118],[33.417676,39.473703],[33.417619,39.473284],[33.417518,39.47288],[33.417363,39.4725],[33.417143,39.472151],[33.416871,39.471865],[33.416545,39.471613],[33.416175,39.471392],[33.415771,39.471203],[33.415339,39.471049],[33.414883,39.470937],[33.414371,39.470869],[33.41384,39.470844],[33.413296,39.47085],[33.412744,39.470878],[33.412186,39.470921],[33.411625,39.470975],[33.410499,39.471101],[33.406558,39.471582],[33.402081,39.472112],[33.400973,39.472261],[33.400423,39.472345],[33.39988,39.472439],[33.399343,39.472548],[33.398817,39.472676],[33.398305,39.472831],[33.397844,39.473005],[33.397394,39.473202],[33.396953,39.473416],[33.396083,39.473876],[33.394198,39.474902],[33.393219,39.475403],[33.392727,39.475634],[33.392235,39.475845],[33.391766,39.47602],[33.391303,39.476161],[33.390852,39.47626],[33.390422,39.476304],[33.390023,39.476274],[33.389687,39.476166],[33.38939,39.475991],[33.389138,39.475765],[33.388937,39.475497],[33.388798,39.475195],[33.388729,39.474835],[33.388728,39.47445],[33.388778,39.474048],[33.388863,39.473635],[33.388973,39.473214],[33.389243,39.47236],[33.389548,39.471502],[33.389867,39.470656],[33.390685,39.468557],[33.391348,39.466893],[33.391882,39.465639],[33.385323,39.465601],[33.380741,39.466757],[33.380692,39.46677],[33.374809,39.468439],[33.365755,39.470191],[33.365577,39.470257],[33.358125,39.473011],[33.352649,39.476585],[33.34893,39.480304],[33.345841,39.487175],[33.344202,39.495307],[33.343572,39.505329],[33.342689,39.514596],[33.3425,39.516109],[33.3398,39.529976],[33.337195,39.54023],[33.332824,39.556452],[33.329042,39.563428],[33.326436,39.569143],[33.324335,39.574774],[33.323327,39.581918],[33.321562,39.588558],[33.319881,39.593517],[33.318452,39.601501],[33.317695,39.607048],[33.317443,39.618479],[33.317443,39.628481],[33.319962,39.628633],[33.324542,39.628502],[33.327945,39.628633],[33.336255,39.629091],[33.341685,39.62968],[33.348294,39.629876],[33.355687,39.629941],[33.361576,39.630334],[33.366745,39.631446],[33.374401,39.634783],[33.375764,39.635678],[33.383005,39.639254],[33.387716,39.640738],[33.393299,39.641261],[33.396538,39.641588],[33.402296,39.640803],[33.408512,39.64113],[33.415448,39.642242],[33.427683,39.643224],[33.437956,39.644205],[33.445808,39.645514],[33.453267,39.645972],[33.456146,39.645907],[33.461904,39.644336],[33.467138,39.642504],[33.469689,39.641513],[33.471793,39.640677],[33.471209,39.640645],[33.470727,39.640591],[33.470253,39.640509],[33.46979,39.640399],[33.469355,39.640265],[33.468929,39.640108],[33.468512,39.639933],[33.468101,39.639744],[33.467696,39.639544],[33.467296,39.639335],[33.466824,39.639076],[33.465895,39.638538],[33.464975,39.637987],[33.461767,39.636046],[33.458098,39.633843],[33.456737,39.633006],[33.45585,39.63243],[33.455419,39.632132],[33.455004,39.631828],[33.454598,39.631517],[33.4542,39.6312],[33.453417,39.630554],[33.452653,39.629895],[33.451908,39.629222],[33.451182,39.628537],[33.450464,39.627846],[33.44583,39.623336],[33.442971,39.620565],[33.438293,39.616068],[33.437595,39.615367],[33.437259,39.615012],[33.436937,39.614651],[33.436635,39.614282],[33.436361,39.613904],[33.43614,39.613543],[33.435949,39.613172],[33.435785,39.612794],[33.43565,39.612409],[33.435547,39.612019],[33.43548,39.611639],[33.43544,39.611256],[33.435419,39.61087],[33.435415,39.610482],[33.435441,39.609702],[33.435469,39.609311],[33.435556,39.608459],[33.435665,39.607607],[33.435908,39.605905],[33.436501,39.601992],[33.436617,39.601098],[33.436661,39.600651],[33.436691,39.600205],[33.436701,39.599758],[33.436686,39.59932],[33.436653,39.598882],[33.436547,39.598007],[33.436411,39.597132],[33.436181,39.59582],[33.436015,39.594948],[33.435828,39.594083],[33.435722,39.593655],[33.435603,39.593232],[33.435464,39.592816],[33.435299,39.592409],[33.435099,39.592015],[33.434887,39.591681],[33.434647,39.591358],[33.434388,39.591042],[33.433579,39.590138],[33.433328,39.589832],[33.433062,39.589453],[33.432826,39.589059],[33.432611,39.588655],[33.432413,39.588242],[33.432227,39.587823],[33.43205,39.5874],[33.431716,39.586545],[33.431402,39.585684],[33.431254,39.585251],[33.430982,39.584381],[33.430865,39.583943],[33.430764,39.583506],[33.430677,39.583068],[33.430527,39.582186],[33.430397,39.581302],[33.430217,39.579974],[33.429986,39.578202],[33.429824,39.576873],[33.429691,39.575548],[33.429641,39.574669],[33.429635,39.574232],[33.429648,39.573798],[33.429698,39.57311],[33.429715,39.572715],[33.429712,39.57232],[33.429685,39.571925],[33.429627,39.571533],[33.429531,39.57113],[33.429402,39.570729],[33.429248,39.570332],[33.429075,39.569937],[33.428876,39.569526],[33.428665,39.569117],[33.428443,39.568709],[33.427976,39.567899],[33.427732,39.567496],[33.427277,39.566785],[33.426799,39.566084],[33.426546,39.565736]]]}},{"type":"Feature","properties":{"id":"TR-D-71-006","parent_id":"TR-P-71","region_id":"TR-R-ICA","level":"district","municipality_type":null,"municipality_type_label":null,"is_metropolitan_municipality":null,"name":"Keskin","name_ascii":"keskin","slug":"keskin-kirikkale"},"geometry":{"type":"Polygon","coordinates":[[[33.471793,39.640677],[33.472288,39.640681],[33.472833,39.640663],[33.473379,39.640624],[33.473832,39.640576],[33.474285,39.640519],[33.475753,39.640311],[33.476314,39.640238],[33.476876,39.640177],[33.477438,39.640132],[33.477922,39.640112],[33.478405,39.640108],[33.478887,39.640121],[33.479367,39.64015],[33.479843,39.640198],[33.480368,39.640277],[33.480886,39.64038],[33.481394,39.640508],[33.481891,39.640661],[33.482355,39.640833],[33.482808,39.641025],[33.483252,39.641233],[33.483688,39.641453],[33.484117,39.641684],[33.484538,39.641924],[33.48495,39.642174],[33.48535,39.642434],[33.485776,39.642735],[33.486182,39.643051],[33.486564,39.643381],[33.486915,39.643729],[33.487181,39.644035],[33.487422,39.644353],[33.487639,39.644681],[33.487833,39.645019],[33.488001,39.645361],[33.488147,39.645709],[33.488271,39.646063],[33.488373,39.646421],[33.488457,39.646818],[33.488515,39.647217],[33.488547,39.647618],[33.488551,39.648019],[33.488524,39.648418],[33.488463,39.648807],[33.488372,39.649194],[33.488255,39.649576],[33.488114,39.649952],[33.48795,39.650321],[33.487759,39.650681],[33.487562,39.650994],[33.487337,39.651295],[33.487023,39.65164],[33.486673,39.651966],[33.486295,39.652276],[33.485894,39.652572],[33.485475,39.652856],[33.485037,39.653124],[33.484572,39.653383],[33.484094,39.65363],[33.483112,39.654096],[33.482109,39.654538],[33.481092,39.654958],[33.480578,39.655158],[33.480057,39.655347],[33.47954,39.655522],[33.479017,39.655686],[33.477962,39.655997],[33.476898,39.656292],[33.475294,39.656714],[33.474219,39.656978],[33.472544,39.657351],[33.470862,39.657702],[33.465803,39.658724],[33.460809,39.65969],[33.459717,39.659927],[33.459177,39.660059],[33.458631,39.660207],[33.458091,39.660366],[33.457025,39.66071],[33.4565,39.660894],[33.455984,39.661087],[33.455477,39.661291],[33.454986,39.661509],[33.454517,39.661746],[33.454076,39.662009],[33.453739,39.662251],[33.453425,39.662513],[33.453134,39.662791],[33.452863,39.663084],[33.452578,39.663433],[33.452317,39.663795],[33.452078,39.664168],[33.451862,39.664551],[33.451671,39.664941],[33.451502,39.665359],[33.451359,39.665783],[33.451237,39.666212],[33.451135,39.666645],[33.451053,39.66708],[33.450993,39.667517],[33.45096,39.667955],[33.450956,39.668365],[33.450973,39.668777],[33.451007,39.669188],[33.451106,39.670012],[33.451227,39.670836],[33.451719,39.673805],[33.452014,39.675505],[33.452183,39.676349],[33.452279,39.676768],[33.452388,39.677183],[33.452516,39.677595],[33.452667,39.678],[33.452851,39.678401],[33.453058,39.678796],[33.453285,39.679187],[33.453524,39.679574],[33.454027,39.680343],[33.454549,39.681107],[33.455028,39.681788],[33.45535,39.682247],[33.455896,39.683001],[33.45646,39.683744],[33.456755,39.684107],[33.457063,39.684464],[33.457389,39.684809],[33.457736,39.685141],[33.458101,39.685463],[33.458479,39.685777],[33.458867,39.686084],[33.459665,39.686686],[33.460482,39.687273],[33.461317,39.687845],[33.461743,39.688123],[33.462175,39.688394],[33.462616,39.688655],[33.463069,39.688907],[33.464434,39.689639],[33.464871,39.689892],[33.465286,39.690159],[33.465669,39.690448],[33.466024,39.690777],[33.466338,39.69113],[33.466616,39.691504],[33.46686,39.691894],[33.467068,39.692299],[33.467232,39.6927],[33.467366,39.693111],[33.46748,39.693529],[33.467579,39.693952],[33.467667,39.694378],[33.46782,39.695237],[33.468013,39.696533],[33.468177,39.697823],[33.468297,39.698681],[33.468435,39.699467],[33.468517,39.699856],[33.46861,39.700242],[33.468718,39.700623],[33.468845,39.700997],[33.468996,39.701363],[33.469179,39.701717],[33.469401,39.702057],[33.469657,39.702384],[33.469941,39.702699],[33.470249,39.703002],[33.470578,39.703293],[33.470929,39.70357],[33.471299,39.703829],[33.471687,39.704075],[33.472089,39.704308],[33.472504,39.704529],[33.472931,39.704739],[33.473396,39.704948],[33.47387,39.705147],[33.475793,39.705909],[33.476267,39.706106],[33.476733,39.706313],[33.477186,39.706534],[33.477643,39.706783],[33.478086,39.707048],[33.478517,39.707324],[33.478939,39.707611],[33.479352,39.707905],[33.479757,39.708205],[33.480151,39.708512],[33.480533,39.708827],[33.4809,39.70915],[33.481244,39.709484],[33.481561,39.709833],[33.481838,39.710194],[33.482088,39.71057],[33.482315,39.710956],[33.484323,39.717639],[33.484353,39.718246],[33.492034,39.72428],[33.495943,39.726643],[33.499948,39.728537],[33.502871,39.730865],[33.505145,39.732489],[33.510233,39.735033],[33.516187,39.737631],[33.525484,39.739327],[33.528907,39.739581],[33.531189,39.740679],[33.533253,39.743314],[33.534267,39.744835],[33.535056,39.74692],[33.535506,39.748159],[33.535957,39.749286],[33.536464,39.7503],[33.537253,39.750526],[33.540634,39.751427],[33.543676,39.752779],[33.546099,39.753963],[33.550494,39.755653],[33.55472,39.757794],[33.560467,39.761456],[33.565876,39.764499],[33.571905,39.768218],[33.575961,39.770359],[33.585314,39.776106],[33.593034,39.779205],[33.598724,39.782078],[33.603006,39.783825],[33.606782,39.785403],[33.614557,39.788501],[33.617262,39.789234],[33.628981,39.790079],[33.632925,39.790361],[33.637151,39.790248],[33.643011,39.789459],[33.64842,39.787769],[33.651012,39.787487],[33.655294,39.787882],[33.658167,39.788445],[33.661323,39.789403],[33.668985,39.791206],[33.674056,39.792333],[33.67755,39.793798],[33.680085,39.794249],[33.683635,39.794643],[33.687917,39.795826],[33.69096,39.796728],[33.693439,39.797009],[33.69558,39.796897],[33.698735,39.796559],[33.700763,39.796559],[33.70375,39.796728],[33.706398,39.796953],[33.708257,39.797122],[33.712483,39.796615],[33.715751,39.796559],[33.720427,39.797122],[33.725273,39.797291],[33.727809,39.797235],[33.731358,39.797122],[33.735584,39.796953],[33.739641,39.795826],[33.744088,39.793796],[33.745611,39.793361],[33.748906,39.792382],[33.753551,39.791333],[33.760218,39.790734],[33.768085,39.790884],[33.775052,39.790884],[33.778049,39.790809],[33.784192,39.792082],[33.789511,39.79433],[33.801723,39.799125],[33.814309,39.804444],[33.822849,39.809463],[33.829517,39.811936],[33.837159,39.812984],[33.843077,39.813284],[33.848546,39.814183],[33.850119,39.814932],[33.853908,39.80912],[33.859727,39.798357],[33.86249,39.794866],[33.868599,39.79123],[33.872017,39.789557],[33.877617,39.786357],[33.888745,39.782139],[33.904381,39.777702],[33.91529,39.774721],[33.922344,39.772466],[33.923944,39.771593],[33.929399,39.766575],[33.934272,39.759448],[33.939362,39.754648],[33.96409,39.739666],[33.976224,39.73308],[33.976892,39.732665],[33.976639,39.732201],[33.976474,39.731814],[33.976339,39.731418],[33.976228,39.731017],[33.976137,39.73061],[33.976062,39.730201],[33.976004,39.729789],[33.975963,39.729375],[33.975941,39.72896],[33.975939,39.728562],[33.975945,39.728448],[33.975977,39.727765],[33.976064,39.726568],[33.976095,39.725771],[33.976087,39.725327],[33.976059,39.724885],[33.976007,39.724445],[33.975928,39.724009],[33.975824,39.7236],[33.975693,39.723196],[33.975536,39.722799],[33.975353,39.722409],[33.975141,39.722028],[33.974893,39.721654],[33.974619,39.721291],[33.974324,39.720935],[33.974013,39.720586],[33.97369,39.720243],[33.973355,39.719906],[33.973009,39.719577],[33.97265,39.719257],[33.972277,39.718949],[33.971885,39.718656],[33.971458,39.718374],[33.971013,39.718108],[33.970554,39.717853],[33.970086,39.717606],[33.969611,39.717365],[33.96865,39.716894],[33.962455,39.713956],[33.960661,39.710882],[33.960274,39.706857],[33.960158,39.705925],[33.960667,39.704143],[33.960859,39.703471],[33.961025,39.70289],[33.961269,39.702037],[33.96138,39.701762],[33.962935,39.697941],[33.964115,39.69197],[33.964074,39.686942],[33.964055,39.684665],[33.964046,39.68357],[33.963976,39.679404],[33.96363,39.677509],[33.962518,39.67142],[33.96106,39.668435],[33.957589,39.665172],[33.954326,39.663019],[33.949605,39.660034],[33.945856,39.657396],[33.939816,39.654966],[33.933706,39.652814],[33.928985,39.652883],[33.923848,39.653022],[33.920029,39.652536],[33.918085,39.651703],[33.91503,39.649203],[33.911906,39.646426],[33.911004,39.643927],[33.909557,39.639322],[33.908354,39.637378],[33.905114,39.634971],[33.898912,39.631639],[33.891414,39.627566],[33.884101,39.623955],[33.87975,39.621086],[33.875307,39.618494],[33.872437,39.61692],[33.869012,39.615254],[33.865495,39.611921],[33.862903,39.607293],[33.861051,39.601739],[33.859755,39.595074],[33.858922,39.589983],[33.858367,39.58628],[33.857523,39.580543],[33.85743,39.579853],[33.856799,39.575143],[33.856417,39.574802],[33.856042,39.5745],[33.855644,39.57422],[33.855211,39.573964],[33.854753,39.573732],[33.854277,39.57352],[33.853787,39.573325],[33.853286,39.573146],[33.852775,39.572985],[33.852255,39.572843],[33.851726,39.572725],[33.851263,39.572644],[33.850796,39.572577],[33.849386,39.572392],[33.84892,39.572314],[33.848375,39.572199],[33.847836,39.572064],[33.847301,39.571912],[33.846242,39.571578],[33.84519,39.571219],[33.843619,39.570661],[33.833169,39.566883],[33.832131,39.566497],[33.831102,39.566098],[33.830593,39.56589],[33.82961,39.565462],[33.82864,39.565016],[33.827195,39.564332],[33.818071,39.559959],[33.816646,39.559253],[33.815715,39.558763],[33.815259,39.558507],[33.814807,39.558236],[33.814362,39.557958],[33.813923,39.557674],[33.813057,39.557094],[33.811345,39.555912],[33.805806,39.552043],[33.80495,39.551452],[33.804086,39.55087],[33.803207,39.550304],[33.802758,39.550032],[33.802298,39.549772],[33.801831,39.549527],[33.801353,39.549294],[33.800378,39.548849],[33.798889,39.548211],[33.789385,39.544251],[33.787378,39.543426],[33.785849,39.542823],[33.784305,39.542233],[33.775014,39.538723],[33.772944,39.537952],[33.771903,39.537579],[33.770871,39.53723],[33.769335,39.536749],[33.767273,39.536133],[33.766238,39.535835],[33.765199,39.535549],[33.764151,39.535287],[33.763622,39.53517],[33.763066,39.535061],[33.761942,39.534874],[33.760811,39.534712],[33.757968,39.534337],[33.756833,39.534179],[33.755704,39.534004],[33.755186,39.533912],[33.754158,39.533708],[33.753144,39.533476],[33.752645,39.533347],[33.752154,39.533207],[33.751672,39.533051],[33.751204,39.532875],[33.75073,39.532667],[33.750271,39.532438],[33.749822,39.532193],[33.748942,39.531677],[33.747201,39.530616],[33.746759,39.53036],[33.74631,39.530115],[33.745851,39.529884],[33.745379,39.529673],[33.744914,39.529496],[33.744437,39.529337],[33.743951,39.529192],[33.743457,39.529058],[33.742456,39.528811],[33.741443,39.528583],[33.740374,39.528359],[33.739253,39.528133],[33.731844,39.526666],[33.731487,39.524197],[33.731347,39.52336],[33.731058,39.521636],[33.730992,39.519376],[33.732195,39.516691],[33.736268,39.512896],[33.747932,39.504842],[33.756171,39.497067],[33.75904,39.492901],[33.758594,39.487269],[33.758543,39.486629],[33.757374,39.482256],[33.754875,39.476516],[33.752746,39.473276],[33.750617,39.471703],[33.746173,39.471518],[33.738305,39.472443],[33.723679,39.475776],[33.717292,39.477442],[33.71507,39.47846],[33.707387,39.482441],[33.700907,39.486791],[33.698223,39.489106],[33.69415,39.4954],[33.687947,39.49864],[33.679894,39.500306],[33.674722,39.500237],[33.671667,39.500168],[33.663544,39.498015],[33.658615,39.495377],[33.653894,39.491559],[33.649798,39.485935],[33.645701,39.480798],[33.642577,39.476563],[33.638967,39.4733],[33.630844,39.468995],[33.620499,39.463996],[33.614813,39.469829],[33.609232,39.475117],[33.605413,39.478128],[33.597996,39.484296],[33.59146,39.488776],[33.5861,39.492374],[33.579197,39.498176],[33.576112,39.50104],[33.572147,39.503904],[33.56752,39.506621],[33.56517,39.507575],[33.561205,39.508677],[33.557386,39.509044],[33.554449,39.509264],[33.549981,39.509607],[33.544201,39.511914],[33.540291,39.514778],[33.535169,39.521057],[33.533296,39.525904],[33.532855,39.528713],[33.5328,39.533284],[33.532194,39.536644],[33.531203,39.539067],[33.529551,39.540885],[33.526577,39.542317],[33.524043,39.543473],[33.521399,39.545456],[33.517103,39.549587],[33.514515,39.551404],[33.509393,39.553277],[33.50394,39.555866],[33.498653,39.557959],[33.490777,39.561043],[33.485214,39.563246],[33.481028,39.563907],[33.476457,39.564403],[33.471114,39.563962],[33.462522,39.56242],[33.456353,39.561098],[33.450405,39.560382],[33.439335,39.560437],[33.429806,39.563521],[33.426546,39.565736],[33.426799,39.566084],[33.427277,39.566785],[33.427732,39.567496],[33.427976,39.567899],[33.428443,39.568709],[33.428665,39.569117],[33.428876,39.569526],[33.429075,39.569937],[33.429248,39.570332],[33.429402,39.570729],[33.429531,39.57113],[33.429627,39.571533],[33.429685,39.571925],[33.429712,39.57232],[33.429715,39.572715],[33.429698,39.57311],[33.429648,39.573798],[33.429635,39.574232],[33.429641,39.574669],[33.429691,39.575548],[33.429824,39.576873],[33.429986,39.578202],[33.430217,39.579974],[33.430397,39.581302],[33.430527,39.582186],[33.430677,39.583068],[33.430764,39.583506],[33.430865,39.583943],[33.430982,39.584381],[33.431254,39.585251],[33.431402,39.585684],[33.431716,39.586545],[33.43205,39.5874],[33.432227,39.587823],[33.432413,39.588242],[33.432611,39.588655],[33.432826,39.589059],[33.433062,39.589453],[33.433328,39.589832],[33.433579,39.590138],[33.434388,39.591042],[33.434647,39.591358],[33.434887,39.591681],[33.435099,39.592015],[33.435299,39.592409],[33.435464,39.592816],[33.435603,39.593232],[33.435722,39.593655],[33.435828,39.594083],[33.436015,39.594948],[33.436181,39.59582],[33.436411,39.597132],[33.436547,39.598007],[33.436653,39.598882],[33.436686,39.59932],[33.436701,39.599758],[33.436691,39.600205],[33.436661,39.600651],[33.436617,39.601098],[33.436501,39.601992],[33.435908,39.605905],[33.435665,39.607607],[33.435556,39.608459],[33.435469,39.609311],[33.435441,39.609702],[33.435415,39.610482],[33.435419,39.61087],[33.43544,39.611256],[33.43548,39.611639],[33.435547,39.612019],[33.43565,39.612409],[33.435785,39.612794],[33.435949,39.613172],[33.43614,39.613543],[33.436361,39.613904],[33.436635,39.614282],[33.436937,39.614651],[33.437259,39.615012],[33.437595,39.615367],[33.438293,39.616068],[33.442971,39.620565],[33.44583,39.623336],[33.450464,39.627846],[33.451182,39.628537],[33.451908,39.629222],[33.452653,39.629895],[33.453417,39.630554],[33.4542,39.6312],[33.454598,39.631517],[33.455004,39.631828],[33.455419,39.632132],[33.45585,39.63243],[33.456737,39.633006],[33.458098,39.633843],[33.461767,39.636046],[33.464975,39.637987],[33.465895,39.638538],[33.466824,39.639076],[33.467296,39.639335],[33.467696,39.639544],[33.468101,39.639744],[33.468512,39.639933],[33.468929,39.640108],[33.469355,39.640265],[33.46979,39.640399],[33.470253,39.640509],[33.470727,39.640591],[33.471209,39.640645],[33.471793,39.640677]]]}},{"type":"Feature","properties":{"id":"TR-D-71-007","parent_id":"TR-P-71","region_id":"TR-R-ICA","level":"district","municipality_type":null,"municipality_type_label":null,"is_metropolitan_municipality":null,"name":"Kırıkkale","name_ascii":"kirikkale","slug":"kirikkale-kirikkale"},"geometry":{"type":"Polygon","coordinates":[[[33.585188,40.065908],[33.589814,40.06554],[33.596222,40.063603],[33.5995,40.061815],[33.60412,40.059654],[33.612539,40.057344],[33.615651,40.0571],[33.614615,40.054297],[33.614107,40.050319],[33.613937,40.043378],[33.613768,40.037876],[33.613768,40.035591],[33.613683,40.02865],[33.613768,40.024249],[33.61343,40.018323],[33.612245,40.015953],[33.608351,40.010621],[33.606489,40.006981],[33.605642,40.003088],[33.605388,39.997924],[33.605642,39.992846],[33.606912,39.987937],[33.609451,39.982689],[33.615038,39.973378],[33.618254,39.969654],[33.620116,39.962882],[33.621894,39.95391],[33.627226,39.936389],[33.629766,39.925978],[33.63112,39.920053],[33.631712,39.918275],[33.633151,39.91599],[33.637384,39.91235],[33.640769,39.90888],[33.644578,39.902616],[33.647625,39.898384],[33.65245,39.891697],[33.654651,39.888481],[33.657021,39.885349],[33.659729,39.881794],[33.661168,39.878239],[33.663284,39.872399],[33.664385,39.866304],[33.665062,39.863342],[33.665993,39.857163],[33.667601,39.845397],[33.668617,39.839134],[33.670394,39.835833],[33.674542,39.831939],[33.677928,39.829061],[33.680721,39.827199],[33.682583,39.824406],[33.685038,39.820597],[33.686984,39.817719],[33.690455,39.813656],[33.692402,39.809509],[33.694264,39.805023],[33.694803,39.80297],[33.695502,39.800558],[33.69558,39.796897],[33.693439,39.797009],[33.69096,39.796728],[33.687917,39.795826],[33.683635,39.794643],[33.680085,39.794249],[33.67755,39.793798],[33.674056,39.792333],[33.668985,39.791206],[33.661323,39.789403],[33.658167,39.788445],[33.655294,39.787882],[33.651012,39.787487],[33.64842,39.787769],[33.643011,39.789459],[33.637151,39.790248],[33.632925,39.790361],[33.628981,39.790079],[33.617262,39.789234],[33.614557,39.788501],[33.606782,39.785403],[33.603006,39.783825],[33.598724,39.782078],[33.593034,39.779205],[33.585314,39.776106],[33.575961,39.770359],[33.571905,39.768218],[33.565876,39.764499],[33.560467,39.761456],[33.55472,39.757794],[33.550494,39.755653],[33.546099,39.753963],[33.543676,39.752779],[33.540634,39.751427],[33.537253,39.750526],[33.536464,39.7503],[33.535957,39.749286],[33.535506,39.748159],[33.535056,39.74692],[33.534267,39.744835],[33.533253,39.743314],[33.531189,39.740679],[33.528907,39.739581],[33.525484,39.739327],[33.516187,39.737631],[33.510233,39.735033],[33.505145,39.732489],[33.502871,39.730865],[33.499948,39.728537],[33.495943,39.726643],[33.492034,39.72428],[33.484353,39.718246],[33.484323,39.717639],[33.482315,39.710956],[33.482088,39.71057],[33.481838,39.710194],[33.481561,39.709833],[33.481244,39.709484],[33.4809,39.70915],[33.480533,39.708827],[33.480151,39.708512],[33.479757,39.708205],[33.479352,39.707905],[33.478939,39.707611],[33.478517,39.707324],[33.478086,39.707048],[33.477643,39.706783],[33.477186,39.706534],[33.476733,39.706313],[33.476267,39.706106],[33.475793,39.705909],[33.47387,39.705147],[33.473396,39.704948],[33.472931,39.704739],[33.472504,39.704529],[33.472089,39.704308],[33.471687,39.704075],[33.471299,39.703829],[33.470929,39.70357],[33.470578,39.703293],[33.470249,39.703002],[33.469941,39.702699],[33.469657,39.702384],[33.469401,39.702057],[33.469179,39.701717],[33.468996,39.701363],[33.468845,39.700997],[33.468718,39.700623],[33.46861,39.700242],[33.468517,39.699856],[33.468435,39.699467],[33.468297,39.698681],[33.468177,39.697823],[33.468013,39.696533],[33.46782,39.695237],[33.467667,39.694378],[33.467579,39.693952],[33.46748,39.693529],[33.467366,39.693111],[33.467232,39.6927],[33.467068,39.692299],[33.46686,39.691894],[33.466616,39.691504],[33.466338,39.69113],[33.466024,39.690777],[33.465669,39.690448],[33.465286,39.690159],[33.464871,39.689892],[33.464434,39.689639],[33.463069,39.688907],[33.462616,39.688655],[33.462175,39.688394],[33.461743,39.688123],[33.461317,39.687845],[33.460482,39.687273],[33.459665,39.686686],[33.458867,39.686084],[33.458479,39.685777],[33.458101,39.685463],[33.457736,39.685141],[33.457389,39.684809],[33.457063,39.684464],[33.456755,39.684107],[33.45646,39.683744],[33.455896,39.683001],[33.45535,39.682247],[33.455028,39.681788],[33.451689,39.683673],[33.441511,39.689419],[33.43891,39.690633],[33.42706,39.695488],[33.422147,39.697049],[33.416945,39.698609],[33.412378,39.69965],[33.40891,39.701268],[33.403476,39.704621],[33.398505,39.708725],[33.393072,39.71387],[33.388505,39.718725],[33.386482,39.721731],[33.387147,39.727261],[33.388765,39.731654],[33.389382,39.738051],[33.391386,39.741596],[33.393081,39.744217],[33.396318,39.74676],[33.400557,39.750768],[33.404411,39.752541],[33.409575,39.755007],[33.415509,39.756934],[33.422446,39.757704],[33.430461,39.758552],[33.434006,39.759323],[33.437706,39.762483],[33.442793,39.767107],[33.445336,39.772425],[33.448265,39.777666],[33.44909,39.778597],[33.45013,39.779233],[33.451807,39.779985],[33.453483,39.781083],[33.455737,39.78299],[33.457298,39.784204],[33.458917,39.78484],[33.459495,39.785649],[33.459842,39.786921],[33.460073,39.787846],[33.460709,39.789522],[33.461287,39.790794],[33.46198,39.792066],[33.462732,39.793395],[33.463425,39.794551],[33.464292,39.796054],[33.464813,39.797326],[33.465217,39.798829],[33.465449,39.79958],[33.465911,39.800678],[33.466547,39.802239],[33.467529,39.803626],[33.468512,39.804436],[33.470073,39.80565],[33.471056,39.806343],[33.472038,39.806517],[33.47383,39.806574],[33.475795,39.806574],[33.478281,39.806863],[33.479957,39.807557],[33.481518,39.809002],[33.482096,39.811083],[33.481865,39.812702],[33.481171,39.814436],[33.480478,39.815881],[33.479842,39.817326],[33.478281,39.818655],[33.476897,39.819105],[33.47217,39.819311],[33.46734,39.820441],[33.465079,39.82116],[33.464154,39.821982],[33.463949,39.822599],[33.46436,39.823524],[33.465388,39.824757],[33.46621,39.826401],[33.466518,39.827532],[33.466621,39.828868],[33.466415,39.829792],[33.466518,39.831539],[33.466726,39.832039],[33.467032,39.832773],[33.468573,39.834211],[33.470115,39.836061],[33.471039,39.837191],[33.470937,39.837911],[33.470628,39.838938],[33.469909,39.839863],[33.469806,39.841302],[33.47174,39.845105],[33.47414,39.849526],[33.475593,39.852494],[33.476603,39.855147],[33.47654,39.856599],[33.475972,39.858746],[33.475214,39.860578],[33.47534,39.862094],[33.476351,39.864115],[33.478371,39.86803],[33.47894,39.869861],[33.480834,39.872072],[33.482855,39.874724],[33.48475,39.877882],[33.487276,39.88445],[33.488981,39.890892],[33.489802,39.893986],[33.49056,39.896133],[33.491507,39.898786],[33.493086,39.902449],[33.49776,39.909017],[33.499338,39.91148],[33.502244,39.914132],[33.503696,39.915458],[33.506033,39.916848],[33.509127,39.918174],[33.511906,39.918806],[33.51519,39.920826],[33.520621,39.923732],[33.522516,39.925563],[33.524095,39.928405],[33.525168,39.931878],[33.5258,39.934973],[33.526684,39.938509],[33.527505,39.940783],[33.529589,39.944509],[33.531105,39.947225],[33.532178,39.948298],[33.536852,39.952214],[33.543357,39.95695],[33.546135,39.95954],[33.54923,39.964781],[33.551756,39.969644],[33.553398,39.97596],[33.553651,39.980065],[33.554093,39.98878],[33.553966,39.992632],[33.55403,39.99579],[33.55403,39.998821],[33.552324,40.001789],[33.547398,40.009052],[33.543609,40.017009],[33.541651,40.020672],[33.539925,40.024282],[33.544845,40.029473],[33.550897,40.035209],[33.554805,40.038172],[33.556381,40.039811],[33.557957,40.0429],[33.560037,40.045043],[33.563567,40.047123],[33.567853,40.049392],[33.571636,40.052166],[33.579956,40.059352],[33.583108,40.062315],[33.585188,40.065908]]]}},{"type":"Feature","properties":{"id":"TR-D-71-008","parent_id":"TR-P-71","region_id":"TR-R-ICA","level":"district","municipality_type":null,"municipality_type_label":null,"is_metropolitan_municipality":null,"name":"Sulakyurt","name_ascii":"sulakyurt","slug":"sulakyurt-kirikkale"},"geometry":{"type":"Polygon","coordinates":[[[33.615651,40.0571],[33.612539,40.057344],[33.60412,40.059654],[33.5995,40.061815],[33.596222,40.063603],[33.589814,40.06554],[33.585188,40.065908],[33.585055,40.069199],[33.585261,40.072978],[33.585468,40.077856],[33.585468,40.08081],[33.584574,40.08878],[33.583613,40.094139],[33.581245,40.100621],[33.578307,40.108605],[33.576048,40.11335],[33.573336,40.119376],[33.572508,40.124573],[33.571905,40.130825],[33.572734,40.135269],[33.57424,40.139035],[33.576198,40.142425],[33.579814,40.146191],[33.581396,40.147245],[33.584183,40.150409],[33.587045,40.156811],[33.588476,40.159749],[33.591112,40.166076],[33.592666,40.17053],[33.594487,40.174802],[33.596658,40.180124],[33.60072,40.189998],[33.60212,40.196021],[33.602166,40.200289],[33.602189,40.202457],[33.602191,40.202604],[33.602331,40.209186],[33.60253,40.210559],[33.602586,40.210949],[33.602668,40.211511],[33.602731,40.211947],[33.602961,40.213528],[33.603324,40.216098],[33.60311,40.220468],[33.603674,40.220976],[33.604346,40.221623],[33.60467,40.221952],[33.604983,40.222284],[33.605281,40.222622],[33.605557,40.222966],[33.605806,40.223318],[33.605928,40.223528],[33.606017,40.22368],[33.606185,40.224065],[33.606313,40.22446],[33.606409,40.224864],[33.60648,40.225274],[33.606529,40.225687],[33.606557,40.226103],[33.606564,40.22652],[33.606548,40.226936],[33.606503,40.227352],[33.606425,40.227775],[33.60632,40.228197],[33.606196,40.228617],[33.60606,40.229036],[33.605627,40.230289],[33.605385,40.231054],[33.605342,40.231216],[33.605284,40.231436],[33.605205,40.231817],[33.605156,40.232196],[33.605147,40.232573],[33.605192,40.232985],[33.605288,40.233393],[33.605426,40.233797],[33.6056,40.234195],[33.605808,40.234586],[33.606051,40.234965],[33.606325,40.235324],[33.606626,40.235673],[33.606949,40.236013],[33.607287,40.236347],[33.607639,40.236675],[33.608001,40.236997],[33.608372,40.237314],[33.608754,40.237623],[33.609147,40.237925],[33.609572,40.238231],[33.610008,40.238529],[33.610451,40.23882],[33.612691,40.240254],[33.613126,40.240547],[33.61355,40.240846],[33.613957,40.241154],[33.61434,40.241476],[33.61469,40.241816],[33.614993,40.24217],[33.615265,40.242542],[33.615514,40.242926],[33.615746,40.24332],[33.615967,40.243721],[33.616386,40.244535],[33.616979,40.245769],[33.617343,40.24659],[33.617507,40.246998],[33.61765,40.247402],[33.617764,40.247801],[33.617839,40.248194],[33.617857,40.248577],[33.617798,40.248947],[33.617643,40.249308],[33.61741,40.249655],[33.617119,40.249992],[33.616787,40.250323],[33.616425,40.25065],[33.61565,40.251295],[33.614038,40.252588],[33.613646,40.252919],[33.613265,40.253256],[33.612904,40.253603],[33.612567,40.25396],[33.612253,40.254326],[33.611974,40.254684],[33.611963,40.254699],[33.611697,40.255078],[33.611462,40.255462],[33.611265,40.255849],[33.611118,40.256241],[33.611038,40.256637],[33.611038,40.257028],[33.611103,40.257422],[33.611216,40.257818],[33.611367,40.258214],[33.611546,40.258608],[33.611751,40.259001],[33.611978,40.259389],[33.612228,40.259771],[33.612258,40.259813],[33.612507,40.260155],[33.612806,40.260532],[33.613438,40.261274],[33.614095,40.262005],[33.616759,40.264904],[33.618742,40.267076],[33.620494,40.269011],[33.621041,40.269615],[33.624309,40.273253],[33.62497,40.273974],[33.625648,40.274681],[33.625998,40.275025],[33.626361,40.275359],[33.62674,40.275678],[33.627143,40.275978],[33.627427,40.27616],[33.627573,40.276254],[33.628027,40.27651],[33.628497,40.276751],[33.628979,40.276983],[33.62947,40.277208],[33.630468,40.277644],[33.631476,40.278073],[33.634519,40.27934],[33.635538,40.279747],[33.63605,40.27994],[33.636563,40.280124],[33.63693,40.280243],[33.63708,40.280292],[33.637602,40.28044],[33.63813,40.28056],[33.638665,40.280642],[33.639176,40.280676],[33.639694,40.280678],[33.640216,40.280657],[33.642298,40.280501],[33.642803,40.280482],[33.643294,40.280488],[33.643765,40.28053],[33.644208,40.280623],[33.644645,40.28079],[33.645046,40.281016],[33.645104,40.281059],[33.645415,40.281288],[33.645753,40.281594],[33.646057,40.281928],[33.646323,40.282285],[33.64654,40.282665],[33.646691,40.283038],[33.646802,40.283425],[33.646885,40.283822],[33.646947,40.284226],[33.646996,40.284636],[33.647118,40.285878],[33.647224,40.286706],[33.647304,40.28715],[33.647398,40.287591],[33.647502,40.288032],[33.647733,40.28891],[33.648117,40.290215],[33.648402,40.291065],[33.648559,40.291478],[33.648732,40.291877],[33.648926,40.292257],[33.649151,40.29261],[33.649419,40.292925],[33.649745,40.293189],[33.649818,40.293227],[33.650128,40.293386],[33.650566,40.293534],[33.651044,40.293647],[33.651552,40.293735],[33.65208,40.293806],[33.654275,40.294038],[33.654822,40.294108],[33.655359,40.294196],[33.655881,40.294307],[33.656381,40.294452],[33.656864,40.294644],[33.657319,40.294873],[33.657747,40.295132],[33.658149,40.295417],[33.658519,40.295725],[33.658852,40.296057],[33.659113,40.296377],[33.659339,40.296714],[33.659529,40.297064],[33.659682,40.297427],[33.659803,40.297834],[33.659888,40.298251],[33.659947,40.298675],[33.659986,40.299103],[33.66003,40.299967],[33.660049,40.300836],[33.660064,40.302575],[33.660065,40.303876],[33.660054,40.30458],[33.660051,40.304741],[33.660035,40.305173],[33.66001,40.305604],[33.659929,40.306458],[33.659819,40.307311],[33.659628,40.308587],[33.659471,40.30953],[33.659415,40.309862],[33.659256,40.31071],[33.659082,40.311531],[33.658892,40.312349],[33.658687,40.313166],[33.658462,40.313979],[33.658348,40.314334],[33.658204,40.314786],[33.658057,40.315186],[33.65791,40.315546],[33.657586,40.31626],[33.657426,40.316589],[33.656828,40.317818],[33.656631,40.318242],[33.656448,40.318667],[33.656288,40.319093],[33.65616,40.319521],[33.656077,40.319927],[33.656034,40.320331],[33.656029,40.320731],[33.656068,40.321122],[33.65616,40.321499],[33.656317,40.321858],[33.656529,40.322168],[33.656796,40.322462],[33.657103,40.322742],[33.657441,40.323013],[33.657802,40.323275],[33.658179,40.323532],[33.658994,40.324048],[33.65929,40.324226],[33.659861,40.324568],[33.660739,40.325082],[33.665675,40.327945],[33.666583,40.328462],[33.667501,40.328962],[33.667967,40.3292],[33.66844,40.329425],[33.668923,40.329631],[33.669419,40.329812],[33.669919,40.32996],[33.670433,40.330081],[33.670957,40.33018],[33.671489,40.33026],[33.672027,40.330321],[33.672563,40.330363],[33.673102,40.330391],[33.673644,40.330407],[33.674732,40.330417],[33.67582,40.330402],[33.676906,40.330362],[33.677447,40.330328],[33.677518,40.330322],[33.677985,40.330282],[33.67852,40.33022],[33.679014,40.330145],[33.679504,40.330058],[33.681459,40.329671],[33.68195,40.329585],[33.682453,40.329511],[33.682958,40.32945],[33.683167,40.329431],[33.683462,40.329404],[33.683965,40.329373],[33.684465,40.32936],[33.684959,40.32937],[33.685447,40.329408],[33.685943,40.329482],[33.686425,40.32959],[33.686891,40.329731],[33.687335,40.329903],[33.687753,40.33011],[33.688174,40.330379],[33.688567,40.330679],[33.689677,40.331644],[33.690055,40.331947],[33.690454,40.332219],[33.690885,40.332444],[33.69132,40.332598],[33.691784,40.332707],[33.69227,40.332779],[33.692773,40.332821],[33.693287,40.332836],[33.693849,40.332824],[33.693917,40.33282],[33.694417,40.332792],[33.694989,40.332744],[33.695563,40.332686],[33.696717,40.332551],[33.703642,40.331667],[33.712097,40.330627],[33.713728,40.33041],[33.714808,40.330246],[33.715345,40.330153],[33.715877,40.330049],[33.716431,40.329925],[33.716981,40.32979],[33.717527,40.329646],[33.718615,40.329342],[33.721874,40.328397],[33.722972,40.328101],[33.724002,40.327847],[33.72504,40.327608],[33.726082,40.327377],[33.726354,40.327319],[33.727125,40.327154],[33.728162,40.326942],[33.729216,40.326748],[33.729748,40.326665],[33.729911,40.326645],[33.730268,40.3266],[33.730771,40.32656],[33.731251,40.326554],[33.7317,40.326595],[33.732105,40.3267],[33.73246,40.326879],[33.732777,40.327114],[33.733654,40.327924],[33.73397,40.328156],[33.734323,40.328331],[33.73472,40.328429],[33.735158,40.328463],[33.735626,40.32845],[33.736117,40.328402],[33.736624,40.328329],[33.737142,40.328236],[33.737668,40.32813],[33.738733,40.327887],[33.739282,40.327751],[33.740379,40.327464],[33.741474,40.327164],[33.74256,40.326852],[33.743632,40.32652],[33.744158,40.326341],[33.744676,40.32615],[33.745158,40.325953],[33.745633,40.325745],[33.746566,40.325306],[33.748036,40.324583],[33.759699,40.325532],[33.770069,40.326543],[33.779038,40.326635],[33.784141,40.327709],[33.78574,40.32711],[33.796174,40.323195],[33.802757,40.321235],[33.807519,40.319974],[33.811511,40.318083],[33.813822,40.315492],[33.815222,40.313461],[33.815378,40.311464],[33.815381,40.311427],[33.815522,40.309609],[33.815642,40.308069],[33.815852,40.300716],[33.816096,40.298595],[33.816343,40.296444],[33.817043,40.292872],[33.817743,40.289721],[33.819284,40.285589],[33.821665,40.280057],[33.824676,40.275925],[33.829158,40.271653],[33.835111,40.267942],[33.838542,40.267381],[33.842814,40.267592],[33.847996,40.268082],[33.854579,40.268782],[33.865714,40.268992],[33.873977,40.269272],[33.881751,40.270323],[33.890154,40.271373],[33.895687,40.271093],[33.90206,40.270883],[33.913334,40.270953],[33.918937,40.270603],[33.92692,40.269622],[33.933713,40.268082],[33.936584,40.266961],[33.940016,40.26458],[33.945058,40.261009],[33.95052,40.255827],[33.953882,40.253445],[33.957733,40.251555],[33.961095,40.250364],[33.966137,40.248753],[33.970828,40.248028],[33.970733,40.247508],[33.970197,40.241532],[33.972495,40.235174],[33.974793,40.230194],[33.978241,40.226747],[33.981612,40.224755],[33.986285,40.22284],[33.992337,40.220848],[33.995937,40.219469],[34.00129,40.217662],[34.000575,40.216791],[33.999979,40.216269],[33.999383,40.215897],[33.998191,40.215226],[33.99752,40.214481],[33.996701,40.214034],[33.99603,40.213587],[33.995732,40.212991],[33.995136,40.211799],[33.994912,40.211128],[33.994242,40.210234],[33.993869,40.209489],[33.993869,40.20852],[33.994018,40.207775],[33.993348,40.20703],[33.992677,40.206285],[33.992677,40.20554],[33.992975,40.204497],[33.993273,40.203603],[33.992975,40.203156],[33.992305,40.202709],[33.99156,40.202113],[33.99074,40.20107],[33.990367,40.200325],[33.989995,40.198983],[33.989101,40.198015],[33.987685,40.19645],[33.986642,40.195109],[33.985301,40.193842],[33.982842,40.191756],[33.981054,40.190042],[33.979713,40.188776],[33.97867,40.18669],[33.976211,40.18289],[33.972933,40.178494],[33.96809,40.173502],[33.95818,40.164114],[33.955051,40.160835],[33.951922,40.157334],[33.949686,40.153683],[33.94842,40.151522],[33.946631,40.149585],[33.942161,40.146977],[33.938436,40.145263],[33.935753,40.144146],[33.930538,40.140867],[33.926142,40.13893],[33.921746,40.137067],[33.918095,40.136322],[33.911613,40.132299],[33.901256,40.125668],[33.883598,40.114641],[33.878755,40.11248],[33.878115,40.112023],[33.875626,40.110245],[33.871081,40.106221],[33.8681,40.104433],[33.864822,40.101378],[33.862885,40.099739],[33.858936,40.098249],[33.846717,40.096014],[33.835988,40.096088],[33.829207,40.095939],[33.825557,40.096461],[33.821012,40.097355],[33.815871,40.098473],[33.810133,40.099516],[33.802385,40.100708],[33.796797,40.101304],[33.793071,40.10108],[33.787856,40.100559],[33.785471,40.100186],[33.782119,40.098696],[33.778766,40.097802],[33.775338,40.096088],[33.768633,40.092288],[33.765503,40.091245],[33.758053,40.091171],[33.751719,40.091171],[33.744939,40.091096],[33.736669,40.090426],[33.729814,40.08983],[33.725418,40.089532],[33.723407,40.089457],[33.715658,40.088414],[33.707834,40.08752],[33.703886,40.087743],[33.698148,40.088414],[33.693827,40.088712],[33.690921,40.088638],[33.689878,40.088041],[33.687345,40.084763],[33.683768,40.078653],[33.681757,40.074556],[33.678404,40.070905],[33.675722,40.068297],[33.670208,40.064348],[33.665663,40.062038],[33.66231,40.061219],[33.652699,40.05958],[33.643311,40.058611],[33.635636,40.057419],[33.63288,40.057344],[33.626099,40.056748],[33.616339,40.057046],[33.615651,40.0571]]]}},{"type":"Feature","properties":{"id":"TR-D-71-009","parent_id":"TR-P-71","region_id":"TR-R-ICA","level":"district","municipality_type":null,"municipality_type_label":null,"is_metropolitan_municipality":null,"name":"Yahşihan","name_ascii":"yahsihan","slug":"yahsihan-kirikkale"},"geometry":{"type":"Polygon","coordinates":[[[33.539925,40.024282],[33.541651,40.020672],[33.543609,40.017009],[33.547398,40.009052],[33.552324,40.001789],[33.55403,39.998821],[33.55403,39.99579],[33.553966,39.992632],[33.554093,39.98878],[33.553651,39.980065],[33.553398,39.97596],[33.551756,39.969644],[33.54923,39.964781],[33.546135,39.95954],[33.543357,39.95695],[33.536852,39.952214],[33.532178,39.948298],[33.531105,39.947225],[33.529589,39.944509],[33.527505,39.940783],[33.526684,39.938509],[33.5258,39.934973],[33.525168,39.931878],[33.524095,39.928405],[33.522516,39.925563],[33.520621,39.923732],[33.51519,39.920826],[33.511906,39.918806],[33.509127,39.918174],[33.506033,39.916848],[33.503696,39.915458],[33.502244,39.914132],[33.499338,39.91148],[33.49776,39.909017],[33.493086,39.902449],[33.491507,39.898786],[33.49056,39.896133],[33.489802,39.893986],[33.488981,39.890892],[33.487276,39.88445],[33.48475,39.877882],[33.482855,39.874724],[33.480834,39.872072],[33.47894,39.869861],[33.478371,39.86803],[33.476351,39.864115],[33.47534,39.862094],[33.475214,39.860578],[33.475972,39.858746],[33.47654,39.856599],[33.476603,39.855147],[33.475593,39.852494],[33.47414,39.849526],[33.47174,39.845105],[33.469806,39.841302],[33.469909,39.839863],[33.470628,39.838938],[33.470937,39.837911],[33.471039,39.837191],[33.470115,39.836061],[33.468573,39.834211],[33.467032,39.832773],[33.466726,39.832039],[33.466518,39.831539],[33.466415,39.829792],[33.466621,39.828868],[33.466518,39.827532],[33.46621,39.826401],[33.465388,39.824757],[33.46436,39.823524],[33.463949,39.822599],[33.464154,39.821982],[33.453704,39.819198],[33.43516,39.816786],[33.420838,39.812112],[33.397319,39.806534],[33.38571,39.807438],[33.38164,39.808343],[33.375006,39.805629],[33.369428,39.803971],[33.365056,39.800503],[33.35993,39.793719],[33.353296,39.788744],[33.347115,39.78211],[33.333697,39.778794],[33.329174,39.780753],[33.327064,39.78995],[33.32827,39.798996],[33.328465,39.802604],[33.325394,39.798714],[33.322118,39.794482],[33.318227,39.790729],[33.314872,39.787999],[33.30923,39.78536],[33.305589,39.789273],[33.303223,39.791184],[33.299947,39.794551],[33.29476,39.799556],[33.290028,39.804015],[33.286115,39.806745],[33.284568,39.808565],[33.283385,39.810749],[33.281471,39.815235],[33.282143,39.816412],[33.282227,39.817924],[33.282816,39.819269],[33.283656,39.820362],[33.28374,39.821707],[33.283152,39.822211],[33.282648,39.823135],[33.2829,39.824228],[33.28332,39.825825],[33.284497,39.826749],[33.28643,39.827842],[33.287943,39.828683],[33.289455,39.829439],[33.29122,39.830532],[33.293742,39.832213],[33.295171,39.83381],[33.296263,39.837003],[33.297188,39.839525],[33.298617,39.842382],[33.299541,39.84524],[33.301222,39.848854],[33.303239,39.851796],[33.304584,39.854906],[33.305845,39.860789],[33.306013,39.866084],[33.305509,39.872808],[33.305509,39.875077],[33.306349,39.877935],[33.308366,39.88096],[33.311812,39.885583],[33.314946,39.890369],[33.316172,39.893946],[33.316929,39.897602],[33.317685,39.901195],[33.318504,39.904158],[33.319576,39.906742],[33.321278,39.909579],[33.324997,39.913613],[33.326863,39.915536],[33.330597,39.920265],[33.330786,39.920532],[33.330975,39.920799],[33.332152,39.922144],[33.334673,39.924749],[33.336438,39.926178],[33.338035,39.926851],[33.342994,39.928279],[33.345431,39.92912],[33.350894,39.931977],[33.355349,39.935003],[33.35787,39.938617],[33.360308,39.941223],[33.364678,39.947106],[33.365939,39.948955],[33.36762,39.952401],[33.368965,39.955679],[33.370309,39.958873],[33.371055,39.960386],[33.372883,39.962214],[33.378368,39.965113],[33.383284,39.967509],[33.395072,39.972804],[33.395692,39.973036],[33.397593,39.973749],[33.404654,39.976082],[33.408057,39.978162],[33.413289,39.982448],[33.415117,39.984528],[33.417828,39.986104],[33.420412,39.987428],[33.424636,39.989067],[33.429364,39.990958],[33.442538,39.996505],[33.44632,39.998144],[33.45338,39.999909],[33.455334,40.00035],[33.458927,39.999972],[33.460882,39.999972],[33.464664,40.000476],[33.468635,40.001044],[33.473678,40.001422],[33.478658,40.002368],[33.484079,40.004889],[33.487357,40.006087],[33.491265,40.007284],[33.49656,40.008608],[33.501918,40.009112],[33.508095,40.009554],[33.515849,40.010625],[33.523476,40.012895],[33.530473,40.016235],[33.534192,40.018883],[33.539109,40.023422],[33.539925,40.024282]]]}}]}