{"type":"FeatureCollection","province":"Kırşehir","province_id":"TR-P-40","features":[{"type":"Feature","properties":{"id":"TR-D-40-001","parent_id":"TR-P-40","region_id":"TR-R-ICA","level":"district","municipality_type":null,"municipality_type_label":null,"is_metropolitan_municipality":null,"name":"Akçakent","name_ascii":"akcakent","slug":"akcakent-kirsehir"},"geometry":{"type":"Polygon","coordinates":[[[34.191748,39.522772],[34.187618,39.521796],[34.176805,39.52067],[34.167568,39.519543],[34.165092,39.5239],[34.156259,39.533772],[34.133138,39.542432],[34.122486,39.546156],[34.099104,39.545983],[34.069314,39.540787],[34.050609,39.542086],[34.039264,39.542952],[34.028537,39.544814],[34.02464,39.545658],[34.013014,39.548581],[34.004506,39.553387],[33.999245,39.558908],[33.994763,39.569494],[33.99328,39.576552],[33.992934,39.581402],[33.993194,39.585992],[33.993021,39.589109],[33.993107,39.591534],[33.9938,39.598635],[33.993887,39.600713],[33.995099,39.604524],[33.995705,39.610326],[33.996485,39.619419],[33.996052,39.631716],[33.995445,39.647044],[33.994579,39.649295],[33.991029,39.655444],[33.987738,39.66012],[33.984188,39.663844],[33.979511,39.667827],[33.97267,39.672677],[33.96363,39.677509],[33.963976,39.679404],[33.964046,39.68357],[33.964055,39.684665],[33.964074,39.686942],[33.964115,39.69197],[33.962935,39.697941],[33.96138,39.701762],[33.961269,39.702037],[33.961025,39.70289],[33.960859,39.703471],[33.960667,39.704143],[33.960158,39.705925],[33.960274,39.706857],[33.960661,39.710882],[33.962455,39.713956],[33.96865,39.716894],[33.969611,39.717365],[33.970086,39.717606],[33.970554,39.717853],[33.971013,39.718108],[33.971458,39.718374],[33.971885,39.718656],[33.972277,39.718949],[33.97265,39.719257],[33.973009,39.719577],[33.973355,39.719906],[33.97369,39.720243],[33.974013,39.720586],[33.974324,39.720935],[33.974619,39.721291],[33.974893,39.721654],[33.975141,39.722028],[33.975353,39.722409],[33.975536,39.722799],[33.975693,39.723196],[33.975824,39.7236],[33.975928,39.724009],[33.976007,39.724445],[33.976059,39.724885],[33.976087,39.725327],[33.976095,39.725771],[33.976064,39.726568],[33.975977,39.727765],[33.975945,39.728448],[33.975939,39.728562],[33.975941,39.72896],[33.975963,39.729375],[33.976004,39.729789],[33.976062,39.730201],[33.976137,39.73061],[33.976228,39.731017],[33.976339,39.731418],[33.976474,39.731814],[33.976639,39.732201],[33.976892,39.732665],[33.977079,39.732962],[33.97734,39.733329],[33.977623,39.733686],[33.977926,39.734034],[33.978251,39.734372],[33.978598,39.734695],[33.978971,39.735003],[33.979364,39.735299],[33.979771,39.735585],[33.980189,39.735864],[33.981043,39.736411],[33.982763,39.737492],[33.983216,39.737795],[33.983592,39.738046],[33.983987,39.738333],[33.984385,39.738649],[33.992747,39.740767],[33.993899,39.741124],[34.000772,39.742652],[34.008618,39.744179],[34.012922,39.745012],[34.016949,39.746609],[34.021253,39.749733],[34.024239,39.751538],[34.028612,39.754593],[34.030765,39.757509],[34.034653,39.763063],[34.036458,39.766604],[34.040662,39.763919],[34.045243,39.762041],[34.053353,39.757986],[34.061763,39.754082],[34.067846,39.750027],[34.076707,39.744545],[34.080236,39.74079],[34.088571,39.733882],[34.093903,39.727724],[34.0997,39.720185],[34.100361,39.718863],[34.102163,39.716235],[34.103514,39.712706],[34.104491,39.709026],[34.104866,39.705947],[34.104941,39.701667],[34.105091,39.699339],[34.107795,39.694308],[34.113201,39.688751],[34.118608,39.68342],[34.122288,39.680191],[34.125141,39.677037],[34.127844,39.673282],[34.133401,39.666149],[34.135429,39.663896],[34.139859,39.661418],[34.143914,39.660366],[34.149546,39.659165],[34.16051,39.656011],[34.169896,39.654659],[34.175979,39.654209],[34.180709,39.653233],[34.183563,39.653158],[34.193625,39.653007],[34.202111,39.653158],[34.207367,39.652632],[34.210221,39.651781],[34.21818,39.649002],[34.225464,39.645849],[34.228468,39.64322],[34.233049,39.639766],[34.235602,39.637739],[34.237179,39.634885],[34.236953,39.633759],[34.236052,39.631731],[34.234926,39.628427],[34.2344,39.62655],[34.233049,39.625499],[34.231472,39.624522],[34.228543,39.623171],[34.22599,39.621969],[34.220959,39.618365],[34.216904,39.614911],[34.216153,39.613183],[34.214951,39.611757],[34.214726,39.607552],[34.214501,39.601169],[34.213149,39.591632],[34.213149,39.587877],[34.213525,39.583897],[34.214276,39.580668],[34.215552,39.577064],[34.217354,39.574361],[34.218331,39.572934],[34.220884,39.568504],[34.221184,39.562271],[34.220208,39.558141],[34.218931,39.555963],[34.215026,39.550031],[34.208644,39.543798],[34.203688,39.538467],[34.198581,39.531859],[34.195127,39.526452],[34.191748,39.522772]]]}},{"type":"Feature","properties":{"id":"TR-D-40-002","parent_id":"TR-P-40","region_id":"TR-R-ICA","level":"district","municipality_type":null,"municipality_type_label":null,"is_metropolitan_municipality":null,"name":"Akpınar","name_ascii":"akpinar","slug":"akpinar-kirsehir"},"geometry":{"type":"Polygon","coordinates":[[[33.96363,39.677509],[33.97267,39.672677],[33.979511,39.667827],[33.984188,39.663844],[33.987738,39.66012],[33.991029,39.655444],[33.994579,39.649295],[33.995445,39.647044],[33.996052,39.631716],[33.996485,39.619419],[33.995705,39.610326],[33.995099,39.604524],[33.993887,39.600713],[33.9938,39.598635],[33.993107,39.591534],[33.993021,39.589109],[33.993194,39.585992],[33.992934,39.581402],[33.99328,39.576552],[33.994763,39.569494],[33.999245,39.558908],[34.004506,39.553387],[34.013014,39.548581],[34.02464,39.545658],[34.028537,39.544814],[34.039264,39.542952],[34.050609,39.542086],[34.069314,39.540787],[34.099104,39.545983],[34.122486,39.546156],[34.133138,39.542432],[34.156259,39.533772],[34.165092,39.5239],[34.167568,39.519543],[34.154802,39.517816],[34.146317,39.515413],[34.140385,39.512935],[34.1325,39.506703],[34.127093,39.502723],[34.123038,39.50077],[34.112826,39.496866],[34.108471,39.494463],[34.105192,39.49216],[34.102563,39.489156],[34.099109,39.486227],[34.096105,39.483299],[34.091975,39.480821],[34.089873,39.479619],[34.089122,39.478944],[34.087995,39.474889],[34.087244,39.47196],[34.087094,39.469257],[34.08732,39.465502],[34.087845,39.460696],[34.08777,39.454013],[34.08747,39.447705],[34.085517,39.440271],[34.084842,39.433287],[34.08379,39.425027],[34.081838,39.419621],[34.077708,39.409708],[34.073878,39.40295],[34.069898,39.397468],[34.066519,39.392738],[34.064567,39.390184],[34.060662,39.384027],[34.054279,39.371186],[34.052477,39.367281],[34.05135,39.362626],[34.050224,39.35812],[34.048046,39.353915],[34.044592,39.348884],[34.037458,39.342125],[34.030775,39.333565],[34.026194,39.326957],[34.024918,39.324178],[34.023116,39.320198],[34.021464,39.316369],[34.019737,39.312013],[34.017709,39.307358],[34.016057,39.303303],[34.014105,39.301425],[34.005394,39.299173],[33.999011,39.297671],[33.992039,39.295375],[33.988224,39.298293],[33.982276,39.304128],[33.9779,39.308617],[33.972626,39.316023],[33.971055,39.324439],[33.96982,39.332295],[33.968922,39.34015],[33.969147,39.350698],[33.968474,39.359227],[33.968249,39.372357],[33.9678,39.377406],[33.966005,39.386496],[33.963873,39.392668],[33.960169,39.400523],[33.957476,39.405573],[33.954446,39.408491],[33.949284,39.413092],[33.94704,39.415785],[33.939633,39.425548],[33.932676,39.429812],[33.92433,39.432225],[33.918775,39.433235],[33.907665,39.436265],[33.89159,39.439631],[33.885446,39.440641],[33.880565,39.442325],[33.874926,39.445859],[33.870044,39.45032],[33.869034,39.451835],[33.868108,39.457474],[33.865163,39.467405],[33.859187,39.475906],[33.852959,39.482471],[33.850855,39.483565],[33.846731,39.484827],[33.842018,39.4855],[33.83579,39.485669],[33.828972,39.485921],[33.817442,39.487436],[33.811382,39.487689],[33.799683,39.487605],[33.785544,39.486595],[33.778642,39.486005],[33.766355,39.486847],[33.758594,39.487269],[33.75904,39.492901],[33.756171,39.497067],[33.747932,39.504842],[33.736268,39.512896],[33.732195,39.516691],[33.730992,39.519376],[33.731058,39.521636],[33.731347,39.52336],[33.731487,39.524197],[33.731844,39.526666],[33.739253,39.528133],[33.740374,39.528359],[33.741443,39.528583],[33.742456,39.528811],[33.743457,39.529058],[33.743951,39.529192],[33.744437,39.529337],[33.744914,39.529496],[33.745379,39.529673],[33.745851,39.529884],[33.74631,39.530115],[33.746759,39.53036],[33.747201,39.530616],[33.748942,39.531677],[33.749822,39.532193],[33.750271,39.532438],[33.75073,39.532667],[33.751204,39.532875],[33.751672,39.533051],[33.752154,39.533207],[33.752645,39.533347],[33.753144,39.533476],[33.754158,39.533708],[33.755186,39.533912],[33.755704,39.534004],[33.756833,39.534179],[33.757968,39.534337],[33.760811,39.534712],[33.761942,39.534874],[33.763066,39.535061],[33.763622,39.53517],[33.764151,39.535287],[33.765199,39.535549],[33.766238,39.535835],[33.767273,39.536133],[33.769335,39.536749],[33.770871,39.53723],[33.771903,39.537579],[33.772944,39.537952],[33.775014,39.538723],[33.784305,39.542233],[33.785849,39.542823],[33.787378,39.543426],[33.789385,39.544251],[33.798889,39.548211],[33.800378,39.548849],[33.801353,39.549294],[33.801831,39.549527],[33.802298,39.549772],[33.802758,39.550032],[33.803207,39.550304],[33.804086,39.55087],[33.80495,39.551452],[33.805806,39.552043],[33.811345,39.555912],[33.813057,39.557094],[33.813923,39.557674],[33.814362,39.557958],[33.814807,39.558236],[33.815259,39.558507],[33.815715,39.558763],[33.816646,39.559253],[33.818071,39.559959],[33.827195,39.564332],[33.82864,39.565016],[33.82961,39.565462],[33.830593,39.56589],[33.831102,39.566098],[33.832131,39.566497],[33.833169,39.566883],[33.843619,39.570661],[33.84519,39.571219],[33.846242,39.571578],[33.847301,39.571912],[33.847836,39.572064],[33.848375,39.572199],[33.84892,39.572314],[33.849386,39.572392],[33.850796,39.572577],[33.851263,39.572644],[33.851726,39.572725],[33.852255,39.572843],[33.852775,39.572985],[33.853286,39.573146],[33.853787,39.573325],[33.854277,39.57352],[33.854753,39.573732],[33.855211,39.573964],[33.855644,39.57422],[33.856042,39.5745],[33.856417,39.574802],[33.856799,39.575143],[33.85743,39.579853],[33.857523,39.580543],[33.858367,39.58628],[33.858922,39.589983],[33.859755,39.595074],[33.861051,39.601739],[33.862903,39.607293],[33.865495,39.611921],[33.869012,39.615254],[33.872437,39.61692],[33.875307,39.618494],[33.87975,39.621086],[33.884101,39.623955],[33.891414,39.627566],[33.898912,39.631639],[33.905114,39.634971],[33.908354,39.637378],[33.909557,39.639322],[33.911004,39.643927],[33.911906,39.646426],[33.91503,39.649203],[33.918085,39.651703],[33.920029,39.652536],[33.923848,39.653022],[33.928985,39.652883],[33.933706,39.652814],[33.939816,39.654966],[33.945856,39.657396],[33.949605,39.660034],[33.954326,39.663019],[33.957589,39.665172],[33.96106,39.668435],[33.962518,39.67142],[33.96363,39.677509]]]}},{"type":"Feature","properties":{"id":"TR-D-40-003","parent_id":"TR-P-40","region_id":"TR-R-ICA","level":"district","municipality_type":null,"municipality_type_label":null,"is_metropolitan_municipality":null,"name":"Boztepe","name_ascii":"boztepe","slug":"boztepe-kirsehir"},"geometry":{"type":"Polygon","coordinates":[[[34.264211,39.171978],[34.262237,39.172767],[34.25774,39.174215],[34.248974,39.175282],[34.240208,39.176807],[34.235329,39.177188],[34.229536,39.179856],[34.218483,39.187402],[34.210098,39.194872],[34.20583,39.200132],[34.203543,39.204248],[34.200036,39.212176],[34.198664,39.214615],[34.197978,39.217054],[34.196454,39.220713],[34.194396,39.223686],[34.19188,39.227802],[34.189212,39.231995],[34.187764,39.234891],[34.187612,39.237483],[34.187688,39.24198],[34.189365,39.250899],[34.191042,39.257683],[34.192261,39.265153],[34.19249,39.270489],[34.19249,39.274376],[34.191423,39.282533],[34.189517,39.291527],[34.189136,39.29511],[34.188907,39.299379],[34.189212,39.307992],[34.190661,39.313328],[34.192033,39.315157],[34.193024,39.316987],[34.198283,39.324991],[34.200875,39.329564],[34.204686,39.335967],[34.207049,39.340541],[34.208269,39.344581],[34.20926,39.348163],[34.209946,39.351822],[34.210403,39.355557],[34.211394,39.359673],[34.215282,39.366229],[34.219245,39.370498],[34.223133,39.374004],[34.229536,39.380483],[34.242189,39.392832],[34.255529,39.406019],[34.268716,39.419511],[34.273595,39.425304],[34.280303,39.432165],[34.28541,39.435595],[34.289831,39.439101],[34.295167,39.442074],[34.301722,39.443675],[34.307515,39.445199],[34.316281,39.450078],[34.322608,39.456328],[34.325276,39.460216],[34.326782,39.462948],[34.337115,39.461612],[34.343978,39.461914],[34.350034,39.463529],[34.36053,39.464135],[34.366788,39.464337],[34.375771,39.465447],[34.382129,39.468071],[34.389295,39.471301],[34.391818,39.472411],[34.39737,39.473017],[34.405343,39.472613],[34.409797,39.471982],[34.416609,39.468651],[34.421075,39.46691],[34.424028,39.464867],[34.425996,39.462444],[34.430462,39.455404],[34.433717,39.44897],[34.436215,39.440038],[34.435988,39.429895],[34.434991,39.422375],[34.435899,39.417733],[34.437716,39.411677],[34.441955,39.409154],[34.45003,39.406832],[34.481116,39.400272],[34.515129,39.391995],[34.531278,39.389876],[34.544512,39.389472],[34.562679,39.389851],[34.578803,39.389169],[34.594624,39.38705],[34.599695,39.38631],[34.595614,39.377289],[34.591855,39.368267],[34.587989,39.360856],[34.5838,39.352586],[34.582189,39.347324],[34.581222,39.339913],[34.580041,39.334113],[34.583585,39.327562],[34.591103,39.320151],[34.603347,39.314244],[34.607428,39.313063],[34.61657,39.31053],[34.614938,39.308067],[34.611527,39.303179],[34.608685,39.299882],[34.602318,39.295334],[34.596066,39.289422],[34.592996,39.284647],[34.592428,39.279077],[34.592271,39.27109],[34.590651,39.263245],[34.588946,39.258215],[34.585279,39.254975],[34.578202,39.251138],[34.572234,39.247898],[34.562002,39.24551],[34.557056,39.242696],[34.555095,39.24065],[34.548686,39.232948],[34.530382,39.224762],[34.520719,39.221124],[34.516057,39.222261],[34.497141,39.227579],[34.484812,39.230813],[34.478547,39.232834],[34.47309,39.237685],[34.467228,39.242939],[34.45874,39.245163],[34.443985,39.246982],[34.423572,39.247588],[34.404978,39.247588],[34.390426,39.243748],[34.369002,39.236674],[34.349724,39.232338],[34.338639,39.230292],[34.333352,39.228757],[34.331732,39.227904],[34.322779,39.222532],[34.312718,39.216223],[34.307943,39.213153],[34.302145,39.20744],[34.297967,39.203944],[34.292851,39.198573],[34.288844,39.194139],[34.284324,39.190302],[34.279464,39.18655],[34.276565,39.185442],[34.271449,39.182116],[34.269062,39.179814],[34.266674,39.176744],[34.264798,39.173504],[34.264211,39.171978]]]}},{"type":"Feature","properties":{"id":"TR-D-40-004","parent_id":"TR-P-40","region_id":"TR-R-ICA","level":"district","municipality_type":null,"municipality_type_label":null,"is_metropolitan_municipality":null,"name":"Çiçekdağı","name_ascii":"cicekdagi","slug":"cicekdagi-kirsehir"},"geometry":{"type":"Polygon","coordinates":[[[34.620757,39.411998],[34.615443,39.411415],[34.613443,39.410798],[34.606569,39.401669],[34.602703,39.393184],[34.599695,39.38631],[34.594624,39.38705],[34.578803,39.389169],[34.562679,39.389851],[34.544512,39.389472],[34.531278,39.389876],[34.515129,39.391995],[34.481116,39.400272],[34.45003,39.406832],[34.441955,39.409154],[34.437716,39.411677],[34.435899,39.417733],[34.434991,39.422375],[34.435988,39.429895],[34.436215,39.440038],[34.433717,39.44897],[34.430462,39.455404],[34.425996,39.462444],[34.424028,39.464867],[34.421075,39.46691],[34.416609,39.468651],[34.409797,39.471982],[34.405343,39.472613],[34.39737,39.473017],[34.391818,39.472411],[34.389295,39.471301],[34.382129,39.468071],[34.375771,39.465447],[34.366788,39.464337],[34.36053,39.464135],[34.350034,39.463529],[34.343978,39.461914],[34.337115,39.461612],[34.326782,39.462948],[34.325407,39.463126],[34.31491,39.465649],[34.28988,39.472209],[34.279181,39.475136],[34.266666,39.479173],[34.249508,39.486945],[34.228918,39.502993],[34.21277,39.512783],[34.209439,39.514701],[34.199952,39.52005],[34.191748,39.522772],[34.195127,39.526452],[34.198581,39.531859],[34.203688,39.538467],[34.208644,39.543798],[34.215026,39.550031],[34.218931,39.555963],[34.220208,39.558141],[34.221184,39.562271],[34.220884,39.568504],[34.218331,39.572934],[34.217354,39.574361],[34.215552,39.577064],[34.214276,39.580668],[34.213525,39.583897],[34.213149,39.587877],[34.213149,39.591632],[34.214501,39.601169],[34.214726,39.607552],[34.214951,39.611757],[34.216153,39.613183],[34.216904,39.614911],[34.220959,39.618365],[34.22599,39.621969],[34.228543,39.623171],[34.231472,39.624522],[34.233049,39.625499],[34.2344,39.62655],[34.234926,39.628427],[34.236052,39.631731],[34.236953,39.633759],[34.237179,39.634885],[34.235602,39.637739],[34.233049,39.639766],[34.228468,39.64322],[34.225464,39.645849],[34.21818,39.649002],[34.210221,39.651781],[34.207367,39.652632],[34.202111,39.653158],[34.193625,39.653007],[34.183563,39.653158],[34.180709,39.653233],[34.175979,39.654209],[34.169896,39.654659],[34.16051,39.656011],[34.149546,39.659165],[34.143914,39.660366],[34.139859,39.661418],[34.135429,39.663896],[34.133401,39.666149],[34.127844,39.673282],[34.125141,39.677037],[34.122288,39.680191],[34.118608,39.68342],[34.113201,39.688751],[34.107795,39.694308],[34.105091,39.699339],[34.104941,39.701667],[34.104866,39.705947],[34.104491,39.709026],[34.103514,39.712706],[34.102163,39.716235],[34.100361,39.718863],[34.0997,39.720185],[34.093903,39.727724],[34.088571,39.733882],[34.080236,39.74079],[34.076707,39.744545],[34.067846,39.750027],[34.061763,39.754082],[34.053353,39.757986],[34.045243,39.762041],[34.040662,39.763919],[34.036458,39.766604],[34.039721,39.769659],[34.044303,39.773338],[34.048121,39.775213],[34.053606,39.77681],[34.061451,39.77792],[34.066242,39.777782],[34.071032,39.777365],[34.076309,39.776393],[34.080544,39.775629],[34.085542,39.775143],[34.089361,39.775838],[34.093804,39.777296],[34.09797,39.77924],[34.100261,39.781184],[34.103315,39.783127],[34.106023,39.784238],[34.109217,39.785696],[34.111261,39.785791],[34.112202,39.785835],[34.115601,39.788173],[34.121533,39.792253],[34.1286,39.791098],[34.148404,39.789334],[34.165689,39.791365],[34.176816,39.791442],[34.18244,39.786235],[34.187725,39.777277],[34.19309,39.773909],[34.211166,39.7602],[34.213241,39.75834],[34.22244,39.746444],[34.247957,39.728963],[34.284531,39.715835],[34.326474,39.703416],[34.36749,39.692462],[34.427499,39.676552],[34.454059,39.673815],[34.467822,39.669698],[34.468114,39.663374],[34.46829,39.661258],[34.469418,39.651512],[34.469158,39.650904],[34.468639,39.65041],[34.46797,39.649775],[34.466604,39.64835],[34.464822,39.647043],[34.464228,39.646568],[34.462803,39.646389],[34.461139,39.645855],[34.457338,39.64431],[34.455057,39.642357],[34.453672,39.640556],[34.452979,39.638685],[34.452728,39.636404],[34.452903,39.635003],[34.453195,39.633718],[34.454042,39.633805],[34.455035,39.633805],[34.455385,39.63382],[34.455736,39.633834],[34.456729,39.633601],[34.45778,39.633513],[34.459182,39.63328],[34.460145,39.633192],[34.461138,39.632988],[34.462102,39.632608],[34.463212,39.631936],[34.463854,39.631557],[34.463898,39.631425],[34.463942,39.631294],[34.463621,39.630476],[34.463124,39.628987],[34.462423,39.627439],[34.461664,39.625862],[34.461406,39.623863],[34.462306,39.620471],[34.465698,39.615418],[34.469505,39.613479],[34.473382,39.612372],[34.479543,39.611472],[34.487088,39.609326],[34.490134,39.60808],[34.49588,39.605934],[34.522393,39.597142],[34.525646,39.595273],[34.531461,39.590981],[34.536722,39.586343],[34.539491,39.582536],[34.541083,39.578798],[34.540876,39.576998],[34.539145,39.573745],[34.537691,39.570076],[34.531046,39.559138],[34.5289,39.554916],[34.524746,39.54204],[34.521562,39.535325],[34.519624,39.52778],[34.518516,39.519057],[34.516993,39.514765],[34.515401,39.509851],[34.515332,39.507981],[34.51554,39.500713],[34.516647,39.495383],[34.522254,39.487145],[34.529592,39.481815],[34.536238,39.478423],[34.548075,39.4742],[34.557005,39.470946],[34.557625,39.470634],[34.565381,39.466724],[34.576042,39.461463],[34.585802,39.456202],[34.593555,39.451771],[34.602001,39.444641],[34.608369,39.435434],[34.617715,39.422143],[34.620757,39.411998]]]}},{"type":"Feature","properties":{"id":"TR-D-40-005","parent_id":"TR-P-40","region_id":"TR-R-ICA","level":"district","municipality_type":null,"municipality_type_label":null,"is_metropolitan_municipality":null,"name":"Kaman","name_ascii":"kaman","slug":"kaman-kirsehir"},"geometry":{"type":"Polygon","coordinates":[[[33.677798,39.140519],[33.666251,39.148522],[33.658658,39.153783],[33.656513,39.155286],[33.655256,39.156207],[33.653632,39.157461],[33.6464,39.16317],[33.641678,39.166914],[33.640537,39.167808],[33.639766,39.168394],[33.639375,39.168681],[33.638977,39.168962],[33.63857,39.169233],[33.638153,39.169493],[33.637695,39.169753],[33.637226,39.17],[33.636747,39.170237],[33.636261,39.170468],[33.635277,39.170917],[33.627309,39.174407],[33.605912,39.183803],[33.604922,39.184247],[33.603941,39.184701],[33.602979,39.185176],[33.602503,39.185428],[33.60157,39.185952],[33.599735,39.187039],[33.591075,39.192272],[33.586678,39.194924],[33.583467,39.19686],[33.577843,39.200251],[33.575101,39.201897],[33.572344,39.203517],[33.56128,39.209952],[33.558048,39.211825],[33.552956,39.214761],[33.552046,39.215305],[33.5516,39.215583],[33.551164,39.215867],[33.550743,39.216161],[33.550341,39.216467],[33.549966,39.216791],[33.549623,39.217138],[33.549308,39.217503],[33.549013,39.21788],[33.548732,39.218267],[33.548461,39.21866],[33.547936,39.219459],[33.546392,39.221876],[33.545859,39.222674],[33.545591,39.223061],[33.544762,39.224213],[33.543916,39.225356],[33.541101,39.229106],[33.539356,39.231431],[33.538227,39.232954],[33.53768,39.233722],[33.537159,39.234501],[33.536913,39.234897],[33.536445,39.235699],[33.535996,39.236509],[33.535339,39.237729],[33.52839,39.250772],[33.526901,39.253647],[33.526576,39.254282],[33.522267,39.262703],[33.521624,39.263935],[33.52118,39.26475],[33.52071,39.265555],[33.520458,39.265956],[33.519929,39.26675],[33.519101,39.267927],[33.518937,39.268154],[33.51754,39.270089],[33.517127,39.270662],[33.516304,39.271841],[33.516043,39.272238],[33.515795,39.272638],[33.515564,39.273042],[33.515361,39.273441],[33.515182,39.273845],[33.515028,39.274253],[33.514906,39.274666],[33.514821,39.275083],[33.514782,39.275492],[33.514776,39.275905],[33.514793,39.27632],[33.514943,39.27799],[33.514968,39.278407],[33.514974,39.278823],[33.514951,39.279235],[33.514897,39.279615],[33.514814,39.279991],[33.514706,39.280363],[33.514575,39.280731],[33.514421,39.281093],[33.514243,39.281448],[33.514037,39.281793],[33.513771,39.282166],[33.513475,39.282529],[33.513157,39.282883],[33.512824,39.283231],[33.512337,39.283711],[33.512128,39.283916],[33.511413,39.284594],[33.508885,39.286958],[33.506019,39.289672],[33.505473,39.290177],[33.505296,39.290342],[33.504557,39.290993],[33.504176,39.291306],[33.503783,39.291605],[33.503374,39.291885],[33.502941,39.29214],[33.502492,39.292357],[33.502022,39.29255],[33.501846,39.292613],[33.501535,39.292725],[33.501037,39.292886],[33.50053,39.293038],[33.4995,39.293325],[33.497413,39.293867],[33.495839,39.294254],[33.494786,39.294492],[33.494258,39.294599],[33.493729,39.294695],[33.493199,39.294775],[33.492666,39.294834],[33.492178,39.294865],[33.491689,39.294874],[33.4912,39.294864],[33.490711,39.294835],[33.490225,39.294786],[33.489694,39.294709],[33.489166,39.294613],[33.487588,39.29428],[33.487061,39.294174],[33.486509,39.294077],[33.485954,39.293998],[33.485397,39.293944],[33.484849,39.29392],[33.484301,39.293923],[33.483752,39.293947],[33.483203,39.293991],[33.482657,39.294055],[33.482114,39.294139],[33.481573,39.29424],[33.481036,39.294355],[33.480503,39.294482],[33.479975,39.294622],[33.479452,39.294775],[33.478922,39.294946],[33.478398,39.29513],[33.477361,39.295519],[33.475819,39.296129],[33.470181,39.298391],[33.463987,39.300826],[33.462965,39.301245],[33.462463,39.301462],[33.461971,39.301688],[33.461515,39.301916],[33.461076,39.302156],[33.460661,39.302411],[33.460276,39.302685],[33.459933,39.302983],[33.459669,39.303274],[33.459445,39.303585],[33.459261,39.303913],[33.459117,39.304256],[33.459009,39.304641],[33.458942,39.305037],[33.458906,39.305441],[33.458896,39.30586],[33.458943,39.307559],[33.458938,39.307984],[33.458909,39.308407],[33.45885,39.308818],[33.458764,39.309225],[33.458656,39.309629],[33.458526,39.310028],[33.458374,39.310423],[33.4582,39.31081],[33.457994,39.311199],[33.457762,39.311577],[33.457504,39.311942],[33.457216,39.312292],[33.456897,39.312621],[33.456546,39.31293],[33.456163,39.313214],[33.455724,39.313487],[33.455258,39.313736],[33.454772,39.313969],[33.454273,39.314192],[33.453251,39.314617],[33.4517,39.315245],[33.451186,39.31546],[33.450264,39.315866],[33.448903,39.316506],[33.448012,39.316953],[33.447574,39.317185],[33.447127,39.317434],[33.446255,39.317953],[33.445832,39.318222],[33.445421,39.318497],[33.445027,39.318781],[33.444651,39.319078],[33.444304,39.319386],[33.443995,39.319709],[33.443737,39.320051],[33.443585,39.320322],[33.443469,39.320603],[33.443389,39.320894],[33.443338,39.321273],[33.443333,39.32166],[33.443364,39.322054],[33.443422,39.322451],[33.443504,39.322849],[33.443607,39.323249],[33.44373,39.323647],[33.443881,39.324063],[33.44405,39.324476],[33.444233,39.324886],[33.44443,39.325292],[33.444639,39.325694],[33.444863,39.32609],[33.445104,39.326477],[33.445367,39.326853],[33.445634,39.327186],[33.445886,39.327468],[33.44592,39.327506],[33.446224,39.327814],[33.446543,39.328109],[33.446878,39.328387],[33.447228,39.328645],[33.447597,39.328878],[33.447988,39.329078],[33.448378,39.32923],[33.448787,39.329348],[33.449209,39.329433],[33.44964,39.329486],[33.450078,39.329504],[33.450555,39.329484],[33.451035,39.329433],[33.452492,39.329233],[33.452985,39.32919],[33.453533,39.329178],[33.454085,39.329197],[33.45464,39.329238],[33.454677,39.329242],[33.455198,39.329297],[33.455757,39.329369],[33.456877,39.329537],[33.457994,39.329728],[33.458549,39.329831],[33.459098,39.32994],[33.459639,39.330057],[33.460168,39.330185],[33.460679,39.330328],[33.461164,39.330494],[33.461614,39.330689],[33.462015,39.330926],[33.462354,39.331211],[33.462644,39.331537],[33.46276,39.3317],[33.462897,39.331893],[33.463122,39.332272],[33.463325,39.332665],[33.463509,39.33307],[33.463676,39.333484],[33.463824,39.333903],[33.463941,39.334297],[33.463951,39.334328],[33.464051,39.334757],[33.464119,39.335186],[33.464163,39.335618],[33.464189,39.336052],[33.464203,39.336487],[33.464208,39.33736],[33.464196,39.338234],[33.464175,39.339105],[33.464139,39.339973],[33.464073,39.340832],[33.46402,39.341255],[33.463944,39.341673],[33.463839,39.342082],[33.463692,39.34248],[33.463492,39.342871],[33.463249,39.343251],[33.462975,39.343622],[33.462679,39.343987],[33.462575,39.344105],[33.462045,39.344707],[33.46138,39.345418],[33.460526,39.34631],[33.458667,39.348251],[33.45564,39.351449],[33.454961,39.352155],[33.454266,39.35285],[33.453908,39.35319],[33.453255,39.35377],[33.452916,39.35405],[33.452568,39.354322],[33.452169,39.354612],[33.451758,39.354891],[33.451333,39.355154],[33.450895,39.3554],[33.450438,39.355624],[33.450037,39.355794],[33.449624,39.35595],[33.447304,39.356758],[33.44604,39.357214],[33.445829,39.35729],[33.444851,39.357655],[33.443885,39.358032],[33.443409,39.358229],[33.442941,39.358432],[33.442656,39.358565],[33.442483,39.358646],[33.442039,39.358873],[33.441613,39.359118],[33.441183,39.359403],[33.440775,39.359709],[33.440381,39.36003],[33.439998,39.36036],[33.439623,39.360699],[33.438521,39.361737],[33.435255,39.364893],[33.433814,39.366299],[33.433111,39.367012],[33.432441,39.367737],[33.431807,39.368473],[33.431199,39.369223],[33.430906,39.369604],[33.430626,39.369981],[33.430084,39.370744],[33.429296,39.3719],[33.428522,39.373062],[33.427762,39.37423],[33.427279,39.374999],[33.426568,39.376157],[33.425632,39.377706],[33.424944,39.378873],[33.424492,39.379668],[33.423607,39.381265],[33.422959,39.382468],[33.422542,39.383275],[33.422153,39.384083],[33.421791,39.384891],[33.421449,39.385704],[33.421305,39.386067],[33.421126,39.386521],[33.420975,39.38693],[33.420834,39.387341],[33.420707,39.387754],[33.420597,39.388169],[33.420513,39.388587],[33.420457,39.389013],[33.420427,39.389443],[33.420414,39.389874],[33.420426,39.390741],[33.420494,39.392472],[33.420502,39.393323],[33.420487,39.393684],[33.42045,39.394039],[33.420382,39.394384],[33.420271,39.394718],[33.42007,39.395098],[33.419807,39.395462],[33.419479,39.395837],[33.423113,39.406047],[33.423958,39.408606],[33.42448,39.410186],[33.424516,39.410302],[33.425573,39.413701],[33.427253,39.415686],[33.427292,39.415732],[33.42944,39.417567],[33.432837,39.418661],[33.433129,39.418906],[33.433138,39.418914],[33.435297,39.420731],[33.437719,39.422566],[33.443531,39.426298],[33.449918,39.430741],[33.455403,39.433102],[33.460055,39.434073],[33.465053,39.435184],[33.470816,39.436781],[33.473801,39.437614],[33.477828,39.438725],[33.481368,39.438378],[33.48484,39.437406],[33.489283,39.436017],[33.499003,39.433657],[33.506432,39.432199],[33.514346,39.43088],[33.522122,39.430116],[33.525663,39.429144],[33.535313,39.423798],[33.545172,39.4188],[33.550726,39.417619],[33.552809,39.417967],[33.556627,39.419772],[33.560793,39.423035],[33.565861,39.430394],[33.567944,39.433726],[33.573845,39.438933],[33.581551,39.44303],[33.589188,39.447612],[33.597797,39.452333],[33.605295,39.457193],[33.620499,39.463996],[33.630844,39.468995],[33.638967,39.4733],[33.642577,39.476563],[33.645701,39.480798],[33.649798,39.485935],[33.653894,39.491559],[33.658615,39.495377],[33.663544,39.498015],[33.671667,39.500168],[33.674722,39.500237],[33.679894,39.500306],[33.687947,39.49864],[33.69415,39.4954],[33.698223,39.489106],[33.700907,39.486791],[33.707387,39.482441],[33.71507,39.47846],[33.717292,39.477442],[33.723679,39.475776],[33.738305,39.472443],[33.746173,39.471518],[33.750617,39.471703],[33.752746,39.473276],[33.754875,39.476516],[33.757374,39.482256],[33.758543,39.486629],[33.758594,39.487269],[33.766355,39.486847],[33.778642,39.486005],[33.785544,39.486595],[33.799683,39.487605],[33.811382,39.487689],[33.817442,39.487436],[33.828972,39.485921],[33.83579,39.485669],[33.842018,39.4855],[33.846731,39.484827],[33.850855,39.483565],[33.852959,39.482471],[33.859187,39.475906],[33.865163,39.467405],[33.868108,39.457474],[33.869034,39.451835],[33.870044,39.45032],[33.874926,39.445859],[33.880565,39.442325],[33.885446,39.440641],[33.89159,39.439631],[33.907665,39.436265],[33.918775,39.433235],[33.92433,39.432225],[33.932676,39.429812],[33.939633,39.425548],[33.94704,39.415785],[33.949284,39.413092],[33.954446,39.408491],[33.957476,39.405573],[33.960169,39.400523],[33.963873,39.392668],[33.966005,39.386496],[33.9678,39.377406],[33.968249,39.372357],[33.968474,39.359227],[33.969147,39.350698],[33.968922,39.34015],[33.96982,39.332295],[33.971055,39.324439],[33.972626,39.316023],[33.9779,39.308617],[33.982276,39.304128],[33.988224,39.298293],[33.992039,39.295375],[33.991051,39.294967],[33.981665,39.292264],[33.976709,39.289636],[33.969875,39.285281],[33.963718,39.281977],[33.952379,39.275594],[33.948174,39.273791],[33.940664,39.270187],[33.93721,39.26831],[33.933305,39.263053],[33.929025,39.257722],[33.925571,39.254267],[33.921816,39.251714],[33.917161,39.24796],[33.911904,39.243755],[33.906723,39.238573],[33.900715,39.233467],[33.898463,39.230989],[33.895984,39.227084],[33.894257,39.223555],[33.893807,39.221227],[33.893657,39.218298],[33.893807,39.213567],[33.892981,39.209588],[33.892605,39.207335],[33.890127,39.203205],[33.885772,39.200501],[33.88029,39.197348],[33.87571,39.192617],[33.873382,39.189313],[33.865948,39.179325],[33.859114,39.171215],[33.85168,39.167461],[33.849728,39.166184],[33.844621,39.16288],[33.839966,39.161228],[33.834709,39.159876],[33.829528,39.159201],[33.82705,39.159126],[33.822019,39.158375],[33.817438,39.158074],[33.810605,39.157323],[33.804222,39.156122],[33.799866,39.15447],[33.793258,39.152668],[33.790405,39.152217],[33.783346,39.15049],[33.776212,39.148538],[33.769679,39.148237],[33.765099,39.147862],[33.759692,39.148613],[33.758716,39.148913],[33.756388,39.15049],[33.748503,39.155146],[33.740543,39.157774],[33.736939,39.159126],[33.730556,39.159876],[33.72575,39.158675],[33.717565,39.156047],[33.711258,39.153644],[33.70127,39.148462],[33.693536,39.145909],[33.681454,39.141772],[33.677798,39.140519]]]}},{"type":"Feature","properties":{"id":"TR-D-40-006","parent_id":"TR-P-40","region_id":"TR-R-ICA","level":"district","municipality_type":null,"municipality_type_label":null,"is_metropolitan_municipality":null,"name":"Kırşehir","name_ascii":"kirsehir","slug":"kirsehir-kirsehir"},"geometry":{"type":"Polygon","coordinates":[[[34.167568,39.519543],[34.176805,39.52067],[34.187618,39.521796],[34.191748,39.522772],[34.199952,39.52005],[34.209439,39.514701],[34.21277,39.512783],[34.228918,39.502993],[34.249508,39.486945],[34.266666,39.479173],[34.279181,39.475136],[34.28988,39.472209],[34.31491,39.465649],[34.325407,39.463126],[34.326782,39.462948],[34.325276,39.460216],[34.322608,39.456328],[34.316281,39.450078],[34.307515,39.445199],[34.301722,39.443675],[34.295167,39.442074],[34.289831,39.439101],[34.28541,39.435595],[34.280303,39.432165],[34.273595,39.425304],[34.268716,39.419511],[34.255529,39.406019],[34.242189,39.392832],[34.229536,39.380483],[34.223133,39.374004],[34.219245,39.370498],[34.215282,39.366229],[34.211394,39.359673],[34.210403,39.355557],[34.209946,39.351822],[34.20926,39.348163],[34.208269,39.344581],[34.207049,39.340541],[34.204686,39.335967],[34.200875,39.329564],[34.198283,39.324991],[34.193024,39.316987],[34.192033,39.315157],[34.190661,39.313328],[34.189212,39.307992],[34.188907,39.299379],[34.189136,39.29511],[34.189517,39.291527],[34.191423,39.282533],[34.19249,39.274376],[34.19249,39.270489],[34.192261,39.265153],[34.191042,39.257683],[34.189365,39.250899],[34.187688,39.24198],[34.187612,39.237483],[34.187764,39.234891],[34.189212,39.231995],[34.19188,39.227802],[34.194396,39.223686],[34.196454,39.220713],[34.197978,39.217054],[34.198664,39.214615],[34.200036,39.212176],[34.203543,39.204248],[34.20583,39.200132],[34.210098,39.194872],[34.218483,39.187402],[34.229536,39.179856],[34.235329,39.177188],[34.240208,39.176807],[34.248974,39.175282],[34.25774,39.174215],[34.262237,39.172767],[34.264211,39.171978],[34.263946,39.171287],[34.259938,39.166171],[34.255931,39.160373],[34.251753,39.154234],[34.249962,39.148948],[34.249621,39.143661],[34.248854,39.13701],[34.248001,39.132918],[34.245955,39.122941],[34.244079,39.11774],[34.241009,39.109469],[34.238195,39.099493],[34.237087,39.095145],[34.237172,39.090114],[34.238195,39.085424],[34.23973,39.078944],[34.241531,39.074105],[34.243642,39.069693],[34.24895,39.057223],[34.249525,39.051147],[34.249333,39.04731],[34.247958,39.042493],[34.245827,39.036268],[34.242757,39.027912],[34.240881,39.022711],[34.239517,39.017425],[34.237471,39.010092],[34.236192,39.006255],[34.235254,39.00165],[34.234998,38.998495],[34.234998,38.995767],[34.234913,38.991845],[34.234742,38.986814],[34.234316,38.977349],[34.235083,38.96942],[34.235509,38.963451],[34.236021,38.957056],[34.236192,38.954072],[34.235936,38.949382],[34.234998,38.946739],[34.234145,38.943413],[34.233548,38.941083],[34.233232,38.938046],[34.233245,38.936857],[34.233974,38.934693],[34.234407,38.934276],[34.235087,38.933588],[34.235742,38.932886],[34.236058,38.932529],[34.236364,38.932167],[34.236662,38.931793],[34.23723,38.931032],[34.238026,38.929897],[34.238517,38.929167],[34.238996,38.928432],[34.239499,38.927628],[34.239989,38.926821],[34.240711,38.925605],[34.241181,38.924791],[34.241632,38.923972],[34.241847,38.92356],[34.242049,38.923145],[34.242237,38.922725],[34.242393,38.922332],[34.242538,38.921936],[34.242943,38.920741],[34.243232,38.91995],[34.243398,38.91956],[34.243593,38.919156],[34.243806,38.918758],[34.244034,38.918364],[34.244519,38.917584],[34.245034,38.916817],[34.245304,38.916439],[34.245582,38.916067],[34.245873,38.915701],[34.246179,38.915344],[34.246506,38.915001],[34.246866,38.914666],[34.247247,38.914345],[34.247643,38.914033],[34.24805,38.913728],[34.248886,38.91313],[34.250164,38.912249],[34.254445,38.909328],[34.258709,38.906396],[34.262112,38.90404],[34.263179,38.903294],[34.262554,38.902707],[34.258464,38.898862],[34.255645,38.893626],[34.253712,38.887021],[34.253712,38.885723],[34.253712,38.884801],[34.253712,38.881463],[34.255323,38.876308],[34.255887,38.8722],[34.255887,38.865997],[34.254679,38.86052],[34.254536,38.858252],[34.252711,38.850453],[34.250886,38.844314],[34.246903,38.838423],[34.244331,38.835105],[34.241629,38.833025],[34.237611,38.831952],[34.232467,38.829878],[34.226079,38.826725],[34.222014,38.822992],[34.214796,38.815691],[34.208408,38.810299],[34.200391,38.807436],[34.194169,38.805881],[34.186381,38.803454],[34.183892,38.802458],[34.175678,38.800052],[34.168626,38.799057],[34.163814,38.799306],[34.161491,38.799886],[34.156265,38.802458],[34.149047,38.809261],[34.145728,38.812995],[34.144069,38.818636],[34.14299,38.833736],[34.140916,38.844024],[34.1371,38.851242],[34.133408,38.855528],[34.126771,38.858957],[34.122678,38.860727],[34.11593,38.864156],[34.106417,38.867917],[34.09978,38.871015],[34.094249,38.873891],[34.08197,38.882298],[34.07489,38.889378],[34.067368,38.899444],[34.064603,38.908847],[34.063165,38.915484],[34.063054,38.918581],[34.063386,38.923338],[34.063054,38.926988],[34.06239,38.93097],[34.06051,38.940152],[34.058187,38.945019],[34.055642,38.947453],[34.054315,38.947785],[34.050111,38.948891],[34.04635,38.949886],[34.043364,38.951214],[34.035842,38.954864],[34.021682,38.961501],[34.01405,38.967364],[34.008961,38.971015],[34.006196,38.973116],[34.002324,38.977431],[34.000775,38.979643],[34.000304,38.980312],[33.997346,38.98451],[33.995023,38.989599],[33.992164,38.995536],[33.992147,38.995572],[33.988054,39.003315],[33.98551,39.006745],[33.982302,39.014709],[33.982116,39.015072],[33.977988,39.023116],[33.973784,39.027873],[33.97317,39.028593],[33.97013,39.032659],[33.965108,39.03495],[33.964939,39.035302],[33.964814,39.035662],[33.964717,39.03604],[33.964639,39.036429],[33.964578,39.036826],[33.964528,39.037228],[33.96446,39.038043],[33.964439,39.038485],[33.964418,39.03937],[33.964404,39.042458],[33.964381,39.043788],[33.964329,39.04514],[33.964272,39.04604],[33.964233,39.046489],[33.964183,39.046937],[33.964116,39.047383],[33.964031,39.047815],[33.963925,39.048243],[33.963797,39.048666],[33.963643,39.049081],[33.963459,39.049485],[33.963238,39.049877],[33.962985,39.050255],[33.962706,39.05062],[33.962405,39.050967],[33.962081,39.051295],[33.961732,39.051595],[33.961355,39.051861],[33.960942,39.052078],[33.960508,39.052232],[33.960042,39.052342],[33.959554,39.052417],[33.95905,39.052467],[33.958533,39.052496],[33.95801,39.052509],[33.957481,39.052505],[33.95695,39.052486],[33.956419,39.05245],[33.955866,39.052392],[33.955314,39.052319],[33.954763,39.052235],[33.954213,39.052143],[33.953117,39.051945],[33.949846,39.051316],[33.948761,39.051101],[33.947681,39.050877],[33.946609,39.050634],[33.946073,39.050501],[33.944479,39.05007],[33.942894,39.049615],[33.930243,39.04593],[33.928664,39.045465],[33.927092,39.044986],[33.925508,39.044474],[33.923931,39.043948],[33.91344,39.040398],[33.911336,39.039695],[33.909742,39.039189],[33.908135,39.038702],[33.907058,39.038393],[33.905973,39.038107],[33.905426,39.037979],[33.904875,39.037866],[33.904385,39.037784],[33.90389,39.037715],[33.903393,39.037658],[33.902894,39.037612],[33.902392,39.037578],[33.901836,39.037553],[33.901279,39.037539],[33.900751,39.037534],[33.900721,39.037534],[33.899603,39.037543],[33.899044,39.037556],[33.897976,39.0376],[33.897466,39.03763],[33.89645,39.037703],[33.89532,39.037814],[33.895138,39.037832],[33.894934,39.037856],[33.894432,39.037924],[33.893916,39.038006],[33.893402,39.038099],[33.892382,39.038309],[33.891371,39.038546],[33.890871,39.038674],[33.890374,39.038812],[33.889883,39.038959],[33.889361,39.039132],[33.888332,39.039508],[33.88681,39.040112],[33.88126,39.042388],[33.879751,39.043013],[33.878758,39.043442],[33.878269,39.043664],[33.877788,39.043895],[33.877318,39.044136],[33.876865,39.044394],[33.876438,39.044667],[33.876026,39.044954],[33.875625,39.045253],[33.875232,39.04556],[33.874081,39.046509],[33.871056,39.04909],[33.870661,39.049433],[33.869934,39.050063],[33.869205,39.050721],[33.868854,39.051055],[33.868515,39.051396],[33.868195,39.051745],[33.867901,39.052106],[33.867638,39.052479],[33.867401,39.052864],[33.867182,39.053258],[33.866976,39.053657],[33.86678,39.054061],[33.866405,39.054877],[33.865321,39.057345],[33.864947,39.058163],[33.86455,39.058972],[33.864336,39.059371],[33.864107,39.059765],[33.863855,39.060159],[33.863588,39.060548],[33.86331,39.060932],[33.862732,39.061694],[33.862138,39.06245],[33.860934,39.063957],[33.860015,39.065073],[33.859379,39.065796],[33.859046,39.066143],[33.858698,39.066475],[33.858329,39.066787],[33.857929,39.06707],[33.8575,39.067315],[33.857042,39.067532],[33.856562,39.06773],[33.856068,39.067912],[33.855562,39.068085],[33.85453,39.06841],[33.852434,39.06903],[33.851045,39.069424],[33.850327,39.069627],[33.849269,39.069902],[33.848737,39.070026],[33.848202,39.070137],[33.847662,39.070229],[33.847109,39.070299],[33.84655,39.07035],[33.845989,39.070387],[33.845425,39.070414],[33.844292,39.07045],[33.843157,39.070472],[33.837474,39.070552],[33.83009,39.070675],[33.827819,39.070706],[33.826684,39.070713],[33.825548,39.070706],[33.823277,39.070658],[33.798863,39.069949],[33.79716,39.069905],[33.795456,39.069877],[33.794889,39.069876],[33.79375,39.06989],[33.792043,39.069935],[33.785016,39.070173],[33.778949,39.070379],[33.777245,39.070457],[33.776112,39.070534],[33.775549,39.070588],[33.774999,39.070653],[33.773905,39.070811],[33.77227,39.071084],[33.767911,39.071865],[33.766828,39.072071],[33.765756,39.072295],[33.76523,39.07242],[33.764713,39.072559],[33.764209,39.072717],[33.763723,39.072901],[33.763253,39.073121],[33.762802,39.073368],[33.762365,39.073634],[33.761939,39.073916],[33.76152,39.074208],[33.761418,39.074282],[33.76111,39.074507],[33.760309,39.075126],[33.759922,39.075443],[33.759547,39.075767],[33.75919,39.0761],[33.758887,39.076411],[33.758855,39.076444],[33.758553,39.076803],[33.758352,39.077089],[33.758289,39.077179],[33.758056,39.077571],[33.757846,39.077973],[33.757653,39.078383],[33.757298,39.079216],[33.756802,39.080483],[33.755844,39.082988],[33.755021,39.085142],[33.754524,39.086408],[33.754009,39.087669],[33.753265,39.089365],[33.750786,39.094867],[33.750201,39.09613],[33.749784,39.096956],[33.749557,39.097359],[33.749312,39.09775],[33.749041,39.098126],[33.748733,39.098481],[33.748398,39.098796],[33.748029,39.099091],[33.747635,39.099371],[33.747224,39.099641],[33.746366,39.10016],[33.745035,39.100911],[33.744133,39.101401],[33.743222,39.10188],[33.742298,39.102341],[33.741827,39.102559],[33.741341,39.10277],[33.740849,39.102972],[33.740353,39.103168],[33.739351,39.103548],[33.737837,39.104101],[33.736103,39.104727],[33.732779,39.105928],[33.730767,39.106674],[33.729269,39.107261],[33.727284,39.108071],[33.722337,39.110121],[33.721357,39.110542],[33.720391,39.110978],[33.719916,39.111206],[33.719451,39.111445],[33.718995,39.111697],[33.718548,39.111959],[33.717672,39.112504],[33.716381,39.113349],[33.714676,39.114493],[33.713406,39.115359],[33.712133,39.116249],[33.703449,39.122471],[33.693969,39.129262],[33.692275,39.130469],[33.690992,39.131371],[33.677798,39.140519],[33.681454,39.141772],[33.693536,39.145909],[33.70127,39.148462],[33.711258,39.153644],[33.717565,39.156047],[33.72575,39.158675],[33.730556,39.159876],[33.736939,39.159126],[33.740543,39.157774],[33.748503,39.155146],[33.756388,39.15049],[33.758716,39.148913],[33.759692,39.148613],[33.765099,39.147862],[33.769679,39.148237],[33.776212,39.148538],[33.783346,39.15049],[33.790405,39.152217],[33.793258,39.152668],[33.799866,39.15447],[33.804222,39.156122],[33.810605,39.157323],[33.817438,39.158074],[33.822019,39.158375],[33.82705,39.159126],[33.829528,39.159201],[33.834709,39.159876],[33.839966,39.161228],[33.844621,39.16288],[33.849728,39.166184],[33.85168,39.167461],[33.859114,39.171215],[33.865948,39.179325],[33.873382,39.189313],[33.87571,39.192617],[33.88029,39.197348],[33.885772,39.200501],[33.890127,39.203205],[33.892605,39.207335],[33.892981,39.209588],[33.893807,39.213567],[33.893657,39.218298],[33.893807,39.221227],[33.894257,39.223555],[33.895984,39.227084],[33.898463,39.230989],[33.900715,39.233467],[33.906723,39.238573],[33.911904,39.243755],[33.917161,39.24796],[33.921816,39.251714],[33.925571,39.254267],[33.929025,39.257722],[33.933305,39.263053],[33.93721,39.26831],[33.940664,39.270187],[33.948174,39.273791],[33.952379,39.275594],[33.963718,39.281977],[33.969875,39.285281],[33.976709,39.289636],[33.981665,39.292264],[33.991051,39.294967],[33.992039,39.295375],[33.999011,39.297671],[34.005394,39.299173],[34.014105,39.301425],[34.016057,39.303303],[34.017709,39.307358],[34.019737,39.312013],[34.021464,39.316369],[34.023116,39.320198],[34.024918,39.324178],[34.026194,39.326957],[34.030775,39.333565],[34.037458,39.342125],[34.044592,39.348884],[34.048046,39.353915],[34.050224,39.35812],[34.05135,39.362626],[34.052477,39.367281],[34.054279,39.371186],[34.060662,39.384027],[34.064567,39.390184],[34.066519,39.392738],[34.069898,39.397468],[34.073878,39.40295],[34.077708,39.409708],[34.081838,39.419621],[34.08379,39.425027],[34.084842,39.433287],[34.085517,39.440271],[34.08747,39.447705],[34.08777,39.454013],[34.087845,39.460696],[34.08732,39.465502],[34.087094,39.469257],[34.087244,39.47196],[34.087995,39.474889],[34.089122,39.478944],[34.089873,39.479619],[34.091975,39.480821],[34.096105,39.483299],[34.099109,39.486227],[34.102563,39.489156],[34.105192,39.49216],[34.108471,39.494463],[34.112826,39.496866],[34.123038,39.50077],[34.127093,39.502723],[34.1325,39.506703],[34.140385,39.512935],[34.146317,39.515413],[34.154802,39.517816],[34.167568,39.519543]]]}},{"type":"Feature","properties":{"id":"TR-D-40-007","parent_id":"TR-P-40","region_id":"TR-R-ICA","level":"district","municipality_type":null,"municipality_type_label":null,"is_metropolitan_municipality":null,"name":"Mucur","name_ascii":"mucur","slug":"mucur-kirsehir"},"geometry":{"type":"Polygon","coordinates":[[[34.61657,39.31053],[34.629065,39.307066],[34.632046,39.307389],[34.63849,39.306905],[34.646222,39.306502],[34.654197,39.305053],[34.656533,39.304166],[34.66338,39.299414],[34.669341,39.291278],[34.673368,39.284995],[34.677235,39.279921],[34.68094,39.27541],[34.683276,39.273316],[34.686337,39.271624],[34.688834,39.270738],[34.691734,39.268966],[34.692298,39.267677],[34.692217,39.262925],[34.690525,39.259622],[34.687626,39.257528],[34.680859,39.254708],[34.67361,39.25205],[34.671032,39.250117],[34.663702,39.244156],[34.65898,39.239565],[34.65457,39.237027],[34.650582,39.23588],[34.643816,39.233463],[34.639648,39.231409],[34.63566,39.22869],[34.631733,39.225247],[34.629679,39.221924],[34.628411,39.219447],[34.62545,39.213164],[34.620074,39.202834],[34.617536,39.196853],[34.617416,39.192624],[34.617778,39.191718],[34.619047,39.188878],[34.621161,39.185495],[34.623698,39.182776],[34.627172,39.177299],[34.629105,39.17311],[34.629508,39.169888],[34.629186,39.168358],[34.627736,39.162075],[34.624756,39.157564],[34.621211,39.154906],[34.612351,39.150395],[34.605101,39.147576],[34.595999,39.144676],[34.588508,39.142179],[34.580856,39.139843],[34.576506,39.138393],[34.572881,39.135171],[34.567726,39.130016],[34.563376,39.125183],[34.558543,39.112617],[34.55516,39.103676],[34.552421,39.095862],[34.549602,39.08966],[34.545494,39.081685],[34.543722,39.077013],[34.542889,39.074463],[34.543614,39.072771],[34.545789,39.071804],[34.551267,39.070274],[34.558838,39.068663],[34.562221,39.06826],[34.565766,39.068743],[34.571082,39.071402],[34.573821,39.073818],[34.577043,39.075429],[34.580345,39.07696],[34.585259,39.07841],[34.588964,39.078007],[34.591703,39.075912],[34.593636,39.071482],[34.595086,39.066407],[34.595328,39.062219],[34.596858,39.055211],[34.596214,39.046995],[34.595408,39.042323],[34.593233,39.039423],[34.58977,39.037892],[34.585501,39.037087],[34.580668,39.037973],[34.574787,39.039826],[34.566007,39.044095],[34.558113,39.047317],[34.5474,39.049814],[34.543292,39.050781],[34.534351,39.052714],[34.529518,39.052794],[34.522107,39.051264],[34.520738,39.049814],[34.519046,39.046834],[34.51808,39.04039],[34.516308,39.034348],[34.514213,39.030562],[34.510588,39.024763],[34.505755,39.015741],[34.500681,39.011713],[34.491095,39.005108],[34.478368,38.995201],[34.46991,38.989723],[34.463466,38.98634],[34.458311,38.984487],[34.453075,38.983521],[34.448967,38.983037],[34.443006,38.980701],[34.437609,38.976916],[34.434548,38.974096],[34.429877,38.968377],[34.427379,38.963141],[34.425688,38.959758],[34.424157,38.953717],[34.42303,38.949126],[34.419969,38.942037],[34.417069,38.935835],[34.41425,38.927699],[34.413122,38.924396],[34.410061,38.918436],[34.406597,38.913039],[34.404261,38.910058],[34.4012,38.906756],[34.396529,38.900151],[34.393548,38.896687],[34.392662,38.895157],[34.390084,38.887665],[34.385493,38.878805],[34.381788,38.873086],[34.376632,38.866883],[34.373491,38.863097],[34.369141,38.859553],[34.365033,38.857378],[34.360442,38.854639],[34.354642,38.85319],[34.352514,38.852794],[34.350027,38.852188],[34.348363,38.852621],[34.34823,38.853016],[34.348061,38.853438],[34.347871,38.853827],[34.347658,38.85421],[34.347427,38.854587],[34.347183,38.854961],[34.346664,38.855698],[34.346113,38.856423],[34.345826,38.85678],[34.345529,38.857132],[34.345206,38.857495],[34.344872,38.857852],[34.34418,38.858549],[34.343822,38.858888],[34.343455,38.85922],[34.343076,38.859542],[34.342683,38.85985],[34.34227,38.860141],[34.341889,38.860379],[34.341494,38.860603],[34.341088,38.860819],[34.339847,38.861448],[34.338959,38.861914],[34.338083,38.862395],[34.337218,38.86289],[34.336367,38.8634],[34.335475,38.863965],[34.334596,38.864543],[34.333833,38.865055],[34.333288,38.86542],[34.328952,38.868365],[34.326805,38.869847],[34.319177,38.87522],[34.3145,38.878495],[34.31324,38.879397],[34.312426,38.880014],[34.312035,38.880332],[34.31166,38.880659],[34.311307,38.881],[34.310989,38.881347],[34.310693,38.881706],[34.310412,38.882075],[34.309882,38.88283],[34.309375,38.8836],[34.308982,38.884218],[34.308633,38.884766],[34.307165,38.887108],[34.306419,38.888273],[34.305901,38.889037],[34.305631,38.889411],[34.305347,38.889778],[34.305047,38.890133],[34.304722,38.890474],[34.304383,38.890783],[34.30402,38.891077],[34.30364,38.891359],[34.303245,38.89163],[34.302838,38.891891],[34.30242,38.892142],[34.301991,38.892382],[34.301549,38.892609],[34.30108,38.892827],[34.300599,38.893032],[34.299617,38.893418],[34.299322,38.893526],[34.298619,38.893784],[34.297615,38.894141],[34.293083,38.895728],[34.292073,38.896073],[34.291073,38.896401],[34.289091,38.897021],[34.286104,38.897927],[34.284622,38.898355],[34.283636,38.898623],[34.283142,38.89875],[34.282647,38.89887],[34.28215,38.898979],[34.281652,38.899075],[34.28115,38.899153],[34.280646,38.899207],[34.280111,38.899233],[34.279572,38.899233],[34.27903,38.899215],[34.278487,38.899184],[34.275777,38.898987],[34.274708,38.898926],[34.273639,38.898884],[34.273107,38.898874],[34.272577,38.898875],[34.27205,38.898891],[34.271521,38.898927],[34.270999,38.898983],[34.270485,38.899063],[34.269985,38.899169],[34.269502,38.899309],[34.269017,38.899496],[34.268551,38.899718],[34.268099,38.899964],[34.267656,38.900227],[34.266788,38.900787],[34.265933,38.90137],[34.263179,38.903294],[34.262112,38.90404],[34.258709,38.906396],[34.254445,38.909328],[34.250164,38.912249],[34.248886,38.91313],[34.24805,38.913728],[34.247643,38.914033],[34.247247,38.914345],[34.246866,38.914666],[34.246506,38.915001],[34.246179,38.915344],[34.245873,38.915701],[34.245582,38.916067],[34.245304,38.916439],[34.245034,38.916817],[34.244519,38.917584],[34.244034,38.918364],[34.243806,38.918758],[34.243593,38.919156],[34.243398,38.91956],[34.243232,38.91995],[34.242943,38.920741],[34.242538,38.921936],[34.242393,38.922332],[34.242237,38.922725],[34.242049,38.923145],[34.241847,38.92356],[34.241632,38.923972],[34.241181,38.924791],[34.240711,38.925605],[34.239989,38.926821],[34.239499,38.927628],[34.238996,38.928432],[34.238517,38.929167],[34.238026,38.929897],[34.23723,38.931032],[34.236662,38.931793],[34.236364,38.932167],[34.236058,38.932529],[34.235742,38.932886],[34.235087,38.933588],[34.234407,38.934276],[34.233974,38.934693],[34.233245,38.936857],[34.233232,38.938046],[34.233548,38.941083],[34.234145,38.943413],[34.234998,38.946739],[34.235936,38.949382],[34.236192,38.954072],[34.236021,38.957056],[34.235509,38.963451],[34.235083,38.96942],[34.234316,38.977349],[34.234742,38.986814],[34.234913,38.991845],[34.234998,38.995767],[34.234998,38.998495],[34.235254,39.00165],[34.236192,39.006255],[34.237471,39.010092],[34.239517,39.017425],[34.240881,39.022711],[34.242757,39.027912],[34.245827,39.036268],[34.247958,39.042493],[34.249333,39.04731],[34.249525,39.051147],[34.24895,39.057223],[34.243642,39.069693],[34.241531,39.074105],[34.23973,39.078944],[34.238195,39.085424],[34.237172,39.090114],[34.237087,39.095145],[34.238195,39.099493],[34.241009,39.109469],[34.244079,39.11774],[34.245955,39.122941],[34.248001,39.132918],[34.248854,39.13701],[34.249621,39.143661],[34.249962,39.148948],[34.251753,39.154234],[34.255931,39.160373],[34.259938,39.166171],[34.263946,39.171287],[34.264211,39.171978],[34.264798,39.173504],[34.266674,39.176744],[34.269062,39.179814],[34.271449,39.182116],[34.276565,39.185442],[34.279464,39.18655],[34.284324,39.190302],[34.288844,39.194139],[34.292851,39.198573],[34.297967,39.203944],[34.302145,39.20744],[34.307943,39.213153],[34.312718,39.216223],[34.322779,39.222532],[34.331732,39.227904],[34.333352,39.228757],[34.338639,39.230292],[34.349724,39.232338],[34.369002,39.236674],[34.390426,39.243748],[34.404978,39.247588],[34.423572,39.247588],[34.443985,39.246982],[34.45874,39.245163],[34.467228,39.242939],[34.47309,39.237685],[34.478547,39.232834],[34.484812,39.230813],[34.497141,39.227579],[34.516057,39.222261],[34.520719,39.221124],[34.530382,39.224762],[34.548686,39.232948],[34.555095,39.24065],[34.557056,39.242696],[34.562002,39.24551],[34.572234,39.247898],[34.578202,39.251138],[34.585279,39.254975],[34.588946,39.258215],[34.590651,39.263245],[34.592271,39.27109],[34.592428,39.279077],[34.592996,39.284647],[34.596066,39.289422],[34.602318,39.295334],[34.608685,39.299882],[34.611527,39.303179],[34.614938,39.308067],[34.61657,39.31053]]]}}]}