{"type":"FeatureCollection","province":"Kütahya","province_id":"TR-P-43","features":[{"type":"Feature","properties":{"id":"TR-D-43-001","parent_id":"TR-P-43","region_id":"TR-R-EGE","level":"district","municipality_type":null,"municipality_type_label":null,"is_metropolitan_municipality":null,"name":"Altıntaş","name_ascii":"altintas","slug":"altintas-kutahya"},"geometry":{"type":"Polygon","coordinates":[[[29.763383,38.923738],[29.763146,38.931026],[29.762773,38.939479],[29.762773,38.94557],[29.762773,38.949548],[29.761779,38.954769],[29.759665,38.959245],[29.756682,38.963223],[29.75519,38.967574],[29.753326,38.972298],[29.750218,38.981248],[29.757055,38.986096],[29.761406,38.989204],[29.768989,38.994301],[29.770791,38.99601],[29.772656,38.998621],[29.776199,39.00524],[29.778996,39.010089],[29.782446,39.013631],[29.788599,39.019132],[29.795592,39.024913],[29.800254,39.028269],[29.805008,39.03088],[29.811255,39.035075],[29.815078,39.037313],[29.823282,39.04328],[29.827478,39.046263],[29.833258,39.049713],[29.839225,39.051858],[29.846591,39.054002],[29.848829,39.054095],[29.852931,39.054282],[29.86039,39.055494],[29.869806,39.056706],[29.87596,39.057825],[29.887801,39.061834],[29.891157,39.063792],[29.898056,39.070691],[29.901506,39.075446],[29.90421,39.08048],[29.908126,39.085981],[29.909245,39.090457],[29.91344,39.100153],[29.917636,39.109197],[29.920899,39.114977],[29.924908,39.120478],[29.932367,39.128776],[29.939639,39.135116],[29.947284,39.140337],[29.960057,39.148542],[29.969008,39.153856],[29.981315,39.158424],[29.991104,39.16262],[30.000894,39.167375],[30.011709,39.173995],[30.026627,39.18742],[30.030915,39.192735],[30.036789,39.202245],[30.04257,39.209797],[30.050961,39.211661],[30.06709,39.21306],[30.074363,39.213246],[30.082288,39.212687],[30.088721,39.211661],[30.098417,39.209237],[30.10541,39.207372],[30.11753,39.205788],[30.123124,39.205974],[30.133566,39.205508],[30.140932,39.205415],[30.150628,39.204762],[30.156595,39.20383],[30.165453,39.201312],[30.17142,39.199168],[30.174869,39.198329],[30.178878,39.197583],[30.184472,39.19693],[30.189041,39.196837],[30.193236,39.197303],[30.198831,39.19721],[30.203026,39.195625],[30.20834,39.191896],[30.211977,39.18798],[30.21496,39.180894],[30.217011,39.175486],[30.219995,39.170079],[30.225496,39.163366],[30.230064,39.159077],[30.237709,39.151805],[30.24032,39.149754],[30.250016,39.139218],[30.256636,39.133344],[30.272503,39.116681],[30.272262,39.115949],[30.26826,39.106012],[30.261043,39.094816],[30.257132,39.088409],[30.253287,39.082879],[30.25059,39.078832],[30.248904,39.074246],[30.244048,39.067771],[30.242092,39.063927],[30.238382,39.056104],[30.234268,39.048685],[30.23238,39.042817],[30.231098,39.037624],[30.230559,39.034387],[30.230222,39.028047],[30.230896,39.023258],[30.235887,39.01557],[30.240338,39.009635],[30.249308,39.002486],[30.251264,39.001137],[30.254973,38.995606],[30.256997,38.992167],[30.257671,38.989806],[30.25639,38.984411],[30.254434,38.978746],[30.248634,38.974699],[30.243508,38.970585],[30.238045,38.966471],[30.233122,38.960805],[30.226984,38.956354],[30.219835,38.95278],[30.215182,38.949407],[30.213023,38.946373],[30.207098,38.946803],[30.200596,38.946897],[30.195036,38.946991],[30.190607,38.946897],[30.187214,38.947557],[30.183821,38.947745],[30.178732,38.947274],[30.17223,38.947557],[30.164408,38.947934],[30.159602,38.948311],[30.153382,38.948405],[30.145843,38.947274],[30.138398,38.945295],[30.132649,38.94407],[30.128597,38.942374],[30.123885,38.939923],[30.117477,38.935211],[30.111823,38.93229],[30.099854,38.926164],[30.093257,38.923054],[30.090053,38.922018],[30.082608,38.919473],[30.078745,38.917306],[30.075635,38.915233],[30.072619,38.913442],[30.068284,38.912311],[30.064703,38.912217],[30.062347,38.913536],[30.057918,38.91674],[30.053865,38.919662],[30.050944,38.922678],[30.047363,38.927861],[30.042745,38.93785],[30.040766,38.948405],[30.038976,38.954436],[30.037845,38.960844],[30.037185,38.96697],[30.035677,38.974038],[30.033792,38.980729],[30.030494,38.983839],[30.025782,38.985535],[30.020222,38.986666],[30.016264,38.987137],[30.006557,38.985629],[30.002316,38.985158],[29.994966,38.983085],[29.988275,38.980164],[29.984694,38.978373],[29.981395,38.975923],[29.97706,38.971399],[29.974045,38.96763],[29.970369,38.962729],[29.96839,38.960185],[29.960286,38.953682],[29.95482,38.950007],[29.950391,38.945766],[29.943134,38.941054],[29.938988,38.938039],[29.935972,38.935965],[29.929092,38.935023],[29.923155,38.934834],[29.914014,38.934834],[29.907417,38.935117],[29.903459,38.934552],[29.895261,38.930594],[29.890077,38.927295],[29.888287,38.925505],[29.882915,38.91985],[29.877449,38.914384],[29.872737,38.910144],[29.868402,38.904961],[29.865198,38.901851],[29.861697,38.898531],[29.860792,38.899134],[29.859562,38.900309],[29.856207,38.902601],[29.853299,38.904223],[29.849553,38.9059],[29.845862,38.906739],[29.842842,38.906907],[29.838816,38.906683],[29.835685,38.906068],[29.832665,38.905677],[29.829702,38.906348],[29.827018,38.907522],[29.822432,38.90892],[29.816673,38.909591],[29.811473,38.909982],[29.805657,38.910374],[29.80398,38.911157],[29.799506,38.912275],[29.796375,38.913393],[29.793635,38.914008],[29.78905,38.914512],[29.786421,38.914959],[29.78329,38.915854],[29.776412,38.918594],[29.77138,38.920215],[29.767298,38.921949],[29.763383,38.923738]]]}},{"type":"Feature","properties":{"id":"TR-D-43-002","parent_id":"TR-P-43","region_id":"TR-R-EGE","level":"district","municipality_type":null,"municipality_type_label":null,"is_metropolitan_municipality":null,"name":"Aslanapa","name_ascii":"aslanapa","slug":"aslanapa-kutahya"},"geometry":{"type":"Polygon","coordinates":[[[29.670345,39.102432],[29.673139,39.106217],[29.678637,39.113247],[29.68756,39.124153],[29.692337,39.128119],[29.699908,39.133437],[29.707028,39.138394],[29.713788,39.143171],[29.718204,39.146055],[29.726046,39.152635],[29.732986,39.162549],[29.741007,39.171111],[29.746415,39.17715],[29.74957,39.185262],[29.752634,39.201035],[29.752995,39.208515],[29.753535,39.216807],[29.755428,39.230237],[29.755969,39.233842],[29.7566,39.242495],[29.757051,39.249795],[29.757051,39.253581],[29.75651,39.257456],[29.755248,39.258718],[29.752183,39.25989],[29.739655,39.263585],[29.734428,39.265478],[29.720548,39.270525],[29.717213,39.271787],[29.712616,39.274491],[29.705225,39.2808],[29.702251,39.285667],[29.698285,39.293509],[29.696032,39.299187],[29.695672,39.300719],[29.694049,39.307028],[29.692066,39.320007],[29.691075,39.326496],[29.689182,39.333256],[29.68783,39.339025],[29.686388,39.344432],[29.685487,39.347226],[29.683594,39.351372],[29.683053,39.352634],[29.68062,39.357591],[29.678096,39.364532],[29.676113,39.370029],[29.674942,39.373094],[29.674221,39.375708],[29.673319,39.3776],[29.673409,39.379583],[29.673683,39.379937],[29.674942,39.381566],[29.678727,39.383279],[29.687199,39.386073],[29.695581,39.388056],[29.699187,39.388146],[29.704685,39.387335],[29.708741,39.386523],[29.717303,39.385352],[29.721629,39.384901],[29.723342,39.384631],[29.725685,39.384721],[29.72902,39.384991],[29.737042,39.384901],[29.744883,39.385892],[29.752634,39.387875],[29.758673,39.388957],[29.762098,39.391751],[29.766045,39.395669],[29.773246,39.391258],[29.783058,39.384416],[29.786749,39.382706],[29.79386,39.378115],[29.798451,39.376225],[29.809343,39.370014],[29.815465,39.365243],[29.818165,39.362902],[29.821946,39.357411],[29.825276,39.3521],[29.830678,39.345259],[29.833378,39.341298],[29.839499,39.334157],[29.846461,39.327795],[29.858343,39.311952],[29.863024,39.305471],[29.872506,39.295509],[29.881507,39.288788],[29.900231,39.279066],[29.916914,39.269584],[29.935878,39.259742],[29.94536,39.255301],[29.952801,39.251821],[29.959643,39.25014],[29.965164,39.24966],[29.977406,39.24966],[29.986528,39.2493],[29.993969,39.24834],[29.99949,39.24666],[30.002731,39.244859],[30.007772,39.241019],[30.012813,39.237898],[30.017734,39.235377],[30.020975,39.233337],[30.022895,39.231177],[30.025655,39.226976],[30.034537,39.217734],[30.040178,39.212333],[30.04257,39.209797],[30.036789,39.202245],[30.030915,39.192735],[30.026627,39.18742],[30.011709,39.173995],[30.000894,39.167375],[29.991104,39.16262],[29.981315,39.158424],[29.969008,39.153856],[29.960057,39.148542],[29.947284,39.140337],[29.939639,39.135116],[29.932367,39.128776],[29.924908,39.120478],[29.920899,39.114977],[29.917636,39.109197],[29.91344,39.100153],[29.909245,39.090457],[29.908126,39.085981],[29.90421,39.08048],[29.901506,39.075446],[29.898056,39.070691],[29.891157,39.063792],[29.887801,39.061834],[29.87596,39.057825],[29.869806,39.056706],[29.86039,39.055494],[29.852931,39.054282],[29.848829,39.054095],[29.846591,39.054002],[29.839225,39.051858],[29.833258,39.049713],[29.827478,39.046263],[29.823282,39.04328],[29.815078,39.037313],[29.811255,39.035075],[29.805008,39.03088],[29.800254,39.028269],[29.795592,39.024913],[29.788599,39.019132],[29.782446,39.013631],[29.778996,39.010089],[29.776199,39.00524],[29.772656,38.998621],[29.770791,38.99601],[29.768989,38.994301],[29.761406,38.989204],[29.757055,38.986096],[29.750218,38.981248],[29.747407,38.988326],[29.74281,38.994005],[29.73569,39.001576],[29.727938,39.006533],[29.725595,39.007705],[29.720908,39.012752],[29.718114,39.015275],[29.712165,39.020143],[29.705496,39.026362],[29.704324,39.027984],[29.702431,39.030688],[29.697925,39.036546],[29.692787,39.045199],[29.689723,39.051778],[29.688371,39.056105],[29.685757,39.062053],[29.684856,39.065658],[29.683234,39.072508],[29.6808,39.080079],[29.678006,39.086298],[29.677105,39.091165],[29.674491,39.095492],[29.670345,39.102432]]]}},{"type":"Feature","properties":{"id":"TR-D-43-003","parent_id":"TR-P-43","region_id":"TR-R-EGE","level":"district","municipality_type":null,"municipality_type_label":null,"is_metropolitan_municipality":null,"name":"Çavdarhisar","name_ascii":"cavdarhisar","slug":"cavdarhisar-kutahya"},"geometry":{"type":"Polygon","coordinates":[[[29.641891,39.363387],[29.647444,39.366821],[29.649927,39.369597],[29.652192,39.371934],[29.653799,39.37398],[29.655407,39.375368],[29.657014,39.376318],[29.658767,39.377048],[29.661689,39.377998],[29.665853,39.379094],[29.667826,39.379824],[29.671479,39.37997],[29.673683,39.379937],[29.673409,39.379583],[29.673319,39.3776],[29.674221,39.375708],[29.674942,39.373094],[29.676113,39.370029],[29.678096,39.364532],[29.68062,39.357591],[29.683053,39.352634],[29.683594,39.351372],[29.685487,39.347226],[29.686388,39.344432],[29.68783,39.339025],[29.689182,39.333256],[29.691075,39.326496],[29.692066,39.320007],[29.694049,39.307028],[29.695672,39.300719],[29.696032,39.299187],[29.698285,39.293509],[29.702251,39.285667],[29.705225,39.2808],[29.712616,39.274491],[29.717213,39.271787],[29.720548,39.270525],[29.734428,39.265478],[29.739655,39.263585],[29.752183,39.25989],[29.755248,39.258718],[29.75651,39.257456],[29.757051,39.253581],[29.757051,39.249795],[29.7566,39.242495],[29.755969,39.233842],[29.755428,39.230237],[29.753535,39.216807],[29.752995,39.208515],[29.752634,39.201035],[29.74957,39.185262],[29.746415,39.17715],[29.741007,39.171111],[29.732986,39.162549],[29.726046,39.152635],[29.718204,39.146055],[29.713788,39.143171],[29.707028,39.138394],[29.699908,39.133437],[29.692337,39.128119],[29.68756,39.124153],[29.678637,39.113247],[29.673139,39.106217],[29.670345,39.102432],[29.662836,39.102745],[29.65393,39.104156],[29.646347,39.105302],[29.638675,39.106184],[29.63021,39.107154],[29.620598,39.109094],[29.616278,39.110064],[29.60552,39.111034],[29.598466,39.111916],[29.594409,39.112268],[29.592381,39.112797],[29.587972,39.11412],[29.580918,39.115707],[29.574657,39.116854],[29.567515,39.11703],[29.559491,39.116942],[29.553935,39.116589],[29.546176,39.115795],[29.54212,39.11509],[29.535418,39.112445],[29.531979,39.11121],[29.526512,39.110769],[29.516019,39.112092],[29.507818,39.112974],[29.506231,39.113767],[29.493798,39.125671],[29.491064,39.127611],[29.486214,39.132285],[29.481012,39.136253],[29.474751,39.14269],[29.472458,39.144894],[29.470166,39.147716],[29.466815,39.151596],[29.465492,39.15283],[29.458526,39.160061],[29.454735,39.164205],[29.453676,39.165616],[29.451825,39.170642],[29.451384,39.1732],[29.451472,39.176991],[29.452089,39.181753],[29.453156,39.187165],[29.461345,39.190608],[29.469964,39.195859],[29.477296,39.201606],[29.482448,39.206659],[29.486114,39.209136],[29.490176,39.211513],[29.494832,39.213396],[29.507514,39.216665],[29.512963,39.217557],[29.517224,39.218647],[29.523961,39.222214],[29.529014,39.224889],[29.535157,39.228158],[29.537931,39.232815],[29.545163,39.241038],[29.549919,39.245596],[29.55408,39.247379],[29.56379,39.252036],[29.572211,39.25798],[29.581227,39.263429],[29.589153,39.269572],[29.592522,39.274526],[29.594999,39.277696],[29.595989,39.279777],[29.596782,39.283938],[29.597476,39.286118],[29.598169,39.287406],[29.599853,39.289387],[29.605798,39.297215],[29.61204,39.305438],[29.616597,39.309995],[29.619768,39.31267],[29.621353,39.314751],[29.623136,39.319011],[29.625712,39.323668],[29.627397,39.327532],[29.629874,39.330801],[29.633242,39.334665],[29.637106,39.340907],[29.63988,39.347744],[29.641168,39.352103],[29.641466,39.355868],[29.641891,39.363387]]]}},{"type":"Feature","properties":{"id":"TR-D-43-004","parent_id":"TR-P-43","region_id":"TR-R-EGE","level":"district","municipality_type":null,"municipality_type_label":null,"is_metropolitan_municipality":null,"name":"Domaniç","name_ascii":"domanic","slug":"domanic-kutahya"},"geometry":{"type":"Polygon","coordinates":[[[29.362706,39.781757],[29.36826,39.786372],[29.370482,39.788081],[29.379369,39.794918],[29.383241,39.798172],[29.391162,39.80483],[29.400733,39.808761],[29.40962,39.812949],[29.417055,39.817307],[29.421755,39.821921],[29.42731,39.827134],[29.432266,39.831321],[29.436453,39.8385],[29.444059,39.847643],[29.445161,39.849641],[29.451408,39.860803],[29.454057,39.864905],[29.45645,39.867042],[29.460893,39.868238],[29.466704,39.868665],[29.471148,39.868751],[29.478839,39.868922],[29.488068,39.86952],[29.496272,39.870118],[29.500886,39.870032],[29.514217,39.870032],[29.519772,39.870374],[29.52695,39.870545],[29.538572,39.870203],[29.540537,39.869947],[29.560961,39.866529],[29.566687,39.865247],[29.569934,39.864051],[29.572412,39.863965],[29.575232,39.864392],[29.58147,39.866272],[29.590272,39.868067],[29.595741,39.870374],[29.600612,39.873109],[29.604458,39.874732],[29.60856,39.875502],[29.616763,39.875245],[29.625736,39.874903],[29.636674,39.874305],[29.647954,39.872425],[29.658636,39.870289],[29.663764,39.868494],[29.671625,39.867982],[29.680342,39.866272],[29.68658,39.864392],[29.693502,39.862171],[29.702864,39.861006],[29.704456,39.86117],[29.703808,39.860614],[29.702778,39.85804],[29.701837,39.855802],[29.700572,39.851055],[29.699101,39.847231],[29.699101,39.844363],[29.699984,39.841421],[29.703293,39.835245],[29.709176,39.826126],[29.714029,39.820464],[29.718294,39.81539],[29.722485,39.810758],[29.725059,39.808331],[29.729986,39.803772],[29.731971,39.802595],[29.735795,39.801345],[29.739325,39.800095],[29.741531,39.798477],[29.744105,39.794139],[29.746678,39.787888],[29.747708,39.783256],[29.748517,39.777446],[29.74609,39.769358],[29.745134,39.765681],[29.744325,39.761122],[29.744105,39.756342],[29.743296,39.749797],[29.743516,39.742444],[29.744399,39.739135],[29.745502,39.736488],[29.747487,39.731781],[29.747267,39.726855],[29.747984,39.723613],[29.750039,39.721184],[29.746553,39.720584],[29.744098,39.719657],[29.742058,39.719272],[29.740294,39.717162],[29.739376,39.714074],[29.736538,39.710068],[29.733367,39.706313],[29.72452,39.700638],[29.716926,39.698885],[29.703406,39.697466],[29.697981,39.697466],[29.692389,39.697633],[29.686714,39.699386],[29.685295,39.700304],[29.682625,39.702641],[29.680118,39.703697],[29.677283,39.703809],[29.670857,39.702808],[29.6661,39.701472],[29.662595,39.69972],[29.657837,39.696544],[29.652664,39.69346],[29.647155,39.691791],[29.638893,39.690373],[29.628878,39.689621],[29.621784,39.689538],[29.604759,39.68862],[29.588652,39.686283],[29.57263,39.684537],[29.559902,39.681874],[29.542573,39.677061],[29.535823,39.673709],[29.530621,39.670843],[29.526782,39.668173],[29.522609,39.666003],[29.518019,39.664167],[29.515515,39.662998],[29.509256,39.66375],[29.504833,39.665586],[29.501411,39.668173],[29.499658,39.670343],[29.496236,39.675684],[29.492898,39.680858],[29.490895,39.683362],[29.488141,39.687702],[29.485137,39.693294],[29.481715,39.698635],[29.478877,39.702307],[29.47629,39.705311],[29.472368,39.70865],[29.470699,39.710235],[29.469267,39.711704],[29.466943,39.713824],[29.463688,39.71566],[29.455676,39.716995],[29.450335,39.717913],[29.443825,39.721502],[29.436648,39.723171],[29.430722,39.724757],[29.42705,39.725592],[29.42246,39.726593],[29.417453,39.728012],[29.409524,39.729264],[29.400177,39.730015],[29.393667,39.730766],[29.389244,39.732685],[29.387909,39.734104],[29.386907,39.736024],[29.386406,39.74003],[29.386156,39.743785],[29.386323,39.748292],[29.386824,39.751463],[29.387241,39.754217],[29.387074,39.756387],[29.386991,39.757305],[29.387074,39.758557],[29.386991,39.759225],[29.386073,39.76031],[29.384988,39.761061],[29.383986,39.761395],[29.383152,39.761061],[29.382651,39.760059],[29.381816,39.758975],[29.380982,39.757973],[29.380064,39.757389],[29.378728,39.757305],[29.377059,39.758808],[29.376976,39.759976],[29.376976,39.762062],[29.377643,39.764149],[29.379062,39.765568],[29.379813,39.766569],[29.37973,39.767654],[29.37948,39.769073],[29.378895,39.76949],[29.377894,39.769323],[29.376892,39.768989],[29.375974,39.76924],[29.375223,39.769991],[29.374889,39.770909],[29.374639,39.77166],[29.373721,39.772077],[29.372636,39.772578],[29.372052,39.773329],[29.371551,39.774247],[29.370967,39.774915],[29.370299,39.775416],[29.369465,39.776167],[29.368547,39.777168],[29.367629,39.778003],[29.366961,39.778671],[29.366627,39.779338],[29.365125,39.780006],[29.362706,39.781757]]]}},{"type":"Feature","properties":{"id":"TR-D-43-005","parent_id":"TR-P-43","region_id":"TR-R-EGE","level":"district","municipality_type":null,"municipality_type_label":null,"is_metropolitan_municipality":null,"name":"Dumlupınar","name_ascii":"dumlupinar","slug":"dumlupinar-kutahya"},"geometry":{"type":"Polygon","coordinates":[[[30.213023,38.946373],[30.211202,38.942326],[30.209179,38.938482],[30.206684,38.934165],[30.203986,38.929174],[30.203437,38.928098],[30.2023,38.92587],[30.198658,38.922497],[30.195286,38.918653],[30.191239,38.915753],[30.186653,38.912516],[30.184158,38.909076],[30.182337,38.907525],[30.177076,38.90476],[30.170804,38.900713],[30.168915,38.899162],[30.165745,38.896329],[30.157247,38.890124],[30.155089,38.889315],[30.148952,38.888641],[30.143219,38.888506],[30.136677,38.888641],[30.130607,38.887966],[30.126628,38.888101],[30.122042,38.888034],[30.117928,38.887696],[30.116646,38.886617],[30.116309,38.883447],[30.115702,38.879671],[30.116376,38.875287],[30.117051,38.873398],[30.11759,38.87178],[30.117118,38.869419],[30.115702,38.86571],[30.113342,38.862135],[30.1097,38.857684],[30.107204,38.856065],[30.102618,38.852761],[30.097088,38.851681],[30.090343,38.85013],[30.085083,38.848039],[30.079822,38.844263],[30.075438,38.84089],[30.072875,38.836574],[30.070852,38.833472],[30.067277,38.830504],[30.06377,38.828548],[30.058847,38.826592],[30.051496,38.824097],[30.048798,38.822613],[30.045088,38.820455],[30.040839,38.818769],[30.035174,38.816948],[30.030521,38.815666],[30.028767,38.815194],[30.025058,38.814318],[30.021348,38.812766],[30.017167,38.810406],[30.014739,38.807776],[30.013348,38.806362],[30.013328,38.807091],[30.013159,38.813104],[30.010449,38.819203],[30.006582,38.824112],[30.002879,38.825435],[30.000027,38.826329],[29.995274,38.827951],[29.992534,38.828958],[29.98957,38.830076],[29.986103,38.831474],[29.982077,38.832313],[29.975815,38.833767],[29.966532,38.835835],[29.96122,38.838575],[29.958536,38.840421],[29.95697,38.842713],[29.956691,38.844279],[29.95753,38.84741],[29.957921,38.849983],[29.959543,38.855854],[29.959375,38.859153],[29.958872,38.862173],[29.957977,38.864465],[29.957641,38.866422],[29.956523,38.869666],[29.954901,38.871846],[29.953727,38.8733],[29.951379,38.875649],[29.949813,38.87727],[29.947185,38.879004],[29.944109,38.881297],[29.942823,38.882694],[29.940978,38.884652],[29.938573,38.887671],[29.937567,38.889628],[29.937846,38.891194],[29.937846,38.89371],[29.937846,38.896786],[29.937958,38.898519],[29.937231,38.901315],[29.935889,38.903328],[29.934547,38.905397],[29.933317,38.907522],[29.93136,38.909647],[29.9289,38.910989],[29.926383,38.911268],[29.923923,38.911101],[29.921519,38.910597],[29.919617,38.90987],[29.917996,38.909088],[29.914026,38.906851],[29.911397,38.906292],[29.907651,38.906068],[29.903793,38.906068],[29.899878,38.906068],[29.896635,38.905453],[29.890149,38.903272],[29.886123,38.901874],[29.88383,38.90098],[29.882376,38.899917],[29.880363,38.897848],[29.878238,38.896282],[29.876673,38.895611],[29.872479,38.894717],[29.869124,38.894717],[29.866104,38.895723],[29.863476,38.897345],[29.861697,38.898531],[29.865198,38.901851],[29.868402,38.904961],[29.872737,38.910144],[29.877449,38.914384],[29.882915,38.91985],[29.888287,38.925505],[29.890077,38.927295],[29.895261,38.930594],[29.903459,38.934552],[29.907417,38.935117],[29.914014,38.934834],[29.923155,38.934834],[29.929092,38.935023],[29.935972,38.935965],[29.938988,38.938039],[29.943134,38.941054],[29.950391,38.945766],[29.95482,38.950007],[29.960286,38.953682],[29.96839,38.960185],[29.970369,38.962729],[29.974045,38.96763],[29.97706,38.971399],[29.981395,38.975923],[29.984694,38.978373],[29.988275,38.980164],[29.994966,38.983085],[30.002316,38.985158],[30.006557,38.985629],[30.016264,38.987137],[30.020222,38.986666],[30.025782,38.985535],[30.030494,38.983839],[30.033792,38.980729],[30.035677,38.974038],[30.037185,38.96697],[30.037845,38.960844],[30.038976,38.954436],[30.040766,38.948405],[30.042745,38.93785],[30.047363,38.927861],[30.050944,38.922678],[30.053865,38.919662],[30.057918,38.91674],[30.062347,38.913536],[30.064703,38.912217],[30.068284,38.912311],[30.072619,38.913442],[30.075635,38.915233],[30.078745,38.917306],[30.082608,38.919473],[30.090053,38.922018],[30.093257,38.923054],[30.099854,38.926164],[30.111823,38.93229],[30.117477,38.935211],[30.123885,38.939923],[30.128597,38.942374],[30.132649,38.94407],[30.138398,38.945295],[30.145843,38.947274],[30.153382,38.948405],[30.159602,38.948311],[30.164408,38.947934],[30.17223,38.947557],[30.178732,38.947274],[30.183821,38.947745],[30.187214,38.947557],[30.190607,38.946897],[30.195036,38.946991],[30.200596,38.946897],[30.207098,38.946803],[30.213023,38.946373]]]}},{"type":"Feature","properties":{"id":"TR-D-43-006","parent_id":"TR-P-43","region_id":"TR-R-EGE","level":"district","municipality_type":null,"municipality_type_label":null,"is_metropolitan_municipality":null,"name":"Emet","name_ascii":"emet","slug":"emet-kutahya"},"geometry":{"type":"Polygon","coordinates":[[[29.453156,39.187165],[29.452626,39.186942],[29.443808,39.183475],[29.431126,39.180701],[29.428976,39.180086],[29.428419,39.182971],[29.427525,39.185085],[29.425168,39.187442],[29.42338,39.189392],[29.420942,39.192074],[29.418991,39.194512],[29.416878,39.196544],[29.41249,39.200608],[29.409889,39.203452],[29.407857,39.205566],[29.406232,39.208979],[29.40485,39.213043],[29.404525,39.215237],[29.404687,39.218651],[29.404769,39.223933],[29.405175,39.229054],[29.405175,39.233199],[29.405581,39.23523],[29.406638,39.241163],[29.406638,39.24604],[29.406475,39.251323],[29.4055,39.25433],[29.403062,39.259044],[29.401599,39.261482],[29.399892,39.262863],[29.397454,39.264408],[29.39404,39.266358],[29.391602,39.266846],[29.386401,39.26839],[29.382987,39.268634],[29.379005,39.269203],[29.377542,39.269447],[29.374779,39.270422],[29.372259,39.271153],[29.370146,39.271153],[29.368521,39.270747],[29.365595,39.269934],[29.362019,39.268471],[29.357711,39.266846],[29.354135,39.266602],[29.35064,39.266358],[29.344951,39.266846],[29.340725,39.266846],[29.338693,39.266683],[29.333654,39.266358],[29.329184,39.265789],[29.326177,39.264977],[29.321463,39.26327],[29.316343,39.262213],[29.308459,39.261969],[29.300495,39.261563],[29.291392,39.261969],[29.282939,39.262213],[29.27278,39.262701],[29.266197,39.263757],[29.262621,39.264326],[29.252137,39.26709],[29.243359,39.26969],[29.237426,39.272698],[29.231656,39.274729],[29.222716,39.27603],[29.216051,39.276761],[29.210443,39.276355],[29.199634,39.274973],[29.194189,39.274486],[29.187849,39.273998],[29.183298,39.273592],[29.179316,39.272779],[29.173057,39.270178],[29.168425,39.269122],[29.165093,39.268715],[29.159322,39.268146],[29.153796,39.267008],[29.145343,39.263514],[29.143068,39.262701],[29.133721,39.259612],[29.124293,39.257012],[29.116491,39.254574],[29.11194,39.253354],[29.106576,39.252298],[29.101781,39.251241],[29.096985,39.250185],[29.092109,39.249778],[29.08837,39.249778],[29.083006,39.24986],[29.075448,39.250022],[29.068377,39.249778],[29.057974,39.24986],[29.048628,39.249697],[29.042938,39.249047],[29.037574,39.24799],[29.032913,39.247019],[29.032638,39.251152],[29.032729,39.254826],[29.033189,39.257673],[29.032913,39.260337],[29.032546,39.262909],[29.031719,39.265297],[29.031627,39.269798],[29.031995,39.276779],[29.032546,39.283484],[29.033281,39.288811],[29.033005,39.291291],[29.032638,39.29423],[29.031443,39.298088],[29.030617,39.301027],[29.030341,39.304793],[29.030525,39.307365],[29.029974,39.311223],[29.029698,39.314438],[29.029239,39.317928],[29.029515,39.319765],[29.029974,39.322613],[29.030709,39.325552],[29.032362,39.331155],[29.034383,39.334553],[29.035209,39.336023],[29.037781,39.339789],[29.040996,39.343922],[29.045772,39.351362],[29.051651,39.358619],[29.05707,39.366426],[29.060836,39.372029],[29.063316,39.378918],[29.06451,39.381857],[29.065153,39.382592],[29.06846,39.385623],[29.073604,39.390675],[29.077921,39.394349],[29.08334,39.399952],[29.087749,39.404361],[29.092801,39.407392],[29.098679,39.409872],[29.10318,39.411434],[29.106395,39.413822],[29.109242,39.416577],[29.11062,39.419241],[29.111477,39.421626],[29.112273,39.421537],[29.114478,39.42117],[29.120081,39.421354],[29.124489,39.423099],[29.128623,39.426497],[29.132572,39.432468],[29.134134,39.436509],[29.136706,39.440183],[29.138818,39.442204],[29.142492,39.444959],[29.146901,39.447899],[29.151586,39.450195],[29.16022,39.452032],[29.166526,39.453171],[29.175438,39.452952],[29.185374,39.451783],[29.197355,39.453463],[29.206194,39.454632],[29.219052,39.45697],[29.222778,39.457993],[29.230595,39.461791],[29.232129,39.462741],[29.239507,39.468439],[29.244986,39.472603],[29.247251,39.474357],[29.249881,39.474941],[29.258721,39.477133],[29.262885,39.477644],[29.267341,39.478083],[29.272236,39.478886],[29.279614,39.479617],[29.283121,39.481662],[29.28597,39.484073],[29.28955,39.487945],[29.290499,39.490429],[29.290572,39.492986],[29.29123,39.497442],[29.292253,39.500218],[29.29386,39.502775],[29.296782,39.505916],[29.300581,39.507889],[29.303138,39.509131],[29.308836,39.511176],[29.311247,39.511541],[29.314023,39.511468],[29.317164,39.508838],[29.322205,39.503798],[29.327903,39.498538],[29.33236,39.495835],[29.33572,39.493351],[29.339081,39.489041],[29.343318,39.483562],[29.346605,39.479105],[29.355006,39.470777],[29.358586,39.468658],[29.362239,39.466832],[29.366184,39.46391],[29.369398,39.461426],[29.37422,39.458212],[29.380064,39.453901],[29.385397,39.450468],[29.392191,39.445573],[29.399716,39.440971],[29.405049,39.43761],[29.410674,39.434104],[29.416299,39.429501],[29.420098,39.425483],[29.421121,39.423803],[29.426015,39.41511],[29.429376,39.409557],[29.431275,39.406416],[29.432663,39.403202],[29.434051,39.398015],[29.43449,39.396042],[29.435951,39.393412],[29.438654,39.390052],[29.442307,39.387422],[29.449174,39.382381],[29.456991,39.376829],[29.4632,39.372373],[29.479272,39.365286],[29.484824,39.362803],[29.490084,39.361268],[29.501481,39.356812],[29.50769,39.354767],[29.515215,39.353013],[29.529095,39.35031],[29.539177,39.348849],[29.543779,39.348776],[29.552473,39.348192],[29.564819,39.347388],[29.578115,39.346657],[29.57943,39.346657],[29.589365,39.347461],[29.596671,39.348557],[29.607483,39.352137],[29.619464,39.356666],[29.62487,39.357835],[29.630714,39.359369],[29.637143,39.361561],[29.641891,39.363387],[29.641466,39.355868],[29.641168,39.352103],[29.63988,39.347744],[29.637106,39.340907],[29.633242,39.334665],[29.629874,39.330801],[29.627397,39.327532],[29.625712,39.323668],[29.623136,39.319011],[29.621353,39.314751],[29.619768,39.31267],[29.616597,39.309995],[29.61204,39.305438],[29.605798,39.297215],[29.599853,39.289387],[29.598169,39.287406],[29.597476,39.286118],[29.596782,39.283938],[29.595989,39.279777],[29.594999,39.277696],[29.592522,39.274526],[29.589153,39.269572],[29.581227,39.263429],[29.572211,39.25798],[29.56379,39.252036],[29.55408,39.247379],[29.549919,39.245596],[29.545163,39.241038],[29.537931,39.232815],[29.535157,39.228158],[29.529014,39.224889],[29.523961,39.222214],[29.517224,39.218647],[29.512963,39.217557],[29.507514,39.216665],[29.494832,39.213396],[29.490176,39.211513],[29.486114,39.209136],[29.482448,39.206659],[29.477296,39.201606],[29.469964,39.195859],[29.461345,39.190608],[29.453156,39.187165]]]}},{"type":"Feature","properties":{"id":"TR-D-43-007","parent_id":"TR-P-43","region_id":"TR-R-EGE","level":"district","municipality_type":null,"municipality_type_label":null,"is_metropolitan_municipality":null,"name":"Gediz","name_ascii":"gediz","slug":"gediz-kutahya"},"geometry":{"type":"Polygon","coordinates":[[[29.428976,39.180086],[29.431126,39.180701],[29.443808,39.183475],[29.452626,39.186942],[29.453156,39.187165],[29.452089,39.181753],[29.451472,39.176991],[29.451384,39.1732],[29.451825,39.170642],[29.453676,39.165616],[29.454735,39.164205],[29.458526,39.160061],[29.465492,39.15283],[29.466815,39.151596],[29.470166,39.147716],[29.472458,39.144894],[29.474751,39.14269],[29.481012,39.136253],[29.486214,39.132285],[29.491064,39.127611],[29.493798,39.125671],[29.506231,39.113767],[29.507818,39.112974],[29.516019,39.112092],[29.526512,39.110769],[29.531979,39.11121],[29.535418,39.112445],[29.54212,39.11509],[29.546176,39.115795],[29.553935,39.116589],[29.559491,39.116942],[29.567515,39.11703],[29.574657,39.116854],[29.580918,39.115707],[29.587972,39.11412],[29.592381,39.112797],[29.594409,39.112268],[29.598466,39.111916],[29.60552,39.111034],[29.616278,39.110064],[29.620598,39.109094],[29.63021,39.107154],[29.638675,39.106184],[29.646347,39.105302],[29.65393,39.104156],[29.662836,39.102745],[29.670345,39.102432],[29.674491,39.095492],[29.677105,39.091165],[29.678006,39.086298],[29.6808,39.080079],[29.683234,39.072508],[29.684856,39.065658],[29.685757,39.062053],[29.688371,39.056105],[29.689723,39.051778],[29.692787,39.045199],[29.697925,39.036546],[29.702431,39.030688],[29.704324,39.027984],[29.705496,39.026362],[29.712165,39.020143],[29.718114,39.015275],[29.720908,39.012752],[29.725595,39.007705],[29.727938,39.006533],[29.73569,39.001576],[29.74281,38.994005],[29.747407,38.988326],[29.750218,38.981248],[29.753326,38.972298],[29.75519,38.967574],[29.756682,38.963223],[29.759665,38.959245],[29.761779,38.954769],[29.762773,38.949548],[29.762773,38.94557],[29.762773,38.939479],[29.763146,38.931026],[29.763383,38.923738],[29.760532,38.924409],[29.759357,38.924297],[29.756953,38.92385],[29.752591,38.92385],[29.749572,38.924968],[29.742247,38.927261],[29.736599,38.929498],[29.733412,38.930504],[29.730448,38.931511],[29.727932,38.93207],[29.725751,38.932238],[29.718705,38.932741],[29.709591,38.934754],[29.70741,38.935704],[29.70316,38.937438],[29.698128,38.94001],[29.694884,38.941911],[29.690131,38.944372],[29.685266,38.945881],[29.680066,38.947],[29.676376,38.947839],[29.673132,38.948565],[29.669386,38.948789],[29.665472,38.950131],[29.660942,38.951585],[29.658985,38.951641],[29.652051,38.951585],[29.650094,38.951361],[29.648025,38.950411],[29.646236,38.949069],[29.644335,38.947615],[29.641371,38.945322],[29.638352,38.943477],[29.634158,38.942303],[29.63097,38.941184],[29.627224,38.940122],[29.619955,38.938612],[29.616991,38.937102],[29.614642,38.935425],[29.612909,38.933468],[29.611287,38.931007],[29.610113,38.927988],[29.609498,38.926254],[29.607261,38.922955],[29.605975,38.921334],[29.602956,38.918034],[29.59988,38.913337],[29.597196,38.908473],[29.594512,38.904502],[29.59345,38.902713],[29.59166,38.900532],[29.588697,38.899582],[29.584503,38.898128],[29.581371,38.897065],[29.573599,38.896282],[29.567168,38.896562],[29.562807,38.897289],[29.55783,38.898463],[29.551959,38.898351],[29.546926,38.897177],[29.542229,38.895891],[29.538091,38.894549],[29.53194,38.893654],[29.529033,38.893417],[29.52864,38.893417],[29.528248,38.893417],[29.524214,38.893481],[29.521012,38.893032],[29.518771,38.891496],[29.517362,38.889767],[29.516017,38.888038],[29.514993,38.886693],[29.513904,38.885604],[29.510638,38.883235],[29.509614,38.882659],[29.508205,38.881058],[29.50686,38.879905],[29.50558,38.879265],[29.502826,38.878112],[29.501033,38.87728],[29.499432,38.875807],[29.497767,38.87427],[29.495846,38.872605],[29.494053,38.870748],[29.490659,38.868827],[29.489251,38.868379],[29.487138,38.868059],[29.485729,38.867739],[29.484576,38.867354],[29.481695,38.865625],[29.477532,38.864345],[29.476718,38.864073],[29.475611,38.863704],[29.473114,38.863768],[29.470424,38.864025],[29.469272,38.864921],[29.467031,38.866586],[29.464661,38.868123],[29.463381,38.869532],[29.461652,38.871004],[29.458803,38.874257],[29.454738,38.877221],[29.451265,38.879424],[29.448385,38.880101],[29.443557,38.881795],[29.439238,38.88315],[29.434325,38.884675],[29.430598,38.885691],[29.426109,38.885945],[29.422044,38.885353],[29.41891,38.884336],[29.414844,38.882981],[29.409,38.880694],[29.402083,38.87768],[29.399137,38.876399],[29.397985,38.875247],[29.397024,38.874222],[29.396192,38.872877],[29.395679,38.871725],[29.395039,38.870508],[29.393246,38.86974],[29.39235,38.868779],[29.391581,38.867947],[29.390364,38.867563],[29.38902,38.867178],[29.386843,38.866154],[29.38537,38.865705],[29.384537,38.865385],[29.382296,38.865065],[29.380183,38.864873],[29.378518,38.864681],[29.376213,38.864425],[29.374548,38.864233],[29.372755,38.863848],[29.37109,38.863464],[29.370989,38.863296],[29.370514,38.862504],[29.370578,38.861671],[29.370578,38.86109],[29.370578,38.860775],[29.370193,38.86007],[29.370026,38.859903],[29.369297,38.859174],[29.3684,38.857445],[29.367696,38.855844],[29.367376,38.855652],[29.367056,38.85546],[29.365775,38.85482],[29.365135,38.854115],[29.364622,38.853027],[29.364366,38.852066],[29.36432,38.851974],[29.363982,38.851298],[29.363915,38.851097],[29.363598,38.850145],[29.363406,38.849056],[29.363214,38.847712],[29.363342,38.846486],[29.365825,38.840641],[29.365903,38.837601],[29.365953,38.835698],[29.364109,38.834849],[29.363988,38.834794],[29.362921,38.834293],[29.362167,38.833928],[29.362074,38.833884],[29.361061,38.833366],[29.360542,38.833078],[29.360451,38.833026],[29.360211,38.832887],[29.359797,38.832637],[29.359411,38.832392],[29.35752,38.831128],[29.357236,38.830949],[29.356703,38.830612],[29.355821,38.830092],[29.354473,38.829334],[29.350389,38.827098],[29.348567,38.826115],[29.347647,38.825642],[29.347181,38.825416],[29.34671,38.825201],[29.346231,38.825002],[29.345739,38.824826],[29.345244,38.824681],[29.345236,38.824679],[29.344703,38.824551],[29.34417,38.824444],[29.343523,38.824334],[29.33809,38.823674],[29.334956,38.820026],[29.334624,38.819644],[29.334605,38.819622],[29.333691,38.81857],[29.332719,38.817494],[29.33252,38.81729],[29.33204,38.816796],[29.331689,38.816458],[29.330965,38.815798],[29.329848,38.814825],[29.326457,38.811929],[29.326133,38.811656],[29.325901,38.81146],[29.3258,38.811374],[29.324933,38.810656],[29.324147,38.81004],[29.323743,38.809742],[29.323328,38.809455],[29.3229,38.809182],[29.322483,38.808942],[29.322054,38.808717],[29.321614,38.808504],[29.321163,38.808304],[29.320713,38.80812],[29.320256,38.807944],[29.319327,38.807614],[29.318385,38.807304],[29.317432,38.807012],[29.31506,38.806345],[29.314117,38.806069],[29.313651,38.805922],[29.313132,38.805747],[29.312618,38.805564],[29.3116,38.805181],[29.309581,38.804383],[29.305559,38.802758],[29.302546,38.801534],[29.301617,38.801149],[29.301047,38.800912],[29.300721,38.800771],[29.295386,38.800591],[29.293519,38.800528],[29.292326,38.800987],[29.288997,38.801094],[29.285539,38.801222],[29.282849,38.800966],[29.279776,38.800198],[29.27715,38.799685],[29.275229,38.798789],[29.27318,38.796932],[29.270992,38.794989],[29.266723,38.793709],[29.263052,38.791403],[29.260064,38.788586],[29.258015,38.78722],[29.256051,38.786878],[29.253404,38.786622],[29.250501,38.785854],[29.248281,38.784744],[29.246061,38.782695],[29.243585,38.781243],[29.241109,38.781243],[29.237267,38.782012],[29.234535,38.782182],[29.230351,38.782182],[29.227534,38.782268],[29.226037,38.783374],[29.22558,38.784498],[29.225239,38.78693],[29.225236,38.78695],[29.224914,38.789241],[29.225247,38.790034],[29.225731,38.791312],[29.226822,38.794309],[29.22824,38.798155],[29.228383,38.798553],[29.228547,38.79901],[29.228841,38.799869],[29.229107,38.800732],[29.229219,38.80115],[29.229323,38.801569],[29.22946,38.802179],[29.229509,38.802401],[29.22951,38.802406],[29.22985,38.804106],[29.230173,38.805855],[29.230479,38.807513],[29.230649,38.808354],[29.230738,38.808739],[29.230841,38.809116],[29.230965,38.809481],[29.23112,38.809831],[29.231318,38.810158],[29.231596,38.810489],[29.231928,38.810788],[29.2323,38.811057],[29.232704,38.811294],[29.233133,38.811496],[29.233584,38.811653],[29.234057,38.811754],[29.234503,38.811788],[29.234964,38.811777],[29.235434,38.811734],[29.235911,38.811669],[29.236984,38.811493],[29.237373,38.811429],[29.237867,38.811361],[29.238353,38.811314],[29.238839,38.811287],[29.239324,38.811284],[29.239807,38.811308],[29.24035,38.811372],[29.240691,38.811432],[29.24079,38.811449],[29.240838,38.811457],[29.241422,38.811583],[29.241954,38.811717],[29.242485,38.811862],[29.243015,38.812015],[29.244072,38.812335],[29.246709,38.813171],[29.247752,38.813519],[29.248266,38.8137],[29.248772,38.81389],[29.249267,38.814091],[29.249707,38.814291],[29.250129,38.814506],[29.250577,38.814772],[29.250625,38.814805],[29.250901,38.814995],[29.251202,38.815244],[29.251477,38.815512],[29.251726,38.815795],[29.251948,38.816093],[29.252142,38.816403],[29.252318,38.816753],[29.252471,38.817113],[29.252815,38.818021],[29.252815,38.818653],[29.252815,38.819118],[29.252532,38.82045],[29.252241,38.821825],[29.252222,38.821913],[29.249766,38.824115],[29.246902,38.825838],[29.245365,38.827903],[29.244933,38.829152],[29.245029,38.831265],[29.245701,38.833378],[29.245653,38.834867],[29.243924,38.836164],[29.242243,38.836932],[29.240274,38.837124],[29.237633,38.837413],[29.233406,38.837845],[29.231555,38.837845],[29.228981,38.836863],[29.228171,38.836116],[29.227399,38.835568],[29.226683,38.835059],[29.223369,38.834099],[29.219335,38.833282],[29.215685,38.832994],[29.212851,38.832946],[29.209729,38.833186],[29.20752,38.833859],[29.205983,38.835011],[29.204879,38.836644],[29.203822,38.837941],[29.203606,38.838157],[29.20339,38.838373],[29.202237,38.839526],[29.201709,38.84039],[29.201229,38.842551],[29.201109,38.842744],[29.200989,38.842936],[29.199644,38.843608],[29.198731,38.844569],[29.198299,38.845673],[29.198011,38.84673],[29.197339,38.847978],[29.194792,38.849859],[29.193356,38.849864],[29.191916,38.849694],[29.189883,38.849525],[29.187597,38.848763],[29.185479,38.847916],[29.184039,38.84673],[29.182853,38.844951],[29.181668,38.843426],[29.180228,38.84097],[29.177941,38.839276],[29.175654,38.839276],[29.173282,38.840123],[29.171334,38.841817],[29.168624,38.843172],[29.166252,38.844782],[29.164643,38.846645],[29.163881,38.848508],[29.16261,38.852235],[29.16134,38.855454],[29.159734,38.85888],[29.158485,38.859985],[29.156564,38.86253],[29.154787,38.864163],[29.154163,38.866084],[29.15325,38.867669],[29.152338,38.868822],[29.150753,38.869638],[29.149648,38.870023],[29.148877,38.870141],[29.152147,38.872974],[29.157229,38.877383],[29.16134,38.880597],[29.165375,38.883586],[29.170084,38.886501],[29.173671,38.888892],[29.181144,38.894946],[29.187795,38.900028],[29.195194,38.905483],[29.204237,38.910939],[29.209842,38.913181],[29.214401,38.913928],[29.216194,38.914451],[29.219109,38.916843],[29.222173,38.919907],[29.224565,38.924242],[29.224938,38.925437],[29.22576,38.926484],[29.228152,38.9288],[29.232038,38.931715],[29.236148,38.935452],[29.243696,38.941804],[29.250497,38.94711],[29.254383,38.949576],[29.257597,38.951893],[29.261632,38.954957],[29.267536,38.959516],[29.276729,38.96968],[29.282633,38.976705],[29.286818,38.983281],[29.289209,38.988513],[29.291451,38.994491],[29.292647,39.001068],[29.292423,39.005627],[29.292199,39.007943],[29.292423,39.011007],[29.29317,39.014296],[29.293768,39.018182],[29.293992,39.02162],[29.294665,39.025954],[29.29474,39.029093],[29.293394,39.034922],[29.289359,39.044937],[29.285622,39.051513],[29.282408,39.055698],[29.277551,39.05936],[29.270451,39.064218],[29.265145,39.067207],[29.259839,39.072214],[29.252291,39.079538],[29.248778,39.082602],[29.24265,39.089104],[29.237942,39.095606],[29.234803,39.097923],[29.231814,39.099044],[29.227105,39.10009],[29.214342,39.103299],[29.215635,39.105997],[29.218905,39.112041],[29.222967,39.116796],[29.225543,39.12066],[29.227921,39.122939],[29.2345,39.12752],[29.235748,39.128388],[29.239413,39.130271],[29.253185,39.133639],[29.265768,39.136017],[29.281125,39.139782],[29.293707,39.14325],[29.313324,39.148699],[29.323232,39.152662],[29.339877,39.159796],[29.350181,39.16356],[29.353649,39.164254],[29.363457,39.166533],[29.373464,39.168911],[29.379805,39.169703],[29.388127,39.170892],[29.398728,39.172775],[29.4125,39.175549],[29.41785,39.177134],[29.426965,39.179512],[29.428976,39.180086]]]}},{"type":"Feature","properties":{"id":"TR-D-43-008","parent_id":"TR-P-43","region_id":"TR-R-EGE","level":"district","municipality_type":null,"municipality_type_label":null,"is_metropolitan_municipality":null,"name":"Hisarcık","name_ascii":"hisarcik","slug":"hisarcik-kutahya"},"geometry":{"type":"Polygon","coordinates":[[[29.428976,39.180086],[29.426965,39.179512],[29.41785,39.177134],[29.4125,39.175549],[29.398728,39.172775],[29.388127,39.170892],[29.379805,39.169703],[29.373464,39.168911],[29.363457,39.166533],[29.353649,39.164254],[29.350181,39.16356],[29.339877,39.159796],[29.323232,39.152662],[29.313324,39.148699],[29.293707,39.14325],[29.281125,39.139782],[29.265768,39.136017],[29.253185,39.133639],[29.239413,39.130271],[29.235748,39.128388],[29.2345,39.12752],[29.229935,39.136245],[29.22571,39.146533],[29.220383,39.15434],[29.218546,39.156636],[29.213494,39.16077],[29.210371,39.162974],[29.207707,39.164536],[29.206513,39.164627],[29.203574,39.164076],[29.201278,39.162974],[29.197879,39.159667],[29.193746,39.157463],[29.189337,39.155993],[29.181346,39.155718],[29.175835,39.155075],[29.16766,39.155901],[29.159118,39.157463],[29.15177,39.159208],[29.150392,39.159851],[29.143778,39.161964],[29.137441,39.163709],[29.129541,39.164719],[29.126694,39.164903],[29.120264,39.164719],[29.111538,39.164444],[29.104282,39.163341],[29.09923,39.162331],[29.092801,39.161413],[29.084534,39.161137],[29.081044,39.161137],[29.075349,39.161504],[29.073052,39.16178],[29.070113,39.163801],[29.066898,39.167199],[29.064326,39.177487],[29.063408,39.180242],[29.061846,39.184008],[29.060561,39.18658],[29.05854,39.19007],[29.05606,39.19549],[29.055233,39.196959],[29.050824,39.210829],[29.048069,39.219463],[29.045772,39.225158],[29.044027,39.230026],[29.041915,39.234619],[29.039067,39.238476],[29.036312,39.242242],[29.033648,39.245824],[29.032913,39.247019],[29.037574,39.24799],[29.042938,39.249047],[29.048628,39.249697],[29.057974,39.24986],[29.068377,39.249778],[29.075448,39.250022],[29.083006,39.24986],[29.08837,39.249778],[29.092109,39.249778],[29.096985,39.250185],[29.101781,39.251241],[29.106576,39.252298],[29.11194,39.253354],[29.116491,39.254574],[29.124293,39.257012],[29.133721,39.259612],[29.143068,39.262701],[29.145343,39.263514],[29.153796,39.267008],[29.159322,39.268146],[29.165093,39.268715],[29.168425,39.269122],[29.173057,39.270178],[29.179316,39.272779],[29.183298,39.273592],[29.187849,39.273998],[29.194189,39.274486],[29.199634,39.274973],[29.210443,39.276355],[29.216051,39.276761],[29.222716,39.27603],[29.231656,39.274729],[29.237426,39.272698],[29.243359,39.26969],[29.252137,39.26709],[29.262621,39.264326],[29.266197,39.263757],[29.27278,39.262701],[29.282939,39.262213],[29.291392,39.261969],[29.300495,39.261563],[29.308459,39.261969],[29.316343,39.262213],[29.321463,39.26327],[29.326177,39.264977],[29.329184,39.265789],[29.333654,39.266358],[29.338693,39.266683],[29.340725,39.266846],[29.344951,39.266846],[29.35064,39.266358],[29.354135,39.266602],[29.357711,39.266846],[29.362019,39.268471],[29.365595,39.269934],[29.368521,39.270747],[29.370146,39.271153],[29.372259,39.271153],[29.374779,39.270422],[29.377542,39.269447],[29.379005,39.269203],[29.382987,39.268634],[29.386401,39.26839],[29.391602,39.266846],[29.39404,39.266358],[29.397454,39.264408],[29.399892,39.262863],[29.401599,39.261482],[29.403062,39.259044],[29.4055,39.25433],[29.406475,39.251323],[29.406638,39.24604],[29.406638,39.241163],[29.405581,39.23523],[29.405175,39.233199],[29.405175,39.229054],[29.404769,39.223933],[29.404687,39.218651],[29.404525,39.215237],[29.40485,39.213043],[29.406232,39.208979],[29.407857,39.205566],[29.409889,39.203452],[29.41249,39.200608],[29.416878,39.196544],[29.418991,39.194512],[29.420942,39.192074],[29.42338,39.189392],[29.425168,39.187442],[29.427525,39.185085],[29.428419,39.182971],[29.428976,39.180086]]]}},{"type":"Feature","properties":{"id":"TR-D-43-009","parent_id":"TR-P-43","region_id":"TR-R-EGE","level":"district","municipality_type":null,"municipality_type_label":null,"is_metropolitan_municipality":null,"name":"Kütahya","name_ascii":"kutahya","slug":"kutahya-kutahya"},"geometry":{"type":"Polygon","coordinates":[[[30.173512,39.678371],[30.173829,39.677546],[30.174112,39.676714],[30.174235,39.676296],[30.174341,39.675875],[30.174422,39.675473],[30.174486,39.67507],[30.174538,39.674664],[30.174616,39.673851],[30.174668,39.673036],[30.174699,39.672219],[30.174709,39.671324],[30.174707,39.669534],[30.174727,39.668642],[30.174753,39.668199],[30.174797,39.667759],[30.174866,39.667323],[30.17497,39.666894],[30.17511,39.66649],[30.175284,39.666093],[30.175484,39.665703],[30.175706,39.66532],[30.175947,39.664944],[30.176206,39.664579],[30.176484,39.664227],[30.176785,39.663893],[30.177114,39.663583],[30.177481,39.663305],[30.177826,39.663102],[30.178198,39.662925],[30.178593,39.662771],[30.179005,39.662638],[30.179432,39.662524],[30.179934,39.662418],[30.180447,39.662332],[30.180969,39.66226],[30.181497,39.662199],[30.182029,39.662147],[30.182563,39.662103],[30.183644,39.662033],[30.184737,39.661982],[30.18583,39.66194],[30.191166,39.661771],[30.192134,39.661719],[30.192614,39.66168],[30.193091,39.661628],[30.193646,39.661545],[30.194194,39.661441],[30.194737,39.661319],[30.195159,39.661211],[30.195194,39.661202],[30.195647,39.661073],[30.196093,39.660932],[30.196533,39.660779],[30.19699,39.660603],[30.19744,39.660413],[30.19788,39.660211],[30.198311,39.659997],[30.198734,39.65977],[30.199148,39.659533],[30.199555,39.659288],[30.200345,39.658776],[30.200728,39.65851],[30.2011,39.658236],[30.201403,39.657998],[30.201697,39.657754],[30.201979,39.657502],[30.202277,39.657214],[30.202562,39.656919],[30.202894,39.656554],[30.202898,39.656549],[30.203215,39.656182],[30.203839,39.655426],[30.206532,39.65202],[30.207776,39.650447],[30.211133,39.646248],[30.212026,39.645116],[30.212588,39.64438],[30.212859,39.644008],[30.213122,39.643634],[30.213384,39.643236],[30.213631,39.642833],[30.21386,39.642426],[30.214066,39.642013],[30.214244,39.641594],[30.214377,39.6412],[30.214484,39.640801],[30.214571,39.640398],[30.214642,39.63999],[30.2147,39.639536],[30.214745,39.639029],[30.214775,39.638489],[30.214789,39.637938],[30.214787,39.637398],[30.214767,39.636846],[30.214735,39.636359],[30.214699,39.635964],[30.214651,39.635555],[30.214668,39.635522],[30.215489,39.634006],[30.218258,39.628647],[30.218917,39.623871],[30.219078,39.622701],[30.219488,39.620137],[30.220308,39.617677],[30.222461,39.613883],[30.227333,39.608427],[30.227588,39.608142],[30.232304,39.603015],[30.23661,39.599324],[30.236754,39.599186],[30.241532,39.594608],[30.24471,39.591634],[30.249632,39.587123],[30.25199,39.585073],[30.26173,39.574512],[30.265113,39.570411],[30.274546,39.562414],[30.281005,39.556877],[30.284901,39.553699],[30.289823,39.551238],[30.296282,39.550213],[30.305612,39.548367],[30.311149,39.546522],[30.323042,39.542421],[30.338114,39.535346],[30.340677,39.533911],[30.35093,39.527041],[30.35985,39.520787],[30.366309,39.517506],[30.370923,39.514738],[30.375434,39.508484],[30.377485,39.502845],[30.377587,39.499974],[30.377382,39.498641],[30.375537,39.49536],[30.373076,39.491054],[30.370718,39.487158],[30.366207,39.481519],[30.364983,39.479962],[30.363951,39.478648],[30.36108,39.473932],[30.35985,39.469215],[30.360055,39.464807],[30.361183,39.459475],[30.362823,39.455169],[30.365796,39.44953],[30.367539,39.447889],[30.375742,39.442455],[30.382406,39.437944],[30.384662,39.435688],[30.385995,39.433125],[30.3862,39.431382],[30.3862,39.430254],[30.385482,39.428204],[30.384354,39.42318],[30.382611,39.416516],[30.380971,39.41303],[30.379843,39.410056],[30.376254,39.407185],[30.37,39.403597],[30.364566,39.401751],[30.35339,39.398881],[30.342522,39.395497],[30.337088,39.393549],[30.334423,39.391294],[30.332987,39.388935],[30.332064,39.386782],[30.331859,39.380938],[30.332064,39.376017],[30.332167,39.371608],[30.333192,39.36802],[30.334935,39.363406],[30.337909,39.359612],[30.341497,39.355716],[30.345086,39.353153],[30.348674,39.351615],[30.353493,39.348949],[30.358209,39.345053],[30.364258,39.338286],[30.366309,39.336543],[30.371333,39.332135],[30.375024,39.328444],[30.37892,39.321369],[30.380766,39.318498],[30.381483,39.312552],[30.381893,39.306502],[30.381381,39.302914],[30.38015,39.29666],[30.380458,39.292559],[30.381791,39.288047],[30.383636,39.282716],[30.386917,39.278102],[30.393787,39.270617],[30.40404,39.261082],[30.408448,39.256776],[30.412037,39.251855],[30.417881,39.244883],[30.421777,39.241807],[30.429979,39.234527],[30.434696,39.229093],[30.438376,39.225545],[30.434531,39.223184],[30.433452,39.221026],[30.433992,39.218059],[30.435273,39.208819],[30.435206,39.205447],[30.434194,39.202816],[30.432036,39.200321],[30.424819,39.193914],[30.418277,39.190407],[30.410791,39.186765],[30.407419,39.185281],[30.404789,39.183865],[30.403912,39.182583],[30.403305,39.179009],[30.403035,39.175906],[30.400944,39.173276],[30.396695,39.171522],[30.392581,39.16842],[30.388535,39.166532],[30.383341,39.164576],[30.380037,39.161541],[30.378216,39.159517],[30.374034,39.156685],[30.371134,39.154796],[30.369043,39.153447],[30.364457,39.151626],[30.357645,39.15075],[30.352452,39.150547],[30.347124,39.15048],[30.342403,39.15048],[30.329589,39.150278],[30.322035,39.150615],[30.314751,39.149333],[30.306388,39.147782],[30.302341,39.146096],[30.296811,39.143331],[30.292832,39.140228],[30.288178,39.136654],[30.282783,39.133147],[30.278804,39.129842],[30.27678,39.127212],[30.274083,39.121479],[30.272503,39.116681],[30.256636,39.133344],[30.250016,39.139218],[30.24032,39.149754],[30.237709,39.151805],[30.230064,39.159077],[30.225496,39.163366],[30.219995,39.170079],[30.217011,39.175486],[30.21496,39.180894],[30.211977,39.18798],[30.20834,39.191896],[30.203026,39.195625],[30.198831,39.19721],[30.193236,39.197303],[30.189041,39.196837],[30.184472,39.19693],[30.178878,39.197583],[30.174869,39.198329],[30.17142,39.199168],[30.165453,39.201312],[30.156595,39.20383],[30.150628,39.204762],[30.140932,39.205415],[30.133566,39.205508],[30.123124,39.205974],[30.11753,39.205788],[30.10541,39.207372],[30.098417,39.209237],[30.088721,39.211661],[30.082288,39.212687],[30.074363,39.213246],[30.06709,39.21306],[30.050961,39.211661],[30.04257,39.209797],[30.040178,39.212333],[30.034537,39.217734],[30.025655,39.226976],[30.022895,39.231177],[30.020975,39.233337],[30.017734,39.235377],[30.012813,39.237898],[30.007772,39.241019],[30.002731,39.244859],[29.99949,39.24666],[29.993969,39.24834],[29.986528,39.2493],[29.977406,39.24966],[29.965164,39.24966],[29.959643,39.25014],[29.952801,39.251821],[29.94536,39.255301],[29.935878,39.259742],[29.916914,39.269584],[29.900231,39.279066],[29.881507,39.288788],[29.872506,39.295509],[29.863024,39.305471],[29.858343,39.311952],[29.846461,39.327795],[29.839499,39.334157],[29.833378,39.341298],[29.830678,39.345259],[29.825276,39.3521],[29.821946,39.357411],[29.818165,39.362902],[29.815465,39.365243],[29.809343,39.370014],[29.798451,39.376225],[29.79386,39.378115],[29.786749,39.382706],[29.783058,39.384416],[29.773246,39.391258],[29.766045,39.395669],[29.749723,39.445301],[29.735439,39.510711],[29.732378,39.520253],[29.731118,39.526824],[29.730128,39.534926],[29.730488,39.539337],[29.731298,39.544648],[29.733819,39.549869],[29.736969,39.555],[29.7403,39.562381],[29.74192,39.568322],[29.743451,39.574353],[29.744711,39.583805],[29.747501,39.591817],[29.751102,39.598208],[29.753713,39.602709],[29.758844,39.60865],[29.762264,39.612701],[29.765055,39.615852],[29.768835,39.617562],[29.775497,39.620082],[29.788459,39.622513],[29.796921,39.626023],[29.802772,39.629264],[29.809883,39.635295],[29.813034,39.639706],[29.815915,39.645827],[29.817895,39.652849],[29.817535,39.65897],[29.816995,39.66167],[29.813484,39.666171],[29.809163,39.672473],[29.805923,39.678144],[29.805023,39.681744],[29.804932,39.686785],[29.806013,39.694167],[29.807453,39.697947],[29.808353,39.703709],[29.809109,39.709721],[29.814404,39.710236],[29.821757,39.711854],[29.827787,39.713324],[29.831684,39.714207],[29.83624,39.716073],[29.841464,39.718545],[29.847935,39.720236],[29.852862,39.720604],[29.860436,39.720384],[29.868672,39.719428],[29.874702,39.718692],[29.878085,39.717442],[29.883967,39.715383],[29.891909,39.712074],[29.898454,39.709795],[29.905954,39.707368],[29.90941,39.705824],[29.914264,39.703985],[29.919632,39.700897],[29.921764,39.698617],[29.926029,39.693617],[29.931544,39.68744],[29.935074,39.68266],[29.938015,39.676557],[29.941545,39.671998],[29.946545,39.668027],[29.950222,39.664203],[29.95184,39.6631],[29.956252,39.661188],[29.960223,39.659938],[29.965297,39.65935],[29.971915,39.658982],[29.980151,39.658633],[29.986603,39.657254],[29.993001,39.655489],[30.00177,39.653835],[30.008829,39.654166],[30.012054,39.654947],[30.019253,39.657144],[30.021017,39.658081],[30.022429,39.659176],[30.02372,39.660177],[30.025319,39.662273],[30.026312,39.664093],[30.026399,39.665378],[30.026477,39.666519],[30.036782,39.66607],[30.042114,39.667095],[30.049393,39.668121],[30.05534,39.669556],[30.060876,39.670992],[30.072052,39.672735],[30.084355,39.673247],[30.090507,39.672632],[30.09912,39.671914],[30.103221,39.671709],[30.111423,39.672837],[30.121881,39.673862],[30.121972,39.67387],[30.1267,39.674272],[30.131621,39.676221],[30.143514,39.678886],[30.152483,39.681273],[30.153058,39.681426],[30.153677,39.681255],[30.154196,39.681131],[30.154722,39.681021],[30.155147,39.680946],[30.155252,39.680927],[30.155786,39.680853],[30.156313,39.680802],[30.156842,39.680772],[30.157371,39.680761],[30.157898,39.680772],[30.158421,39.680807],[30.158939,39.680871],[30.159437,39.680965],[30.159929,39.681084],[30.160418,39.68122],[30.160904,39.681369],[30.162364,39.681839],[30.162855,39.681989],[30.163341,39.682126],[30.16383,39.682252],[30.164323,39.682367],[30.164819,39.682468],[30.165319,39.682551],[30.165821,39.682613],[30.166347,39.682651],[30.166875,39.682663],[30.167403,39.682654],[30.167927,39.682624],[30.168447,39.682572],[30.169003,39.682489],[30.169546,39.68238],[30.17007,39.682244],[30.170568,39.682081],[30.171032,39.681882],[30.171448,39.68164],[30.171784,39.681366],[30.172076,39.681054],[30.172335,39.680715],[30.172569,39.680354],[30.172782,39.679979],[30.172981,39.679587],[30.173344,39.678781],[30.173512,39.678371]]]}},{"type":"Feature","properties":{"id":"TR-D-43-010","parent_id":"TR-P-43","region_id":"TR-R-EGE","level":"district","municipality_type":null,"municipality_type_label":null,"is_metropolitan_municipality":null,"name":"Pazarlar","name_ascii":"pazarlar","slug":"pazarlar-kutahya"},"geometry":{"type":"Polygon","coordinates":[[[29.133732,39.028343],[29.13578,39.023764],[29.138256,39.018711],[29.14113,39.015441],[29.145984,39.009992],[29.150839,39.00484],[29.15235,39.003081],[29.153836,38.99996],[29.154876,38.995576],[29.156065,38.990523],[29.157106,38.981607],[29.157254,38.979377],[29.158146,38.977594],[29.160004,38.975588],[29.163942,38.971724],[29.166171,38.968677],[29.170407,38.961989],[29.173899,38.95493],[29.175237,38.947797],[29.175385,38.946088],[29.176351,38.941555],[29.176351,38.937914],[29.176128,38.934644],[29.174568,38.931969],[29.172264,38.928774],[29.169515,38.926842],[29.162902,38.925282],[29.157849,38.924018],[29.153242,38.923201],[29.149452,38.922309],[29.144473,38.921195],[29.142319,38.920526],[29.13838,38.918668],[29.130875,38.914581],[29.124039,38.910569],[29.114528,38.90611],[29.108509,38.903584],[29.106577,38.902915],[29.101227,38.900835],[29.096397,38.898903],[29.092161,38.896971],[29.084433,38.894073],[29.081981,38.892809],[29.079083,38.890209],[29.076259,38.887311],[29.07403,38.884709],[29.07341,38.88481],[29.071375,38.88399],[29.069964,38.883465],[29.067733,38.883071],[29.065173,38.882448],[29.063303,38.882152],[29.062089,38.882152],[29.059726,38.882973],[29.056281,38.883695],[29.055165,38.883695],[29.052639,38.884285],[29.049915,38.884449],[29.048143,38.884613],[29.045781,38.885499],[29.044501,38.886779],[29.043484,38.888026],[29.042302,38.888978],[29.041351,38.890093],[29.040202,38.890782],[29.039599,38.890691],[29.03912,38.894558],[29.038451,38.901416],[29.037949,38.905346],[29.038033,38.908121],[29.038888,38.912497],[29.038755,38.912822],[29.038595,38.913289],[29.038467,38.913784],[29.038393,38.914227],[29.038343,38.914655],[29.038271,38.915515],[29.038217,38.916379],[29.038084,38.918974],[29.038026,38.920272],[29.038003,38.921134],[29.038012,38.921993],[29.038037,38.922419],[29.038083,38.922842],[29.038159,38.923262],[29.038254,38.923626],[29.038373,38.923986],[29.03849,38.924284],[29.038669,38.924696],[29.038841,38.925047],[29.039024,38.925389],[29.040007,38.927097],[29.040377,38.927805],[29.040547,38.928162],[29.040705,38.928522],[29.040849,38.92889],[29.040948,38.929178],[29.041061,38.92955],[29.041176,38.930009],[29.041242,38.930387],[29.041283,38.930779],[29.041301,38.931173],[29.0413,38.931569],[29.041285,38.931966],[29.041258,38.932363],[29.041167,38.933243],[29.04105,38.934123],[29.040917,38.935002],[29.040771,38.935881],[29.040604,38.936752],[29.040417,38.937616],[29.040217,38.938478],[29.040067,38.939078],[29.042245,38.949066],[29.044557,38.951011],[29.046898,38.954522],[29.048988,38.959122],[29.050327,38.963554],[29.052417,38.967652],[29.054926,38.97175],[29.058021,38.97635],[29.061533,38.979026],[29.064544,38.98003],[29.073325,38.983041],[29.083779,38.986888],[29.089717,38.990986],[29.093397,38.994498],[29.098164,39.000185],[29.102764,39.005621],[29.106695,39.010305],[29.108702,39.013901],[29.112214,39.016995],[29.116479,39.01917],[29.121414,39.021344],[29.127603,39.025191],[29.132035,39.027616],[29.133732,39.028343]]]}},{"type":"Feature","properties":{"id":"TR-D-43-011","parent_id":"TR-P-43","region_id":"TR-R-EGE","level":"district","municipality_type":null,"municipality_type_label":null,"is_metropolitan_municipality":null,"name":"Simav","name_ascii":"simav","slug":"simav-kutahya"},"geometry":{"type":"Polygon","coordinates":[[[29.2345,39.12752],[29.227921,39.122939],[29.225543,39.12066],[29.222967,39.116796],[29.218905,39.112041],[29.215635,39.105997],[29.214342,39.103299],[29.212167,39.098764],[29.207907,39.090541],[29.200675,39.080138],[29.198552,39.077926],[29.198352,39.077694],[29.194928,39.074986],[29.191758,39.07241],[29.187497,39.069933],[29.182147,39.066565],[29.170357,39.060521],[29.166196,39.057648],[29.159855,39.051901],[29.15718,39.048235],[29.152622,39.045759],[29.140139,39.040309],[29.13033,39.03595],[29.133732,39.028343],[29.132035,39.027616],[29.127603,39.025191],[29.121414,39.021344],[29.116479,39.01917],[29.112214,39.016995],[29.108702,39.013901],[29.106695,39.010305],[29.102764,39.005621],[29.098164,39.000185],[29.093397,38.994498],[29.089717,38.990986],[29.083779,38.986888],[29.073325,38.983041],[29.064544,38.98003],[29.061533,38.979026],[29.058021,38.97635],[29.054926,38.97175],[29.052417,38.967652],[29.050327,38.963554],[29.048988,38.959122],[29.046898,38.954522],[29.044557,38.951011],[29.042245,38.949066],[29.040067,38.939078],[29.040217,38.938478],[29.040417,38.937616],[29.040604,38.936752],[29.040771,38.935881],[29.040917,38.935002],[29.04105,38.934123],[29.041167,38.933243],[29.041258,38.932363],[29.041285,38.931966],[29.0413,38.931569],[29.041301,38.931173],[29.041283,38.930779],[29.041242,38.930387],[29.041176,38.930009],[29.041061,38.92955],[29.040948,38.929178],[29.040849,38.92889],[29.040705,38.928522],[29.040547,38.928162],[29.040377,38.927805],[29.040007,38.927097],[29.039024,38.925389],[29.038841,38.925047],[29.038669,38.924696],[29.03849,38.924284],[29.038373,38.923986],[29.038254,38.923626],[29.038159,38.923262],[29.038083,38.922842],[29.038037,38.922419],[29.038012,38.921993],[29.038003,38.921134],[29.038026,38.920272],[29.038084,38.918974],[29.038217,38.916379],[29.038271,38.915515],[29.038343,38.914655],[29.038393,38.914227],[29.038467,38.913784],[29.038595,38.913289],[29.038755,38.912822],[29.038888,38.912497],[29.038033,38.908121],[29.037949,38.905346],[29.038451,38.901416],[29.03912,38.894558],[29.039599,38.890691],[29.038693,38.890553],[29.036757,38.889043],[29.036101,38.888092],[29.035805,38.885729],[29.036101,38.884777],[29.036461,38.88317],[29.036527,38.882087],[29.036265,38.878674],[29.036035,38.877657],[29.035083,38.875786],[29.034394,38.874179],[29.033836,38.872964],[29.033147,38.871783],[29.032524,38.870832],[29.031802,38.86965],[29.030752,38.868699],[29.030194,38.86755],[29.029964,38.866238],[29.029964,38.86522],[29.029702,38.863974],[29.029308,38.863284],[29.028455,38.862005],[29.027832,38.860364],[29.026978,38.858986],[29.025403,38.857476],[29.024156,38.856558],[29.022581,38.855803],[29.021039,38.85577],[29.020055,38.85554],[29.019103,38.855639],[29.017922,38.856],[29.017528,38.856016],[29.017134,38.856033],[29.016248,38.856426],[29.01487,38.856886],[29.013656,38.857083],[29.012672,38.857214],[29.011917,38.85705],[29.011589,38.856968],[29.011261,38.856886],[29.010276,38.856722],[29.008734,38.85705],[29.008439,38.857066],[29.008143,38.857083],[29.007192,38.857378],[29.005912,38.857772],[29.004468,38.858001],[29.002171,38.858822],[29.00076,38.859511],[28.999284,38.8602],[28.998529,38.860528],[28.998037,38.861184],[28.997315,38.861808],[28.996134,38.862891],[28.993968,38.864531],[28.992458,38.865319],[28.992475,38.865598],[28.992491,38.865877],[28.99251,38.865946],[28.992688,38.866599],[28.99259,38.86673],[28.992491,38.866861],[28.992411,38.866925],[28.992163,38.867124],[28.992065,38.867304],[28.991966,38.867485],[28.991802,38.868174],[28.991835,38.868863],[28.991868,38.869552],[28.992327,38.870307],[28.992639,38.87105],[28.992464,38.871838],[28.991983,38.872582],[28.99102,38.873238],[28.990364,38.873763],[28.990036,38.873938],[28.989708,38.874113],[28.988701,38.874419],[28.987739,38.874463],[28.987476,38.874616],[28.987214,38.874769],[28.986907,38.875294],[28.986076,38.877001],[28.985464,38.878182],[28.985026,38.878751],[28.984764,38.878948],[28.984501,38.879144],[28.984107,38.879669],[28.984151,38.880457],[28.984326,38.881157],[28.984457,38.882294],[28.984064,38.883082],[28.983495,38.884001],[28.983014,38.88492],[28.983145,38.885926],[28.982926,38.886582],[28.982357,38.887282],[28.980782,38.887807],[28.979426,38.888551],[28.976713,38.88912],[28.973738,38.889951],[28.971901,38.890651],[28.969538,38.891789],[28.965732,38.892051],[28.963675,38.892489],[28.961969,38.89367],[28.959956,38.895682],[28.958688,38.897214],[28.957944,38.898526],[28.95755,38.900014],[28.957419,38.901808],[28.957197,38.904322],[28.956378,38.90596],[28.955477,38.908909],[28.954494,38.91153],[28.950889,38.914807],[28.949087,38.91751],[28.949087,38.920049],[28.950562,38.925128],[28.95007,38.927585],[28.948924,38.937661],[28.946712,38.9402],[28.945647,38.942903],[28.946057,38.946016],[28.945734,38.947399],[28.945483,38.948473],[28.944664,38.950931],[28.942534,38.952405],[28.939667,38.952815],[28.937947,38.953224],[28.93508,38.954699],[28.931967,38.956009],[28.930083,38.957648],[28.928855,38.959286],[28.927626,38.960678],[28.925824,38.961743],[28.923203,38.962644],[28.919926,38.963136],[28.917223,38.963955],[28.914765,38.965184],[28.912062,38.966576],[28.911243,38.969607],[28.912226,38.971],[28.914684,38.973129],[28.916649,38.975587],[28.917796,38.976815],[28.918206,38.978536],[28.91837,38.981239],[28.918042,38.982959],[28.918042,38.98599],[28.919189,38.987137],[28.920745,38.989103],[28.922383,38.991232],[28.925169,38.993608],[28.927872,38.995082],[28.932459,38.999833],[28.933606,39.003192],[28.936063,39.006796],[28.936882,39.008844],[28.937128,39.013595],[28.936227,39.016134],[28.934834,39.018182],[28.933032,39.021213],[28.93123,39.023261],[28.92607,39.0258],[28.921237,39.028831],[28.918861,39.030879],[28.916813,39.035548],[28.915667,39.03907],[28.914765,39.042265],[28.91452,39.046524],[28.914356,39.052258],[28.914356,39.055371],[28.913701,39.059057],[28.911407,39.062907],[28.907967,39.065528],[28.9051,39.068149],[28.901086,39.070033],[28.897482,39.070935],[28.893386,39.074047],[28.888717,39.078962],[28.884785,39.08142],[28.882246,39.082239],[28.87987,39.084205],[28.876512,39.08658],[28.873972,39.087317],[28.868976,39.089038],[28.862914,39.090676],[28.858327,39.092969],[28.855624,39.094853],[28.853248,39.096082],[28.850053,39.097638],[28.844647,39.099031],[28.838422,39.099522],[28.832442,39.099441],[28.827855,39.09985],[28.822203,39.101079],[28.820483,39.102144],[28.817616,39.104355],[28.812701,39.106977],[28.807213,39.108615],[28.797383,39.109516],[28.789273,39.110007],[28.784359,39.109434],[28.779608,39.107468],[28.773874,39.105912],[28.758965,39.104765],[28.755607,39.105093],[28.7502,39.106649],[28.741599,39.109188],[28.733818,39.111318],[28.724889,39.113366],[28.72063,39.114431],[28.71465,39.116069],[28.711947,39.116315],[28.706131,39.117052],[28.701216,39.117871],[28.695072,39.118527],[28.690731,39.117871],[28.686881,39.118199],[28.681802,39.118608],[28.677461,39.117462],[28.671563,39.116069],[28.666812,39.116069],[28.663536,39.118199],[28.661733,39.120574],[28.660669,39.123032],[28.659849,39.127209],[28.659112,39.131469],[28.657883,39.138268],[28.657474,39.140643],[28.657638,39.143674],[28.658047,39.146541],[28.660423,39.151784],[28.661652,39.154651],[28.662061,39.159893],[28.663044,39.165873],[28.664027,39.170706],[28.664437,39.174064],[28.665092,39.177259],[28.664437,39.180126],[28.665943,39.181015],[28.667,39.182561],[28.667976,39.185978],[28.668302,39.191021],[28.667895,39.197042],[28.667488,39.202167],[28.666593,39.205421],[28.665617,39.208919],[28.664722,39.211522],[28.663909,39.212905],[28.6622,39.213637],[28.65675,39.215346],[28.654309,39.216322],[28.651706,39.216891],[28.646744,39.219576],[28.641374,39.222667],[28.636819,39.228687],[28.632263,39.237148],[28.63145,39.240077],[28.629904,39.243168],[28.626975,39.247235],[28.624128,39.250571],[28.621443,39.254069],[28.618189,39.258543],[28.616481,39.261391],[28.615179,39.267004],[28.615179,39.268387],[28.614935,39.270421],[28.614366,39.273756],[28.612983,39.277824],[28.612332,39.280915],[28.612576,39.2836],[28.612657,39.287179],[28.613064,39.290108],[28.613552,39.291084],[28.615423,39.29263],[28.617538,39.294094],[28.624724,39.298623],[28.627653,39.300575],[28.632968,39.30448],[28.638175,39.307734],[28.641537,39.308819],[28.646418,39.310663],[28.652493,39.31153],[28.65618,39.304046],[28.659435,39.299273],[28.664424,39.293091],[28.666702,39.290921],[28.670824,39.287342],[28.678525,39.282027],[28.684599,39.278664],[28.696748,39.274976],[28.708137,39.272482],[28.71855,39.271397],[28.725275,39.270746],[28.730807,39.269553],[28.738508,39.269011],[28.747403,39.270529],[28.755263,39.272778],[28.765734,39.27758],[28.77029,39.279532],[28.779401,39.282895],[28.782764,39.283762],[28.790947,39.288481],[28.80501,39.297334],[28.805323,39.297533],[28.80548,39.297633],[28.810195,39.300621],[28.81227,39.301936],[28.817067,39.308059],[28.820972,39.312696],[28.824877,39.319855],[28.826585,39.323191],[28.828537,39.327258],[28.82992,39.329699],[28.833174,39.334743],[28.837079,39.338404],[28.841716,39.342878],[28.844889,39.345725],[28.849526,39.349955],[28.854444,39.353695],[28.858963,39.356301],[28.863275,39.359799],[28.869132,39.366388],[28.871328,39.369561],[28.873525,39.373466],[28.874257,39.376883],[28.874013,39.378917],[28.87442,39.38152],[28.875396,39.384367],[28.877104,39.387377],[28.880277,39.391445],[28.883053,39.393249],[28.883531,39.39356],[28.891422,39.397546],[28.896222,39.400231],[28.901103,39.402753],[28.906635,39.404298],[28.913469,39.406332],[28.925997,39.409179],[28.933969,39.410481],[28.950314,39.41247],[28.950358,39.412919],[28.95041,39.413317],[28.950472,39.413713],[28.950545,39.414105],[28.950724,39.414883],[28.950831,39.41527],[28.95095,39.415654],[28.951088,39.416048],[28.951697,39.417612],[28.95184,39.418004],[28.95197,39.418398],[28.952079,39.418783],[28.95217,39.419169],[28.952243,39.419558],[28.952297,39.419948],[28.95233,39.420339],[28.952339,39.420759],[28.952326,39.421181],[28.952296,39.421603],[28.952206,39.422448],[28.952092,39.423295],[28.951902,39.424565],[28.951701,39.425835],[28.951627,39.426269],[28.951557,39.42668],[28.951396,39.427523],[28.951289,39.42799],[28.951199,39.428383],[28.950963,39.429262],[28.950449,39.431014],[28.949913,39.432763],[28.949869,39.432901],[28.949633,39.433631],[28.949347,39.434427],[28.949327,39.434484],[28.949157,39.434901],[28.948969,39.435307],[28.948756,39.435698],[28.948508,39.436069],[28.948214,39.436411],[28.947899,39.436691],[28.947548,39.436948],[28.947173,39.437187],[28.946037,39.437843],[28.945695,39.438071],[28.945394,39.438321],[28.945151,39.438597],[28.944959,39.438898],[28.944823,39.439196],[28.944812,39.43922],[28.94471,39.439556],[28.944652,39.439905],[28.944642,39.440306],[28.944678,39.440715],[28.944747,39.441129],[28.94484,39.441547],[28.945069,39.442389],[28.945464,39.443659],[28.946819,39.447846],[28.947194,39.448985],[28.947467,39.449776],[28.948071,39.451418],[28.948389,39.452235],[28.948724,39.453049],[28.948775,39.453163],[28.949261,39.454247],[28.949554,39.454867],[28.950199,39.45623],[28.950541,39.456977],[28.95069,39.457329],[28.950824,39.457682],[28.950936,39.458037],[28.951017,39.458393],[28.951055,39.458712],[28.951062,39.45877],[28.951068,39.459148],[28.951037,39.459526],[28.950972,39.459901],[28.950868,39.460272],[28.950703,39.460683],[28.950499,39.461088],[28.950267,39.461488],[28.950015,39.461885],[28.949474,39.462672],[28.948909,39.463454],[28.946899,39.466182],[28.945194,39.468522],[28.94322,39.471254],[28.940415,39.475166],[28.939847,39.475944],[28.939265,39.476714],[28.939197,39.476801],[28.938964,39.477093],[28.938446,39.477701],[28.938173,39.477996],[28.938072,39.478098],[28.937888,39.478282],[28.937588,39.478559],[28.937223,39.478861],[28.936839,39.479151],[28.936441,39.479431],[28.936033,39.479704],[28.935194,39.480234],[28.934339,39.480752],[28.933055,39.481513],[28.932206,39.482039],[28.931373,39.482593],[28.930967,39.482878],[28.930567,39.483171],[28.930179,39.483472],[28.929803,39.483782],[28.929446,39.484104],[28.929106,39.48444],[28.928784,39.484788],[28.928173,39.485504],[28.927922,39.485822],[28.9273,39.486608],[28.926651,39.487459],[28.926448,39.487725],[28.925892,39.488474],[28.925354,39.489228],[28.925098,39.489609],[28.924856,39.489994],[28.924633,39.490384],[28.924458,39.490733],[28.924303,39.491086],[28.924168,39.491444],[28.924056,39.491805],[28.924014,39.491984],[28.92397,39.492171],[28.923904,39.492607],[28.92387,39.493048],[28.923859,39.493492],[28.923881,39.494385],[28.923933,39.495282],[28.924271,39.499772],[28.924494,39.502913],[28.924844,39.508051],[28.924861,39.508294],[28.925091,39.511798],[28.925228,39.513879],[28.925244,39.514128],[28.925359,39.515474],[28.925365,39.515523],[28.92547,39.516368],[28.925546,39.516813],[28.925634,39.517231],[28.925847,39.518064],[28.926216,39.519311],[28.926613,39.520554],[28.926893,39.521376],[28.927198,39.522181],[28.927206,39.522199],[28.927368,39.522571],[28.927555,39.522948],[28.927768,39.523306],[28.928012,39.523639],[28.928291,39.523939],[28.928609,39.524199],[28.928971,39.524406],[28.929214,39.524491],[28.929387,39.524551],[28.929843,39.524647],[28.930329,39.524707],[28.930835,39.524745],[28.931875,39.524801],[28.932397,39.524838],[28.932914,39.524896],[28.93342,39.524987],[28.93393,39.525125],[28.934426,39.5253],[28.93491,39.525504],[28.935387,39.525728],[28.935858,39.525966],[28.935964,39.526024],[28.936789,39.526472],[28.937711,39.526997],[28.937945,39.527134],[28.943666,39.530477],[28.944568,39.531021],[28.94545,39.531582],[28.945877,39.531873],[28.94629,39.532175],[28.946663,39.532471],[28.947022,39.532778],[28.947221,39.53296],[28.947715,39.533412],[28.94877,39.53445],[28.949221,39.534909],[28.949846,39.534481],[28.953134,39.53039],[28.957371,39.526372],[28.960074,39.523522],[28.962485,39.521039],[28.965991,39.519066],[28.971397,39.515633],[28.979652,39.509788],[28.981625,39.508838],[28.987031,39.505697],[28.989953,39.504017],[28.994921,39.500583],[28.998939,39.497515],[29.00471,39.49357],[29.006975,39.492036],[29.009532,39.490283],[29.014572,39.487068],[29.018152,39.485315],[29.021001,39.48305],[29.024727,39.479471],[29.027795,39.476037],[29.029695,39.473845],[29.033055,39.470412],[29.035466,39.468805],[29.04058,39.461353],[29.044744,39.456824],[29.048104,39.453463],[29.051392,39.450979],[29.05373,39.450249],[29.060451,39.449591],[29.066806,39.449883],[29.072139,39.450176],[29.073052,39.450202],[29.077253,39.450322],[29.079941,39.449368],[29.082146,39.447991],[29.08683,39.444684],[29.088392,39.443582],[29.089953,39.441285],[29.092617,39.435039],[29.095924,39.429988],[29.099506,39.425119],[29.102904,39.423282],[29.10814,39.421996],[29.111477,39.421626],[29.11062,39.419241],[29.109242,39.416577],[29.106395,39.413822],[29.10318,39.411434],[29.098679,39.409872],[29.092801,39.407392],[29.087749,39.404361],[29.08334,39.399952],[29.077921,39.394349],[29.073604,39.390675],[29.06846,39.385623],[29.065153,39.382592],[29.06451,39.381857],[29.063316,39.378918],[29.060836,39.372029],[29.05707,39.366426],[29.051651,39.358619],[29.045772,39.351362],[29.040996,39.343922],[29.037781,39.339789],[29.035209,39.336023],[29.034383,39.334553],[29.032362,39.331155],[29.030709,39.325552],[29.029974,39.322613],[29.029515,39.319765],[29.029239,39.317928],[29.029698,39.314438],[29.029974,39.311223],[29.030525,39.307365],[29.030341,39.304793],[29.030617,39.301027],[29.031443,39.298088],[29.032638,39.29423],[29.033005,39.291291],[29.033281,39.288811],[29.032546,39.283484],[29.031995,39.276779],[29.031627,39.269798],[29.031719,39.265297],[29.032546,39.262909],[29.032913,39.260337],[29.033189,39.257673],[29.032729,39.254826],[29.032638,39.251152],[29.032913,39.247019],[29.033648,39.245824],[29.036312,39.242242],[29.039067,39.238476],[29.041915,39.234619],[29.044027,39.230026],[29.045772,39.225158],[29.048069,39.219463],[29.050824,39.210829],[29.055233,39.196959],[29.05606,39.19549],[29.05854,39.19007],[29.060561,39.18658],[29.061846,39.184008],[29.063408,39.180242],[29.064326,39.177487],[29.066898,39.167199],[29.070113,39.163801],[29.073052,39.16178],[29.075349,39.161504],[29.081044,39.161137],[29.084534,39.161137],[29.092801,39.161413],[29.09923,39.162331],[29.104282,39.163341],[29.111538,39.164444],[29.120264,39.164719],[29.126694,39.164903],[29.129541,39.164719],[29.137441,39.163709],[29.143778,39.161964],[29.150392,39.159851],[29.15177,39.159208],[29.159118,39.157463],[29.16766,39.155901],[29.175835,39.155075],[29.181346,39.155718],[29.189337,39.155993],[29.193746,39.157463],[29.197879,39.159667],[29.201278,39.162974],[29.203574,39.164076],[29.206513,39.164627],[29.207707,39.164536],[29.210371,39.162974],[29.213494,39.16077],[29.218546,39.156636],[29.220383,39.15434],[29.22571,39.146533],[29.229935,39.136245],[29.2345,39.12752]]]}},{"type":"Feature","properties":{"id":"TR-D-43-012","parent_id":"TR-P-43","region_id":"TR-R-EGE","level":"district","municipality_type":null,"municipality_type_label":null,"is_metropolitan_municipality":null,"name":"Şaphane","name_ascii":"saphane","slug":"saphane-kutahya"},"geometry":{"type":"Polygon","coordinates":[[[29.148877,38.870141],[29.148718,38.870166],[29.1484,38.870215],[29.144942,38.869975],[29.142781,38.869302],[29.14134,38.869062],[29.140043,38.868582],[29.139659,38.867525],[29.139323,38.866613],[29.138122,38.8657],[29.136201,38.864067],[29.134808,38.862386],[29.133175,38.860513],[29.132455,38.859073],[29.131206,38.856815],[29.129822,38.854878],[29.128733,38.854046],[29.128093,38.853085],[29.127516,38.851741],[29.125723,38.850012],[29.123482,38.848603],[29.122329,38.84649],[29.121881,38.84444],[29.120857,38.842007],[29.119576,38.841047],[29.117335,38.840278],[29.116054,38.840278],[29.1139,38.839726],[29.113863,38.839716],[29.113883,38.83989],[29.113902,38.840052],[29.113606,38.84061],[29.112294,38.841562],[29.111539,38.842317],[29.110916,38.843629],[29.1098,38.845401],[29.108881,38.846517],[29.108455,38.847468],[29.107601,38.848354],[29.106453,38.849667],[29.1056,38.850454],[29.104419,38.851307],[29.103533,38.851537],[29.102417,38.85157],[29.101039,38.852062],[29.099464,38.852883],[29.098184,38.853965],[29.097396,38.854392],[29.096478,38.855376],[29.095296,38.855869],[29.094509,38.856492],[29.094115,38.857444],[29.094115,38.857755],[29.094115,38.858067],[29.094049,38.859117],[29.094706,38.859937],[29.095329,38.860594],[29.09546,38.860889],[29.095592,38.861184],[29.095592,38.861873],[29.095296,38.862759],[29.095264,38.863809],[29.095362,38.864827],[29.094673,38.865647],[29.092868,38.86673],[29.09149,38.867091],[29.090079,38.867353],[29.089029,38.867485],[29.08729,38.868863],[29.086437,38.869814],[29.085485,38.870536],[29.084829,38.871685],[29.084435,38.873391],[29.083418,38.874868],[29.083155,38.874933],[29.082893,38.874999],[29.081777,38.876049],[29.081022,38.877526],[29.080432,38.879462],[29.080235,38.881069],[29.079644,38.882284],[29.078299,38.883563],[29.076888,38.884318],[29.074821,38.884581],[29.07403,38.884709],[29.076259,38.887311],[29.079083,38.890209],[29.081981,38.892809],[29.084433,38.894073],[29.092161,38.896971],[29.096397,38.898903],[29.101227,38.900835],[29.106577,38.902915],[29.108509,38.903584],[29.114528,38.90611],[29.124039,38.910569],[29.130875,38.914581],[29.13838,38.918668],[29.142319,38.920526],[29.144473,38.921195],[29.149452,38.922309],[29.153242,38.923201],[29.157849,38.924018],[29.162902,38.925282],[29.169515,38.926842],[29.172264,38.928774],[29.174568,38.931969],[29.176128,38.934644],[29.176351,38.937914],[29.176351,38.941555],[29.175385,38.946088],[29.175237,38.947797],[29.173899,38.95493],[29.170407,38.961989],[29.166171,38.968677],[29.163942,38.971724],[29.160004,38.975588],[29.158146,38.977594],[29.157254,38.979377],[29.157106,38.981607],[29.156065,38.990523],[29.154876,38.995576],[29.153836,38.99996],[29.15235,39.003081],[29.150839,39.00484],[29.145984,39.009992],[29.14113,39.015441],[29.138256,39.018711],[29.13578,39.023764],[29.133732,39.028343],[29.13033,39.03595],[29.140139,39.040309],[29.152622,39.045759],[29.15718,39.048235],[29.159855,39.051901],[29.166196,39.057648],[29.170357,39.060521],[29.182147,39.066565],[29.187497,39.069933],[29.191758,39.07241],[29.194928,39.074986],[29.198352,39.077694],[29.198552,39.077926],[29.200675,39.080138],[29.207907,39.090541],[29.212167,39.098764],[29.214342,39.103299],[29.227105,39.10009],[29.231814,39.099044],[29.234803,39.097923],[29.237942,39.095606],[29.24265,39.089104],[29.248778,39.082602],[29.252291,39.079538],[29.259839,39.072214],[29.265145,39.067207],[29.270451,39.064218],[29.277551,39.05936],[29.282408,39.055698],[29.285622,39.051513],[29.289359,39.044937],[29.293394,39.034922],[29.29474,39.029093],[29.294665,39.025954],[29.293992,39.02162],[29.293768,39.018182],[29.29317,39.014296],[29.292423,39.011007],[29.292199,39.007943],[29.292423,39.005627],[29.292647,39.001068],[29.291451,38.994491],[29.289209,38.988513],[29.286818,38.983281],[29.282633,38.976705],[29.276729,38.96968],[29.267536,38.959516],[29.261632,38.954957],[29.257597,38.951893],[29.254383,38.949576],[29.250497,38.94711],[29.243696,38.941804],[29.236148,38.935452],[29.232038,38.931715],[29.228152,38.9288],[29.22576,38.926484],[29.224938,38.925437],[29.224565,38.924242],[29.222173,38.919907],[29.219109,38.916843],[29.216194,38.914451],[29.214401,38.913928],[29.209842,38.913181],[29.204237,38.910939],[29.195194,38.905483],[29.187795,38.900028],[29.181144,38.894946],[29.173671,38.888892],[29.170084,38.886501],[29.165375,38.883586],[29.16134,38.880597],[29.157229,38.877383],[29.152147,38.872974],[29.148877,38.870141]]]}},{"type":"Feature","properties":{"id":"TR-D-43-013","parent_id":"TR-P-43","region_id":"TR-R-EGE","level":"district","municipality_type":null,"municipality_type_label":null,"is_metropolitan_municipality":null,"name":"Tavşanlı","name_ascii":"tavsanli","slug":"tavsanli-kutahya"},"geometry":{"type":"Polygon","coordinates":[[[29.673683,39.379937],[29.671479,39.37997],[29.667826,39.379824],[29.665853,39.379094],[29.661689,39.377998],[29.658767,39.377048],[29.657014,39.376318],[29.655407,39.375368],[29.653799,39.37398],[29.652192,39.371934],[29.649927,39.369597],[29.647444,39.366821],[29.641891,39.363387],[29.637143,39.361561],[29.630714,39.359369],[29.62487,39.357835],[29.619464,39.356666],[29.607483,39.352137],[29.596671,39.348557],[29.589365,39.347461],[29.57943,39.346657],[29.578115,39.346657],[29.564819,39.347388],[29.552473,39.348192],[29.543779,39.348776],[29.539177,39.348849],[29.529095,39.35031],[29.515215,39.353013],[29.50769,39.354767],[29.501481,39.356812],[29.490084,39.361268],[29.484824,39.362803],[29.479272,39.365286],[29.4632,39.372373],[29.456991,39.376829],[29.449174,39.382381],[29.442307,39.387422],[29.438654,39.390052],[29.435951,39.393412],[29.43449,39.396042],[29.434051,39.398015],[29.432663,39.403202],[29.431275,39.406416],[29.429376,39.409557],[29.426015,39.41511],[29.421121,39.423803],[29.420098,39.425483],[29.416299,39.429501],[29.410674,39.434104],[29.405049,39.43761],[29.399716,39.440971],[29.392191,39.445573],[29.385397,39.450468],[29.380064,39.453901],[29.37422,39.458212],[29.369398,39.461426],[29.366184,39.46391],[29.362239,39.466832],[29.358586,39.468658],[29.355006,39.470777],[29.346605,39.479105],[29.343318,39.483562],[29.339081,39.489041],[29.33572,39.493351],[29.33236,39.495835],[29.327903,39.498538],[29.322205,39.503798],[29.317164,39.508838],[29.314023,39.511468],[29.311247,39.511541],[29.308836,39.511176],[29.303138,39.509131],[29.300581,39.507889],[29.296782,39.505916],[29.29386,39.502775],[29.292253,39.500218],[29.29123,39.497442],[29.290572,39.492986],[29.290499,39.490429],[29.28955,39.487945],[29.28597,39.484073],[29.283121,39.481662],[29.279614,39.479617],[29.272236,39.478886],[29.267341,39.478083],[29.262885,39.477644],[29.258721,39.477133],[29.249881,39.474941],[29.247251,39.474357],[29.244986,39.472603],[29.239507,39.468439],[29.232129,39.462741],[29.230595,39.461791],[29.222778,39.457993],[29.219052,39.45697],[29.206194,39.454632],[29.197355,39.453463],[29.185374,39.451783],[29.175438,39.452952],[29.166526,39.453171],[29.16022,39.452032],[29.151586,39.450195],[29.146901,39.447899],[29.142492,39.444959],[29.138818,39.442204],[29.136706,39.440183],[29.134134,39.436509],[29.132572,39.432468],[29.128623,39.426497],[29.124489,39.423099],[29.120081,39.421354],[29.114478,39.42117],[29.112273,39.421537],[29.111477,39.421626],[29.10814,39.421996],[29.102904,39.423282],[29.099506,39.425119],[29.095924,39.429988],[29.092617,39.435039],[29.089953,39.441285],[29.088392,39.443582],[29.08683,39.444684],[29.082146,39.447991],[29.079941,39.449368],[29.077253,39.450322],[29.073052,39.450202],[29.072139,39.450176],[29.066806,39.449883],[29.060451,39.449591],[29.05373,39.450249],[29.051392,39.450979],[29.048104,39.453463],[29.044744,39.456824],[29.04058,39.461353],[29.035466,39.468805],[29.033055,39.470412],[29.029695,39.473845],[29.027795,39.476037],[29.024727,39.479471],[29.021001,39.48305],[29.018152,39.485315],[29.014572,39.487068],[29.009532,39.490283],[29.006975,39.492036],[29.00471,39.49357],[28.998939,39.497515],[28.994921,39.500583],[28.989953,39.504017],[28.987031,39.505697],[28.981625,39.508838],[28.979652,39.509788],[28.971397,39.515633],[28.965991,39.519066],[28.962485,39.521039],[28.960074,39.523522],[28.957371,39.526372],[28.953134,39.53039],[28.949846,39.534481],[28.949221,39.534909],[28.951755,39.537488],[28.951882,39.537617],[28.952899,39.538679],[28.953223,39.539035],[28.953534,39.539395],[28.953613,39.539493],[28.953825,39.539759],[28.954088,39.540129],[28.954312,39.540507],[28.954481,39.540896],[28.954583,39.541289],[28.954633,39.541692],[28.954644,39.542103],[28.954627,39.542519],[28.95459,39.54294],[28.954538,39.543363],[28.954475,39.543787],[28.95432,39.544633],[28.954229,39.545054],[28.954127,39.545469],[28.954117,39.545507],[28.954012,39.545879],[28.953877,39.546279],[28.953717,39.546666],[28.953674,39.546748],[28.953523,39.547036],[28.953284,39.547382],[28.953007,39.547685],[28.952692,39.547966],[28.952355,39.54823],[28.951674,39.548719],[28.95136,39.548956],[28.951086,39.549204],[28.950875,39.549473],[28.950735,39.549796],[28.950711,39.549934],[28.950673,39.550147],[28.950669,39.55052],[28.950707,39.550909],[28.950775,39.551309],[28.950864,39.551718],[28.950969,39.552132],[28.951203,39.552974],[28.951839,39.555103],[28.95213,39.556014],[28.952244,39.556371],[28.952391,39.556785],[28.95255,39.557192],[28.952726,39.557588],[28.952927,39.557969],[28.953162,39.558329],[28.953445,39.558659],[28.953738,39.558916],[28.954069,39.559149],[28.95443,39.55936],[28.954532,39.559411],[28.954815,39.559553],[28.955221,39.559727],[28.955644,39.559884],[28.956152,39.560042],[28.956675,39.56018],[28.957209,39.560305],[28.957749,39.56042],[28.958843,39.560633],[28.96269,39.561338],[28.963781,39.561554],[28.964873,39.561791],[28.965966,39.56205],[28.967596,39.56246],[28.969216,39.56289],[28.970288,39.563193],[28.971347,39.563521],[28.972914,39.564056],[28.977589,39.565735],[28.98229,39.567405],[28.983306,39.567787],[28.983795,39.567985],[28.984264,39.568193],[28.984704,39.568412],[28.985102,39.568649],[28.985162,39.568695],[28.985443,39.56891],[28.985706,39.569203],[28.985861,39.569504],[28.985951,39.569833],[28.985992,39.570182],[28.985998,39.570548],[28.985981,39.570925],[28.985949,39.571309],[28.985867,39.572063],[28.985822,39.572488],[28.985787,39.572885],[28.985764,39.573284],[28.985757,39.573681],[28.985762,39.573812],[28.985772,39.574076],[28.985813,39.574466],[28.985891,39.57485],[28.986027,39.57527],[28.986186,39.575627],[28.986209,39.575679],[28.98643,39.576079],[28.986685,39.576469],[28.986975,39.576849],[28.98729,39.577219],[28.987625,39.577581],[28.987975,39.577936],[28.988339,39.578283],[28.988715,39.578622],[28.988796,39.57869],[28.989106,39.57895],[28.989514,39.579263],[28.989917,39.579542],[28.990337,39.579805],[28.990769,39.580052],[28.990834,39.580086],[28.991213,39.580282],[28.99167,39.580492],[28.992139,39.580676],[28.992624,39.580827],[28.993147,39.580946],[28.993683,39.581034],[28.995297,39.581247],[28.995811,39.581343],[28.996297,39.581476],[28.996714,39.581647],[28.997093,39.58186],[28.997429,39.582111],[28.997714,39.582397],[28.997965,39.582775],[28.99765,39.587198],[28.997623,39.587247],[28.99097,39.599505],[28.985408,39.609614],[28.98609,39.609465],[28.986151,39.609452],[28.999103,39.606614],[29.00279,39.605924],[29.004738,39.605646],[29.008448,39.605831],[29.014292,39.605275],[29.014678,39.605246],[29.020507,39.604811],[29.042612,39.60199],[29.052374,39.600057],[29.069018,39.598782],[29.07783,39.597762],[29.094805,39.595257],[29.109646,39.592567],[29.115955,39.590448],[29.122446,39.5883],[29.125693,39.587744],[29.125908,39.587665],[29.130238,39.586074],[29.135061,39.584312],[29.138957,39.583477],[29.15083,39.583106],[29.154262,39.582642],[29.167712,39.581715],[29.174297,39.582271],[29.180419,39.585425],[29.187469,39.59099],[29.193127,39.595906],[29.198228,39.59906],[29.204536,39.603791],[29.210194,39.609171],[29.213348,39.613345],[29.216687,39.61891],[29.2178,39.620487],[29.218913,39.624939],[29.220676,39.63069],[29.222071,39.636022],[29.224108,39.643583],[29.225035,39.646366],[29.227354,39.651097],[29.230322,39.654621],[29.234404,39.658888],[29.238299,39.664175],[29.242566,39.673451],[29.248781,39.684396],[29.252027,39.689312],[29.25329,39.692564],[29.256387,39.699145],[29.257222,39.700629],[29.262231,39.705174],[29.269558,39.709812],[29.277775,39.713845],[29.28273,39.715748],[29.29182,39.72289],[29.300632,39.729383],[29.306111,39.733636],[29.306847,39.734207],[29.323821,39.74877],[29.339868,39.760179],[29.343478,39.763556],[29.346725,39.768597],[29.352451,39.773554],[29.358946,39.778767],[29.362706,39.781757],[29.365125,39.780006],[29.366627,39.779338],[29.366961,39.778671],[29.367629,39.778003],[29.368547,39.777168],[29.369465,39.776167],[29.370299,39.775416],[29.370967,39.774915],[29.371551,39.774247],[29.372052,39.773329],[29.372636,39.772578],[29.373721,39.772077],[29.374639,39.77166],[29.374889,39.770909],[29.375223,39.769991],[29.375974,39.76924],[29.376892,39.768989],[29.377894,39.769323],[29.378895,39.76949],[29.37948,39.769073],[29.37973,39.767654],[29.379813,39.766569],[29.379062,39.765568],[29.377643,39.764149],[29.376976,39.762062],[29.376976,39.759976],[29.377059,39.758808],[29.378728,39.757305],[29.380064,39.757389],[29.380982,39.757973],[29.381816,39.758975],[29.382651,39.760059],[29.383152,39.761061],[29.383986,39.761395],[29.384988,39.761061],[29.386073,39.76031],[29.386991,39.759225],[29.387074,39.758557],[29.386991,39.757305],[29.387074,39.756387],[29.387241,39.754217],[29.386824,39.751463],[29.386323,39.748292],[29.386156,39.743785],[29.386406,39.74003],[29.386907,39.736024],[29.387909,39.734104],[29.389244,39.732685],[29.393667,39.730766],[29.400177,39.730015],[29.409524,39.729264],[29.417453,39.728012],[29.42246,39.726593],[29.42705,39.725592],[29.430722,39.724757],[29.436648,39.723171],[29.443825,39.721502],[29.450335,39.717913],[29.455676,39.716995],[29.463688,39.71566],[29.466943,39.713824],[29.469267,39.711704],[29.470699,39.710235],[29.472368,39.70865],[29.47629,39.705311],[29.478877,39.702307],[29.481715,39.698635],[29.485137,39.693294],[29.488141,39.687702],[29.490895,39.683362],[29.492898,39.680858],[29.496236,39.675684],[29.499658,39.670343],[29.501411,39.668173],[29.504833,39.665586],[29.509256,39.66375],[29.515515,39.662998],[29.518019,39.664167],[29.522609,39.666003],[29.526782,39.668173],[29.530621,39.670843],[29.535823,39.673709],[29.542573,39.677061],[29.559902,39.681874],[29.57263,39.684537],[29.588652,39.686283],[29.604759,39.68862],[29.621784,39.689538],[29.628878,39.689621],[29.638893,39.690373],[29.647155,39.691791],[29.652664,39.69346],[29.657837,39.696544],[29.662595,39.69972],[29.6661,39.701472],[29.670857,39.702808],[29.677283,39.703809],[29.680118,39.703697],[29.682625,39.702641],[29.685295,39.700304],[29.686714,39.699386],[29.692389,39.697633],[29.697981,39.697466],[29.703406,39.697466],[29.716926,39.698885],[29.72452,39.700638],[29.733367,39.706313],[29.736538,39.710068],[29.739376,39.714074],[29.740294,39.717162],[29.742058,39.719272],[29.744098,39.719657],[29.746553,39.720584],[29.750039,39.721184],[29.75109,39.719942],[29.759106,39.716927],[29.769474,39.715383],[29.775136,39.714574],[29.781092,39.712295],[29.788005,39.711118],[29.792858,39.710309],[29.801756,39.709942],[29.809109,39.709721],[29.808353,39.703709],[29.807453,39.697947],[29.806013,39.694167],[29.804932,39.686785],[29.805023,39.681744],[29.805923,39.678144],[29.809163,39.672473],[29.813484,39.666171],[29.816995,39.66167],[29.817535,39.65897],[29.817895,39.652849],[29.815915,39.645827],[29.813034,39.639706],[29.809883,39.635295],[29.802772,39.629264],[29.796921,39.626023],[29.788459,39.622513],[29.775497,39.620082],[29.768835,39.617562],[29.765055,39.615852],[29.762264,39.612701],[29.758844,39.60865],[29.753713,39.602709],[29.751102,39.598208],[29.747501,39.591817],[29.744711,39.583805],[29.743451,39.574353],[29.74192,39.568322],[29.7403,39.562381],[29.736969,39.555],[29.733819,39.549869],[29.731298,39.544648],[29.730488,39.539337],[29.730128,39.534926],[29.731118,39.526824],[29.732378,39.520253],[29.735439,39.510711],[29.749723,39.445301],[29.766045,39.395669],[29.762098,39.391751],[29.758673,39.388957],[29.752634,39.387875],[29.744883,39.385892],[29.737042,39.384901],[29.72902,39.384991],[29.725685,39.384721],[29.723342,39.384631],[29.721629,39.384901],[29.717303,39.385352],[29.708741,39.386523],[29.704685,39.387335],[29.699187,39.388146],[29.695581,39.388056],[29.687199,39.386073],[29.678727,39.383279],[29.674942,39.381566],[29.673683,39.379937]]]}}]}