{"type":"FeatureCollection","province":"Muş","province_id":"TR-P-49","features":[{"type":"Feature","properties":{"id":"TR-D-49-001","parent_id":"TR-P-49","region_id":"TR-R-DOA","level":"district","municipality_type":null,"municipality_type_label":null,"is_metropolitan_municipality":null,"name":"Bulanık","name_ascii":"bulanik","slug":"bulanik-mus"},"geometry":{"type":"Polygon","coordinates":[[[41.860594,39.184168],[41.867181,39.183777],[41.874605,39.183063],[41.879887,39.182992],[41.883813,39.183777],[41.887597,39.186347],[41.891023,39.188702],[41.895235,39.192057],[41.899803,39.194484],[41.904586,39.195841],[41.913009,39.197911],[41.916507,39.197554],[41.922075,39.19527],[41.927143,39.193128],[41.93007,39.192057],[41.932283,39.191415],[41.934995,39.191415],[41.93728,39.191986],[41.939564,39.193199],[41.942776,39.194556],[41.945203,39.195127],[41.949843,39.195983],[41.95691,39.19684],[41.962835,39.197411],[41.974328,39.200409],[41.977826,39.20148],[41.980181,39.202765],[41.984036,39.205763],[41.986749,39.207548],[41.991317,39.209618],[41.993602,39.210546],[41.994672,39.211117],[41.995957,39.212901],[41.997813,39.215114],[42.000954,39.218112],[42.008235,39.22261],[42.018086,39.227464],[42.027366,39.231318],[42.033291,39.234388],[42.041643,39.238385],[42.047211,39.242383],[42.050851,39.245738],[42.053921,39.248879],[42.059203,39.254804],[42.062773,39.265083],[42.0647,39.272435],[42.066984,39.278003],[42.06884,39.281644],[42.070196,39.284],[42.072195,39.285427],[42.077549,39.287355],[42.08326,39.287854],[42.087828,39.28764],[42.091397,39.286712],[42.09825,39.285285],[42.103033,39.284571],[42.107602,39.283928],[42.111599,39.284],[42.11681,39.284714],[42.130587,39.287783],[42.136369,39.289282],[42.146363,39.291852],[42.151003,39.292423],[42.1565,39.292352],[42.161925,39.292923],[42.167921,39.293851],[42.172632,39.295778],[42.174774,39.296563],[42.177415,39.29692],[42.180841,39.29742],[42.182983,39.298062],[42.18591,39.29899],[42.188337,39.300489],[42.19005,39.30206],[42.192049,39.304273],[42.192977,39.306271],[42.193762,39.307057],[42.196903,39.309341],[42.199758,39.311197],[42.204541,39.313124],[42.208253,39.315052],[42.212179,39.318478],[42.214035,39.320405],[42.215391,39.321904],[42.225235,39.321667],[42.228851,39.321477],[42.233705,39.321477],[42.237893,39.321477],[42.241986,39.321857],[42.245508,39.321381],[42.24684,39.320144],[42.248077,39.317384],[42.249886,39.314909],[42.251123,39.31291],[42.252741,39.311102],[42.25493,39.30996],[42.256739,39.308342],[42.258547,39.306153],[42.259594,39.304154],[42.259594,39.303107],[42.259213,39.302155],[42.259118,39.301204],[42.259404,39.299871],[42.259961,39.298663],[42.261588,39.296859],[42.262571,39.294176],[42.262332,39.293829],[42.262063,39.293483],[42.261751,39.293116],[42.261422,39.292756],[42.261081,39.292399],[42.260323,39.291639],[42.25823,39.289588],[42.255731,39.287116],[42.255004,39.286424],[42.254633,39.28609],[42.254253,39.285767],[42.253856,39.28546],[42.25345,39.285184],[42.253017,39.284943],[42.252609,39.284768],[42.252183,39.284632],[42.251742,39.284534],[42.251292,39.284478],[42.250832,39.284467],[42.25037,39.2845],[42.249912,39.28457],[42.249463,39.284679],[42.249006,39.284831],[42.248562,39.285012],[42.248132,39.285212],[42.247319,39.28562],[42.246929,39.285803],[42.246537,39.285952],[42.246136,39.286048],[42.24571,39.286076],[42.245271,39.286043],[42.244822,39.285965],[42.244365,39.285851],[42.243904,39.285712],[42.24344,39.285552],[42.242975,39.285378],[42.242511,39.285191],[42.242049,39.284993],[42.241591,39.284784],[42.24114,39.284564],[42.240682,39.284324],[42.239785,39.283816],[42.238905,39.283288],[42.236299,39.281674],[42.234258,39.280393],[42.233297,39.279771],[42.232491,39.27922],[42.231734,39.278664],[42.231367,39.278376],[42.230977,39.278053],[42.230596,39.277724],[42.230221,39.277389],[42.229484,39.276711],[42.22605,39.273448],[42.223693,39.271209],[42.222347,39.269939],[42.219347,39.267045],[42.21902,39.2655],[42.219475,39.263388],[42.219535,39.260562],[42.219048,39.260086],[42.219238,39.256279],[42.221523,39.251045],[42.226091,39.246095],[42.23066,39.244572],[42.237893,39.24305],[42.245317,39.242193],[42.256263,39.242954],[42.263782,39.247999],[42.269873,39.251806],[42.274632,39.255518],[42.279296,39.260372],[42.283579,39.268938],[42.284911,39.27246],[42.286339,39.275981],[42.287196,39.281882],[42.287291,39.286165],[42.288909,39.289877],[42.292621,39.293589],[42.297189,39.294351],[42.301472,39.293875],[42.304233,39.292447],[42.305565,39.290448],[42.306422,39.287117],[42.306327,39.283881],[42.306041,39.279884],[42.306707,39.275029],[42.307088,39.270651],[42.307469,39.261514],[42.308611,39.24857],[42.309087,39.24343],[42.311847,39.232865],[42.313275,39.228011],[42.317367,39.220112],[42.318224,39.218589],[42.323744,39.212307],[42.328218,39.208024],[42.335166,39.202218],[42.338687,39.198696],[42.346873,39.18975],[42.35325,39.183753],[42.359151,39.178804],[42.366384,39.172522],[42.372,39.166621],[42.375331,39.161196],[42.377615,39.154914],[42.38028,39.148537],[42.382089,39.142922],[42.383421,39.136164],[42.384849,39.131976],[42.386372,39.12874],[42.390179,39.118937],[42.39332,39.114083],[42.395985,39.110942],[42.397793,39.107991],[42.400077,39.103899],[42.402457,39.099616],[42.405407,39.096094],[42.409024,39.092192],[42.413783,39.087433],[42.417114,39.084292],[42.435389,39.074964],[42.44424,39.070491],[42.461563,39.062401],[42.470224,39.058594],[42.484025,39.052502],[42.493923,39.046601],[42.496493,39.044317],[42.504203,39.033467],[42.506487,39.03004],[42.5082,39.026328],[42.511722,39.01919],[42.512007,39.017191],[42.512102,39.013574],[42.512007,39.009196],[42.511341,39.005579],[42.510389,39.002534],[42.509342,38.998917],[42.506963,38.992825],[42.503346,38.98702],[42.501633,38.98483],[42.498682,38.98188],[42.491068,38.976169],[42.488498,38.973123],[42.48393,38.968269],[42.479075,38.964177],[42.471747,38.956087],[42.468415,38.951899],[42.464481,38.946817],[42.455326,38.950159],[42.449514,38.951244],[42.438975,38.954576],[42.430993,38.956281],[42.425026,38.956746],[42.413944,38.954499],[42.405342,38.951244],[42.396973,38.944037],[42.392711,38.941402],[42.378607,38.936365],[42.360008,38.928771],[42.351871,38.926446],[42.343269,38.923734],[42.338232,38.921254],[42.32312,38.914977],[42.313434,38.911799],[42.308319,38.909242],[42.301189,38.906065],[42.295067,38.903585],[42.290263,38.90219],[42.286621,38.901183],[42.284373,38.90064],[42.278096,38.898315],[42.270657,38.89661],[42.25663,38.89599],[42.246091,38.895138],[42.238496,38.895758],[42.234157,38.896145],[42.222843,38.897308],[42.217728,38.898393],[42.211838,38.897773],[42.206569,38.8963],[42.203469,38.893743],[42.200447,38.888164],[42.197192,38.881499],[42.195952,38.878554],[42.193395,38.874215],[42.19045,38.870572],[42.185103,38.866078],[42.178593,38.861738],[42.173014,38.857398],[42.169294,38.853368],[42.166039,38.849029],[42.164722,38.845697],[42.164561,38.844653],[42.155898,38.848666],[42.148217,38.852417],[42.140981,38.855901],[42.134818,38.858491],[42.130084,38.860457],[42.124278,38.861082],[42.116149,38.860635],[42.108914,38.860992],[42.100696,38.861618],[42.090691,38.861528],[42.079883,38.862422],[42.069343,38.86394],[42.058267,38.865101],[42.04862,38.86787],[42.040491,38.870104],[42.03665,38.871354],[42.030755,38.873051],[42.025306,38.87323],[42.021018,38.872069],[42.014319,38.870908],[42.011192,38.870372],[42.00753,38.8693],[42.001992,38.868674],[41.993774,38.868853],[41.987075,38.870461],[41.9785,38.873141],[41.971175,38.874659],[41.964386,38.875552],[41.95599,38.876624],[41.95063,38.878768],[41.944556,38.883145],[41.94009,38.886986],[41.937857,38.887969],[41.929907,38.890916],[41.925709,38.892256],[41.918205,38.895025],[41.913382,38.896365],[41.907665,38.898777],[41.90302,38.901099],[41.895249,38.903154],[41.887656,38.904047],[41.88194,38.904047],[41.875871,38.90387],[41.87483,38.906932],[41.873221,38.909537],[41.870155,38.912067],[41.864407,38.916895],[41.860652,38.919271],[41.85705,38.92157],[41.854061,38.923946],[41.852988,38.925709],[41.852528,38.927548],[41.852911,38.929848],[41.85475,38.934293],[41.858582,38.94211],[41.863334,38.951997],[41.863947,38.956749],[41.864331,38.96334],[41.864177,38.967862],[41.863258,38.97407],[41.862568,38.982577],[41.862568,38.983727],[41.863487,38.988632],[41.864254,38.994457],[41.866017,38.999898],[41.867626,39.004803],[41.870079,39.010781],[41.870615,39.013464],[41.869312,39.017756],[41.86594,39.022431],[41.864101,39.026646],[41.862951,39.029788],[41.862951,39.031321],[41.863334,39.033697],[41.864637,39.038066],[41.865816,39.041175],[41.866602,39.043031],[41.867201,39.042983],[41.867698,39.042988],[41.868204,39.043023],[41.868713,39.043087],[41.86922,39.04318],[41.869703,39.043299],[41.87018,39.043442],[41.870653,39.043601],[41.871038,39.043744],[41.871586,39.043959],[41.872033,39.044146],[41.872498,39.044353],[41.872944,39.044563],[41.873385,39.044787],[41.873814,39.045023],[41.874228,39.045272],[41.874621,39.045538],[41.874984,39.045819],[41.875328,39.046117],[41.875622,39.046394],[41.875974,39.046744],[41.876591,39.047409],[41.877481,39.04843],[41.880105,39.051535],[41.880709,39.052214],[41.881013,39.052541],[41.881644,39.05318],[41.881971,39.053491],[41.882663,39.054104],[41.883382,39.054699],[41.88412,39.05528],[41.884879,39.055843],[41.885258,39.056108],[41.885363,39.056685],[41.885987,39.060089],[41.88479,39.061102],[41.883469,39.066942],[41.880042,39.074556],[41.875474,39.082266],[41.872428,39.089499],[41.871096,39.096828],[41.86805,39.101302],[41.864623,39.104728],[41.857771,39.10844],[41.85206,39.110915],[41.847396,39.112913],[41.842828,39.11396],[41.831787,39.120813],[41.826171,39.125762],[41.817796,39.136898],[41.816368,39.139183],[41.813703,39.14556],[41.809705,39.151841],[41.806184,39.157171],[41.800854,39.162692],[41.79857,39.164024],[41.796,39.166023],[41.79362,39.168212],[41.791863,39.169881],[41.79387,39.170142],[41.796154,39.170714],[41.79851,39.171784],[41.800009,39.173141],[41.801508,39.175496],[41.80265,39.176995],[41.80422,39.178423],[41.80679,39.178994],[41.809146,39.179065],[41.814071,39.178994],[41.819568,39.178994],[41.822994,39.179779],[41.825921,39.181492],[41.829062,39.183134],[41.832488,39.183991],[41.837842,39.184419],[41.842553,39.184419],[41.848835,39.184276],[41.859971,39.184205],[41.860594,39.184168]]]}},{"type":"Feature","properties":{"id":"TR-D-49-002","parent_id":"TR-P-49","region_id":"TR-R-DOA","level":"district","municipality_type":null,"municipality_type_label":null,"is_metropolitan_municipality":null,"name":"Hasköy","name_ascii":"haskoy","slug":"haskoy-mus"},"geometry":{"type":"Polygon","coordinates":[[[41.940452,38.586477],[41.9334,38.583145],[41.927588,38.581905],[41.921389,38.58082],[41.912709,38.580975],[41.894963,38.581828],[41.8759,38.584075],[41.850869,38.59043],[41.832658,38.595544],[41.817081,38.600194],[41.812586,38.600891],[41.794453,38.603139],[41.782984,38.604456],[41.758883,38.606316],[41.755086,38.606703],[41.732845,38.607788],[41.723855,38.608873],[41.711379,38.609028],[41.692702,38.608796],[41.686115,38.607788],[41.672399,38.605928],[41.655893,38.603991],[41.634892,38.600814],[41.621407,38.599341],[41.605289,38.597094],[41.583978,38.593607],[41.584665,38.597989],[41.586121,38.606649],[41.586734,38.611018],[41.58819,38.617072],[41.589416,38.621518],[41.590413,38.628186],[41.592252,38.632861],[41.595165,38.639682],[41.597234,38.643591],[41.600376,38.646656],[41.604975,38.649798],[41.610723,38.652404],[41.616164,38.65524],[41.619843,38.657309],[41.622219,38.659149],[41.624365,38.661525],[41.626664,38.664897],[41.628274,38.668039],[41.628964,38.669266],[41.634099,38.674247],[41.641839,38.682218],[41.647664,38.690342],[41.657398,38.701608],[41.664909,38.710575],[41.674795,38.720309],[41.679164,38.725444],[41.690584,38.730349],[41.696025,38.732648],[41.704101,38.724932],[41.71851,38.716246],[41.733736,38.709501],[41.741196,38.706742],[41.74375,38.704903],[41.750904,38.69683],[41.753331,38.69264],[41.758312,38.687888],[41.763141,38.683136],[41.774714,38.678078],[41.787513,38.675472],[41.801538,38.67348],[41.808053,38.673173],[41.817173,38.674093],[41.82591,38.674782],[41.831429,38.673939],[41.839399,38.673173],[41.845607,38.670261],[41.849133,38.666735],[41.860169,38.654549],[41.8686,38.646195],[41.871666,38.643666],[41.875191,38.641903],[41.880479,38.640217],[41.88753,38.639527],[41.896804,38.638224],[41.909373,38.635159],[41.917881,38.63171],[41.927614,38.627571],[41.941072,38.621737],[41.940917,38.62042],[41.940297,38.616468],[41.940452,38.61391],[41.941305,38.609338],[41.9427,38.603991],[41.942855,38.599574],[41.942545,38.593762],[41.942002,38.5895],[41.940452,38.586477]]]}},{"type":"Feature","properties":{"id":"TR-D-49-003","parent_id":"TR-P-49","region_id":"TR-R-DOA","level":"district","municipality_type":null,"municipality_type_label":null,"is_metropolitan_municipality":null,"name":"Korkut","name_ascii":"korkut","slug":"korkut-mus"},"geometry":{"type":"Polygon","coordinates":[[[41.941072,38.621737],[41.927614,38.627571],[41.917881,38.63171],[41.909373,38.635159],[41.896804,38.638224],[41.88753,38.639527],[41.880479,38.640217],[41.875191,38.641903],[41.871666,38.643666],[41.8686,38.646195],[41.860169,38.654549],[41.849133,38.666735],[41.845607,38.670261],[41.839399,38.673173],[41.831429,38.673939],[41.82591,38.674782],[41.817173,38.674093],[41.808053,38.673173],[41.801538,38.67348],[41.787513,38.675472],[41.774714,38.678078],[41.763141,38.683136],[41.758312,38.687888],[41.753331,38.69264],[41.750904,38.69683],[41.74375,38.704903],[41.741196,38.706742],[41.733736,38.709501],[41.71851,38.716246],[41.704101,38.724932],[41.696025,38.732648],[41.70024,38.736174],[41.705529,38.743531],[41.709897,38.753495],[41.71212,38.763152],[41.714343,38.774111],[41.715952,38.779706],[41.717255,38.782159],[41.717485,38.784995],[41.717868,38.78737],[41.718328,38.789516],[41.718328,38.791279],[41.718175,38.793042],[41.717408,38.794422],[41.715569,38.795954],[41.711277,38.800476],[41.708135,38.804308],[41.705375,38.808447],[41.703919,38.811513],[41.704379,38.814885],[41.707215,38.81887],[41.711737,38.821629],[41.72078,38.824925],[41.725839,38.826151],[41.730591,38.827377],[41.735266,38.828757],[41.738945,38.830443],[41.748678,38.834582],[41.752663,38.837341],[41.755882,38.840177],[41.758948,38.843626],[41.768145,38.850677],[41.776499,38.855582],[41.781787,38.857421],[41.786999,38.859107],[41.79267,38.860104],[41.800411,38.86133],[41.807539,38.863476],[41.814513,38.866541],[41.83582,38.872596],[41.8454,38.877118],[41.852068,38.88072],[41.859349,38.884476],[41.862261,38.886775],[41.867549,38.891373],[41.870692,38.894592],[41.874984,38.898961],[41.876133,38.901107],[41.876133,38.9031],[41.875871,38.90387],[41.88194,38.904047],[41.887656,38.904047],[41.895249,38.903154],[41.90302,38.901099],[41.907665,38.898777],[41.913382,38.896365],[41.918205,38.895025],[41.925709,38.892256],[41.929907,38.890916],[41.937857,38.887969],[41.94009,38.886986],[41.944556,38.883145],[41.95063,38.878768],[41.95599,38.876624],[41.964386,38.875552],[41.971175,38.874659],[41.9785,38.873141],[41.987075,38.870461],[41.993774,38.868853],[42.001992,38.868674],[42.00753,38.8693],[42.011192,38.870372],[42.014319,38.870908],[42.021018,38.872069],[42.025306,38.87323],[42.030755,38.873051],[42.03665,38.871354],[42.040491,38.870104],[42.04862,38.86787],[42.058267,38.865101],[42.069343,38.86394],[42.079883,38.862422],[42.090691,38.861528],[42.100696,38.861618],[42.108914,38.860992],[42.116149,38.860635],[42.124278,38.861082],[42.130084,38.860457],[42.134818,38.858491],[42.140981,38.855901],[42.148217,38.852417],[42.155898,38.848666],[42.164561,38.844653],[42.164412,38.843682],[42.164877,38.842054],[42.166814,38.838722],[42.168751,38.834847],[42.169836,38.829035],[42.170301,38.82578],[42.169991,38.821673],[42.168751,38.819271],[42.167589,38.817644],[42.165032,38.816094],[42.159297,38.814466],[42.142636,38.810901],[42.135971,38.809739],[42.124889,38.808112],[42.11869,38.807492],[42.116288,38.806639],[42.11094,38.803849],[42.107531,38.800982],[42.104121,38.79641],[42.100944,38.791993],[42.098929,38.789745],[42.096139,38.787886],[42.091024,38.785638],[42.087537,38.783623],[42.083895,38.780989],[42.081957,38.777889],[42.081647,38.776571],[42.081957,38.772464],[42.084282,38.768744],[42.08715,38.765955],[42.092574,38.763862],[42.098386,38.761692],[42.103423,38.76022],[42.109933,38.757043],[42.114428,38.754175],[42.116675,38.751231],[42.118225,38.748828],[42.118123,38.747976],[42.117992,38.746891],[42.116288,38.744799],[42.112335,38.741544],[42.107841,38.738444],[42.097999,38.734337],[42.08157,38.723178],[42.062274,38.707136],[42.057857,38.704269],[42.039103,38.695512],[42.030501,38.692025],[42.027169,38.690088],[42.022752,38.684663],[42.020969,38.679083],[42.018644,38.671954],[42.017637,38.669396],[42.01601,38.664437],[42.013452,38.66064],[42.002913,38.655525],[41.979975,38.645683],[41.966181,38.638631],[41.950372,38.629564],[41.944405,38.624217],[41.941072,38.621737]]]}},{"type":"Feature","properties":{"id":"TR-D-49-004","parent_id":"TR-P-49","region_id":"TR-R-DOA","level":"district","municipality_type":null,"municipality_type_label":null,"is_metropolitan_municipality":null,"name":"Malazgirt","name_ascii":"malazgirt","slug":"malazgirt-mus"},"geometry":{"type":"Polygon","coordinates":[[[42.464481,38.946817],[42.468415,38.951899],[42.471747,38.956087],[42.479075,38.964177],[42.48393,38.968269],[42.488498,38.973123],[42.491068,38.976169],[42.498682,38.98188],[42.501633,38.98483],[42.503346,38.98702],[42.506963,38.992825],[42.509342,38.998917],[42.510389,39.002534],[42.511341,39.005579],[42.512007,39.009196],[42.512102,39.013574],[42.512007,39.017191],[42.511722,39.01919],[42.5082,39.026328],[42.506487,39.03004],[42.504203,39.033467],[42.496493,39.044317],[42.493923,39.046601],[42.484025,39.052502],[42.470224,39.058594],[42.461563,39.062401],[42.44424,39.070491],[42.435389,39.074964],[42.417114,39.084292],[42.413783,39.087433],[42.409024,39.092192],[42.405407,39.096094],[42.402457,39.099616],[42.400077,39.103899],[42.397793,39.107991],[42.395985,39.110942],[42.39332,39.114083],[42.390179,39.118937],[42.386372,39.12874],[42.384849,39.131976],[42.383421,39.136164],[42.382089,39.142922],[42.38028,39.148537],[42.377615,39.154914],[42.375331,39.161196],[42.372,39.166621],[42.366384,39.172522],[42.359151,39.178804],[42.35325,39.183753],[42.346873,39.18975],[42.338687,39.198696],[42.335166,39.202218],[42.328218,39.208024],[42.323744,39.212307],[42.318224,39.218589],[42.317367,39.220112],[42.313275,39.228011],[42.311847,39.232865],[42.309087,39.24343],[42.308611,39.24857],[42.307469,39.261514],[42.307088,39.270651],[42.306707,39.275029],[42.306041,39.279884],[42.306327,39.283881],[42.306422,39.287117],[42.305565,39.290448],[42.304233,39.292447],[42.301472,39.293875],[42.297189,39.294351],[42.292621,39.293589],[42.288909,39.289877],[42.287291,39.286165],[42.287196,39.281882],[42.286339,39.275981],[42.284911,39.27246],[42.283579,39.268938],[42.279296,39.260372],[42.274632,39.255518],[42.269873,39.251806],[42.263782,39.247999],[42.256263,39.242954],[42.245317,39.242193],[42.237893,39.24305],[42.23066,39.244572],[42.226091,39.246095],[42.221523,39.251045],[42.219238,39.256279],[42.219048,39.260086],[42.219535,39.260562],[42.219475,39.263388],[42.21902,39.2655],[42.219347,39.267045],[42.222347,39.269939],[42.223693,39.271209],[42.22605,39.273448],[42.229484,39.276711],[42.230221,39.277389],[42.230596,39.277724],[42.230977,39.278053],[42.231367,39.278376],[42.231734,39.278664],[42.232491,39.27922],[42.233297,39.279771],[42.234258,39.280393],[42.236299,39.281674],[42.238905,39.283288],[42.239785,39.283816],[42.240682,39.284324],[42.24114,39.284564],[42.241591,39.284784],[42.242049,39.284993],[42.242511,39.285191],[42.242975,39.285378],[42.24344,39.285552],[42.243904,39.285712],[42.244365,39.285851],[42.244822,39.285965],[42.245271,39.286043],[42.24571,39.286076],[42.246136,39.286048],[42.246537,39.285952],[42.246929,39.285803],[42.247319,39.28562],[42.248132,39.285212],[42.248562,39.285012],[42.249006,39.284831],[42.249463,39.284679],[42.249912,39.28457],[42.25037,39.2845],[42.250832,39.284467],[42.251292,39.284478],[42.251742,39.284534],[42.252183,39.284632],[42.252609,39.284768],[42.253017,39.284943],[42.25345,39.285184],[42.253856,39.28546],[42.254253,39.285767],[42.254633,39.28609],[42.255004,39.286424],[42.255731,39.287116],[42.25823,39.289588],[42.260323,39.291639],[42.261081,39.292399],[42.261422,39.292756],[42.261751,39.293116],[42.262063,39.293483],[42.262332,39.293829],[42.262571,39.294176],[42.261588,39.296859],[42.259961,39.298663],[42.259404,39.299871],[42.259118,39.301204],[42.259213,39.302155],[42.259594,39.303107],[42.259594,39.304154],[42.258547,39.306153],[42.256739,39.308342],[42.25493,39.30996],[42.252741,39.311102],[42.251123,39.31291],[42.249886,39.314909],[42.248077,39.317384],[42.24684,39.320144],[42.245508,39.321381],[42.241986,39.321857],[42.237893,39.321477],[42.233705,39.321477],[42.228851,39.321477],[42.225235,39.321667],[42.215391,39.321904],[42.216176,39.32376],[42.21689,39.326544],[42.216533,39.331113],[42.215891,39.338537],[42.214249,39.343962],[42.211037,39.351386],[42.208181,39.35881],[42.204826,39.363664],[42.203756,39.365092],[42.200115,39.368304],[42.19626,39.370517],[42.190692,39.373229],[42.188479,39.374729],[42.18748,39.375371],[42.186766,39.376585],[42.185767,39.380154],[42.186338,39.385436],[42.186623,39.388363],[42.188479,39.391718],[42.190407,39.393502],[42.194333,39.396286],[42.196332,39.397643],[42.201043,39.401569],[42.20654,39.408636],[42.208396,39.412705],[42.20968,39.416345],[42.214891,39.427624],[42.219317,39.432335],[42.221173,39.434548],[42.228883,39.440616],[42.236806,39.444685],[42.248156,39.450395],[42.272712,39.461745],[42.284919,39.469312],[42.294556,39.475737],[42.301337,39.480805],[42.306834,39.485588],[42.309618,39.488372],[42.312259,39.490799],[42.316114,39.493012],[42.322253,39.496723],[42.327749,39.499222],[42.331247,39.499722],[42.336672,39.500792],[42.34431,39.501363],[42.349878,39.501363],[42.356731,39.500364],[42.361014,39.499507],[42.382001,39.496723],[42.391995,39.497009],[42.404487,39.497651],[42.417836,39.502077],[42.424689,39.507074],[42.42998,39.512275],[42.43795,39.506214],[42.444758,39.499406],[42.450902,39.49484],[42.460865,39.484462],[42.4695,39.473585],[42.477304,39.462211],[42.479629,39.459222],[42.482534,39.456565],[42.487931,39.451667],[42.495071,39.446934],[42.499223,39.443198],[42.503042,39.438134],[42.505034,39.434314],[42.507691,39.428004],[42.508521,39.424517],[42.508521,39.41937],[42.506861,39.411566],[42.506529,39.407663],[42.507442,39.40592],[42.509019,39.402516],[42.511759,39.39521],[42.514665,39.390477],[42.516907,39.385496],[42.51782,39.383254],[42.518567,39.381344],[42.519232,39.380182],[42.520477,39.379186],[42.52139,39.378272],[42.521639,39.37711],[42.521722,39.376197],[42.521722,39.374868],[42.522054,39.372959],[42.521805,39.371713],[42.521058,39.370302],[42.520726,39.36914],[42.52056,39.367894],[42.520726,39.367645],[42.520892,39.367396],[42.521722,39.366649],[42.522636,39.365819],[42.523051,39.364407],[42.524047,39.363162],[42.525126,39.36283],[42.526206,39.363245],[42.527036,39.363992],[42.527534,39.364988],[42.527617,39.366068],[42.528198,39.366898],[42.52853,39.366981],[42.528862,39.367064],[42.529693,39.366483],[42.531187,39.365071],[42.532682,39.36449],[42.533844,39.364158],[42.535006,39.363909],[42.535172,39.363619],[42.535338,39.363328],[42.535671,39.362332],[42.537082,39.361667],[42.539988,39.36092],[42.542562,39.360754],[42.547211,39.360505],[42.551196,39.360422],[42.554434,39.360505],[42.557174,39.360671],[42.561242,39.360422],[42.564397,39.36009],[42.566722,39.358762],[42.570126,39.356188],[42.574443,39.35295],[42.58341,39.345893],[42.588558,39.341243],[42.592875,39.335847],[42.596611,39.330616],[42.601592,39.326631],[42.605744,39.323808],[42.612137,39.318245],[42.619858,39.310939],[42.623677,39.306124],[42.625338,39.302886],[42.626915,39.298319],[42.628493,39.29367],[42.630734,39.285949],[42.633142,39.276235],[42.634221,39.270672],[42.636878,39.263532],[42.641195,39.254648],[42.642275,39.252822],[42.643935,39.250663],[42.649747,39.244685],[42.655725,39.237462],[42.660125,39.232397],[42.661703,39.229907],[42.666933,39.224178],[42.670586,39.220359],[42.674572,39.214381],[42.678972,39.209067],[42.683289,39.201844],[42.686195,39.192628],[42.68744,39.183828],[42.686859,39.176023],[42.686195,39.170295],[42.686112,39.167223],[42.687357,39.162241],[42.690844,39.155599],[42.696075,39.14987],[42.702468,39.142398],[42.707616,39.138579],[42.711518,39.134594],[42.713593,39.131771],[42.715586,39.12214],[42.716333,39.11583],[42.717911,39.099806],[42.718326,39.087602],[42.718243,39.080129],[42.716997,39.067509],[42.713344,39.056965],[42.707699,39.048414],[42.704627,39.040941],[42.701804,39.033967],[42.698317,39.025997],[42.695992,39.015121],[42.695992,39.007067],[42.696767,38.996163],[42.698981,38.984097],[42.70399,38.971311],[42.709387,38.961431],[42.714452,38.954903],[42.713925,38.954499],[42.711368,38.952561],[42.701759,38.947602],[42.694939,38.94427],[42.686802,38.941712],[42.680293,38.93993],[42.673008,38.937993],[42.669443,38.936443],[42.661539,38.93528],[42.651542,38.934815],[42.640925,38.935048],[42.633021,38.934738],[42.624264,38.93466],[42.615585,38.934505],[42.609618,38.933033],[42.603728,38.930398],[42.599156,38.925593],[42.596986,38.923191],[42.596366,38.920246],[42.596676,38.917611],[42.597839,38.909165],[42.598458,38.904902],[42.597684,38.901493],[42.596444,38.898005],[42.594351,38.894518],[42.592414,38.891806],[42.588462,38.887931],[42.584897,38.886691],[42.578697,38.885141],[42.57707,38.885219],[42.571568,38.888241],[42.568701,38.890333],[42.564981,38.899168],[42.561339,38.90839],[42.557076,38.922571],[42.555217,38.925826],[42.553279,38.929546],[42.550334,38.933188],[42.545917,38.93807],[42.542507,38.941015],[42.535068,38.942875],[42.529798,38.943572],[42.523134,38.943805],[42.513292,38.943107],[42.500583,38.9421],[42.488261,38.941325],[42.474545,38.944037],[42.46509,38.946594],[42.464481,38.946817]]]}},{"type":"Feature","properties":{"id":"TR-D-49-005","parent_id":"TR-P-49","region_id":"TR-R-DOA","level":"district","municipality_type":null,"municipality_type_label":null,"is_metropolitan_municipality":null,"name":"Muş","name_ascii":"mus","slug":"mus-mus"},"geometry":{"type":"Polygon","coordinates":[[[41.563627,39.061752],[41.564068,39.061742],[41.564539,39.061789],[41.565008,39.061878],[41.565476,39.061993],[41.566402,39.062239],[41.566858,39.062338],[41.567307,39.0624],[41.567749,39.062406],[41.568164,39.062344],[41.568571,39.062227],[41.568975,39.062069],[41.569376,39.061881],[41.569777,39.061673],[41.570998,39.060993],[41.571451,39.06075],[41.572376,39.060277],[41.573319,39.059816],[41.573936,39.059524],[41.574748,39.059139],[41.576662,39.058251],[41.578296,39.057501],[41.579058,39.057152],[41.580695,39.056413],[41.580981,39.056284],[41.581955,39.055857],[41.583432,39.055227],[41.589856,39.052515],[41.590847,39.052103],[41.591844,39.051705],[41.592419,39.051492],[41.592853,39.051341],[41.593366,39.05118],[41.593887,39.051042],[41.594398,39.050936],[41.594917,39.050854],[41.595442,39.050794],[41.595991,39.050756],[41.596534,39.050742],[41.597101,39.050746],[41.597669,39.050763],[41.598238,39.050791],[41.599378,39.050866],[41.600517,39.050958],[41.601651,39.051069],[41.602214,39.051135],[41.602773,39.051211],[41.603451,39.051328],[41.603872,39.051414],[41.604355,39.051537],[41.60483,39.051676],[41.6053,39.05183],[41.605766,39.051994],[41.606246,39.052178],[41.606777,39.052381],[41.607778,39.052788],[41.611263,39.054259],[41.612495,39.054785],[41.614249,39.055534],[41.615729,39.056183],[41.616614,39.056578],[41.618192,39.057282],[41.619183,39.057716],[41.62018,39.058129],[41.62068,39.05832],[41.621182,39.058492],[41.621684,39.058639],[41.622185,39.05875],[41.622661,39.058812],[41.623128,39.058827],[41.623575,39.05879],[41.623993,39.058691],[41.624362,39.058528],[41.624692,39.058309],[41.624984,39.058045],[41.625235,39.057747],[41.625448,39.057403],[41.625611,39.057035],[41.625719,39.056652],[41.625767,39.056257],[41.62575,39.055875],[41.625682,39.05549],[41.625578,39.055101],[41.625446,39.054712],[41.625293,39.054321],[41.625126,39.053931],[41.624948,39.053542],[41.624372,39.052339],[41.624222,39.052004],[41.624028,39.051522],[41.623895,39.051102],[41.623797,39.050681],[41.62374,39.050261],[41.623732,39.049843],[41.623783,39.049431],[41.623886,39.049026],[41.624034,39.04863],[41.624226,39.048246],[41.624456,39.047888],[41.624725,39.047549],[41.625032,39.047234],[41.625381,39.046949],[41.625771,39.0467],[41.626197,39.046483],[41.62665,39.046291],[41.627122,39.046122],[41.62761,39.045976],[41.628111,39.045853],[41.628623,39.045758],[41.629112,39.045695],[41.629608,39.045653],[41.630108,39.045624],[41.631614,39.045563],[41.632114,39.045536],[41.632613,39.0455],[41.633114,39.045449],[41.633611,39.045383],[41.634103,39.045302],[41.634589,39.045205],[41.635072,39.045087],[41.635547,39.044951],[41.636014,39.044799],[41.63647,39.044629],[41.636955,39.044424],[41.637429,39.044202],[41.637896,39.043968],[41.638357,39.043726],[41.639766,39.042945],[41.641072,39.042195],[41.641964,39.041672],[41.642847,39.041139],[41.64369,39.0406],[41.644093,39.040327],[41.644486,39.040048],[41.644869,39.039759],[41.645228,39.03947],[41.64592,39.038873],[41.646295,39.038538],[41.647279,39.037658],[41.64791,39.037129],[41.648326,39.0368],[41.648689,39.036531],[41.649061,39.03627],[41.649474,39.036002],[41.649899,39.035745],[41.650335,39.035501],[41.650783,39.035271],[41.651301,39.035033],[41.65168,39.034872],[41.652144,39.034694],[41.652617,39.034529],[41.653146,39.034366],[41.653683,39.034216],[41.654226,39.034075],[41.654558,39.033995],[41.655322,39.033812],[41.656426,39.033562],[41.659198,39.032957],[41.660417,39.032713],[41.660807,39.032642],[41.661304,39.032557],[41.661802,39.032483],[41.662301,39.03242],[41.662865,39.032368],[41.66343,39.032333],[41.663995,39.032314],[41.664558,39.032311],[41.665117,39.032327],[41.665671,39.032365],[41.666256,39.03244],[41.666689,39.032521],[41.66715,39.032637],[41.667601,39.032777],[41.668037,39.032944],[41.668496,39.033156],[41.668939,39.033392],[41.66937,39.033645],[41.669793,39.033911],[41.670965,39.034673],[41.671368,39.034912],[41.671782,39.035133],[41.67221,39.035335],[41.672652,39.035516],[41.673107,39.035672],[41.673634,39.035817],[41.674176,39.035934],[41.674727,39.036032],[41.675286,39.036116],[41.67585,39.036188],[41.676451,39.036256],[41.677541,39.036364],[41.678652,39.036459],[41.683658,39.03686],[41.688103,39.037233],[41.689212,39.037317],[41.690381,39.037384],[41.690868,39.0374],[41.691496,39.037402],[41.69196,39.03739],[41.692499,39.037348],[41.693038,39.037272],[41.693572,39.03717],[41.694103,39.037047],[41.694631,39.03691],[41.695157,39.036763],[41.696206,39.03645],[41.69987,39.035303],[41.701448,39.034831],[41.702511,39.034542],[41.70306,39.034408],[41.703612,39.034281],[41.704722,39.034042],[41.706953,39.033593],[41.715336,39.03195],[41.726509,39.029747],[41.730517,39.028948],[41.734891,39.028063],[41.736132,39.027823],[41.737129,39.027645],[41.73769,39.027558],[41.73825,39.027486],[41.738772,39.027437],[41.739294,39.027407],[41.739813,39.027402],[41.74033,39.027426],[41.740872,39.027491],[41.74141,39.027587],[41.741946,39.027706],[41.742479,39.027842],[41.743192,39.028045],[41.743541,39.028144],[41.74513,39.028634],[41.749942,39.030152],[41.750947,39.030469],[41.751401,39.030615],[41.752002,39.030807],[41.753051,39.031155],[41.754074,39.031511],[41.755602,39.032061],[41.759684,39.033546],[41.761207,39.034113],[41.762195,39.034511],[41.76267,39.034722],[41.763126,39.034946],[41.763578,39.035204],[41.763857,39.035389],[41.764134,39.035605],[41.764379,39.035835],[41.764593,39.036089],[41.76476,39.03636],[41.764877,39.036652],[41.764945,39.036957],[41.76497,39.037244],[41.764961,39.037591],[41.764906,39.037975],[41.764737,39.038751],[41.764665,39.039143],[41.764628,39.039541],[41.764637,39.039941],[41.764679,39.04022],[41.764782,39.040647],[41.764904,39.040996],[41.765052,39.041343],[41.765223,39.041686],[41.765447,39.042084],[41.765692,39.042477],[41.765952,39.042868],[41.766223,39.043255],[41.766789,39.044024],[41.767654,39.045137],[41.767834,39.045364],[41.769305,39.047219],[41.770978,39.04933],[41.771598,39.050088],[41.771916,39.05046],[41.772245,39.050824],[41.772586,39.051174],[41.772995,39.051544],[41.773332,39.05181],[41.773664,39.052027],[41.774013,39.052221],[41.774377,39.05239],[41.774751,39.052533],[41.77515,39.05265],[41.775555,39.05273],[41.775963,39.052766],[41.776389,39.05275],[41.77681,39.052684],[41.777356,39.052522],[41.777754,39.052353],[41.778051,39.052193],[41.77834,39.052017],[41.778924,39.05162],[41.781849,39.049488],[41.782672,39.048913],[41.783091,39.048636],[41.783518,39.048368],[41.783954,39.048114],[41.784404,39.047877],[41.784843,39.047674],[41.785383,39.04745],[41.78589,39.047259],[41.786405,39.047078],[41.786925,39.046903],[41.787974,39.046567],[41.794322,39.044602],[41.79591,39.044122],[41.796971,39.043829],[41.797505,39.043699],[41.798016,39.043592],[41.798579,39.043501],[41.799009,39.043456],[41.799442,39.043434],[41.799987,39.043443],[41.800496,39.043481],[41.80108,39.043547],[41.801628,39.043627],[41.802725,39.043818],[41.804372,39.044142],[41.810409,39.045365],[41.818655,39.047],[41.820858,39.04746],[41.821951,39.047711],[41.822568,39.047869],[41.8235,39.04813],[41.824491,39.048445],[41.825434,39.04878],[41.826361,39.04914],[41.826826,39.049333],[41.827747,39.049732],[41.830035,39.05076],[41.83096,39.051152],[41.831429,39.051336],[41.831904,39.051508],[41.832368,39.051659],[41.832839,39.051795],[41.833317,39.051916],[41.8338,39.05202],[41.834356,39.052116],[41.834918,39.052194],[41.835484,39.052259],[41.836054,39.052315],[41.837199,39.05241],[41.839499,39.052573],[41.841224,39.052682],[41.842371,39.052738],[41.842944,39.052756],[41.843486,39.052761],[41.844082,39.05275],[41.844647,39.052716],[41.845176,39.052658],[41.845703,39.052578],[41.846227,39.052482],[41.846749,39.052375],[41.84727,39.052258],[41.847788,39.052134],[41.848819,39.051868],[41.849837,39.051575],[41.850338,39.051415],[41.850832,39.051242],[41.851329,39.051048],[41.851819,39.050842],[41.852303,39.050626],[41.85326,39.050176],[41.855154,39.049244],[41.855748,39.048945],[41.859399,39.047114],[41.860268,39.046666],[41.861261,39.046136],[41.862148,39.04563],[41.862484,39.045423],[41.862988,39.045113],[41.863394,39.044846],[41.863787,39.044575],[41.864166,39.0443],[41.864813,39.043805],[41.865136,39.043575],[41.865471,39.043373],[41.865827,39.043209],[41.866258,39.043085],[41.866602,39.043031],[41.865816,39.041175],[41.864637,39.038066],[41.863334,39.033697],[41.862951,39.031321],[41.862951,39.029788],[41.864101,39.026646],[41.86594,39.022431],[41.869312,39.017756],[41.870615,39.013464],[41.870079,39.010781],[41.867626,39.004803],[41.866017,38.999898],[41.864254,38.994457],[41.863487,38.988632],[41.862568,38.983727],[41.862568,38.982577],[41.863258,38.97407],[41.864177,38.967862],[41.864331,38.96334],[41.863947,38.956749],[41.863334,38.951997],[41.858582,38.94211],[41.85475,38.934293],[41.852911,38.929848],[41.852528,38.927548],[41.852988,38.925709],[41.854061,38.923946],[41.85705,38.92157],[41.860652,38.919271],[41.864407,38.916895],[41.870155,38.912067],[41.873221,38.909537],[41.87483,38.906932],[41.875871,38.90387],[41.876133,38.9031],[41.876133,38.901107],[41.874984,38.898961],[41.870692,38.894592],[41.867549,38.891373],[41.862261,38.886775],[41.859349,38.884476],[41.852068,38.88072],[41.8454,38.877118],[41.83582,38.872596],[41.814513,38.866541],[41.807539,38.863476],[41.800411,38.86133],[41.79267,38.860104],[41.786999,38.859107],[41.781787,38.857421],[41.776499,38.855582],[41.768145,38.850677],[41.758948,38.843626],[41.755882,38.840177],[41.752663,38.837341],[41.748678,38.834582],[41.738945,38.830443],[41.735266,38.828757],[41.730591,38.827377],[41.725839,38.826151],[41.72078,38.824925],[41.711737,38.821629],[41.707215,38.81887],[41.704379,38.814885],[41.703919,38.811513],[41.705375,38.808447],[41.708135,38.804308],[41.711277,38.800476],[41.715569,38.795954],[41.717408,38.794422],[41.718175,38.793042],[41.718328,38.791279],[41.718328,38.789516],[41.717868,38.78737],[41.717485,38.784995],[41.717255,38.782159],[41.715952,38.779706],[41.714343,38.774111],[41.71212,38.763152],[41.709897,38.753495],[41.705529,38.743531],[41.70024,38.736174],[41.696025,38.732648],[41.690584,38.730349],[41.679164,38.725444],[41.674795,38.720309],[41.664909,38.710575],[41.657398,38.701608],[41.647664,38.690342],[41.641839,38.682218],[41.634099,38.674247],[41.628964,38.669266],[41.628274,38.668039],[41.626664,38.664897],[41.624365,38.661525],[41.622219,38.659149],[41.619843,38.657309],[41.616164,38.65524],[41.610723,38.652404],[41.604975,38.649798],[41.600376,38.646656],[41.597234,38.643591],[41.595165,38.639682],[41.592252,38.632861],[41.590413,38.628186],[41.589416,38.621518],[41.58819,38.617072],[41.586734,38.611018],[41.586121,38.606649],[41.584665,38.597989],[41.583978,38.593607],[41.561892,38.589887],[41.560419,38.589422],[41.554995,38.586942],[41.54678,38.58268],[41.539031,38.578495],[41.526864,38.572606],[41.521982,38.568731],[41.515472,38.563849],[41.511133,38.559509],[41.50842,38.55517],[41.507258,38.551527],[41.503306,38.539051],[41.498889,38.528821],[41.488969,38.518127],[41.484552,38.51557],[41.480445,38.513865],[41.472308,38.510378],[41.460606,38.506503],[41.455259,38.505263],[41.448052,38.503558],[41.444952,38.502628],[41.439915,38.500536],[41.431546,38.497746],[41.425269,38.494181],[41.412637,38.488059],[41.395511,38.484185],[41.392771,38.483903],[41.387023,38.485244],[41.382813,38.485475],[41.379018,38.484326],[41.37492,38.483085],[41.374923,38.482328],[41.374912,38.481879],[41.374885,38.481437],[41.374836,38.481003],[41.374765,38.480624],[41.374663,38.48026],[41.374519,38.479916],[41.374324,38.4796],[41.374054,38.479306],[41.373725,38.47905],[41.373347,38.478834],[41.372928,38.478662],[41.372493,38.478543],[41.372129,38.478479],[41.37208,38.47847],[41.369148,38.48307],[41.368796,38.483613],[41.368118,38.484657],[41.367656,38.485369],[41.367653,38.485373],[41.367245,38.485856],[41.36564,38.487752],[41.36189,38.490496],[41.356858,38.492143],[41.351553,38.493332],[41.345606,38.49443],[41.341398,38.495985],[41.338014,38.497723],[41.333165,38.501199],[41.327402,38.504858],[41.321181,38.509158],[41.318254,38.511536],[41.312765,38.515378],[41.309015,38.518672],[41.305538,38.521325],[41.303069,38.52352],[41.300599,38.526082],[41.281809,38.529096],[41.272025,38.530804],[41.251323,38.535444],[41.235619,38.537586],[41.227053,38.540798],[41.219557,38.54865],[41.213847,38.555432],[41.207065,38.560428],[41.195644,38.56257],[41.174943,38.571136],[41.171373,38.57649],[41.171016,38.584342],[41.167804,38.591123],[41.161023,38.599689],[41.156383,38.606471],[41.155312,38.613966],[41.156383,38.622889],[41.152457,38.642163],[41.1521,38.660009],[41.158167,38.672501],[41.158714,38.69724],[41.15665,38.708027],[41.155413,38.713738],[41.155698,38.723161],[41.155984,38.727634],[41.156269,38.735534],[41.155793,38.747051],[41.155413,38.748193],[41.154556,38.749716],[41.150844,38.750858],[41.147608,38.751429],[41.134759,38.753618],[41.130286,38.755521],[41.12467,38.758567],[41.123433,38.760947],[41.123433,38.763612],[41.128287,38.773415],[41.131999,38.782552],[41.133236,38.788263],[41.133712,38.792451],[41.133522,38.805109],[41.132855,38.817958],[41.132855,38.822337],[41.132284,38.826715],[41.130761,38.830427],[41.129048,38.83471],[41.126003,38.842419],[41.124289,38.847654],[41.123052,38.852508],[41.122576,38.854602],[41.120768,38.860408],[41.11934,38.864786],[41.117151,38.86926],[41.115818,38.87202],[41.1142,38.876588],[41.112202,38.88563],[41.111535,38.891436],[41.11144,38.896005],[41.112963,38.905427],[41.115628,38.910948],[41.117436,38.915707],[41.121244,38.919704],[41.125622,38.923797],[41.129905,38.926367],[41.132284,38.92789],[41.133712,38.929222],[41.134569,38.931126],[41.135235,38.933505],[41.136377,38.936741],[41.138947,38.941881],[41.144372,38.947591],[41.149702,38.951018],[41.162075,38.959774],[41.167293,38.963226],[41.169118,38.964533],[41.173211,38.967008],[41.174734,38.969292],[41.176257,38.972433],[41.177018,38.976906],[41.178731,38.984235],[41.179683,38.990136],[41.181587,38.994705],[41.183776,38.998131],[41.186917,39.002509],[41.1912,39.00565],[41.197386,39.009267],[41.203383,39.012694],[41.206714,39.01631],[41.210426,39.019261],[41.211116,39.019923],[41.214994,39.023639],[41.219848,39.026114],[41.223941,39.027446],[41.229842,39.029635],[41.234792,39.031063],[41.239931,39.031634],[41.244024,39.0323],[41.254208,39.033347],[41.258491,39.034299],[41.267438,39.036774],[41.273148,39.039248],[41.276765,39.041723],[41.281429,39.046387],[41.283618,39.050194],[41.285902,39.055143],[41.286742,39.057452],[41.29498,39.056663],[41.304213,39.055711],[41.314587,39.055997],[41.322392,39.057329],[41.328483,39.057329],[41.335241,39.056663],[41.347804,39.056758],[41.359511,39.057805],[41.369505,39.058281],[41.384734,39.06028],[41.395299,39.060565],[41.415191,39.062088],[41.424138,39.062278],[41.431942,39.06285],[41.441079,39.064753],[41.454309,39.066942],[41.470394,39.067989],[41.4841,39.066847],[41.48943,39.065705],[41.502184,39.063992],[41.513962,39.062663],[41.515706,39.061924],[41.524402,39.060581],[41.52856,39.060117],[41.529166,39.060951],[41.530032,39.062092],[41.530423,39.062588],[41.530625,39.062845],[41.531237,39.063587],[41.531556,39.063952],[41.531876,39.0643],[41.53254,39.064984],[41.533572,39.065992],[41.534622,39.066979],[41.536738,39.068939],[41.537778,39.069929],[41.538444,39.070602],[41.538761,39.070945],[41.539061,39.071295],[41.539321,39.071627],[41.539558,39.071967],[41.539769,39.072315],[41.539948,39.072671],[41.54009,39.073039],[41.540205,39.073413],[41.540478,39.074533],[41.540582,39.074891],[41.540717,39.07523],[41.540901,39.075542],[41.54117,39.075841],[41.5415,39.0761],[41.541877,39.076319],[41.542288,39.076495],[41.542725,39.076621],[41.543183,39.076684],[41.543673,39.076674],[41.544176,39.076603],[41.544686,39.076487],[41.545202,39.07634],[41.545722,39.076171],[41.546767,39.075794],[41.547814,39.075392],[41.550952,39.074163],[41.552499,39.073535],[41.553004,39.073316],[41.5535,39.073088],[41.553983,39.072846],[41.554421,39.072604],[41.554842,39.072345],[41.555246,39.072072],[41.555628,39.071782],[41.555972,39.071486],[41.556295,39.071175],[41.556597,39.070851],[41.556879,39.070515],[41.557147,39.070155],[41.557394,39.069785],[41.557621,39.069406],[41.557828,39.069018],[41.558002,39.068651],[41.558161,39.068278],[41.558449,39.067522],[41.558856,39.066362],[41.559002,39.065978],[41.559176,39.065565],[41.559367,39.065159],[41.559576,39.064759],[41.559806,39.064368],[41.560052,39.063999],[41.560321,39.063644],[41.560612,39.063305],[41.560929,39.062986],[41.561251,39.062711],[41.561597,39.062462],[41.561964,39.062241],[41.562352,39.062056],[41.562763,39.061912],[41.56319,39.06181],[41.563627,39.061752]]]}},{"type":"Feature","properties":{"id":"TR-D-49-006","parent_id":"TR-P-49","region_id":"TR-R-DOA","level":"district","municipality_type":null,"municipality_type_label":null,"is_metropolitan_municipality":null,"name":"Varto","name_ascii":"varto","slug":"varto-mus"},"geometry":{"type":"Polygon","coordinates":[[[41.382345,39.330242],[41.394882,39.329447],[41.406398,39.329067],[41.414393,39.328305],[41.419342,39.327258],[41.426291,39.32526],[41.433239,39.324213],[41.446659,39.320501],[41.460269,39.316598],[41.475117,39.311649],[41.480637,39.309079],[41.500435,39.299942],[41.510619,39.294707],[41.516996,39.290329],[41.523848,39.285856],[41.530892,39.281573],[41.53803,39.278337],[41.541076,39.27729],[41.550522,39.273506],[41.557589,39.270151],[41.583073,39.262085],[41.596779,39.258301],[41.599491,39.25773],[41.604845,39.257017],[41.610199,39.257445],[41.614553,39.257445],[41.618265,39.256446],[41.621692,39.254375],[41.624833,39.251591],[41.626046,39.249164],[41.627545,39.245381],[41.627759,39.240884],[41.626903,39.236672],[41.624476,39.232175],[41.620835,39.230961],[41.615125,39.227035],[41.61027,39.223752],[41.606273,39.220468],[41.604274,39.21697],[41.603489,39.212973],[41.602561,39.208618],[41.60199,39.203193],[41.60199,39.200481],[41.602632,39.194413],[41.602989,39.191201],[41.603775,39.186989],[41.604703,39.181778],[41.605702,39.177424],[41.607201,39.17257],[41.608771,39.167144],[41.609271,39.165574],[41.609914,39.163504],[41.612341,39.160648],[41.615981,39.157508],[41.61955,39.15558],[41.623548,39.15508],[41.627331,39.155366],[41.632756,39.156294],[41.635754,39.156936],[41.638396,39.157008],[41.64275,39.156437],[41.647033,39.154866],[41.649317,39.154224],[41.652316,39.154438],[41.655028,39.155652],[41.656242,39.156294],[41.658811,39.156223],[41.661239,39.155723],[41.663951,39.155509],[41.668662,39.156151],[41.675158,39.156651],[41.683225,39.157579],[41.688222,39.159007],[41.693147,39.160363],[41.699929,39.161505],[41.706496,39.162147],[41.712278,39.162861],[41.71806,39.162933],[41.720987,39.162933],[41.725769,39.162362],[41.733051,39.161505],[41.737548,39.161434],[41.741974,39.161505],[41.747256,39.16229],[41.753752,39.163432],[41.759605,39.164146],[41.763817,39.165003],[41.770741,39.166359],[41.77581,39.167573],[41.783947,39.169429],[41.787802,39.1695],[41.790586,39.169714],[41.791863,39.169881],[41.79362,39.168212],[41.796,39.166023],[41.79857,39.164024],[41.800854,39.162692],[41.806184,39.157171],[41.809705,39.151841],[41.813703,39.14556],[41.816368,39.139183],[41.817796,39.136898],[41.826171,39.125762],[41.831787,39.120813],[41.842828,39.11396],[41.847396,39.112913],[41.85206,39.110915],[41.857771,39.10844],[41.864623,39.104728],[41.86805,39.101302],[41.871096,39.096828],[41.872428,39.089499],[41.875474,39.082266],[41.880042,39.074556],[41.883469,39.066942],[41.88479,39.061102],[41.885987,39.060089],[41.885363,39.056685],[41.885258,39.056108],[41.884879,39.055843],[41.88412,39.05528],[41.883382,39.054699],[41.882663,39.054104],[41.881971,39.053491],[41.881644,39.05318],[41.881013,39.052541],[41.880709,39.052214],[41.880105,39.051535],[41.877481,39.04843],[41.876591,39.047409],[41.875974,39.046744],[41.875622,39.046394],[41.875328,39.046117],[41.874984,39.045819],[41.874621,39.045538],[41.874228,39.045272],[41.873814,39.045023],[41.873385,39.044787],[41.872944,39.044563],[41.872498,39.044353],[41.872033,39.044146],[41.871586,39.043959],[41.871038,39.043744],[41.870653,39.043601],[41.87018,39.043442],[41.869703,39.043299],[41.86922,39.04318],[41.868713,39.043087],[41.868204,39.043023],[41.867698,39.042988],[41.867201,39.042983],[41.866602,39.043031],[41.866258,39.043085],[41.865827,39.043209],[41.865471,39.043373],[41.865136,39.043575],[41.864813,39.043805],[41.864166,39.0443],[41.863787,39.044575],[41.863394,39.044846],[41.862988,39.045113],[41.862484,39.045423],[41.862148,39.04563],[41.861261,39.046136],[41.860268,39.046666],[41.859399,39.047114],[41.855748,39.048945],[41.855154,39.049244],[41.85326,39.050176],[41.852303,39.050626],[41.851819,39.050842],[41.851329,39.051048],[41.850832,39.051242],[41.850338,39.051415],[41.849837,39.051575],[41.848819,39.051868],[41.847788,39.052134],[41.84727,39.052258],[41.846749,39.052375],[41.846227,39.052482],[41.845703,39.052578],[41.845176,39.052658],[41.844647,39.052716],[41.844082,39.05275],[41.843486,39.052761],[41.842944,39.052756],[41.842371,39.052738],[41.841224,39.052682],[41.839499,39.052573],[41.837199,39.05241],[41.836054,39.052315],[41.835484,39.052259],[41.834918,39.052194],[41.834356,39.052116],[41.8338,39.05202],[41.833317,39.051916],[41.832839,39.051795],[41.832368,39.051659],[41.831904,39.051508],[41.831429,39.051336],[41.83096,39.051152],[41.830035,39.05076],[41.827747,39.049732],[41.826826,39.049333],[41.826361,39.04914],[41.825434,39.04878],[41.824491,39.048445],[41.8235,39.04813],[41.822568,39.047869],[41.821951,39.047711],[41.820858,39.04746],[41.818655,39.047],[41.810409,39.045365],[41.804372,39.044142],[41.802725,39.043818],[41.801628,39.043627],[41.80108,39.043547],[41.800496,39.043481],[41.799987,39.043443],[41.799442,39.043434],[41.799009,39.043456],[41.798579,39.043501],[41.798016,39.043592],[41.797505,39.043699],[41.796971,39.043829],[41.79591,39.044122],[41.794322,39.044602],[41.787974,39.046567],[41.786925,39.046903],[41.786405,39.047078],[41.78589,39.047259],[41.785383,39.04745],[41.784843,39.047674],[41.784404,39.047877],[41.783954,39.048114],[41.783518,39.048368],[41.783091,39.048636],[41.782672,39.048913],[41.781849,39.049488],[41.778924,39.05162],[41.77834,39.052017],[41.778051,39.052193],[41.777754,39.052353],[41.777356,39.052522],[41.77681,39.052684],[41.776389,39.05275],[41.775963,39.052766],[41.775555,39.05273],[41.77515,39.05265],[41.774751,39.052533],[41.774377,39.05239],[41.774013,39.052221],[41.773664,39.052027],[41.773332,39.05181],[41.772995,39.051544],[41.772586,39.051174],[41.772245,39.050824],[41.771916,39.05046],[41.771598,39.050088],[41.770978,39.04933],[41.769305,39.047219],[41.767834,39.045364],[41.767654,39.045137],[41.766789,39.044024],[41.766223,39.043255],[41.765952,39.042868],[41.765692,39.042477],[41.765447,39.042084],[41.765223,39.041686],[41.765052,39.041343],[41.764904,39.040996],[41.764782,39.040647],[41.764679,39.04022],[41.764637,39.039941],[41.764628,39.039541],[41.764665,39.039143],[41.764737,39.038751],[41.764906,39.037975],[41.764961,39.037591],[41.76497,39.037244],[41.764945,39.036957],[41.764877,39.036652],[41.76476,39.03636],[41.764593,39.036089],[41.764379,39.035835],[41.764134,39.035605],[41.763857,39.035389],[41.763578,39.035204],[41.763126,39.034946],[41.76267,39.034722],[41.762195,39.034511],[41.761207,39.034113],[41.759684,39.033546],[41.755602,39.032061],[41.754074,39.031511],[41.753051,39.031155],[41.752002,39.030807],[41.751401,39.030615],[41.750947,39.030469],[41.749942,39.030152],[41.74513,39.028634],[41.743541,39.028144],[41.743192,39.028045],[41.742479,39.027842],[41.741946,39.027706],[41.74141,39.027587],[41.740872,39.027491],[41.74033,39.027426],[41.739813,39.027402],[41.739294,39.027407],[41.738772,39.027437],[41.73825,39.027486],[41.73769,39.027558],[41.737129,39.027645],[41.736132,39.027823],[41.734891,39.028063],[41.730517,39.028948],[41.726509,39.029747],[41.715336,39.03195],[41.706953,39.033593],[41.704722,39.034042],[41.703612,39.034281],[41.70306,39.034408],[41.702511,39.034542],[41.701448,39.034831],[41.69987,39.035303],[41.696206,39.03645],[41.695157,39.036763],[41.694631,39.03691],[41.694103,39.037047],[41.693572,39.03717],[41.693038,39.037272],[41.692499,39.037348],[41.69196,39.03739],[41.691496,39.037402],[41.690868,39.0374],[41.690381,39.037384],[41.689212,39.037317],[41.688103,39.037233],[41.683658,39.03686],[41.678652,39.036459],[41.677541,39.036364],[41.676451,39.036256],[41.67585,39.036188],[41.675286,39.036116],[41.674727,39.036032],[41.674176,39.035934],[41.673634,39.035817],[41.673107,39.035672],[41.672652,39.035516],[41.67221,39.035335],[41.671782,39.035133],[41.671368,39.034912],[41.670965,39.034673],[41.669793,39.033911],[41.66937,39.033645],[41.668939,39.033392],[41.668496,39.033156],[41.668037,39.032944],[41.667601,39.032777],[41.66715,39.032637],[41.666689,39.032521],[41.666256,39.03244],[41.665671,39.032365],[41.665117,39.032327],[41.664558,39.032311],[41.663995,39.032314],[41.66343,39.032333],[41.662865,39.032368],[41.662301,39.03242],[41.661802,39.032483],[41.661304,39.032557],[41.660807,39.032642],[41.660417,39.032713],[41.659198,39.032957],[41.656426,39.033562],[41.655322,39.033812],[41.654558,39.033995],[41.654226,39.034075],[41.653683,39.034216],[41.653146,39.034366],[41.652617,39.034529],[41.652144,39.034694],[41.65168,39.034872],[41.651301,39.035033],[41.650783,39.035271],[41.650335,39.035501],[41.649899,39.035745],[41.649474,39.036002],[41.649061,39.03627],[41.648689,39.036531],[41.648326,39.0368],[41.64791,39.037129],[41.647279,39.037658],[41.646295,39.038538],[41.64592,39.038873],[41.645228,39.03947],[41.644869,39.039759],[41.644486,39.040048],[41.644093,39.040327],[41.64369,39.0406],[41.642847,39.041139],[41.641964,39.041672],[41.641072,39.042195],[41.639766,39.042945],[41.638357,39.043726],[41.637896,39.043968],[41.637429,39.044202],[41.636955,39.044424],[41.63647,39.044629],[41.636014,39.044799],[41.635547,39.044951],[41.635072,39.045087],[41.634589,39.045205],[41.634103,39.045302],[41.633611,39.045383],[41.633114,39.045449],[41.632613,39.0455],[41.632114,39.045536],[41.631614,39.045563],[41.630108,39.045624],[41.629608,39.045653],[41.629112,39.045695],[41.628623,39.045758],[41.628111,39.045853],[41.62761,39.045976],[41.627122,39.046122],[41.62665,39.046291],[41.626197,39.046483],[41.625771,39.0467],[41.625381,39.046949],[41.625032,39.047234],[41.624725,39.047549],[41.624456,39.047888],[41.624226,39.048246],[41.624034,39.04863],[41.623886,39.049026],[41.623783,39.049431],[41.623732,39.049843],[41.62374,39.050261],[41.623797,39.050681],[41.623895,39.051102],[41.624028,39.051522],[41.624222,39.052004],[41.624372,39.052339],[41.624948,39.053542],[41.625126,39.053931],[41.625293,39.054321],[41.625446,39.054712],[41.625578,39.055101],[41.625682,39.05549],[41.62575,39.055875],[41.625767,39.056257],[41.625719,39.056652],[41.625611,39.057035],[41.625448,39.057403],[41.625235,39.057747],[41.624984,39.058045],[41.624692,39.058309],[41.624362,39.058528],[41.623993,39.058691],[41.623575,39.05879],[41.623128,39.058827],[41.622661,39.058812],[41.622185,39.05875],[41.621684,39.058639],[41.621182,39.058492],[41.62068,39.05832],[41.62018,39.058129],[41.619183,39.057716],[41.618192,39.057282],[41.616614,39.056578],[41.615729,39.056183],[41.614249,39.055534],[41.612495,39.054785],[41.611263,39.054259],[41.607778,39.052788],[41.606777,39.052381],[41.606246,39.052178],[41.605766,39.051994],[41.6053,39.05183],[41.60483,39.051676],[41.604355,39.051537],[41.603872,39.051414],[41.603451,39.051328],[41.602773,39.051211],[41.602214,39.051135],[41.601651,39.051069],[41.600517,39.050958],[41.599378,39.050866],[41.598238,39.050791],[41.597669,39.050763],[41.597101,39.050746],[41.596534,39.050742],[41.595991,39.050756],[41.595442,39.050794],[41.594917,39.050854],[41.594398,39.050936],[41.593887,39.051042],[41.593366,39.05118],[41.592853,39.051341],[41.592419,39.051492],[41.591844,39.051705],[41.590847,39.052103],[41.589856,39.052515],[41.583432,39.055227],[41.581955,39.055857],[41.580981,39.056284],[41.580695,39.056413],[41.579058,39.057152],[41.578296,39.057501],[41.576662,39.058251],[41.574748,39.059139],[41.573936,39.059524],[41.573319,39.059816],[41.572376,39.060277],[41.571451,39.06075],[41.570998,39.060993],[41.569777,39.061673],[41.569376,39.061881],[41.568975,39.062069],[41.568571,39.062227],[41.568164,39.062344],[41.567749,39.062406],[41.567307,39.0624],[41.566858,39.062338],[41.566402,39.062239],[41.565476,39.061993],[41.565008,39.061878],[41.564539,39.061789],[41.564068,39.061742],[41.563627,39.061752],[41.56319,39.06181],[41.562763,39.061912],[41.562352,39.062056],[41.561964,39.062241],[41.561597,39.062462],[41.561251,39.062711],[41.560929,39.062986],[41.560612,39.063305],[41.560321,39.063644],[41.560052,39.063999],[41.559806,39.064368],[41.559576,39.064759],[41.559367,39.065159],[41.559176,39.065565],[41.559002,39.065978],[41.558856,39.066362],[41.558449,39.067522],[41.558161,39.068278],[41.558002,39.068651],[41.557828,39.069018],[41.557621,39.069406],[41.557394,39.069785],[41.557147,39.070155],[41.556879,39.070515],[41.556597,39.070851],[41.556295,39.071175],[41.555972,39.071486],[41.555628,39.071782],[41.555246,39.072072],[41.554842,39.072345],[41.554421,39.072604],[41.553983,39.072846],[41.5535,39.073088],[41.553004,39.073316],[41.552499,39.073535],[41.550952,39.074163],[41.547814,39.075392],[41.546767,39.075794],[41.545722,39.076171],[41.545202,39.07634],[41.544686,39.076487],[41.544176,39.076603],[41.543673,39.076674],[41.543183,39.076684],[41.542725,39.076621],[41.542288,39.076495],[41.541877,39.076319],[41.5415,39.0761],[41.54117,39.075841],[41.540901,39.075542],[41.540717,39.07523],[41.540582,39.074891],[41.540478,39.074533],[41.540205,39.073413],[41.54009,39.073039],[41.539948,39.072671],[41.539769,39.072315],[41.539558,39.071967],[41.539321,39.071627],[41.539061,39.071295],[41.538761,39.070945],[41.538444,39.070602],[41.537778,39.069929],[41.536738,39.068939],[41.534622,39.066979],[41.533572,39.065992],[41.53254,39.064984],[41.531876,39.0643],[41.531556,39.063952],[41.531237,39.063587],[41.530625,39.062845],[41.530423,39.062588],[41.530032,39.062092],[41.529166,39.060951],[41.52856,39.060117],[41.524402,39.060581],[41.515706,39.061924],[41.513962,39.062663],[41.502184,39.063992],[41.48943,39.065705],[41.4841,39.066847],[41.470394,39.067989],[41.454309,39.066942],[41.441079,39.064753],[41.431942,39.06285],[41.424138,39.062278],[41.415191,39.062088],[41.395299,39.060565],[41.384734,39.06028],[41.369505,39.058281],[41.359511,39.057805],[41.347804,39.056758],[41.335241,39.056663],[41.328483,39.057329],[41.322392,39.057329],[41.314587,39.055997],[41.304213,39.055711],[41.29498,39.056663],[41.286742,39.057452],[41.287044,39.058284],[41.286283,39.063233],[41.283618,39.070372],[41.279811,39.07494],[41.274576,39.079604],[41.269151,39.08284],[41.265344,39.086076],[41.262869,39.089407],[41.261251,39.091406],[41.258586,39.09331],[41.252971,39.096546],[41.244595,39.100448],[41.241835,39.102161],[41.23955,39.103684],[41.237171,39.107111],[41.234601,39.11206],[41.230889,39.118246],[41.227653,39.122625],[41.219944,39.132333],[41.216517,39.137758],[41.21528,39.140137],[41.21271,39.144801],[41.206714,39.150702],[41.197767,39.158507],[41.187964,39.164503],[41.181872,39.167549],[41.178351,39.17088],[41.174544,39.176305],[41.17283,39.181255],[41.17283,39.19201],[41.175591,39.200861],[41.176542,39.206667],[41.176542,39.212188],[41.175591,39.219897],[41.175305,39.223228],[41.175305,39.226084],[41.175971,39.234269],[41.176162,39.236363],[41.176447,39.23998],[41.175781,39.24274],[41.174544,39.246832],[41.173497,39.252734],[41.171498,39.256921],[41.17007,39.259967],[41.168071,39.263013],[41.164264,39.268819],[41.159981,39.273578],[41.155413,39.278622],[41.152843,39.282334],[41.150463,39.288235],[41.149607,39.294612],[41.149512,39.299752],[41.149512,39.305843],[41.150463,39.311935],[41.150368,39.31479],[41.149131,39.317169],[41.148369,39.32012],[41.147894,39.322309],[41.147608,39.327544],[41.147703,39.335444],[41.14856,39.339156],[41.149607,39.342011],[41.150559,39.343915],[41.151891,39.347246],[41.153033,39.349816],[41.153224,39.352576],[41.153033,39.356859],[41.152557,39.359429],[41.152843,39.361998],[41.154746,39.367043],[41.156555,39.370089],[41.160933,39.373801],[41.164835,39.376656],[41.169023,39.37875],[41.17264,39.380558],[41.17778,39.377893],[41.186917,39.373039],[41.199575,39.365044],[41.217755,39.350577],[41.225083,39.345818],[41.233078,39.341154],[41.242501,39.339156],[41.249639,39.338109],[41.258015,39.337442],[41.266105,39.337347],[41.277717,39.337347],[41.283523,39.338013],[41.2899,39.338109],[41.296086,39.338204],[41.303796,39.338489],[41.310649,39.338489],[41.317502,39.33906],[41.321118,39.339251],[41.33016,39.338585],[41.337108,39.337728],[41.354145,39.334587],[41.367851,39.331827],[41.381366,39.330304],[41.382345,39.330242]]]}}]}