{"type":"FeatureCollection","province":"Nevşehir","province_id":"TR-P-50","features":[{"type":"Feature","properties":{"id":"TR-D-50-001","parent_id":"TR-P-50","region_id":"TR-R-ICA","level":"district","municipality_type":null,"municipality_type_label":null,"is_metropolitan_municipality":null,"name":"Acıgöl","name_ascii":"acigol","slug":"acigol-nevsehir"},"geometry":{"type":"Polygon","coordinates":[[[34.501666,38.349655],[34.497578,38.351884],[34.490795,38.357087],[34.485128,38.362197],[34.483084,38.364055],[34.478355,38.369214],[34.465144,38.374799],[34.461385,38.376087],[34.459761,38.377188],[34.453881,38.381135],[34.448162,38.385002],[34.438979,38.39064],[34.43044,38.397084],[34.426091,38.400226],[34.416263,38.406911],[34.407886,38.413356],[34.402811,38.419316],[34.396609,38.430191],[34.394595,38.436957],[34.394595,38.444851],[34.394837,38.45057],[34.395481,38.456047],[34.397253,38.461847],[34.4012,38.470869],[34.405309,38.47836],[34.406114,38.479971],[34.408289,38.483999],[34.416344,38.496645],[34.418761,38.499948],[34.421741,38.503733],[34.427541,38.508889],[34.432776,38.512997],[34.437046,38.516622],[34.439704,38.518555],[34.443812,38.522905],[34.444013,38.523447],[34.444617,38.525079],[34.445664,38.527657],[34.446067,38.530315],[34.446487,38.53397],[34.446873,38.537323],[34.447034,38.543848],[34.446389,38.548278],[34.443329,38.552144],[34.43914,38.555769],[34.435676,38.557461],[34.430601,38.559958],[34.427299,38.560441],[34.421096,38.561166],[34.410222,38.562455],[34.408772,38.562697],[34.406195,38.563502],[34.4041,38.565355],[34.401764,38.568174],[34.399187,38.572121],[34.397576,38.574215],[34.394193,38.577035],[34.389923,38.580418],[34.387024,38.583479],[34.38356,38.586379],[34.380418,38.587667],[34.377599,38.58807],[34.373088,38.588151],[34.369302,38.588151],[34.367047,38.588151],[34.365516,38.588473],[34.368166,38.592668],[34.373084,38.598251],[34.377338,38.602106],[34.38425,38.60955],[34.388504,38.613272],[34.395682,38.618855],[34.401281,38.624039],[34.407064,38.63022],[34.412347,38.634507],[34.417531,38.64009],[34.420921,38.642283],[34.424809,38.644376],[34.4277,38.646869],[34.428398,38.649162],[34.426504,38.651953],[34.421918,38.655642],[34.416235,38.657436],[34.409955,38.658334],[34.400882,38.659032],[34.391611,38.660826],[34.381442,38.663219],[34.376956,38.664515],[34.374862,38.66611],[34.372569,38.669898],[34.372968,38.673088],[34.37546,38.678472],[34.378152,38.681164],[34.379947,38.684753],[34.380744,38.68874],[34.38214,38.691432],[34.384931,38.693027],[34.389816,38.693227],[34.396795,38.691632],[34.398988,38.690535],[34.407151,38.688516],[34.415002,38.687619],[34.420161,38.687694],[34.425694,38.688142],[34.434442,38.689638],[34.443639,38.693002],[34.450667,38.697339],[34.452444,38.697824],[34.454593,38.691069],[34.458636,38.68231],[34.463605,38.675067],[34.466468,38.671109],[34.4695,38.668582],[34.477417,38.662939],[34.481039,38.662013],[34.486429,38.660497],[34.491567,38.658896],[34.505379,38.649969],[34.516244,38.641799],[34.525003,38.636072],[34.531235,38.631861],[34.53511,38.62866],[34.543448,38.621333],[34.545216,38.619817],[34.548417,38.615101],[34.550186,38.610721],[34.553976,38.607099],[34.55507,38.606089],[34.560798,38.602467],[34.568715,38.598677],[34.575621,38.595477],[34.585138,38.589328],[34.591202,38.584359],[34.600551,38.574926],[34.603667,38.571642],[34.606194,38.567009],[34.60771,38.562461],[34.609563,38.557324],[34.613437,38.5393],[34.613605,38.534752],[34.612763,38.531973],[34.611921,38.531046],[34.606194,38.526414],[34.599877,38.52094],[34.593897,38.516307],[34.589686,38.50957],[34.587328,38.503253],[34.587328,38.497526],[34.587496,38.494325],[34.587496,38.48944],[34.587412,38.486156],[34.587075,38.480934],[34.586907,38.475459],[34.585812,38.469732],[34.586233,38.461731],[34.587412,38.457436],[34.589074,38.454641],[34.58237,38.454552],[34.578258,38.454373],[34.575487,38.452943],[34.570214,38.449636],[34.565744,38.444987],[34.560292,38.438552],[34.555554,38.432652],[34.550102,38.424429],[34.545007,38.415311],[34.540359,38.408161],[34.536605,38.403244],[34.534996,38.401635],[34.528917,38.398507],[34.52266,38.395378],[34.519174,38.393412],[34.514616,38.386887],[34.512113,38.382686],[34.510325,38.377054],[34.505588,38.361859],[34.501666,38.349655]]]}},{"type":"Feature","properties":{"id":"TR-D-50-002","parent_id":"TR-P-50","region_id":"TR-R-ICA","level":"district","municipality_type":null,"municipality_type_label":null,"is_metropolitan_municipality":null,"name":"Avanos","name_ascii":"avanos","slug":"avanos-nevsehir"},"geometry":{"type":"Polygon","coordinates":[[[35.059723,39.010815],[35.060785,39.009554],[35.062212,39.00789],[35.063173,39.006701],[35.063373,39.005706],[35.063306,39.004777],[35.062973,39.003484],[35.061636,39.001349],[35.060575,38.999226],[35.060132,38.996218],[35.060044,38.99374],[35.060486,38.990909],[35.062079,38.984805],[35.06556,38.972542],[35.065575,38.972332],[35.06559,38.972122],[35.065108,38.968991],[35.062539,38.964495],[35.061415,38.961524],[35.060933,38.959115],[35.060612,38.953816],[35.059247,38.950846],[35.055715,38.947233],[35.049291,38.943941],[35.042467,38.940408],[35.03765,38.937839],[35.032591,38.934226],[35.029621,38.931898],[35.028256,38.92989],[35.027533,38.927723],[35.027051,38.925635],[35.025847,38.923788],[35.023679,38.922745],[35.019585,38.919051],[35.016855,38.91584],[35.014446,38.91303],[35.013723,38.911906],[35.012519,38.903475],[35.011556,38.89649],[35.01003,38.891994],[35.008665,38.890067],[35.00449,38.887016],[34.999432,38.883002],[34.996783,38.880192],[34.993972,38.87706],[34.992045,38.874491],[34.990921,38.870798],[34.989958,38.867345],[34.988754,38.865418],[34.985783,38.861565],[34.983294,38.856988],[34.98209,38.851448],[34.98209,38.845748],[34.982331,38.839244],[34.982491,38.831697],[34.981929,38.824551],[34.981688,38.817887],[34.981929,38.812187],[34.984017,38.809297],[34.986425,38.805603],[34.988834,38.800063],[34.99317,38.789626],[34.999191,38.784728],[35.000958,38.782319],[35.00302,38.779111],[35.009237,38.774116],[35.011684,38.772077],[35.0133,38.770655],[35.019329,38.76535],[35.023916,38.761374],[35.029012,38.758215],[35.033497,38.756991],[35.039001,38.755768],[35.042365,38.753832],[35.050316,38.749245],[35.053782,38.746798],[35.057043,38.742109],[35.058572,38.737115],[35.055205,38.737776],[35.047909,38.738453],[35.035723,38.738829],[35.025395,38.738646],[35.017546,38.738897],[35.005364,38.739085],[34.996447,38.739713],[34.993119,38.740592],[34.986722,38.743355],[34.985026,38.744627],[34.980364,38.747547],[34.974289,38.749901],[34.96713,38.753857],[34.961997,38.756683],[34.95983,38.758143],[34.956888,38.760536],[34.955113,38.762417],[34.954573,38.762988],[34.950128,38.763782],[34.946689,38.764258],[34.942085,38.764258],[34.938858,38.76357],[34.937399,38.763232],[34.933241,38.762978],[34.928932,38.762573],[34.925281,38.762268],[34.921884,38.761052],[34.919298,38.760342],[34.917473,38.759125],[34.915546,38.757097],[34.913416,38.755119],[34.909968,38.752736],[34.907788,38.750252],[34.907078,38.747716],[34.907129,38.745891],[34.908599,38.740415],[34.910019,38.736663],[34.911794,38.73215],[34.912706,38.729108],[34.914177,38.725204],[34.915242,38.721198],[34.916458,38.716737],[34.91656,38.713035],[34.916966,38.708624],[34.916813,38.707306],[34.914988,38.699092],[34.91372,38.693109],[34.91083,38.687633],[34.909005,38.684692],[34.908549,38.68383],[34.90505,38.678405],[34.901045,38.674247],[34.897343,38.670799],[34.893642,38.66867],[34.888876,38.666337],[34.884414,38.664512],[34.880611,38.662991],[34.877873,38.661723],[34.871991,38.658478],[34.869643,38.657304],[34.8617,38.652402],[34.858784,38.653449],[34.854971,38.654047],[34.849438,38.655318],[34.842559,38.657935],[34.834111,38.662201],[34.82968,38.665711],[34.82138,38.670272],[34.812931,38.675132],[34.801716,38.682684],[34.794986,38.687694],[34.784892,38.694797],[34.781004,38.698685],[34.776967,38.701751],[34.771658,38.705414],[34.766798,38.707433],[34.758723,38.708779],[34.756704,38.709302],[34.7499,38.710499],[34.743544,38.711396],[34.741151,38.711695],[34.733375,38.712443],[34.727693,38.712293],[34.721487,38.712368],[34.717748,38.712966],[34.711692,38.712592],[34.710921,38.712655],[34.709791,38.714851],[34.706965,38.723642],[34.705521,38.728979],[34.70483,38.732433],[34.704014,38.736766],[34.7037,38.740596],[34.703826,38.745117],[34.704956,38.749701],[34.708661,38.758178],[34.711424,38.765587],[34.714877,38.772683],[34.714877,38.774315],[34.716887,38.781787],[34.718356,38.785809],[34.720596,38.78902],[34.721622,38.797727],[34.72158,38.79837],[34.721324,38.802314],[34.721236,38.804066],[34.72122,38.804941],[34.721225,38.805359],[34.721262,38.806193],[34.721295,38.806608],[34.72134,38.80702],[34.721398,38.807429],[34.721474,38.807834],[34.721571,38.808233],[34.721824,38.809051],[34.721908,38.809324],[34.721986,38.809651],[34.722045,38.809983],[34.722087,38.810317],[34.722113,38.810654],[34.722123,38.811069],[34.722115,38.811486],[34.722061,38.812324],[34.721929,38.813586],[34.721841,38.814284],[34.721769,38.81485],[34.72165,38.815692],[34.721516,38.816532],[34.721439,38.816951],[34.72135,38.817385],[34.721153,38.818252],[34.720719,38.819979],[34.720466,38.820923],[34.720257,38.821702],[34.72016,38.822036],[34.720008,38.82256],[34.719875,38.822986],[34.719577,38.823842],[34.71924,38.824697],[34.718884,38.825547],[34.717972,38.827669],[34.717447,38.828947],[34.717135,38.829805],[34.716999,38.830237],[34.716884,38.830664],[34.716784,38.831092],[34.716695,38.831523],[34.716538,38.832389],[34.716329,38.833692],[34.715733,38.837636],[34.715612,38.838439],[34.715359,38.839991],[34.715289,38.84042],[34.715051,38.841647],[34.714652,38.843388],[34.714461,38.844174],[34.713569,38.847847],[34.712724,38.851319],[34.712539,38.85208],[34.712318,38.852947],[34.712078,38.85381],[34.711945,38.854238],[34.711799,38.854664],[34.71166,38.855025],[34.71151,38.855384],[34.711179,38.856092],[34.710998,38.856442],[34.710773,38.856843],[34.710536,38.85724],[34.71004,38.858027],[34.709527,38.858809],[34.706065,38.863974],[34.703341,38.864584],[34.699462,38.864881],[34.703633,38.868813],[34.704354,38.870127],[34.70499,38.871399],[34.705414,38.872714],[34.705796,38.873731],[34.70588,38.87424],[34.706008,38.874537],[34.706559,38.874961],[34.707492,38.875385],[34.708509,38.876445],[34.708933,38.87742],[34.709442,38.878777],[34.710205,38.881066],[34.710968,38.883144],[34.711732,38.886875],[34.711816,38.891497],[34.712368,38.893702],[34.712876,38.895186],[34.71347,38.896839],[34.713724,38.897518],[34.71453,38.898408],[34.715675,38.899765],[34.716608,38.900952],[34.718049,38.902224],[34.720233,38.903651],[34.725434,38.907213],[34.732218,38.913658],[34.73674,38.919311],[34.740472,38.924003],[34.743129,38.927169],[34.746012,38.929656],[34.749686,38.933557],[34.757601,38.941415],[34.761785,38.944694],[34.767551,38.950461],[34.772526,38.955831],[34.778123,38.961937],[34.783606,38.966742],[34.787846,38.971039],[34.789712,38.973526],[34.791069,38.976296],[34.792256,38.98014],[34.793895,38.984437],[34.794743,38.989525],[34.795648,38.994387],[34.79593,38.996591],[34.796891,39.000888],[34.797853,39.007276],[34.798248,39.01259],[34.797909,39.0196],[34.799294,39.024142],[34.800349,39.029117],[34.802158,39.037634],[34.805437,39.042459],[34.815789,39.049996],[34.82604,39.055926],[34.831669,39.05874],[34.842221,39.066479],[34.849257,39.072207],[34.860815,39.081856],[34.867247,39.084067],[34.878704,39.085976],[34.894182,39.087484],[34.91589,39.089393],[34.923428,39.089996],[34.942222,39.090398],[34.951066,39.089594],[34.959709,39.087785],[34.972775,39.085072],[34.980011,39.083363],[34.98726,39.082509],[34.997134,39.082886],[35.005124,39.082961],[35.006938,39.083477],[35.007438,39.082939],[35.008632,39.082408],[35.010291,39.081612],[35.011486,39.080418],[35.012813,39.079555],[35.01487,39.078626],[35.016926,39.077764],[35.017988,39.077166],[35.018585,39.076105],[35.018851,39.074645],[35.018917,39.073451],[35.018121,39.072323],[35.017656,39.071062],[35.017789,39.069801],[35.018054,39.068673],[35.018784,39.067944],[35.019912,39.067346],[35.02177,39.066948],[35.023296,39.066816],[35.025021,39.067015],[35.026813,39.067546],[35.028073,39.067877],[35.029666,39.067877],[35.031922,39.066816],[35.034244,39.065024],[35.036102,39.062702],[35.038292,39.059915],[35.041145,39.055138],[35.042273,39.052351],[35.043202,39.05056],[35.044197,39.048038],[35.044595,39.046711],[35.044595,39.045318],[35.044263,39.043128],[35.043865,39.040806],[35.043666,39.039147],[35.0436,39.038019],[35.043732,39.036758],[35.044064,39.035564],[35.044396,39.033706],[35.044595,39.032246],[35.044661,39.031119],[35.044529,39.030322],[35.044131,39.02946],[35.043533,39.028265],[35.043401,39.027403],[35.043732,39.026142],[35.045192,39.023422],[35.046586,39.021099],[35.047979,39.019109],[35.049638,39.017384],[35.051097,39.016388],[35.052093,39.015858],[35.054017,39.015128],[35.055875,39.014332],[35.056737,39.013668],[35.059723,39.010815]]]}},{"type":"Feature","properties":{"id":"TR-D-50-003","parent_id":"TR-P-50","region_id":"TR-R-ICA","level":"district","municipality_type":null,"municipality_type_label":null,"is_metropolitan_municipality":null,"name":"Derinkuyu","name_ascii":"derinkuyu","slug":"derinkuyu-nevsehir"},"geometry":{"type":"Polygon","coordinates":[[[34.501666,38.349655],[34.505588,38.361859],[34.510325,38.377054],[34.512113,38.382686],[34.514616,38.386887],[34.519174,38.393412],[34.52266,38.395378],[34.528917,38.398507],[34.534996,38.401635],[34.536605,38.403244],[34.540359,38.408161],[34.545007,38.415311],[34.550102,38.424429],[34.555554,38.432652],[34.560292,38.438552],[34.565744,38.444987],[34.570214,38.449636],[34.575487,38.452943],[34.578258,38.454373],[34.58237,38.454552],[34.589074,38.454641],[34.592649,38.454999],[34.603108,38.452585],[34.610705,38.452138],[34.619376,38.451602],[34.62456,38.452138],[34.628046,38.452138],[34.630728,38.453032],[34.634482,38.455714],[34.637879,38.456697],[34.641633,38.457323],[34.645476,38.459289],[34.650661,38.46349],[34.653789,38.470284],[34.65808,38.478239],[34.661566,38.484943],[34.665677,38.489233],[34.669074,38.490664],[34.67256,38.490485],[34.680069,38.489323],[34.686057,38.488876],[34.691152,38.488161],[34.696337,38.487267],[34.702773,38.480652],[34.706795,38.473859],[34.709655,38.467334],[34.71037,38.465099],[34.714214,38.4592],[34.716985,38.455982],[34.723868,38.448742],[34.730393,38.444183],[34.731465,38.443647],[34.739632,38.440558],[34.743361,38.439759],[34.749932,38.438604],[34.757479,38.436473],[34.760764,38.436296],[34.76769,38.436473],[34.774438,38.436562],[34.780298,38.438604],[34.78456,38.440824],[34.786514,38.443133],[34.785141,38.453936],[34.782022,38.464558],[34.776858,38.476642],[34.772862,38.489992],[34.772862,38.491746],[34.773825,38.496473],[34.775506,38.502977],[34.779014,38.50992],[34.782083,38.514598],[34.789246,38.520079],[34.7929,38.521395],[34.80664,38.521614],[34.813218,38.521176],[34.817034,38.520975],[34.817384,38.520956],[34.824985,38.521322],[34.834998,38.520006],[34.83819,38.519671],[34.850088,38.519937],[34.853019,38.519493],[34.857813,38.518428],[34.864029,38.516652],[34.868024,38.51461],[34.868735,38.513811],[34.868823,38.511857],[34.86909,38.507329],[34.867935,38.501291],[34.865627,38.4933],[34.862164,38.485309],[34.856037,38.481402],[34.844939,38.47936],[34.83748,38.47785],[34.83233,38.476163],[34.822652,38.475808],[34.814661,38.475009],[34.813684,38.474565],[34.811908,38.47128],[34.810754,38.465064],[34.810044,38.46098],[34.810044,38.458938],[34.810754,38.457694],[34.813329,38.455119],[34.8191,38.453077],[34.829755,38.448638],[34.838013,38.446152],[34.854883,38.442511],[34.859056,38.441623],[34.860122,38.441179],[34.863141,38.438338],[34.865183,38.435763],[34.871576,38.427949],[34.878768,38.422089],[34.882852,38.418981],[34.889867,38.415696],[34.894484,38.413654],[34.897941,38.41211],[34.897482,38.407519],[34.897482,38.40362],[34.897635,38.399798],[34.897635,38.397734],[34.896794,38.391771],[34.895877,38.383973],[34.894959,38.379539],[34.894654,38.375487],[34.898017,38.368301],[34.902146,38.360885],[34.903904,38.356222],[34.905202,38.353255],[34.902415,38.353534],[34.899279,38.353534],[34.893844,38.353603],[34.889384,38.353882],[34.884576,38.353743],[34.878793,38.353603],[34.871128,38.353534],[34.867156,38.353324],[34.857331,38.353534],[34.849875,38.352697],[34.841304,38.351722],[34.834615,38.351095],[34.830225,38.349631],[34.827577,38.348307],[34.823814,38.345869],[34.820191,38.343639],[34.811759,38.339876],[34.806812,38.338134],[34.80068,38.336253],[34.793782,38.336113],[34.78312,38.336113],[34.771902,38.337298],[34.762843,38.337576],[34.755457,38.337786],[34.744169,38.338204],[34.742287,38.338482],[34.738315,38.339597],[34.734901,38.340503],[34.730372,38.340921],[34.727863,38.340782],[34.711906,38.339528],[34.70891,38.339319],[34.699991,38.337855],[34.690793,38.33465],[34.677832,38.329563],[34.659889,38.323176],[34.654965,38.319181],[34.643444,38.313978],[34.625792,38.310076],[34.601542,38.312398],[34.583147,38.313792],[34.571068,38.313978],[34.564193,38.315557],[34.554995,38.316579],[34.544311,38.319274],[34.534648,38.32364],[34.52926,38.326427],[34.526565,38.331073],[34.522756,38.335625],[34.518575,38.338691],[34.513094,38.341943],[34.501666,38.349655]]]}},{"type":"Feature","properties":{"id":"TR-D-50-004","parent_id":"TR-P-50","region_id":"TR-R-ICA","level":"district","municipality_type":null,"municipality_type_label":null,"is_metropolitan_municipality":null,"name":"Gülşehir","name_ascii":"gulsehir","slug":"gulsehir-nevsehir"},"geometry":{"type":"Polygon","coordinates":[[[34.452444,38.697824],[34.450667,38.697339],[34.443639,38.693002],[34.434442,38.689638],[34.425694,38.688142],[34.420161,38.687694],[34.415002,38.687619],[34.407151,38.688516],[34.398988,38.690535],[34.396795,38.691632],[34.389816,38.693227],[34.384931,38.693027],[34.38214,38.691432],[34.380744,38.68874],[34.379947,38.684753],[34.378152,38.681164],[34.37546,38.678472],[34.372968,38.673088],[34.372569,38.669898],[34.374862,38.66611],[34.376956,38.664515],[34.381442,38.663219],[34.391611,38.660826],[34.400882,38.659032],[34.409955,38.658334],[34.416235,38.657436],[34.421918,38.655642],[34.426504,38.651953],[34.428398,38.649162],[34.4277,38.646869],[34.424809,38.644376],[34.420921,38.642283],[34.417531,38.64009],[34.412347,38.634507],[34.407064,38.63022],[34.401281,38.624039],[34.395682,38.618855],[34.388504,38.613272],[34.38425,38.60955],[34.377338,38.602106],[34.373084,38.598251],[34.368166,38.592668],[34.365516,38.588473],[34.362617,38.589842],[34.359797,38.591614],[34.35875,38.592581],[34.356092,38.593709],[34.352387,38.594031],[34.346587,38.594756],[34.338371,38.595964],[34.331121,38.597495],[34.322744,38.599911],[34.311064,38.603294],[34.307681,38.604341],[34.298901,38.607644],[34.294551,38.610705],[34.290524,38.613363],[34.285368,38.615216],[34.280294,38.617954],[34.267567,38.624962],[34.259431,38.629795],[34.257981,38.631326],[34.25194,38.639945],[34.250973,38.643972],[34.249604,38.650497],[34.249201,38.655088],[34.250168,38.66411],[34.251054,38.671601],[34.251617,38.674855],[34.251779,38.67579],[34.253873,38.68159],[34.256773,38.689645],[34.261042,38.70068],[34.263136,38.705272],[34.265714,38.710749],[34.270386,38.722509],[34.271675,38.727342],[34.271997,38.731692],[34.271514,38.736445],[34.271272,38.743936],[34.271433,38.745789],[34.270547,38.748447],[34.2695,38.752958],[34.269178,38.756502],[34.2695,38.758516],[34.271675,38.762704],[34.275622,38.766732],[34.279166,38.772531],[34.281905,38.77672],[34.283919,38.785661],[34.283435,38.790414],[34.275541,38.799677],[34.256934,38.81627],[34.250893,38.824003],[34.241629,38.833025],[34.244331,38.835105],[34.246903,38.838423],[34.250886,38.844314],[34.252711,38.850453],[34.254536,38.858252],[34.254679,38.86052],[34.255887,38.865997],[34.255887,38.8722],[34.255323,38.876308],[34.253712,38.881463],[34.253712,38.884801],[34.253712,38.885723],[34.253712,38.887021],[34.255645,38.893626],[34.258464,38.898862],[34.262554,38.902707],[34.263179,38.903294],[34.265933,38.90137],[34.266788,38.900787],[34.267656,38.900227],[34.268099,38.899964],[34.268551,38.899718],[34.269017,38.899496],[34.269502,38.899309],[34.269985,38.899169],[34.270485,38.899063],[34.270999,38.898983],[34.271521,38.898927],[34.27205,38.898891],[34.272577,38.898875],[34.273107,38.898874],[34.273639,38.898884],[34.274708,38.898926],[34.275777,38.898987],[34.278487,38.899184],[34.27903,38.899215],[34.279572,38.899233],[34.280111,38.899233],[34.280646,38.899207],[34.28115,38.899153],[34.281652,38.899075],[34.28215,38.898979],[34.282647,38.89887],[34.283142,38.89875],[34.283636,38.898623],[34.284622,38.898355],[34.286104,38.897927],[34.289091,38.897021],[34.291073,38.896401],[34.292073,38.896073],[34.293083,38.895728],[34.297615,38.894141],[34.298619,38.893784],[34.299322,38.893526],[34.299617,38.893418],[34.300599,38.893032],[34.30108,38.892827],[34.301549,38.892609],[34.301991,38.892382],[34.30242,38.892142],[34.302838,38.891891],[34.303245,38.89163],[34.30364,38.891359],[34.30402,38.891077],[34.304383,38.890783],[34.304722,38.890474],[34.305047,38.890133],[34.305347,38.889778],[34.305631,38.889411],[34.305901,38.889037],[34.306419,38.888273],[34.307165,38.887108],[34.308633,38.884766],[34.308982,38.884218],[34.309375,38.8836],[34.309882,38.88283],[34.310412,38.882075],[34.310693,38.881706],[34.310989,38.881347],[34.311307,38.881],[34.31166,38.880659],[34.312035,38.880332],[34.312426,38.880014],[34.31324,38.879397],[34.3145,38.878495],[34.319177,38.87522],[34.326805,38.869847],[34.328952,38.868365],[34.333288,38.86542],[34.333833,38.865055],[34.334596,38.864543],[34.335475,38.863965],[34.336367,38.8634],[34.337218,38.86289],[34.338083,38.862395],[34.338959,38.861914],[34.339847,38.861448],[34.341088,38.860819],[34.341494,38.860603],[34.341889,38.860379],[34.34227,38.860141],[34.342683,38.85985],[34.343076,38.859542],[34.343455,38.85922],[34.343822,38.858888],[34.34418,38.858549],[34.344872,38.857852],[34.345206,38.857495],[34.345529,38.857132],[34.345826,38.85678],[34.346113,38.856423],[34.346664,38.855698],[34.347183,38.854961],[34.347427,38.854587],[34.347658,38.85421],[34.347871,38.853827],[34.348061,38.853438],[34.34823,38.853016],[34.348363,38.852621],[34.350027,38.852188],[34.352514,38.852794],[34.354642,38.85319],[34.360442,38.854639],[34.365033,38.857378],[34.369141,38.859553],[34.373491,38.863097],[34.376632,38.866883],[34.381788,38.873086],[34.385493,38.878805],[34.390084,38.887665],[34.392662,38.895157],[34.406202,38.884363],[34.421811,38.875153],[34.45178,38.860403],[34.462628,38.85455],[34.473319,38.852599],[34.491191,38.851116],[34.510312,38.850024],[34.528964,38.849087],[34.549489,38.848151],[34.575009,38.847526],[34.585311,38.847916],[34.592569,38.848229],[34.598735,38.849399],[34.607944,38.851038],[34.61286,38.853614],[34.618557,38.858608],[34.62363,38.864071],[34.629562,38.867817],[34.634634,38.870393],[34.64158,38.872032],[34.64915,38.873358],[34.659374,38.874607],[34.666788,38.874061],[34.673266,38.872188],[34.686143,38.869066],[34.693947,38.866413],[34.697286,38.86556],[34.699462,38.864881],[34.703341,38.864584],[34.706065,38.863974],[34.709527,38.858809],[34.71004,38.858027],[34.710536,38.85724],[34.710773,38.856843],[34.710998,38.856442],[34.711179,38.856092],[34.71151,38.855384],[34.71166,38.855025],[34.711799,38.854664],[34.711945,38.854238],[34.712078,38.85381],[34.712318,38.852947],[34.712539,38.85208],[34.712724,38.851319],[34.713569,38.847847],[34.714461,38.844174],[34.714652,38.843388],[34.715051,38.841647],[34.715289,38.84042],[34.715359,38.839991],[34.715612,38.838439],[34.715733,38.837636],[34.716329,38.833692],[34.716538,38.832389],[34.716695,38.831523],[34.716784,38.831092],[34.716884,38.830664],[34.716999,38.830237],[34.717135,38.829805],[34.717447,38.828947],[34.717972,38.827669],[34.718884,38.825547],[34.71924,38.824697],[34.719577,38.823842],[34.719875,38.822986],[34.720008,38.82256],[34.72016,38.822036],[34.720257,38.821702],[34.720466,38.820923],[34.720719,38.819979],[34.721153,38.818252],[34.72135,38.817385],[34.721439,38.816951],[34.721516,38.816532],[34.72165,38.815692],[34.721769,38.81485],[34.721841,38.814284],[34.721929,38.813586],[34.722061,38.812324],[34.722115,38.811486],[34.722123,38.811069],[34.722113,38.810654],[34.722087,38.810317],[34.722045,38.809983],[34.721986,38.809651],[34.721908,38.809324],[34.721824,38.809051],[34.721571,38.808233],[34.721474,38.807834],[34.721398,38.807429],[34.72134,38.80702],[34.721295,38.806608],[34.721262,38.806193],[34.721225,38.805359],[34.72122,38.804941],[34.721236,38.804066],[34.721324,38.802314],[34.72158,38.79837],[34.721622,38.797727],[34.720596,38.78902],[34.718356,38.785809],[34.716887,38.781787],[34.714877,38.774315],[34.714877,38.772683],[34.711424,38.765587],[34.708661,38.758178],[34.704956,38.749701],[34.703826,38.745117],[34.7037,38.740596],[34.704014,38.736766],[34.70483,38.732433],[34.705521,38.728979],[34.706965,38.723642],[34.709791,38.714851],[34.710921,38.712655],[34.708925,38.712817],[34.69913,38.711396],[34.690008,38.709452],[34.681335,38.707433],[34.674531,38.704667],[34.670942,38.703246],[34.659128,38.699059],[34.654343,38.697489],[34.652847,38.696816],[34.648884,38.694498],[34.644622,38.691208],[34.636846,38.686722],[34.631687,38.684927],[34.626304,38.682086],[34.62264,38.677226],[34.617855,38.673113],[34.613892,38.670795],[34.607985,38.668478],[34.602826,38.667655],[34.599087,38.666833],[34.587722,38.666683],[34.580544,38.667057],[34.574039,38.668403],[34.563571,38.673861],[34.557066,38.678123],[34.550486,38.682609],[34.543832,38.685675],[34.539121,38.686572],[34.535308,38.687544],[34.529251,38.690834],[34.524242,38.693152],[34.51826,38.695021],[34.511007,38.696143],[34.507942,38.696442],[34.501661,38.696143],[34.496352,38.696068],[34.486856,38.69547],[34.473173,38.695545],[34.466369,38.696442],[34.461434,38.69719],[34.457322,38.697713],[34.453135,38.698012],[34.452444,38.697824]]]}},{"type":"Feature","properties":{"id":"TR-D-50-005","parent_id":"TR-P-50","region_id":"TR-R-ICA","level":"district","municipality_type":null,"municipality_type_label":null,"is_metropolitan_municipality":null,"name":"Hacıbektaş","name_ascii":"hacibektas","slug":"hacibektas-nevsehir"},"geometry":{"type":"Polygon","coordinates":[[[34.699462,38.864881],[34.697286,38.86556],[34.693947,38.866413],[34.686143,38.869066],[34.673266,38.872188],[34.666788,38.874061],[34.659374,38.874607],[34.64915,38.873358],[34.64158,38.872032],[34.634634,38.870393],[34.629562,38.867817],[34.62363,38.864071],[34.618557,38.858608],[34.61286,38.853614],[34.607944,38.851038],[34.598735,38.849399],[34.592569,38.848229],[34.585311,38.847916],[34.575009,38.847526],[34.549489,38.848151],[34.528964,38.849087],[34.510312,38.850024],[34.491191,38.851116],[34.473319,38.852599],[34.462628,38.85455],[34.45178,38.860403],[34.421811,38.875153],[34.406202,38.884363],[34.392662,38.895157],[34.393548,38.896687],[34.396529,38.900151],[34.4012,38.906756],[34.404261,38.910058],[34.406597,38.913039],[34.410061,38.918436],[34.413122,38.924396],[34.41425,38.927699],[34.417069,38.935835],[34.419969,38.942037],[34.42303,38.949126],[34.424157,38.953717],[34.425688,38.959758],[34.427379,38.963141],[34.429877,38.968377],[34.434548,38.974096],[34.437609,38.976916],[34.443006,38.980701],[34.448967,38.983037],[34.453075,38.983521],[34.458311,38.984487],[34.463466,38.98634],[34.46991,38.989723],[34.478368,38.995201],[34.491095,39.005108],[34.500681,39.011713],[34.505755,39.015741],[34.510588,39.024763],[34.514213,39.030562],[34.516308,39.034348],[34.51808,39.04039],[34.519046,39.046834],[34.520738,39.049814],[34.522107,39.051264],[34.529518,39.052794],[34.534351,39.052714],[34.543292,39.050781],[34.5474,39.049814],[34.558113,39.047317],[34.566007,39.044095],[34.574787,39.039826],[34.580668,39.037973],[34.585501,39.037087],[34.58977,39.037892],[34.593233,39.039423],[34.595408,39.042323],[34.596214,39.046995],[34.596858,39.055211],[34.595328,39.062219],[34.595086,39.066407],[34.593636,39.071482],[34.591703,39.075912],[34.588964,39.078007],[34.585259,39.07841],[34.580345,39.07696],[34.577043,39.075429],[34.573821,39.073818],[34.571082,39.071402],[34.565766,39.068743],[34.562221,39.06826],[34.558838,39.068663],[34.551267,39.070274],[34.545789,39.071804],[34.543614,39.072771],[34.542889,39.074463],[34.543722,39.077013],[34.545494,39.081685],[34.549602,39.08966],[34.552421,39.095862],[34.55516,39.103676],[34.558543,39.112617],[34.563376,39.125183],[34.567726,39.130016],[34.572881,39.135171],[34.576506,39.138393],[34.580856,39.139843],[34.588508,39.142179],[34.595999,39.144676],[34.605101,39.147576],[34.612351,39.150395],[34.621211,39.154906],[34.624756,39.157564],[34.627736,39.162075],[34.629186,39.168358],[34.629508,39.169888],[34.636781,39.169006],[34.644916,39.168321],[34.653651,39.167293],[34.660416,39.166865],[34.669921,39.164981],[34.671291,39.163868],[34.677628,39.158987],[34.686704,39.152821],[34.696809,39.145114],[34.701176,39.141261],[34.707085,39.13364],[34.711709,39.126533],[34.714877,39.120281],[34.717189,39.115572],[34.718474,39.111975],[34.724125,39.100758],[34.72755,39.093051],[34.730548,39.086372],[34.736713,39.076695],[34.739796,39.069759],[34.74519,39.064364],[34.75401,39.063337],[34.766341,39.064107],[34.777816,39.065649],[34.787749,39.06719],[34.794685,39.067361],[34.805989,39.067875],[34.811126,39.066762],[34.831669,39.05874],[34.82604,39.055926],[34.815789,39.049996],[34.805437,39.042459],[34.802158,39.037634],[34.800349,39.029117],[34.799294,39.024142],[34.797909,39.0196],[34.798248,39.01259],[34.797853,39.007276],[34.796891,39.000888],[34.79593,38.996591],[34.795648,38.994387],[34.794743,38.989525],[34.793895,38.984437],[34.792256,38.98014],[34.791069,38.976296],[34.789712,38.973526],[34.787846,38.971039],[34.783606,38.966742],[34.778123,38.961937],[34.772526,38.955831],[34.767551,38.950461],[34.761785,38.944694],[34.757601,38.941415],[34.749686,38.933557],[34.746012,38.929656],[34.743129,38.927169],[34.740472,38.924003],[34.73674,38.919311],[34.732218,38.913658],[34.725434,38.907213],[34.720233,38.903651],[34.718049,38.902224],[34.716608,38.900952],[34.715675,38.899765],[34.71453,38.898408],[34.713724,38.897518],[34.71347,38.896839],[34.712876,38.895186],[34.712368,38.893702],[34.711816,38.891497],[34.711732,38.886875],[34.710968,38.883144],[34.710205,38.881066],[34.709442,38.878777],[34.708933,38.87742],[34.708509,38.876445],[34.707492,38.875385],[34.706559,38.874961],[34.706008,38.874537],[34.70588,38.87424],[34.705796,38.873731],[34.705414,38.872714],[34.70499,38.871399],[34.704354,38.870127],[34.703633,38.868813],[34.699462,38.864881]]]}},{"type":"Feature","properties":{"id":"TR-D-50-006","parent_id":"TR-P-50","region_id":"TR-R-ICA","level":"district","municipality_type":null,"municipality_type_label":null,"is_metropolitan_municipality":null,"name":"Kozaklı","name_ascii":"kozakli","slug":"kozakli-nevsehir"},"geometry":{"type":"Polygon","coordinates":[[[34.599695,39.38631],[34.602703,39.393184],[34.606569,39.401669],[34.613443,39.410798],[34.615443,39.411415],[34.620757,39.411998],[34.620946,39.412018],[34.621323,39.41206],[34.627606,39.412382],[34.632359,39.413107],[34.637675,39.414154],[34.639931,39.413993],[34.643394,39.412946],[34.645972,39.411254],[34.651208,39.406421],[34.660068,39.396513],[34.665868,39.391117],[34.668848,39.389264],[34.675212,39.385397],[34.682945,39.382014],[34.688986,39.378712],[34.697444,39.374362],[34.703002,39.372268],[34.706063,39.37114],[34.710251,39.369046],[34.713232,39.366387],[34.714521,39.362924],[34.717904,39.357607],[34.72032,39.353258],[34.722817,39.350519],[34.725395,39.348102],[34.730228,39.346491],[34.737478,39.344075],[34.743438,39.343431],[34.748513,39.343431],[34.754393,39.342464],[34.760032,39.341417],[34.774773,39.338114],[34.782908,39.336262],[34.788627,39.33457],[34.792091,39.333039],[34.801354,39.329012],[34.80957,39.324501],[34.821814,39.318621],[34.826114,39.317112],[34.82626,39.317061],[34.826406,39.31701],[34.841388,39.311371],[34.851296,39.308713],[34.861284,39.307022],[34.87095,39.304766],[34.876186,39.303961],[34.882147,39.303236],[34.889477,39.302833],[34.894149,39.302591],[34.898176,39.302672],[34.903251,39.301786],[34.907842,39.300497],[34.912353,39.298322],[34.917428,39.294858],[34.920489,39.291475],[34.922019,39.289139],[34.923469,39.287287],[34.925644,39.282131],[34.927014,39.278184],[34.926289,39.275043],[34.925848,39.272272],[34.925818,39.272086],[34.925725,39.271499],[34.92653,39.266102],[34.926593,39.264966],[34.926664,39.263696],[34.926705,39.262957],[34.926772,39.261752],[34.926805,39.261568],[34.926982,39.260579],[34.926944,39.260225],[34.926947,39.257636],[34.927705,39.256545],[34.928037,39.256248],[34.928652,39.256237],[34.929137,39.256246],[34.929621,39.256273],[34.930184,39.256328],[34.930744,39.256405],[34.9313,39.2565],[34.931852,39.256611],[34.932397,39.256738],[34.932935,39.256883],[34.933462,39.257049],[34.933936,39.257224],[34.934399,39.257416],[34.934853,39.257624],[34.935298,39.257845],[34.935742,39.258083],[34.936178,39.258331],[34.936605,39.258589],[34.937024,39.258856],[34.937441,39.259136],[34.937849,39.259423],[34.938247,39.259719],[34.938636,39.260022],[34.94019,39.261327],[34.940583,39.261634],[34.940988,39.26192],[34.941412,39.262175],[34.941862,39.262388],[34.942277,39.262529],[34.942712,39.262633],[34.943162,39.262708],[34.943624,39.262756],[34.944094,39.26278],[34.944569,39.262779],[34.945059,39.262751],[34.94555,39.262699],[34.946039,39.262628],[34.946525,39.262537],[34.947012,39.262425],[34.947493,39.262295],[34.947964,39.262147],[34.948423,39.261981],[34.948878,39.26179],[34.949313,39.261579],[34.949727,39.261346],[34.950112,39.261089],[34.950425,39.260841],[34.950712,39.260575],[34.950974,39.260294],[34.95121,39.259998],[34.951417,39.259689],[34.951609,39.259337],[34.95177,39.258971],[34.951905,39.258597],[34.95202,39.258216],[34.952116,39.25783],[34.952196,39.257436],[34.952321,39.25664],[34.952505,39.255035],[34.952557,39.254634],[34.952623,39.254236],[34.952708,39.253841],[34.952827,39.253423],[34.95297,39.253008],[34.95313,39.252596],[34.953304,39.252186],[34.953676,39.25137],[34.95427,39.250155],[34.954685,39.24936],[34.9549,39.248972],[34.955124,39.248595],[34.95536,39.248233],[34.955614,39.247894],[34.95589,39.247584],[34.9562,39.247317],[34.956554,39.247105],[34.956943,39.246968],[34.957373,39.246881],[34.957833,39.246833],[34.958315,39.246811],[34.958813,39.246807],[34.960356,39.246826],[34.960875,39.246822],[34.961392,39.246802],[34.961904,39.246757],[34.962375,39.246687],[34.962841,39.246594],[34.9633,39.24648],[34.963754,39.246349],[34.964202,39.246203],[34.964643,39.246042],[34.965138,39.245841],[34.965626,39.245625],[34.966113,39.245397],[34.967307,39.242578],[34.968092,39.238771],[34.968412,39.236719],[34.9689,39.234606],[34.969157,39.231195],[34.969222,39.230337],[34.969253,39.229776],[34.969422,39.226702],[34.969517,39.224985],[34.969643,39.222697],[34.969705,39.221557],[34.967047,39.208347],[34.962939,39.196989],[34.958992,39.184907],[34.958106,39.183134],[34.955528,39.181443],[34.949487,39.177496],[34.941996,39.173227],[34.940385,39.172099],[34.937888,39.170166],[34.937163,39.168394],[34.937082,39.165816],[34.939096,39.163238],[34.941674,39.160258],[34.947151,39.154217],[34.951179,39.15027],[34.95577,39.146242],[34.96157,39.142134],[34.964067,39.141087],[34.969867,39.138912],[34.978083,39.135529],[34.983319,39.132307],[34.986029,39.131107],[34.992244,39.12766],[34.99994,39.122418],[35.005182,39.118172],[35.007305,39.116977],[35.010557,39.114257],[35.01122,39.113063],[35.010756,39.110807],[35.010756,39.109679],[35.010756,39.107954],[35.011287,39.1051],[35.011419,39.102115],[35.011552,39.099726],[35.011751,39.097802],[35.011087,39.09601],[35.010557,39.094352],[35.009827,39.092162],[35.008898,39.09057],[35.007704,39.088181],[35.006509,39.085991],[35.006377,39.084532],[35.006576,39.083868],[35.006938,39.083477],[35.005124,39.082961],[34.997134,39.082886],[34.98726,39.082509],[34.980011,39.083363],[34.972775,39.085072],[34.959709,39.087785],[34.951066,39.089594],[34.942222,39.090398],[34.923428,39.089996],[34.91589,39.089393],[34.894182,39.087484],[34.878704,39.085976],[34.867247,39.084067],[34.860815,39.081856],[34.849257,39.072207],[34.842221,39.066479],[34.831669,39.05874],[34.811126,39.066762],[34.805989,39.067875],[34.794685,39.067361],[34.787749,39.06719],[34.777816,39.065649],[34.766341,39.064107],[34.75401,39.063337],[34.74519,39.064364],[34.739796,39.069759],[34.736713,39.076695],[34.730548,39.086372],[34.72755,39.093051],[34.724125,39.100758],[34.718474,39.111975],[34.717189,39.115572],[34.714877,39.120281],[34.711709,39.126533],[34.707085,39.13364],[34.701176,39.141261],[34.696809,39.145114],[34.686704,39.152821],[34.677628,39.158987],[34.671291,39.163868],[34.669921,39.164981],[34.660416,39.166865],[34.653651,39.167293],[34.644916,39.168321],[34.636781,39.169006],[34.629508,39.169888],[34.629105,39.17311],[34.627172,39.177299],[34.623698,39.182776],[34.621161,39.185495],[34.619047,39.188878],[34.617778,39.191718],[34.617416,39.192624],[34.617536,39.196853],[34.620074,39.202834],[34.62545,39.213164],[34.628411,39.219447],[34.629679,39.221924],[34.631733,39.225247],[34.63566,39.22869],[34.639648,39.231409],[34.643816,39.233463],[34.650582,39.23588],[34.65457,39.237027],[34.65898,39.239565],[34.663702,39.244156],[34.671032,39.250117],[34.67361,39.25205],[34.680859,39.254708],[34.687626,39.257528],[34.690525,39.259622],[34.692217,39.262925],[34.692298,39.267677],[34.691734,39.268966],[34.688834,39.270738],[34.686337,39.271624],[34.683276,39.273316],[34.68094,39.27541],[34.677235,39.279921],[34.673368,39.284995],[34.669341,39.291278],[34.66338,39.299414],[34.656533,39.304166],[34.654197,39.305053],[34.646222,39.306502],[34.63849,39.306905],[34.632046,39.307389],[34.629065,39.307066],[34.61657,39.31053],[34.607428,39.313063],[34.603347,39.314244],[34.591103,39.320151],[34.583585,39.327562],[34.580041,39.334113],[34.581222,39.339913],[34.582189,39.347324],[34.5838,39.352586],[34.587989,39.360856],[34.591855,39.368267],[34.595614,39.377289],[34.599695,39.38631]]]}},{"type":"Feature","properties":{"id":"TR-D-50-007","parent_id":"TR-P-50","region_id":"TR-R-ICA","level":"district","municipality_type":null,"municipality_type_label":null,"is_metropolitan_municipality":null,"name":"Nevşehir","name_ascii":"nevsehir","slug":"nevsehir-nevsehir"},"geometry":{"type":"Polygon","coordinates":[[[34.589074,38.454641],[34.587412,38.457436],[34.586233,38.461731],[34.585812,38.469732],[34.586907,38.475459],[34.587075,38.480934],[34.587412,38.486156],[34.587496,38.48944],[34.587496,38.494325],[34.587328,38.497526],[34.587328,38.503253],[34.589686,38.50957],[34.593897,38.516307],[34.599877,38.52094],[34.606194,38.526414],[34.611921,38.531046],[34.612763,38.531973],[34.613605,38.534752],[34.613437,38.5393],[34.609563,38.557324],[34.60771,38.562461],[34.606194,38.567009],[34.603667,38.571642],[34.600551,38.574926],[34.591202,38.584359],[34.585138,38.589328],[34.575621,38.595477],[34.568715,38.598677],[34.560798,38.602467],[34.55507,38.606089],[34.553976,38.607099],[34.550186,38.610721],[34.548417,38.615101],[34.545216,38.619817],[34.543448,38.621333],[34.53511,38.62866],[34.531235,38.631861],[34.525003,38.636072],[34.516244,38.641799],[34.505379,38.649969],[34.491567,38.658896],[34.486429,38.660497],[34.481039,38.662013],[34.477417,38.662939],[34.4695,38.668582],[34.466468,38.671109],[34.463605,38.675067],[34.458636,38.68231],[34.454593,38.691069],[34.452444,38.697824],[34.453135,38.698012],[34.457322,38.697713],[34.461434,38.69719],[34.466369,38.696442],[34.473173,38.695545],[34.486856,38.69547],[34.496352,38.696068],[34.501661,38.696143],[34.507942,38.696442],[34.511007,38.696143],[34.51826,38.695021],[34.524242,38.693152],[34.529251,38.690834],[34.535308,38.687544],[34.539121,38.686572],[34.543832,38.685675],[34.550486,38.682609],[34.557066,38.678123],[34.563571,38.673861],[34.574039,38.668403],[34.580544,38.667057],[34.587722,38.666683],[34.599087,38.666833],[34.602826,38.667655],[34.607985,38.668478],[34.613892,38.670795],[34.617855,38.673113],[34.62264,38.677226],[34.626304,38.682086],[34.631687,38.684927],[34.636846,38.686722],[34.644622,38.691208],[34.648884,38.694498],[34.652847,38.696816],[34.654343,38.697489],[34.659128,38.699059],[34.670942,38.703246],[34.674531,38.704667],[34.681335,38.707433],[34.690008,38.709452],[34.69913,38.711396],[34.708925,38.712817],[34.710921,38.712655],[34.711692,38.712592],[34.717748,38.712966],[34.721487,38.712368],[34.727693,38.712293],[34.733375,38.712443],[34.741151,38.711695],[34.743544,38.711396],[34.7499,38.710499],[34.756704,38.709302],[34.758723,38.708779],[34.766798,38.707433],[34.771658,38.705414],[34.776967,38.701751],[34.781004,38.698685],[34.784892,38.694797],[34.794986,38.687694],[34.801716,38.682684],[34.812931,38.675132],[34.82138,38.670272],[34.82968,38.665711],[34.834111,38.662201],[34.842559,38.657935],[34.849438,38.655318],[34.854971,38.654047],[34.858784,38.653449],[34.8617,38.652402],[34.854978,38.647673],[34.851307,38.645897],[34.845326,38.642233],[34.843382,38.640962],[34.839194,38.637597],[34.830142,38.630205],[34.828488,38.628411],[34.825598,38.625622],[34.821592,38.621971],[34.818195,38.619538],[34.816978,38.617256],[34.816572,38.615076],[34.816015,38.612693],[34.816319,38.60747],[34.816167,38.604174],[34.816522,38.603008],[34.818296,38.597684],[34.82002,38.594997],[34.823874,38.593121],[34.82793,38.589065],[34.829502,38.586732],[34.83153,38.583842],[34.832645,38.581713],[34.834572,38.578164],[34.836093,38.574665],[34.837361,38.569037],[34.837868,38.564474],[34.837513,38.560874],[34.837006,38.559657],[34.833761,38.556462],[34.829045,38.553927],[34.825344,38.552203],[34.819919,38.550023],[34.818144,38.548958],[34.816724,38.548046],[34.815964,38.543229],[34.815558,38.535725],[34.81571,38.525128],[34.81637,38.522795],[34.817034,38.520975],[34.813218,38.521176],[34.80664,38.521614],[34.7929,38.521395],[34.789246,38.520079],[34.782083,38.514598],[34.779014,38.50992],[34.775506,38.502977],[34.773825,38.496473],[34.772862,38.491746],[34.772862,38.489992],[34.776858,38.476642],[34.782022,38.464558],[34.785141,38.453936],[34.786514,38.443133],[34.78456,38.440824],[34.780298,38.438604],[34.774438,38.436562],[34.76769,38.436473],[34.760764,38.436296],[34.757479,38.436473],[34.749932,38.438604],[34.743361,38.439759],[34.739632,38.440558],[34.731465,38.443647],[34.730393,38.444183],[34.723868,38.448742],[34.716985,38.455982],[34.714214,38.4592],[34.71037,38.465099],[34.709655,38.467334],[34.706795,38.473859],[34.702773,38.480652],[34.696337,38.487267],[34.691152,38.488161],[34.686057,38.488876],[34.680069,38.489323],[34.67256,38.490485],[34.669074,38.490664],[34.665677,38.489233],[34.661566,38.484943],[34.65808,38.478239],[34.653789,38.470284],[34.650661,38.46349],[34.645476,38.459289],[34.641633,38.457323],[34.637879,38.456697],[34.634482,38.455714],[34.630728,38.453032],[34.628046,38.452138],[34.62456,38.452138],[34.619376,38.451602],[34.610705,38.452138],[34.603108,38.452585],[34.592649,38.454999],[34.589074,38.454641]]]}},{"type":"Feature","properties":{"id":"TR-D-50-008","parent_id":"TR-P-50","region_id":"TR-R-ICA","level":"district","municipality_type":null,"municipality_type_label":null,"is_metropolitan_municipality":null,"name":"Ürgüp","name_ascii":"urgup","slug":"urgup-nevsehir"},"geometry":{"type":"Polygon","coordinates":[[[34.897941,38.41211],[34.894484,38.413654],[34.889867,38.415696],[34.882852,38.418981],[34.878768,38.422089],[34.871576,38.427949],[34.865183,38.435763],[34.863141,38.438338],[34.860122,38.441179],[34.859056,38.441623],[34.854883,38.442511],[34.838013,38.446152],[34.829755,38.448638],[34.8191,38.453077],[34.813329,38.455119],[34.810754,38.457694],[34.810044,38.458938],[34.810044,38.46098],[34.810754,38.465064],[34.811908,38.47128],[34.813684,38.474565],[34.814661,38.475009],[34.822652,38.475808],[34.83233,38.476163],[34.83748,38.47785],[34.844939,38.47936],[34.856037,38.481402],[34.862164,38.485309],[34.865627,38.4933],[34.867935,38.501291],[34.86909,38.507329],[34.868823,38.511857],[34.868735,38.513811],[34.868024,38.51461],[34.864029,38.516652],[34.857813,38.518428],[34.853019,38.519493],[34.850088,38.519937],[34.83819,38.519671],[34.834998,38.520006],[34.824985,38.521322],[34.817384,38.520956],[34.817034,38.520975],[34.81637,38.522795],[34.81571,38.525128],[34.815558,38.535725],[34.815964,38.543229],[34.816724,38.548046],[34.818144,38.548958],[34.819919,38.550023],[34.825344,38.552203],[34.829045,38.553927],[34.833761,38.556462],[34.837006,38.559657],[34.837513,38.560874],[34.837868,38.564474],[34.837361,38.569037],[34.836093,38.574665],[34.834572,38.578164],[34.832645,38.581713],[34.83153,38.583842],[34.829502,38.586732],[34.82793,38.589065],[34.823874,38.593121],[34.82002,38.594997],[34.818296,38.597684],[34.816522,38.603008],[34.816167,38.604174],[34.816319,38.60747],[34.816015,38.612693],[34.816572,38.615076],[34.816978,38.617256],[34.818195,38.619538],[34.821592,38.621971],[34.825598,38.625622],[34.828488,38.628411],[34.830142,38.630205],[34.839194,38.637597],[34.843382,38.640962],[34.845326,38.642233],[34.851307,38.645897],[34.854978,38.647673],[34.8617,38.652402],[34.869643,38.657304],[34.871991,38.658478],[34.877873,38.661723],[34.880611,38.662991],[34.884414,38.664512],[34.888876,38.666337],[34.893642,38.66867],[34.897343,38.670799],[34.901045,38.674247],[34.90505,38.678405],[34.908549,38.68383],[34.909005,38.684692],[34.91083,38.687633],[34.91372,38.693109],[34.914988,38.699092],[34.916813,38.707306],[34.916966,38.708624],[34.91656,38.713035],[34.916458,38.716737],[34.915242,38.721198],[34.914177,38.725204],[34.912706,38.729108],[34.911794,38.73215],[34.910019,38.736663],[34.908599,38.740415],[34.907129,38.745891],[34.907078,38.747716],[34.907788,38.750252],[34.909968,38.752736],[34.913416,38.755119],[34.915546,38.757097],[34.917473,38.759125],[34.919298,38.760342],[34.921884,38.761052],[34.925281,38.762268],[34.928932,38.762573],[34.933241,38.762978],[34.937399,38.763232],[34.938858,38.76357],[34.942085,38.764258],[34.946689,38.764258],[34.950128,38.763782],[34.954573,38.762988],[34.955113,38.762417],[34.956888,38.760536],[34.95983,38.758143],[34.961997,38.756683],[34.96713,38.753857],[34.974289,38.749901],[34.980364,38.747547],[34.985026,38.744627],[34.986722,38.743355],[34.993119,38.740592],[34.996447,38.739713],[35.005364,38.739085],[35.017546,38.738897],[35.025395,38.738646],[35.035723,38.738829],[35.047909,38.738453],[35.055205,38.737776],[35.058572,38.737115],[35.05847,38.734363],[35.057757,38.727839],[35.057655,38.724577],[35.057043,38.721315],[35.055922,38.718054],[35.05317,38.713059],[35.050622,38.709593],[35.048481,38.704802],[35.047258,38.70205],[35.042875,38.695832],[35.038696,38.690838],[35.037371,38.688086],[35.035638,38.683295],[35.034313,38.678402],[35.032478,38.675548],[35.027483,38.67035],[35.024833,38.666476],[35.02361,38.657914],[35.023916,38.649148],[35.024527,38.643847],[35.026158,38.638853],[35.027279,38.63661],[35.030235,38.631921],[35.034516,38.625805],[35.039307,38.618874],[35.042059,38.614287],[35.045423,38.61021],[35.055514,38.604196],[35.068052,38.597774],[35.07813,38.590231],[35.081418,38.588167],[35.085393,38.586027],[35.089521,38.583504],[35.093497,38.580522],[35.095484,38.578688],[35.097243,38.574789],[35.099077,38.570431],[35.100071,38.566456],[35.101065,38.561334],[35.1016,38.557588],[35.102441,38.553995],[35.103129,38.551854],[35.104352,38.550554],[35.108328,38.543674],[35.109245,38.541075],[35.109398,38.538323],[35.108633,38.534194],[35.108478,38.533605],[35.107945,38.531595],[35.106799,38.528537],[35.104811,38.525632],[35.102976,38.524333],[35.09923,38.523645],[35.09342,38.522574],[35.087992,38.522421],[35.080959,38.522498],[35.07599,38.522116],[35.071021,38.522192],[35.062764,38.523033],[35.05145,38.523033],[35.048086,38.521886],[35.043652,38.51944],[35.039371,38.515847],[35.03379,38.511871],[35.031267,38.509272],[35.029891,38.507208],[35.027139,38.499716],[35.023623,38.49016],[35.020947,38.479304],[35.018653,38.470436],[35.018118,38.468754],[35.01506,38.462256],[35.011467,38.457364],[35.008486,38.455147],[35.00451,38.4527],[34.99763,38.449642],[34.995413,38.448572],[34.990444,38.445208],[34.983258,38.442227],[34.97783,38.441233],[34.972478,38.440239],[34.96598,38.440163],[34.959253,38.440315],[34.952143,38.440086],[34.943428,38.439551],[34.938917,38.439016],[34.93219,38.436569],[34.922252,38.432518],[34.913307,38.427549],[34.907956,38.424567],[34.90054,38.418375],[34.898552,38.415775],[34.898017,38.41287],[34.897941,38.41211]]]}}]}