{"type":"FeatureCollection","province":"Niğde","province_id":"TR-P-51","features":[{"type":"Feature","properties":{"id":"TR-D-51-001","parent_id":"TR-P-51","region_id":"TR-R-ICA","level":"district","municipality_type":null,"municipality_type_label":null,"is_metropolitan_municipality":null,"name":"Altunhisar","name_ascii":"altunhisar","slug":"altunhisar-nigde"},"geometry":{"type":"Polygon","coordinates":[[[34.061766,38.021241],[34.06968,38.027889],[34.069785,38.030422],[34.069363,38.035803],[34.068506,38.038435],[34.076517,38.043057],[34.089988,38.052998],[34.095284,38.058572],[34.097978,38.062474],[34.099744,38.067584],[34.102159,38.071208],[34.10569,38.075296],[34.108291,38.078083],[34.112008,38.080406],[34.116653,38.083286],[34.11944,38.085237],[34.124364,38.089975],[34.12836,38.0949],[34.134677,38.102425],[34.140345,38.109672],[34.14657,38.116176],[34.152051,38.121564],[34.157812,38.124352],[34.162364,38.126024],[34.170075,38.127603],[34.175929,38.128718],[34.180853,38.129369],[34.185777,38.129369],[34.192466,38.128718],[34.198227,38.127789],[34.201107,38.126488],[34.208168,38.125559],[34.21718,38.123701],[34.221918,38.123051],[34.227865,38.121564],[34.23093,38.120914],[34.237713,38.119149],[34.241243,38.118034],[34.249512,38.116083],[34.255458,38.114875],[34.258524,38.115247],[34.262241,38.117198],[34.266236,38.119985],[34.268193,38.122716],[34.270983,38.120304],[34.272143,38.118531],[34.274121,38.117781],[34.276986,38.117985],[34.27951,38.118531],[34.285717,38.119281],[34.291856,38.121191],[34.294789,38.122828],[34.295948,38.122965],[34.297926,38.122828],[34.300518,38.12201],[34.305293,38.121055],[34.310204,38.120373],[34.314433,38.118872],[34.318799,38.117098],[34.325552,38.114711],[34.328553,38.113279],[34.330073,38.112961],[34.338171,38.111642],[34.34315,38.111369],[34.349221,38.111846],[34.35386,38.11352],[34.356042,38.11512],[34.35686,38.115188],[34.358907,38.114847],[34.364705,38.113961],[34.371526,38.113688],[34.373919,38.114396],[34.374227,38.114487],[34.375389,38.114975],[34.378167,38.116142],[34.381078,38.116558],[34.383905,38.116308],[34.38798,38.116308],[34.393634,38.118221],[34.399122,38.119551],[34.405192,38.120549],[34.407853,38.121297],[34.412593,38.122462],[34.417582,38.122711],[34.422655,38.122628],[34.428475,38.121879],[34.431968,38.120882],[34.434878,38.120549],[34.439036,38.119135],[34.444108,38.116225],[34.447933,38.114063],[34.450012,38.111485],[34.452839,38.108824],[34.456997,38.105831],[34.459658,38.104417],[34.46182,38.104251],[34.464481,38.104085],[34.468223,38.103752],[34.472796,38.103835],[34.479698,38.101257],[34.482276,38.098846],[34.48344,38.097599],[34.485186,38.09527],[34.485685,38.093358],[34.48635,38.090614],[34.487265,38.088119],[34.489344,38.086622],[34.492753,38.086123],[34.49716,38.085541],[34.501817,38.083462],[34.506557,38.081051],[34.511047,38.079222],[34.516951,38.077392],[34.521358,38.074482],[34.526514,38.070407],[34.529757,38.057934],[34.531752,38.05386],[34.53275,38.050783],[34.532501,38.048787],[34.532168,38.042717],[34.531752,38.03806],[34.530838,38.03382],[34.529424,38.027583],[34.528177,38.021263],[34.527595,38.014611],[34.527595,38.009622],[34.527927,38.004466],[34.524531,38.006054],[34.521015,38.006699],[34.5175,38.007847],[34.514343,38.008134],[34.511186,38.008062],[34.509823,38.008493],[34.505375,38.009999],[34.501932,38.011004],[34.499205,38.012224],[34.495977,38.013443],[34.493466,38.014448],[34.49117,38.015165],[34.489161,38.015595],[34.488229,38.016098],[34.48457,38.017461],[34.479978,38.018824],[34.475889,38.020259],[34.470293,38.022339],[34.465271,38.024061],[34.460034,38.02607],[34.455155,38.027863],[34.450707,38.029729],[34.448125,38.030805],[34.444179,38.031738],[34.439013,38.032024],[34.436411,38.031738],[34.432953,38.030777],[34.425331,38.028039],[34.419855,38.024783],[34.413786,38.019603],[34.410456,38.014275],[34.406904,38.007393],[34.404684,38.000289],[34.404314,37.993406],[34.40498,37.987264],[34.40424,37.980234],[34.40202,37.974092],[34.39943,37.967284],[34.395582,37.960254],[34.393288,37.957441],[34.3887,37.953741],[34.384926,37.952187],[34.376563,37.951003],[34.367239,37.950263],[34.356065,37.951299],[34.341487,37.952927],[34.339637,37.953445],[34.334974,37.956479],[34.330386,37.958403],[34.322542,37.959144],[34.313736,37.960328],[34.302118,37.960106],[34.294051,37.959144],[34.287243,37.958181],[34.282951,37.956923],[34.274441,37.953297],[34.268891,37.953371],[34.262231,37.952261],[34.256088,37.951447],[34.250316,37.951077],[34.242916,37.952261],[34.237958,37.956183],[34.232704,37.95981],[34.230114,37.960402],[34.226414,37.96055],[34.217089,37.961364],[34.210281,37.963214],[34.199847,37.965878],[34.190707,37.968264],[34.167805,37.977093],[34.147018,37.988406],[34.141776,37.992269],[34.128347,37.997328],[34.107377,38.007905],[34.093488,38.017103],[34.089809,38.018022],[34.072334,38.019034],[34.061766,38.021241]]]}},{"type":"Feature","properties":{"id":"TR-D-51-002","parent_id":"TR-P-51","region_id":"TR-R-ICA","level":"district","municipality_type":null,"municipality_type_label":null,"is_metropolitan_municipality":null,"name":"Bor","name_ascii":"bor","slug":"bor-nigde"},"geometry":{"type":"Polygon","coordinates":[[[34.901325,37.693321],[34.894236,37.688726],[34.886359,37.680062],[34.878443,37.673822],[34.87525,37.677148],[34.870658,37.680592],[34.864845,37.683463],[34.860324,37.68497],[34.856879,37.686262],[34.853793,37.687051],[34.850277,37.688917],[34.848411,37.689778],[34.840661,37.693007],[34.8337,37.694443],[34.826595,37.695088],[34.824299,37.695734],[34.81949,37.695878],[34.812529,37.69595],[34.806788,37.696093],[34.801047,37.696452],[34.795665,37.696093],[34.792795,37.695304],[34.788848,37.694084],[34.783968,37.692433],[34.777294,37.692074],[34.770404,37.691644],[34.765596,37.691644],[34.758276,37.6915],[34.753827,37.690639],[34.747225,37.688486],[34.741914,37.687625],[34.73603,37.686477],[34.729284,37.68619],[34.719022,37.685616],[34.7112,37.684396],[34.705889,37.683176],[34.700364,37.681023],[34.695914,37.680736],[34.688092,37.680664],[34.6807,37.681669],[34.676682,37.682817],[34.671443,37.6854],[34.66685,37.687769],[34.662688,37.689778],[34.658382,37.690783],[34.652928,37.692361],[34.650129,37.692792],[34.648048,37.692433],[34.643958,37.690926],[34.63958,37.689204],[34.635705,37.688271],[34.625371,37.688773],[34.619343,37.689634],[34.608148,37.692792],[34.598244,37.696308],[34.594226,37.697815],[34.590853,37.699107],[34.587049,37.702265],[34.580591,37.704418],[34.571405,37.706642],[34.567028,37.708652],[34.559779,37.710805],[34.555545,37.712168],[34.55045,37.713245],[34.548656,37.713603],[34.54313,37.714249],[34.538322,37.713819],[34.528778,37.71224],[34.522104,37.711953],[34.516434,37.71389],[34.5122,37.714249],[34.510765,37.713819],[34.507895,37.712168],[34.505024,37.710302],[34.501867,37.708436],[34.498207,37.706212],[34.49591,37.704992],[34.495264,37.704489],[34.491317,37.700327],[34.487944,37.696093],[34.481773,37.690352],[34.479261,37.68906],[34.470004,37.688414],[34.46132,37.688056],[34.455292,37.687553],[34.449623,37.687697],[34.443595,37.687338],[34.437782,37.688056],[34.433476,37.688845],[34.426659,37.689491],[34.421492,37.689634],[34.410081,37.688845],[34.397595,37.686764],[34.388265,37.685472],[34.386103,37.685766],[34.386305,37.690068],[34.386384,37.699881],[34.383772,37.712069],[34.376966,37.727659],[34.372455,37.739451],[34.365966,37.753459],[34.360426,37.762323],[34.347051,37.776251],[34.336288,37.784244],[34.321014,37.796669],[34.307086,37.810123],[34.283502,37.825634],[34.276775,37.832994],[34.268861,37.840433],[34.258415,37.848427],[34.249709,37.853492],[34.241162,37.85824],[34.23429,37.865494],[34.230492,37.870559],[34.215824,37.87478],[34.211498,37.875413],[34.206328,37.876574],[34.197569,37.878262],[34.182586,37.881533],[34.153884,37.891136],[34.144493,37.895884],[34.12666,37.901688],[34.119801,37.904009],[34.094582,37.908863],[34.085508,37.910129],[34.074956,37.913928],[34.070735,37.915616],[34.063454,37.917727],[34.055857,37.920259],[34.044249,37.925641],[34.041928,37.92965],[34.041506,37.936509],[34.040662,37.944212],[34.036863,37.952865],[34.031481,37.960251],[34.025256,37.966899],[34.019874,37.972913],[34.014598,37.975551],[34.007106,37.979561],[33.998665,37.982832],[33.992017,37.988214],[33.990645,37.991274],[33.992228,38.00056],[33.994233,38.004675],[33.997504,38.009001],[34.004257,38.014383],[34.021141,38.015227],[34.02821,38.015121],[34.035069,38.015227],[34.0414,38.015965],[34.046149,38.017021],[34.050792,38.018392],[34.055434,38.019553],[34.061766,38.021241],[34.072334,38.019034],[34.089809,38.018022],[34.093488,38.017103],[34.107377,38.007905],[34.128347,37.997328],[34.141776,37.992269],[34.147018,37.988406],[34.167805,37.977093],[34.190707,37.968264],[34.199847,37.965878],[34.210281,37.963214],[34.217089,37.961364],[34.226414,37.96055],[34.230114,37.960402],[34.232704,37.95981],[34.237958,37.956183],[34.242916,37.952261],[34.250316,37.951077],[34.256088,37.951447],[34.262231,37.952261],[34.268891,37.953371],[34.274441,37.953297],[34.282951,37.956923],[34.287243,37.958181],[34.294051,37.959144],[34.302118,37.960106],[34.313736,37.960328],[34.322542,37.959144],[34.330386,37.958403],[34.334974,37.956479],[34.339637,37.953445],[34.341487,37.952927],[34.356065,37.951299],[34.367239,37.950263],[34.376563,37.951003],[34.384926,37.952187],[34.3887,37.953741],[34.393288,37.957441],[34.395582,37.960254],[34.39943,37.967284],[34.40202,37.974092],[34.40424,37.980234],[34.40498,37.987264],[34.404314,37.993406],[34.404684,38.000289],[34.406904,38.007393],[34.410456,38.014275],[34.413786,38.019603],[34.419855,38.024783],[34.425331,38.028039],[34.432953,38.030777],[34.436411,38.031738],[34.439013,38.032024],[34.444179,38.031738],[34.448125,38.030805],[34.450707,38.029729],[34.455155,38.027863],[34.460034,38.02607],[34.465271,38.024061],[34.470293,38.022339],[34.475889,38.020259],[34.479978,38.018824],[34.48457,38.017461],[34.488229,38.016098],[34.489161,38.015595],[34.49117,38.015165],[34.493466,38.014448],[34.495977,38.013443],[34.499205,38.012224],[34.501932,38.011004],[34.505375,38.009999],[34.509823,38.008493],[34.511186,38.008062],[34.514343,38.008134],[34.5175,38.007847],[34.521015,38.006699],[34.524531,38.006054],[34.527927,38.004466],[34.530006,38.000059],[34.532833,37.995569],[34.536409,37.991162],[34.539153,37.987586],[34.542812,37.981682],[34.548549,37.974614],[34.553871,37.966548],[34.563365,37.950998],[34.565471,37.94612],[34.569352,37.937694],[34.57423,37.930155],[34.582213,37.920176],[34.589087,37.912637],[34.600618,37.902215],[34.611261,37.89523],[34.617248,37.891793],[34.624233,37.888023],[34.635431,37.884143],[34.647738,37.88126],[34.656164,37.879486],[34.670578,37.876604],[34.678782,37.875938],[34.686211,37.874275],[34.696522,37.871836],[34.702841,37.870949],[34.704061,37.870395],[34.708607,37.868843],[34.715592,37.86729],[34.719694,37.866958],[34.7269,37.866403],[34.734329,37.865184],[34.742866,37.864186],[34.753621,37.863521],[34.760938,37.863299],[34.76881,37.862412],[34.77513,37.861747],[34.780341,37.86086],[34.786439,37.860195],[34.790541,37.859751],[34.801295,37.860305],[34.81593,37.858531],[34.828237,37.85709],[34.837994,37.85709],[34.847751,37.856868],[34.857175,37.855316],[34.863051,37.85454],[34.868718,37.851662],[34.86612,37.846725],[34.864215,37.840663],[34.863695,37.834773],[34.863089,37.82975],[34.863435,37.823168],[34.864215,37.818231],[34.865947,37.813727],[34.866899,37.810436],[34.869238,37.806625],[34.870277,37.802901],[34.869671,37.798831],[34.868372,37.79424],[34.867592,37.790949],[34.8656,37.782375],[34.863868,37.777611],[34.863522,37.773627],[34.864388,37.76999],[34.86586,37.766699],[34.868372,37.762368],[34.87045,37.758644],[34.874608,37.752755],[34.878332,37.749464],[34.880497,37.745133],[34.880757,37.737858],[34.880843,37.732661],[34.882229,37.728504],[34.885174,37.720883],[34.888985,37.715946],[34.892709,37.711962],[34.897646,37.706332],[34.899897,37.701049],[34.900331,37.699057],[34.901325,37.693321]]]}},{"type":"Feature","properties":{"id":"TR-D-51-003","parent_id":"TR-P-51","region_id":"TR-R-ICA","level":"district","municipality_type":null,"municipality_type_label":null,"is_metropolitan_municipality":null,"name":"Çamardı","name_ascii":"camardi","slug":"camardi-nigde"},"geometry":{"type":"Polygon","coordinates":[[[34.901325,37.693321],[34.900331,37.699057],[34.899897,37.701049],[34.897646,37.706332],[34.892709,37.711962],[34.888985,37.715946],[34.885174,37.720883],[34.882229,37.728504],[34.880843,37.732661],[34.880757,37.737858],[34.880497,37.745133],[34.878332,37.749464],[34.874608,37.752755],[34.87045,37.758644],[34.868372,37.762368],[34.86586,37.766699],[34.864388,37.76999],[34.863522,37.773627],[34.863868,37.777611],[34.8656,37.782375],[34.867592,37.790949],[34.868372,37.79424],[34.869671,37.798831],[34.870277,37.802901],[34.869238,37.806625],[34.866899,37.810436],[34.865947,37.813727],[34.864215,37.818231],[34.863435,37.823168],[34.863089,37.82975],[34.863695,37.834773],[34.864215,37.840663],[34.86612,37.846725],[34.868718,37.851662],[34.868978,37.853221],[34.868978,37.855733],[34.868372,37.859024],[34.867506,37.862142],[34.866726,37.865866],[34.866033,37.87037],[34.863175,37.877298],[34.859971,37.883448],[34.854428,37.893234],[34.85157,37.89947],[34.848538,37.905533],[34.846373,37.910903],[34.844987,37.914887],[34.844901,37.919131],[34.844901,37.923461],[34.846113,37.927705],[34.847759,37.929264],[34.851137,37.932641],[34.853388,37.935067],[34.855294,37.937492],[34.858758,37.93983],[34.866899,37.945546],[34.873452,37.951956],[34.879874,37.957653],[34.882878,37.962728],[34.888575,37.967182],[34.901211,37.97319],[34.903594,37.974329],[34.908876,37.978265],[34.913952,37.981683],[34.918095,37.982408],[34.926485,37.982305],[34.934978,37.982098],[34.940364,37.980855],[34.945129,37.978783],[34.951551,37.975261],[34.95818,37.972465],[34.962427,37.971118],[34.96947,37.968943],[34.975478,37.966871],[34.977964,37.965732],[34.981278,37.965007],[34.986457,37.965525],[34.996297,37.965421],[35.000855,37.965628],[35.00562,37.968218],[35.012974,37.97174],[35.018464,37.974018],[35.023435,37.976711],[35.027786,37.979819],[35.031411,37.981269],[35.036072,37.981994],[35.038351,37.982512],[35.039697,37.982098],[35.041665,37.982201],[35.04498,37.982719],[35.046741,37.984376],[35.048191,37.986448],[35.053888,37.99722],[35.058756,38.008821],[35.059688,38.012654],[35.059688,38.015036],[35.059792,38.01949],[35.060206,38.021354],[35.061035,38.022908],[35.062692,38.026015],[35.066317,38.029019],[35.070771,38.032023],[35.075847,38.034612],[35.079576,38.036373],[35.083719,38.038445],[35.089208,38.041242],[35.094595,38.042899],[35.100395,38.044038],[35.108889,38.046317],[35.115725,38.047146],[35.118936,38.04756],[35.126394,38.047146],[35.133437,38.046628],[35.136441,38.046938],[35.143588,38.047871],[35.148249,38.049217],[35.158296,38.051807],[35.163164,38.052946],[35.171049,38.052195],[35.179517,38.052661],[35.184333,38.052584],[35.197617,38.048777],[35.209814,38.045903],[35.218903,38.043028],[35.231022,38.040309],[35.237392,38.0386],[35.245005,38.036114],[35.249589,38.033862],[35.252929,38.031686],[35.256425,38.030754],[35.258208,38.030769],[35.258754,38.029422],[35.259497,38.027378],[35.262377,38.023197],[35.264142,38.021153],[35.264886,38.019853],[35.265722,38.017995],[35.266372,38.014371],[35.267301,38.008704],[35.267766,38.006009],[35.269159,38.000156],[35.269996,37.992259],[35.271296,37.986499],[35.273619,37.982225],[35.275663,37.976464],[35.277521,37.97024],[35.28133,37.964015],[35.284675,37.959184],[35.289785,37.953423],[35.295267,37.948964],[35.300284,37.944969],[35.305115,37.941531],[35.311247,37.93735],[35.3158,37.933819],[35.319237,37.930382],[35.321095,37.928802],[35.322489,37.926573],[35.322861,37.92425],[35.322861,37.921834],[35.323139,37.918211],[35.323232,37.910964],[35.323232,37.905575],[35.322396,37.898979],[35.321746,37.894333],[35.31998,37.889967],[35.317658,37.885414],[35.312919,37.877703],[35.308088,37.864603],[35.302607,37.851317],[35.298054,37.846671],[35.290714,37.842212],[35.277614,37.837102],[35.26312,37.8345],[35.254294,37.833293],[35.241659,37.831249],[35.233297,37.830134],[35.227629,37.829762],[35.223356,37.829948],[35.218524,37.830319],[35.215087,37.831249],[35.213229,37.831713],[35.208211,37.832921],[35.202358,37.833107],[35.196505,37.833571],[35.19251,37.83385],[35.188689,37.834175],[35.185066,37.834105],[35.180258,37.834384],[35.17531,37.83522],[35.172035,37.836196],[35.167088,37.837659],[35.160608,37.838844],[35.159014,37.838809],[35.157184,37.838548],[35.155669,37.838077],[35.153996,37.8363],[35.15316,37.834471],[35.151802,37.829611],[35.151436,37.82428],[35.151331,37.820674],[35.15154,37.815919],[35.151383,37.814508],[35.151383,37.812417],[35.151475,37.80982],[35.152662,37.806937],[35.155376,37.801086],[35.158259,37.795913],[35.159955,37.793284],[35.162244,37.789893],[35.169537,37.782091],[35.175642,37.776495],[35.179967,37.772424],[35.181493,37.770389],[35.183698,37.763182],[35.184715,37.756313],[35.186665,37.747749],[35.187218,37.742579],[35.178629,37.740318],[35.170096,37.737693],[35.163007,37.735592],[35.150798,37.731129],[35.143841,37.728766],[35.127562,37.722333],[35.122048,37.720233],[35.109577,37.71485],[35.103538,37.712094],[35.096581,37.70763],[35.09041,37.702904],[35.081217,37.690192],[35.078557,37.687841],[35.071769,37.685838],[35.063498,37.684919],[35.051027,37.684263],[35.04315,37.684131],[35.039212,37.683475],[35.034223,37.677436],[35.02254,37.670216],[35.009892,37.666278],[35.004772,37.663127],[34.999783,37.659451],[34.992038,37.656826],[34.985343,37.654463],[34.977072,37.652625],[34.969852,37.651574],[34.9604,37.662471],[34.95738,37.667328],[34.950948,37.682819],[34.938214,37.685838],[34.932569,37.686363],[34.92246,37.685575],[34.916553,37.686494],[34.908414,37.690958],[34.901325,37.693321]]]}},{"type":"Feature","properties":{"id":"TR-D-51-004","parent_id":"TR-P-51","region_id":"TR-R-ICA","level":"district","municipality_type":null,"municipality_type_label":null,"is_metropolitan_municipality":null,"name":"Çiftlik","name_ascii":"ciftlik","slug":"ciftlik-nigde"},"geometry":{"type":"Polygon","coordinates":[[[34.268193,38.122716],[34.270231,38.125559],[34.274783,38.130948],[34.27915,38.137823],[34.282959,38.145163],[34.285654,38.153153],[34.287883,38.158728],[34.290113,38.164488],[34.293272,38.169784],[34.296085,38.174686],[34.296524,38.175451],[34.29801,38.178889],[34.301355,38.184463],[34.304979,38.190595],[34.307859,38.193847],[34.312504,38.195427],[34.319101,38.196356],[34.328206,38.196541],[34.335174,38.196634],[34.338983,38.198121],[34.346973,38.202116],[34.354499,38.207226],[34.360538,38.2115],[34.370944,38.219397],[34.382371,38.227852],[34.392498,38.236678],[34.396122,38.239837],[34.398816,38.242252],[34.401325,38.243925],[34.40597,38.246062],[34.410987,38.247734],[34.416376,38.250057],[34.421672,38.252472],[34.427153,38.254702],[34.43152,38.257954],[34.433936,38.261484],[34.435701,38.269382],[34.435701,38.275235],[34.434957,38.283782],[34.437796,38.282644],[34.446242,38.280376],[34.449527,38.279047],[34.455314,38.277326],[34.460476,38.276779],[34.46595,38.276309],[34.471737,38.274745],[34.477055,38.273572],[34.48339,38.272399],[34.492775,38.26974],[34.497545,38.267863],[34.508337,38.263093],[34.514907,38.259417],[34.518582,38.25668],[34.522023,38.25449],[34.524761,38.251206],[34.528514,38.248155],[34.530939,38.247061],[34.534458,38.245653],[34.537117,38.245105],[34.53915,38.245105],[34.543686,38.244793],[34.546423,38.244871],[34.549395,38.244089],[34.552289,38.24315],[34.555495,38.242212],[34.55964,38.240726],[34.563472,38.237989],[34.564723,38.236738],[34.566679,38.233375],[34.57098,38.224303],[34.572075,38.221957],[34.575594,38.21922],[34.582554,38.215857],[34.586777,38.213198],[34.589671,38.210539],[34.590922,38.207332],[34.591235,38.203813],[34.591861,38.201545],[34.59452,38.195289],[34.597101,38.190987],[34.602653,38.182932],[34.603904,38.18129],[34.606563,38.177145],[34.607502,38.174955],[34.608597,38.171671],[34.60891,38.168777],[34.610004,38.166509],[34.61063,38.162286],[34.611177,38.155795],[34.610786,38.148913],[34.611412,38.146723],[34.612898,38.142109],[34.613367,38.135696],[34.61368,38.131317],[34.613602,38.129987],[34.613133,38.125451],[34.612351,38.120915],[34.611334,38.119117],[34.60672,38.116301],[34.595536,38.11067],[34.586465,38.106369],[34.584197,38.105196],[34.580208,38.104414],[34.575594,38.104492],[34.57098,38.10457],[34.567539,38.104727],[34.563941,38.104649],[34.560109,38.10457],[34.558154,38.104101],[34.556043,38.103085],[34.553071,38.100738],[34.549395,38.097688],[34.545798,38.095264],[34.544155,38.093231],[34.541496,38.08979],[34.538994,38.085801],[34.537743,38.084159],[34.535162,38.081813],[34.532034,38.080092],[34.530939,38.078528],[34.530391,38.075556],[34.529375,38.073445],[34.526514,38.070407],[34.521358,38.074482],[34.516951,38.077392],[34.511047,38.079222],[34.506557,38.081051],[34.501817,38.083462],[34.49716,38.085541],[34.492753,38.086123],[34.489344,38.086622],[34.487265,38.088119],[34.48635,38.090614],[34.485685,38.093358],[34.485186,38.09527],[34.48344,38.097599],[34.482276,38.098846],[34.479698,38.101257],[34.472796,38.103835],[34.468223,38.103752],[34.464481,38.104085],[34.46182,38.104251],[34.459658,38.104417],[34.456997,38.105831],[34.452839,38.108824],[34.450012,38.111485],[34.447933,38.114063],[34.444108,38.116225],[34.439036,38.119135],[34.434878,38.120549],[34.431968,38.120882],[34.428475,38.121879],[34.422655,38.122628],[34.417582,38.122711],[34.412593,38.122462],[34.407853,38.121297],[34.405192,38.120549],[34.399122,38.119551],[34.393634,38.118221],[34.38798,38.116308],[34.383905,38.116308],[34.381078,38.116558],[34.378167,38.116142],[34.375389,38.114975],[34.374227,38.114487],[34.373919,38.114396],[34.371526,38.113688],[34.364705,38.113961],[34.358907,38.114847],[34.35686,38.115188],[34.356042,38.11512],[34.35386,38.11352],[34.349221,38.111846],[34.34315,38.111369],[34.338171,38.111642],[34.330073,38.112961],[34.328553,38.113279],[34.325552,38.114711],[34.318799,38.117098],[34.314433,38.118872],[34.310204,38.120373],[34.305293,38.121055],[34.300518,38.12201],[34.297926,38.122828],[34.295948,38.122965],[34.294789,38.122828],[34.291856,38.121191],[34.285717,38.119281],[34.27951,38.118531],[34.276986,38.117985],[34.274121,38.117781],[34.272143,38.118531],[34.270983,38.120304],[34.268193,38.122716]]]}},{"type":"Feature","properties":{"id":"TR-D-51-005","parent_id":"TR-P-51","region_id":"TR-R-ICA","level":"district","municipality_type":null,"municipality_type_label":null,"is_metropolitan_municipality":null,"name":"Niğde","name_ascii":"nigde","slug":"nigde-nigde"},"geometry":{"type":"Polygon","coordinates":[[[34.434957,38.283782],[34.433378,38.287685],[34.430219,38.291866],[34.426317,38.302271],[34.424645,38.309054],[34.424273,38.312212],[34.423251,38.316579],[34.422694,38.320667],[34.422508,38.325034],[34.422601,38.328843],[34.42418,38.33098],[34.427711,38.334511],[34.438395,38.341479],[34.442483,38.344173],[34.445642,38.347332],[34.451681,38.353464],[34.454561,38.356344],[34.457627,38.357366],[34.467383,38.361361],[34.474444,38.362755],[34.480111,38.363498],[34.483084,38.364055],[34.485128,38.362197],[34.490795,38.357087],[34.497578,38.351884],[34.501666,38.349655],[34.513094,38.341943],[34.518575,38.338691],[34.522756,38.335625],[34.526565,38.331073],[34.52926,38.326427],[34.534648,38.32364],[34.544311,38.319274],[34.554995,38.316579],[34.564193,38.315557],[34.571068,38.313978],[34.583147,38.313792],[34.601542,38.312398],[34.625792,38.310076],[34.643444,38.313978],[34.654965,38.319181],[34.659889,38.323176],[34.677832,38.329563],[34.690793,38.33465],[34.699991,38.337855],[34.70891,38.339319],[34.711906,38.339528],[34.727863,38.340782],[34.730372,38.340921],[34.734901,38.340503],[34.738315,38.339597],[34.742287,38.338482],[34.744169,38.338204],[34.755457,38.337786],[34.762843,38.337576],[34.771902,38.337298],[34.78312,38.336113],[34.793782,38.336113],[34.80068,38.336253],[34.806812,38.338134],[34.811759,38.339876],[34.820191,38.343639],[34.823814,38.345869],[34.827577,38.348307],[34.830225,38.349631],[34.834615,38.351095],[34.841304,38.351722],[34.849875,38.352697],[34.857331,38.353534],[34.867156,38.353324],[34.871128,38.353534],[34.878793,38.353603],[34.884576,38.353743],[34.889384,38.353882],[34.893844,38.353603],[34.899279,38.353534],[34.902415,38.353534],[34.905202,38.353255],[34.908059,38.352001],[34.916072,38.348307],[34.924295,38.344823],[34.93182,38.340921],[34.939067,38.335625],[34.942691,38.334023],[34.948544,38.329284],[34.952934,38.324755],[34.957115,38.320574],[34.962898,38.315836],[34.967149,38.312979],[34.970981,38.309983],[34.978716,38.30399],[34.981712,38.300854],[34.983663,38.29751],[34.984987,38.292632],[34.98666,38.287754],[34.98868,38.282807],[34.99537,38.266153],[34.996276,38.260509],[34.999063,38.250893],[35.00192,38.238072],[35.003523,38.228595],[35.008609,38.223229],[35.01502,38.217446],[35.023173,38.209363],[35.026308,38.206506],[35.028887,38.203649],[35.030489,38.19912],[35.030768,38.197169],[35.03021,38.193475],[35.029792,38.189434],[35.029792,38.186507],[35.03042,38.184417],[35.031534,38.182814],[35.03474,38.178285],[35.037457,38.17501],[35.039827,38.172919],[35.044635,38.169644],[35.049791,38.166927],[35.053136,38.165533],[35.05885,38.163512],[35.070277,38.160934],[35.079545,38.160446],[35.095153,38.160028],[35.107696,38.160934],[35.115361,38.162398],[35.119472,38.163303],[35.124071,38.164488],[35.128043,38.164558],[35.131039,38.164697],[35.140098,38.165115],[35.147275,38.165882],[35.153128,38.166439],[35.16149,38.167484],[35.167483,38.168111],[35.171524,38.167902],[35.174242,38.167624],[35.175287,38.167206],[35.177238,38.164767],[35.17891,38.162119],[35.180653,38.160168],[35.185321,38.153269],[35.189223,38.147277],[35.190199,38.14651],[35.191035,38.146301],[35.196679,38.145117],[35.204553,38.143862],[35.21187,38.143793],[35.214587,38.144489],[35.216538,38.14428],[35.219395,38.143444],[35.223228,38.14212],[35.226573,38.140727],[35.227687,38.140309],[35.228315,38.139403],[35.230057,38.136476],[35.230962,38.132504],[35.231659,38.126442],[35.232495,38.123724],[35.234377,38.119822],[35.23591,38.116478],[35.237652,38.114317],[35.239533,38.110833],[35.24023,38.108185],[35.240265,38.107976],[35.2403,38.107767],[35.241066,38.10498],[35.24239,38.10073],[35.243923,38.093692],[35.245038,38.087351],[35.245317,38.083658],[35.244829,38.079965],[35.244341,38.075923],[35.244272,38.07223],[35.242948,38.064217],[35.243017,38.062753],[35.24462,38.05906],[35.245596,38.056691],[35.246292,38.055715],[35.248104,38.053904],[35.251379,38.052162],[35.253609,38.05042],[35.257093,38.048329],[35.259462,38.046448],[35.25995,38.045263],[35.25995,38.043521],[35.259532,38.038853],[35.258487,38.033487],[35.258208,38.030769],[35.256425,38.030754],[35.252929,38.031686],[35.249589,38.033862],[35.245005,38.036114],[35.237392,38.0386],[35.231022,38.040309],[35.218903,38.043028],[35.209814,38.045903],[35.197617,38.048777],[35.184333,38.052584],[35.179517,38.052661],[35.171049,38.052195],[35.163164,38.052946],[35.158296,38.051807],[35.148249,38.049217],[35.143588,38.047871],[35.136441,38.046938],[35.133437,38.046628],[35.126394,38.047146],[35.118936,38.04756],[35.115725,38.047146],[35.108889,38.046317],[35.100395,38.044038],[35.094595,38.042899],[35.089208,38.041242],[35.083719,38.038445],[35.079576,38.036373],[35.075847,38.034612],[35.070771,38.032023],[35.066317,38.029019],[35.062692,38.026015],[35.061035,38.022908],[35.060206,38.021354],[35.059792,38.01949],[35.059688,38.015036],[35.059688,38.012654],[35.058756,38.008821],[35.053888,37.99722],[35.048191,37.986448],[35.046741,37.984376],[35.04498,37.982719],[35.041665,37.982201],[35.039697,37.982098],[35.038351,37.982512],[35.036072,37.981994],[35.031411,37.981269],[35.027786,37.979819],[35.023435,37.976711],[35.018464,37.974018],[35.012974,37.97174],[35.00562,37.968218],[35.000855,37.965628],[34.996297,37.965421],[34.986457,37.965525],[34.981278,37.965007],[34.977964,37.965732],[34.975478,37.966871],[34.96947,37.968943],[34.962427,37.971118],[34.95818,37.972465],[34.951551,37.975261],[34.945129,37.978783],[34.940364,37.980855],[34.934978,37.982098],[34.926485,37.982305],[34.918095,37.982408],[34.913952,37.981683],[34.908876,37.978265],[34.903594,37.974329],[34.901211,37.97319],[34.888575,37.967182],[34.882878,37.962728],[34.879874,37.957653],[34.873452,37.951956],[34.866899,37.945546],[34.858758,37.93983],[34.855294,37.937492],[34.853388,37.935067],[34.851137,37.932641],[34.847759,37.929264],[34.846113,37.927705],[34.844901,37.923461],[34.844901,37.919131],[34.844987,37.914887],[34.846373,37.910903],[34.848538,37.905533],[34.85157,37.89947],[34.854428,37.893234],[34.859971,37.883448],[34.863175,37.877298],[34.866033,37.87037],[34.866726,37.865866],[34.867506,37.862142],[34.868372,37.859024],[34.868978,37.855733],[34.868978,37.853221],[34.868718,37.851662],[34.863051,37.85454],[34.857175,37.855316],[34.847751,37.856868],[34.837994,37.85709],[34.828237,37.85709],[34.81593,37.858531],[34.801295,37.860305],[34.790541,37.859751],[34.786439,37.860195],[34.780341,37.86086],[34.77513,37.861747],[34.76881,37.862412],[34.760938,37.863299],[34.753621,37.863521],[34.742866,37.864186],[34.734329,37.865184],[34.7269,37.866403],[34.719694,37.866958],[34.715592,37.86729],[34.708607,37.868843],[34.704061,37.870395],[34.702841,37.870949],[34.696522,37.871836],[34.686211,37.874275],[34.678782,37.875938],[34.670578,37.876604],[34.656164,37.879486],[34.647738,37.88126],[34.635431,37.884143],[34.624233,37.888023],[34.617248,37.891793],[34.611261,37.89523],[34.600618,37.902215],[34.589087,37.912637],[34.582213,37.920176],[34.57423,37.930155],[34.569352,37.937694],[34.565471,37.94612],[34.563365,37.950998],[34.553871,37.966548],[34.548549,37.974614],[34.542812,37.981682],[34.539153,37.987586],[34.536409,37.991162],[34.532833,37.995569],[34.530006,38.000059],[34.527927,38.004466],[34.527595,38.009622],[34.527595,38.014611],[34.528177,38.021263],[34.529424,38.027583],[34.530838,38.03382],[34.531752,38.03806],[34.532168,38.042717],[34.532501,38.048787],[34.53275,38.050783],[34.531752,38.05386],[34.529757,38.057934],[34.526514,38.070407],[34.529375,38.073445],[34.530391,38.075556],[34.530939,38.078528],[34.532034,38.080092],[34.535162,38.081813],[34.537743,38.084159],[34.538994,38.085801],[34.541496,38.08979],[34.544155,38.093231],[34.545798,38.095264],[34.549395,38.097688],[34.553071,38.100738],[34.556043,38.103085],[34.558154,38.104101],[34.560109,38.10457],[34.563941,38.104649],[34.567539,38.104727],[34.57098,38.10457],[34.575594,38.104492],[34.580208,38.104414],[34.584197,38.105196],[34.586465,38.106369],[34.595536,38.11067],[34.60672,38.116301],[34.611334,38.119117],[34.612351,38.120915],[34.613133,38.125451],[34.613602,38.129987],[34.61368,38.131317],[34.613367,38.135696],[34.612898,38.142109],[34.611412,38.146723],[34.610786,38.148913],[34.611177,38.155795],[34.61063,38.162286],[34.610004,38.166509],[34.60891,38.168777],[34.608597,38.171671],[34.607502,38.174955],[34.606563,38.177145],[34.603904,38.18129],[34.602653,38.182932],[34.597101,38.190987],[34.59452,38.195289],[34.591861,38.201545],[34.591235,38.203813],[34.590922,38.207332],[34.589671,38.210539],[34.586777,38.213198],[34.582554,38.215857],[34.575594,38.21922],[34.572075,38.221957],[34.57098,38.224303],[34.566679,38.233375],[34.564723,38.236738],[34.563472,38.237989],[34.55964,38.240726],[34.555495,38.242212],[34.552289,38.24315],[34.549395,38.244089],[34.546423,38.244871],[34.543686,38.244793],[34.53915,38.245105],[34.537117,38.245105],[34.534458,38.245653],[34.530939,38.247061],[34.528514,38.248155],[34.524761,38.251206],[34.522023,38.25449],[34.518582,38.25668],[34.514907,38.259417],[34.508337,38.263093],[34.497545,38.267863],[34.492775,38.26974],[34.48339,38.272399],[34.477055,38.273572],[34.471737,38.274745],[34.46595,38.276309],[34.460476,38.276779],[34.455314,38.277326],[34.449527,38.279047],[34.446242,38.280376],[34.437796,38.282644],[34.434957,38.283782]]]}},{"type":"Feature","properties":{"id":"TR-D-51-006","parent_id":"TR-P-51","region_id":"TR-R-ICA","level":"district","municipality_type":null,"municipality_type_label":null,"is_metropolitan_municipality":null,"name":"Ulukışla","name_ascii":"ulukisla","slug":"ulukisla-nigde"},"geometry":{"type":"Polygon","coordinates":[[[34.775257,37.421315],[34.772784,37.420149],[34.770686,37.419665],[34.767943,37.419907],[34.766007,37.420794],[34.764151,37.421682],[34.761973,37.422972],[34.756809,37.425151],[34.753692,37.426013],[34.753017,37.4262],[34.752293,37.426362],[34.748338,37.427248],[34.745837,37.428136],[34.744142,37.430072],[34.741883,37.432331],[34.740258,37.43278],[34.739544,37.432977],[34.737566,37.433358],[34.732847,37.434268],[34.727603,37.434994],[34.720907,37.435397],[34.717767,37.435507],[34.716308,37.435559],[34.712114,37.435638],[34.712032,37.435639],[34.706304,37.435397],[34.70432,37.434929],[34.699123,37.433703],[34.694605,37.431928],[34.688877,37.430476],[34.682906,37.428539],[34.676049,37.426926],[34.671369,37.427006],[34.668949,37.426509],[34.66548,37.425796],[34.659429,37.424021],[34.654507,37.42265],[34.647988,37.422343],[34.647649,37.422327],[34.647248,37.42225],[34.643857,37.421601],[34.639904,37.419423],[34.637161,37.418454],[34.634821,37.417406],[34.631433,37.416841],[34.627076,37.41555],[34.624898,37.413694],[34.623688,37.411516],[34.62046,37.408289],[34.616991,37.40603],[34.616369,37.405171],[34.614651,37.402803],[34.613199,37.399656],[34.611828,37.398123],[34.611668,37.398081],[34.610295,37.39772],[34.607261,37.397486],[34.607148,37.397478],[34.604244,37.396994],[34.600532,37.396509],[34.600381,37.396505],[34.598031,37.396429],[34.593675,37.395622],[34.589963,37.393202],[34.587624,37.391749],[34.585768,37.391265],[34.582944,37.39062],[34.580362,37.390297],[34.579072,37.390136],[34.575171,37.389276],[34.574312,37.389087],[34.57052,37.388684],[34.566324,37.388845],[34.563347,37.389227],[34.563178,37.389248],[34.560999,37.389087],[34.560352,37.388929],[34.558014,37.388361],[34.55627,37.387324],[34.555029,37.386586],[34.552286,37.386344],[34.54922,37.386344],[34.546154,37.386828],[34.542846,37.386586],[34.538812,37.385376],[34.537878,37.385104],[34.534667,37.38417],[34.534521,37.384127],[34.534375,37.384085],[34.531955,37.382633],[34.529292,37.381664],[34.527759,37.381342],[34.523645,37.380374],[34.519691,37.378841],[34.516948,37.378034],[34.514447,37.376501],[34.512349,37.375452],[34.509848,37.375533],[34.507428,37.376582],[34.505088,37.379002],[34.502345,37.380454],[34.499844,37.38118],[34.495084,37.380858],[34.491937,37.381019],[34.489436,37.380454],[34.486129,37.378357],[34.483547,37.377388],[34.480884,37.377388],[34.476286,37.377308],[34.472574,37.376259],[34.469024,37.37287],[34.465071,37.368917],[34.458939,37.361252],[34.45305,37.35504],[34.448693,37.349635],[34.444982,37.346327],[34.438527,37.34318],[34.434009,37.340437],[34.427152,37.339388],[34.420928,37.340244],[34.417552,37.344887],[34.412487,37.349952],[34.409849,37.354172],[34.407527,37.357233],[34.405839,37.362086],[34.405852,37.36694],[34.408701,37.374696],[34.412104,37.381977],[34.414399,37.387517],[34.416615,37.391632],[34.418752,37.395352],[34.420255,37.39828],[34.421363,37.400496],[34.422709,37.408726],[34.423184,37.413712],[34.423184,37.421863],[34.423342,37.427166],[34.423738,37.430727],[34.424212,37.433972],[34.423658,37.438166],[34.422471,37.441253],[34.42073,37.444418],[34.417802,37.445289],[34.412421,37.444576],[34.40696,37.442994],[34.401579,37.441648],[34.398729,37.442361],[34.395326,37.444497],[34.391132,37.448059],[34.388362,37.450275],[34.374592,37.456922],[34.358606,37.464441],[34.3389,37.472355],[34.324259,37.480506],[34.31777,37.485017],[34.313575,37.488657],[34.310251,37.492693],[34.310172,37.497758],[34.311122,37.50037],[34.313892,37.506859],[34.316503,37.510183],[34.319115,37.515011],[34.32418,37.51968],[34.32782,37.521105],[34.331461,37.522608],[34.333835,37.523321],[34.338425,37.523954],[34.341274,37.524191],[34.346181,37.524112],[34.349267,37.524508],[34.354411,37.527673],[34.357656,37.530206],[34.360742,37.532184],[34.362721,37.534638],[34.364383,37.538357],[34.365412,37.541523],[34.364462,37.54453],[34.361929,37.547537],[34.357023,37.548804],[34.348792,37.551573],[34.337554,37.556322],[34.328137,37.563207],[34.320777,37.567164],[34.313259,37.57025],[34.306136,37.574207],[34.3021,37.578164],[34.299488,37.580697],[34.298222,37.58315],[34.297589,37.585762],[34.297747,37.58956],[34.299172,37.593992],[34.300992,37.596129],[34.305819,37.600719],[34.317849,37.61077],[34.324022,37.616072],[34.344519,37.633325],[34.363037,37.650261],[34.371743,37.659362],[34.377837,37.667197],[34.384009,37.677722],[34.386067,37.685003],[34.386103,37.685766],[34.388265,37.685472],[34.397595,37.686764],[34.410081,37.688845],[34.421492,37.689634],[34.426659,37.689491],[34.433476,37.688845],[34.437782,37.688056],[34.443595,37.687338],[34.449623,37.687697],[34.455292,37.687553],[34.46132,37.688056],[34.470004,37.688414],[34.479261,37.68906],[34.481773,37.690352],[34.487944,37.696093],[34.491317,37.700327],[34.495264,37.704489],[34.49591,37.704992],[34.498207,37.706212],[34.501867,37.708436],[34.505024,37.710302],[34.507895,37.712168],[34.510765,37.713819],[34.5122,37.714249],[34.516434,37.71389],[34.522104,37.711953],[34.528778,37.71224],[34.538322,37.713819],[34.54313,37.714249],[34.548656,37.713603],[34.55045,37.713245],[34.555545,37.712168],[34.559779,37.710805],[34.567028,37.708652],[34.571405,37.706642],[34.580591,37.704418],[34.587049,37.702265],[34.590853,37.699107],[34.594226,37.697815],[34.598244,37.696308],[34.608148,37.692792],[34.619343,37.689634],[34.625371,37.688773],[34.635705,37.688271],[34.63958,37.689204],[34.643958,37.690926],[34.648048,37.692433],[34.650129,37.692792],[34.652928,37.692361],[34.658382,37.690783],[34.662688,37.689778],[34.66685,37.687769],[34.671443,37.6854],[34.676682,37.682817],[34.6807,37.681669],[34.688092,37.680664],[34.695914,37.680736],[34.700364,37.681023],[34.705889,37.683176],[34.7112,37.684396],[34.719022,37.685616],[34.729284,37.68619],[34.73603,37.686477],[34.741914,37.687625],[34.747225,37.688486],[34.753827,37.690639],[34.758276,37.6915],[34.765596,37.691644],[34.770404,37.691644],[34.777294,37.692074],[34.783968,37.692433],[34.788848,37.694084],[34.792795,37.695304],[34.795665,37.696093],[34.801047,37.696452],[34.806788,37.696093],[34.812529,37.69595],[34.81949,37.695878],[34.824299,37.695734],[34.826595,37.695088],[34.8337,37.694443],[34.840661,37.693007],[34.848411,37.689778],[34.850277,37.688917],[34.853793,37.687051],[34.856879,37.686262],[34.860324,37.68497],[34.864845,37.683463],[34.870658,37.680592],[34.87525,37.677148],[34.878443,37.673822],[34.8752,37.671266],[34.865355,37.656694],[34.85774,37.64186],[34.853802,37.633852],[34.849732,37.622956],[34.847238,37.609434],[34.841331,37.601951],[34.838574,37.596832],[34.839887,37.589743],[34.841856,37.580816],[34.8433,37.570051],[34.845663,37.561386],[34.846319,37.554166],[34.846451,37.548653],[34.842381,37.545371],[34.837655,37.540382],[34.833979,37.535525],[34.830566,37.52883],[34.827284,37.510844],[34.826496,37.496929],[34.825052,37.489052],[34.82072,37.480782],[34.815338,37.476975],[34.805754,37.474087],[34.799978,37.47028],[34.782387,37.464241],[34.776479,37.459909],[34.774641,37.455576],[34.774904,37.447831],[34.77556,37.441792],[34.776086,37.432734],[34.775167,37.421838],[34.775257,37.421315]]]}}]}