{"type":"FeatureCollection","province":"Osmaniye","province_id":"TR-P-80","features":[{"type":"Feature","properties":{"id":"TR-D-80-001","parent_id":"TR-P-80","region_id":"TR-R-AKD","level":"district","municipality_type":null,"municipality_type_label":null,"is_metropolitan_municipality":null,"name":"Bahçe","name_ascii":"bahce","slug":"bahce-osmaniye"},"geometry":{"type":"Polygon","coordinates":[[[36.645551,37.161064],[36.641744,37.160207],[36.638222,37.160112],[36.635176,37.159446],[36.632987,37.158304],[36.629561,37.156305],[36.626494,37.154102],[36.624388,37.154294],[36.620547,37.154294],[36.612784,37.15552],[36.608617,37.155438],[36.604776,37.155193],[36.598639,37.154645],[36.595622,37.154376],[36.592957,37.15365],[36.590106,37.152038],[36.587627,37.150179],[36.583537,37.14801],[36.580686,37.146956],[36.575728,37.145965],[36.570274,37.145717],[36.565316,37.146275],[36.561969,37.147018],[36.55918,37.148134],[36.558126,37.148878],[36.557445,37.150117],[36.556391,37.15303],[36.556515,37.157244],[36.556515,37.160281],[36.556701,37.163256],[36.556237,37.166143],[36.55385,37.168834],[36.552611,37.170135],[36.551309,37.170569],[36.549326,37.171003],[36.545173,37.172057],[36.543562,37.172057],[36.540897,37.170817],[36.53972,37.169392],[36.537984,37.167284],[36.535753,37.165301],[36.532406,37.16307],[36.52937,37.159352],[36.528006,37.157802],[36.525403,37.154394],[36.522614,37.151047],[36.519949,37.149559],[36.515239,37.148816],[36.510653,37.148878],[36.506563,37.149188],[36.502534,37.150923],[36.498258,37.153526],[36.493548,37.156501],[36.49144,37.158422],[36.490387,37.161025],[36.489147,37.16338],[36.487226,37.166665],[36.485615,37.168896],[36.484437,37.169826],[36.481648,37.171809],[36.477868,37.173668],[36.476351,37.174274],[36.474696,37.174335],[36.472367,37.174457],[36.470161,37.174274],[36.467084,37.174156],[36.462472,37.174641],[36.462146,37.174614],[36.458044,37.174275],[36.45806,37.174886],[36.458133,37.177656],[36.455151,37.182092],[36.452315,37.185729],[36.451151,37.188201],[36.450351,37.189074],[36.450206,37.190674],[36.450133,37.193074],[36.453697,37.197292],[36.457697,37.202165],[36.460751,37.203692],[36.46846,37.206383],[36.472896,37.208419],[36.478424,37.210165],[36.484751,37.212783],[36.491224,37.215401],[36.496969,37.218819],[36.499878,37.21991],[36.502351,37.22071],[36.507151,37.222092],[36.511223,37.223983],[36.514205,37.224637],[36.517914,37.226092],[36.52046,37.229292],[36.522132,37.231037],[36.524096,37.232419],[36.526932,37.235328],[36.532169,37.239037],[36.536314,37.240855],[36.542132,37.243837],[36.548678,37.247546],[36.552532,37.250237],[36.556023,37.251619],[36.558496,37.252564],[36.561986,37.254673],[36.564241,37.257146],[36.568823,37.260273],[36.570932,37.260637],[36.575368,37.262455],[36.577259,37.264564],[36.580095,37.266746],[36.581914,37.267473],[36.584823,37.267982],[36.588386,37.269655],[36.590859,37.270091],[36.593477,37.271037],[36.596095,37.271473],[36.599368,37.272273],[36.601332,37.272928],[36.603804,37.275473],[36.605041,37.277728],[36.607295,37.279546],[36.609186,37.281073],[36.61115,37.281655],[36.614277,37.281946],[36.617113,37.282455],[36.619586,37.283473],[36.624168,37.285655],[36.627949,37.2866],[36.630859,37.287837],[36.636306,37.29024],[36.638003,37.28877],[36.643523,37.285537],[36.645653,37.283328],[36.651174,37.279069],[36.656932,37.276545],[36.659613,37.275757],[36.662058,37.274179],[36.664424,37.272129],[36.665765,37.270551],[36.667342,37.268737],[36.669709,37.266292],[36.671523,37.264084],[36.673021,37.262112],[36.674677,37.260377],[36.676334,37.258326],[36.67799,37.25667],[36.678227,37.254698],[36.677517,37.252174],[36.677122,37.249887],[36.676334,37.248389],[36.675151,37.246653],[36.674046,37.244208],[36.674283,37.24342],[36.677359,37.241921],[36.679804,37.24129],[36.683038,37.240738],[36.685009,37.240423],[36.687928,37.240186],[36.689663,37.239318],[36.690215,37.238214],[36.691477,37.236085],[36.692029,37.234507],[36.692581,37.231431],[36.692818,37.229854],[36.692108,37.227646],[36.692108,37.225595],[36.692975,37.22457],[36.693685,37.223623],[36.694868,37.222125],[36.695342,37.220705],[36.694711,37.219601],[36.693685,37.218102],[36.693528,37.216761],[36.694789,37.215342],[36.696367,37.213607],[36.701651,37.209979],[36.705417,37.207275],[36.70399,37.206083],[36.70123,37.203704],[36.69828,37.200849],[36.694473,37.197232],[36.690665,37.193139],[36.687525,37.190189],[36.683908,37.186857],[36.682195,37.18562],[36.679434,37.182955],[36.676008,37.181432],[36.670297,37.178862],[36.666585,37.17734],[36.660018,37.173152],[36.656021,37.16963],[36.652404,37.166013],[36.648216,37.162492],[36.645551,37.161064]]]}},{"type":"Feature","properties":{"id":"TR-D-80-002","parent_id":"TR-P-80","region_id":"TR-R-AKD","level":"district","municipality_type":null,"municipality_type_label":null,"is_metropolitan_municipality":null,"name":"Düziçi","name_ascii":"duzici","slug":"duzici-osmaniye"},"geometry":{"type":"Polygon","coordinates":[[[36.472529,37.403873],[36.474253,37.404743],[36.475159,37.405421],[36.476166,37.40589],[36.477103,37.406194],[36.477401,37.406364],[36.4777,37.406534],[36.478485,37.406909],[36.478737,37.406985],[36.478989,37.407061],[36.47968,37.407061],[36.480699,37.407049],[36.481811,37.407049],[36.482168,37.407049],[36.482526,37.407049],[36.484283,37.407254],[36.48642,37.407698],[36.48742,37.408059],[36.488197,37.408365],[36.489002,37.409031],[36.49003,37.409503],[36.490918,37.409725],[36.491945,37.409669],[36.494583,37.410391],[36.496859,37.411391],[36.498372,37.41191],[36.498719,37.412029],[36.500579,37.412473],[36.502412,37.412557],[36.50634,37.413328],[36.510815,37.41561],[36.514149,37.417628],[36.518185,37.419207],[36.522222,37.42105],[36.52617,37.423419],[36.529329,37.425174],[36.531435,37.4257],[36.535208,37.425788],[36.53625,37.426244],[36.538015,37.427016],[36.542403,37.427982],[36.546702,37.428245],[36.549071,37.428157],[36.549598,37.42728],[36.549861,37.425261],[36.550387,37.42219],[36.551177,37.419207],[36.552142,37.416575],[36.553546,37.414293],[36.554511,37.412714],[36.555126,37.410345],[36.554687,37.40859],[36.554775,37.407011],[36.555652,37.405519],[36.557056,37.404642],[36.559162,37.403501],[36.561355,37.402009],[36.562408,37.400254],[36.56469,37.398938],[36.568901,37.396306],[36.571885,37.394639],[36.572938,37.392972],[36.572499,37.390252],[36.571972,37.387444],[36.571095,37.384899],[36.570656,37.382969],[36.571358,37.380337],[36.57557,37.378582],[36.577325,37.37788],[36.578027,37.377002],[36.578202,37.375423],[36.578027,37.374194],[36.577851,37.37086],[36.578202,37.369105],[36.579605,37.367018],[36.581847,37.365748],[36.582793,37.363224],[36.583424,37.361174],[36.585948,37.358098],[36.587131,37.357309],[36.588551,37.355732],[36.589813,37.354391],[36.591942,37.353681],[36.594308,37.353208],[36.595886,37.352261],[36.5977,37.351709],[36.599908,37.351709],[36.602511,37.351236],[36.603852,37.351078],[36.609136,37.350211],[36.611108,37.349659],[36.613001,37.34816],[36.614499,37.346819],[36.615904,37.345798],[36.619779,37.343907],[36.625781,37.342923],[36.630701,37.343021],[36.635227,37.34371],[36.639065,37.345088],[36.642312,37.345678],[36.646346,37.347252],[36.647729,37.347886],[36.648045,37.345803],[36.646543,37.342234],[36.644771,37.340266],[36.643787,37.338692],[36.643591,37.333182],[36.642607,37.329049],[36.64182,37.326294],[36.641426,37.323835],[36.640442,37.322752],[36.637687,37.320981],[36.635621,37.319702],[36.633456,37.31862],[36.631535,37.317085],[36.631062,37.315034],[36.630668,37.313457],[36.631062,37.312747],[36.631535,37.311879],[36.631535,37.31117],[36.63122,37.310381],[36.629406,37.308961],[36.628854,37.30762],[36.628775,37.306359],[36.629169,37.304545],[36.628854,37.301311],[36.629248,37.299024],[36.629169,37.296579],[36.629327,37.295632],[36.630668,37.29508],[36.632087,37.293739],[36.634059,37.292162],[36.635636,37.290821],[36.636306,37.29024],[36.630859,37.287837],[36.627949,37.2866],[36.624168,37.285655],[36.619586,37.283473],[36.617113,37.282455],[36.614277,37.281946],[36.61115,37.281655],[36.609186,37.281073],[36.607295,37.279546],[36.605041,37.277728],[36.603804,37.275473],[36.601332,37.272928],[36.599368,37.272273],[36.596095,37.271473],[36.593477,37.271037],[36.590859,37.270091],[36.588386,37.269655],[36.584823,37.267982],[36.581914,37.267473],[36.580095,37.266746],[36.577259,37.264564],[36.575368,37.262455],[36.570932,37.260637],[36.568823,37.260273],[36.564241,37.257146],[36.561986,37.254673],[36.558496,37.252564],[36.556023,37.251619],[36.552532,37.250237],[36.548678,37.247546],[36.542132,37.243837],[36.536314,37.240855],[36.532169,37.239037],[36.526932,37.235328],[36.524096,37.232419],[36.522132,37.231037],[36.52046,37.229292],[36.517914,37.226092],[36.514205,37.224637],[36.511223,37.223983],[36.507151,37.222092],[36.502351,37.22071],[36.499878,37.21991],[36.496969,37.218819],[36.491224,37.215401],[36.484751,37.212783],[36.478424,37.210165],[36.472896,37.208419],[36.46846,37.206383],[36.460751,37.203692],[36.457697,37.202165],[36.453697,37.197292],[36.450133,37.193074],[36.450206,37.190674],[36.450351,37.189074],[36.451151,37.188201],[36.452315,37.185729],[36.455151,37.182092],[36.458133,37.177656],[36.45806,37.174886],[36.458044,37.174275],[36.452545,37.173821],[36.450367,37.173641],[36.449251,37.173567],[36.448693,37.173538],[36.448136,37.17352],[36.447581,37.173516],[36.447026,37.173531],[36.446478,37.173569],[36.446056,37.173613],[36.445385,37.173696],[36.44484,37.173776],[36.444213,37.173882],[36.443207,37.174051],[36.441576,37.174349],[36.439952,37.17466],[36.438879,37.174881],[36.438349,37.175],[36.437825,37.175127],[36.43731,37.175265],[36.436655,37.175457],[36.436318,37.175594],[36.435866,37.175783],[36.434978,37.176178],[36.434467,37.176371],[36.434041,37.176501],[36.433542,37.176621],[36.433031,37.176721],[36.432511,37.176804],[36.431984,37.176875],[36.431452,37.176936],[36.430379,37.177034],[36.42976,37.177074],[36.429298,37.177096],[36.428757,37.177108],[36.428259,37.177106],[36.42776,37.177091],[36.427263,37.177065],[36.426766,37.177027],[36.426266,37.176977],[36.425767,37.176916],[36.424775,37.176768],[36.424282,37.176681],[36.423851,37.176596],[36.423388,37.176932],[36.422481,37.177591],[36.42042,37.17905],[36.419903,37.179734],[36.418803,37.180218],[36.41531,37.180954],[36.41292,37.180892],[36.410775,37.180586],[36.407649,37.180218],[36.403543,37.180402],[36.400602,37.18077],[36.397537,37.180892],[36.395331,37.181444],[36.392328,37.182731],[36.389938,37.183221],[36.386444,37.184018],[36.384054,37.184263],[36.380806,37.184202],[36.3786,37.184141],[36.375352,37.184263],[36.37241,37.184815],[36.369223,37.185244],[36.366772,37.185182],[36.362114,37.185182],[36.35905,37.185244],[36.357027,37.184324],[36.355005,37.18316],[36.352124,37.182241],[36.349795,37.181444],[36.347283,37.180525],[36.344831,37.178809],[36.342502,37.177522],[36.340664,37.175928],[36.337416,37.173538],[36.335332,37.172435],[36.332758,37.170903],[36.329877,37.170167],[36.328223,37.170045],[36.3243,37.17029],[36.321052,37.170964],[36.319397,37.171454],[36.316701,37.172006],[36.31333,37.1717],[36.311553,37.171638],[36.307631,37.172006],[36.305118,37.172741],[36.303647,37.173232],[36.301441,37.175315],[36.299725,37.177277],[36.29758,37.179973],[36.296231,37.181076],[36.293106,37.182915],[36.290961,37.183589],[36.288142,37.183834],[36.286221,37.183773],[36.284276,37.184099],[36.280794,37.184469],[36.274347,37.185136],[36.269902,37.185951],[36.267086,37.186692],[36.261529,37.188989],[36.258565,37.190916],[36.256638,37.192324],[36.255156,37.19425],[36.254341,37.195213],[36.252934,37.196103],[36.251674,37.196769],[36.249081,37.197807],[36.247376,37.198399],[36.247156,37.198746],[36.24722,37.202517],[36.247481,37.20571],[36.24756,37.206668],[36.247964,37.206867],[36.248405,37.207098],[36.248832,37.20734],[36.249242,37.2076],[36.24963,37.207876],[36.249993,37.208169],[36.250323,37.208481],[36.250592,37.208786],[36.25083,37.209107],[36.251037,37.20944],[36.251216,37.20979],[36.251355,37.210138],[36.25146,37.210509],[36.251528,37.210886],[36.251562,37.211268],[36.251562,37.211651],[36.251526,37.212035],[36.251456,37.212405],[36.251357,37.212774],[36.251236,37.213141],[36.250952,37.213873],[36.250492,37.214965],[36.250352,37.215331],[36.250228,37.2157],[36.250123,37.216086],[36.25004,37.216475],[36.249978,37.216867],[36.249935,37.217261],[36.249913,37.217656],[36.249913,37.218054],[36.24993,37.218454],[36.249963,37.218853],[36.250008,37.219253],[36.250065,37.219652],[36.250126,37.22001],[36.250301,37.220849],[36.250399,37.221246],[36.250508,37.221642],[36.250625,37.222019],[36.25089,37.222767],[36.25104,37.223137],[36.251202,37.223503],[36.25138,37.223869],[36.251573,37.22423],[36.251778,37.224585],[36.251998,37.224934],[36.252233,37.225274],[36.252477,37.225593],[36.252737,37.225901],[36.253019,37.226202],[36.253308,37.226476],[36.253623,37.226737],[36.253982,37.226988],[36.254365,37.22721],[36.254771,37.227401],[36.255198,37.227556],[36.255665,37.227675],[36.256151,37.227759],[36.25665,37.227817],[36.257159,37.227856],[36.25766,37.22788],[36.258164,37.227895],[36.260195,37.227927],[36.2607,37.227943],[36.261202,37.227972],[36.261684,37.228015],[36.26216,37.228078],[36.262628,37.228162],[36.263084,37.228272],[36.263556,37.228422],[36.264014,37.228601],[36.264464,37.2288],[36.264906,37.229015],[36.265363,37.229252],[36.265808,37.229497],[36.266267,37.22975],[36.269856,37.231828],[36.272577,37.233387],[36.273475,37.233912],[36.273915,37.234178],[36.274252,37.234391],[36.274752,37.234725],[36.275135,37.235009],[36.275479,37.235305],[36.27577,37.235617],[36.275986,37.23595],[36.276102,37.236273],[36.27615,37.236611],[36.27614,37.236958],[36.276078,37.237308],[36.275968,37.237654],[36.275813,37.23798],[36.275618,37.238294],[36.275384,37.238592],[36.275113,37.238868],[36.274802,37.239116],[36.27444,37.239336],[36.274043,37.239524],[36.273618,37.239688],[36.273173,37.239831],[36.272695,37.239959],[36.272206,37.240075],[36.271855,37.24015],[36.270715,37.240396],[36.270222,37.24051],[36.269733,37.240633],[36.269252,37.240769],[36.26877,37.240926],[36.268298,37.2411],[36.267838,37.24129],[36.26739,37.241497],[36.266935,37.241734],[36.266497,37.241988],[36.266077,37.24226],[36.265678,37.242548],[36.265297,37.242863],[36.264945,37.243195],[36.264626,37.243545],[36.264347,37.243913],[36.264145,37.244247],[36.264004,37.244536],[36.263837,37.24495],[36.263728,37.245314],[36.263651,37.245684],[36.263601,37.246114],[36.263584,37.24655],[36.263591,37.246988],[36.263614,37.247429],[36.263691,37.248315],[36.264087,37.251871],[36.264457,37.255451],[36.264574,37.256342],[36.264647,37.256781],[36.264738,37.257213],[36.264853,37.257633],[36.264978,37.257984],[36.265131,37.258318],[36.265313,37.258629],[36.26553,37.25891],[36.26579,37.259149],[36.266104,37.259342],[36.266459,37.259483],[36.266842,37.259572],[36.267246,37.259605],[36.267685,37.259577],[36.26813,37.259493],[36.268577,37.259364],[36.269021,37.259196],[36.269483,37.258982],[36.269938,37.25874],[36.270389,37.25848],[36.270837,37.258207],[36.272603,37.257112],[36.273042,37.256856],[36.273483,37.256616],[36.273923,37.256397],[36.274363,37.256208],[36.2748,37.256058],[36.275225,37.255959],[36.275629,37.25592],[36.276,37.255961],[36.276313,37.256089],[36.276609,37.256311],[36.276838,37.256587],[36.277008,37.256911],[36.277104,37.257234],[36.277156,37.257579],[36.277174,37.257941],[36.277164,37.258315],[36.277131,37.258696],[36.277074,37.25912],[36.276915,37.259976],[36.276724,37.260835],[36.276312,37.262548],[36.275991,37.263823],[36.275763,37.264667],[36.275533,37.265443],[36.275283,37.266214],[36.274993,37.267018],[36.274655,37.267853],[36.274449,37.26831],[36.274273,37.268672],[36.274059,37.269072],[36.273823,37.269463],[36.27358,37.269814],[36.273317,37.270156],[36.273039,37.270491],[36.272748,37.270821],[36.272445,37.271144],[36.272132,37.271462],[36.271809,37.271773],[36.271475,37.272077],[36.271132,37.272374],[36.270782,37.272666],[36.270062,37.273235],[36.269317,37.27378],[36.268996,37.273997],[36.268537,37.274289],[36.268132,37.274523],[36.267716,37.274746],[36.267292,37.27496],[36.266426,37.275368],[36.265986,37.275564],[36.265084,37.275947],[36.26416,37.27632],[36.261836,37.27724],[36.260914,37.27762],[36.259952,37.278042],[36.259009,37.278487],[36.258548,37.27872],[36.258097,37.278962],[36.25766,37.279218],[36.257243,37.279491],[36.256895,37.279748],[36.256566,37.280021],[36.256252,37.280305],[36.255926,37.280632],[36.255672,37.280907],[36.255409,37.281223],[36.255152,37.28157],[36.254929,37.281906],[36.2547,37.282292],[36.254503,37.282664],[36.254329,37.283044],[36.254172,37.283451],[36.25404,37.283864],[36.253929,37.284282],[36.253839,37.284703],[36.253774,37.285127],[36.253733,37.285564],[36.253716,37.286002],[36.253719,37.286441],[36.25374,37.28688],[36.253782,37.287318],[36.253836,37.287704],[36.253905,37.288089],[36.253967,37.28838],[36.25408,37.288854],[36.254186,37.289233],[36.254306,37.289609],[36.254455,37.290022],[36.254619,37.290432],[36.254973,37.291245],[36.255538,37.292456],[36.256698,37.294869],[36.256859,37.295195],[36.257292,37.29607],[36.257704,37.296864],[36.25792,37.297257],[36.258396,37.298066],[36.259148,37.299265],[36.260951,37.302044],[36.261716,37.303239],[36.262213,37.30404],[36.262675,37.30482],[36.263566,37.306392],[36.264209,37.307579],[36.264615,37.308377],[36.264806,37.30878],[36.265171,37.309626],[36.265509,37.310481],[36.265992,37.311769],[36.268199,37.317796],[36.271998,37.328124],[36.272925,37.330701],[36.273969,37.333705],[36.27439,37.334997],[36.274642,37.335863],[36.274749,37.336278],[36.275028,37.33753],[36.275611,37.340463],[36.275792,37.341297],[36.275893,37.341712],[36.276003,37.342124],[36.276126,37.342533],[36.276254,37.342899],[36.276426,37.343324],[36.276601,37.343706],[36.276986,37.344461],[36.277399,37.345209],[36.277854,37.345946],[36.279195,37.348203],[36.279894,37.349379],[36.280111,37.34971],[36.280645,37.350483],[36.28176,37.352009],[36.286013,37.357707],[36.28882,37.361542],[36.289387,37.362301],[36.289971,37.363036],[36.290275,37.363387],[36.290592,37.363718],[36.290927,37.364023],[36.291289,37.364291],[36.291685,37.364509],[36.292113,37.364661],[36.292574,37.364765],[36.29306,37.364833],[36.293564,37.364876],[36.294081,37.3649],[36.295139,37.364914],[36.296754,37.364894],[36.300542,37.364813],[36.302175,37.36477],[36.303831,37.364717],[36.312098,37.364432],[36.318902,37.364205],[36.320913,37.364138],[36.324149,37.364022],[36.326304,37.363927],[36.327377,37.363858],[36.327912,37.363811],[36.328444,37.363753],[36.328929,37.363687],[36.329412,37.36361],[36.329893,37.363523],[36.330846,37.363324],[36.331319,37.363212],[36.331787,37.363089],[36.332268,37.36295],[36.333218,37.362645],[36.333687,37.362482],[36.334618,37.362138],[36.335533,37.361769],[36.335982,37.361573],[36.336424,37.361366],[36.336897,37.361126],[36.337363,37.360875],[36.338746,37.360101],[36.339211,37.359849],[36.339639,37.35963],[36.340072,37.359421],[36.340511,37.359222],[36.340955,37.359036],[36.341127,37.358972],[36.341406,37.358868],[36.341865,37.358721],[36.342333,37.358603],[36.342808,37.358519],[36.343292,37.358465],[36.34378,37.358435],[36.344272,37.358426],[36.344765,37.358436],[36.345255,37.358465],[36.345742,37.358516],[36.34601,37.358559],[36.346222,37.358593],[36.346687,37.358697],[36.347141,37.358829],[36.347581,37.358989],[36.348004,37.359177],[36.348407,37.359395],[36.348795,37.359636],[36.349173,37.359894],[36.350281,37.360707],[36.350655,37.360976],[36.351037,37.361235],[36.351429,37.361479],[36.351831,37.361708],[36.352241,37.36192],[36.352658,37.362114],[36.353081,37.362285],[36.353509,37.362427],[36.353941,37.362533],[36.354379,37.36259],[36.354852,37.362589],[36.355328,37.362533],[36.355804,37.362435],[36.356277,37.362302],[36.356745,37.362139],[36.357203,37.36195],[36.357645,37.361735],[36.358073,37.3615],[36.358488,37.361246],[36.358888,37.360976],[36.359269,37.360689],[36.359627,37.360384],[36.359959,37.360061],[36.36027,37.359721],[36.360564,37.359371],[36.360847,37.359012],[36.361388,37.35828],[36.361909,37.357536],[36.362414,37.356786],[36.362903,37.35603],[36.363017,37.355844],[36.363373,37.355262],[36.36406,37.354103],[36.364298,37.353722],[36.364547,37.353348],[36.364812,37.352983],[36.3651,37.352631],[36.365422,37.35229],[36.365768,37.351963],[36.366132,37.351646],[36.36651,37.351337],[36.366898,37.351033],[36.367294,37.350735],[36.368043,37.350196],[36.36875,37.34972],[36.369112,37.349493],[36.369482,37.349275],[36.369913,37.349042],[36.370355,37.348826],[36.370806,37.348628],[36.371266,37.348452],[36.371735,37.348303],[36.372216,37.348188],[36.372656,37.34812],[36.373104,37.348081],[36.373558,37.348066],[36.374016,37.348072],[36.374475,37.348097],[36.374946,37.348141],[36.375417,37.3482],[36.375887,37.348272],[36.376356,37.348355],[36.376823,37.348449],[36.377367,37.34857],[36.377908,37.348702],[36.378524,37.348865],[36.379519,37.349129],[36.380587,37.349429],[36.38165,37.349738],[36.382706,37.35006],[36.383229,37.350229],[36.384182,37.350557],[36.387029,37.351585],[36.387426,37.351718],[36.388001,37.351911],[36.38849,37.352065],[36.388981,37.35221],[36.389476,37.352342],[36.389974,37.352458],[36.390479,37.352551],[36.391018,37.352619],[36.391563,37.352664],[36.392113,37.352689],[36.392665,37.3527],[36.39322,37.3527],[36.394334,37.352674],[36.394891,37.352648],[36.395449,37.352612],[36.395634,37.352596],[36.395783,37.352583],[36.396527,37.352517],[36.399217,37.352213],[36.400286,37.352106],[36.400817,37.352066],[36.401343,37.352041],[36.401862,37.352037],[36.402372,37.352062],[36.402869,37.352128],[36.403298,37.352228],[36.403315,37.352234],[36.403712,37.352364],[36.404113,37.35253],[36.404499,37.352722],[36.404868,37.352939],[36.405236,37.353192],[36.405584,37.353466],[36.405915,37.353758],[36.406228,37.354063],[36.406523,37.354381],[36.406832,37.35476],[36.406867,37.354809],[36.407044,37.355055],[36.40728,37.355439],[36.40749,37.355836],[36.407685,37.35624],[36.40825,37.357465],[36.408453,37.357866],[36.408892,37.358655],[36.409126,37.359044],[36.409369,37.359428],[36.409624,37.359806],[36.409892,37.360176],[36.410177,37.360535],[36.410484,37.360881],[36.410799,37.361193],[36.411135,37.361491],[36.411488,37.361776],[36.411856,37.36205],[36.412132,37.362238],[36.412185,37.362274],[36.412634,37.362557],[36.413046,37.362786],[36.413459,37.362989],[36.413884,37.363176],[36.414318,37.363353],[36.414759,37.363521],[36.41526,37.363702],[36.416272,37.364049],[36.417806,37.364546],[36.418836,37.364862],[36.419354,37.365012],[36.419875,37.365154],[36.420394,37.365286],[36.420916,37.365411],[36.421965,37.365646],[36.423545,37.36598],[36.426183,37.366525],[36.429352,37.367164],[36.430412,37.367361],[36.431472,37.367536],[36.432533,37.367688],[36.434129,37.367894],[36.435728,37.368085],[36.436796,37.368201],[36.437864,37.368301],[36.438399,37.36834],[36.438935,37.36837],[36.439933,37.368394],[36.442931,37.368394],[36.444431,37.368413],[36.445431,37.36844],[36.446431,37.36848],[36.447931,37.368565],[36.449428,37.368684],[36.450918,37.36884],[36.451913,37.36897],[36.452408,37.369044],[36.452901,37.369125],[36.453391,37.369216],[36.453878,37.369316],[36.454362,37.369426],[36.454842,37.369546],[36.455323,37.36968],[36.455801,37.369823],[36.456748,37.370131],[36.458297,37.370672],[36.464989,37.373078],[36.465637,37.373322],[36.466007,37.373461],[36.466509,37.373662],[36.467002,37.373871],[36.467484,37.374093],[36.467948,37.374334],[36.468372,37.374587],[36.468777,37.37486],[36.469161,37.375151],[36.469524,37.37546],[36.469816,37.375741],[36.470094,37.376033],[36.470358,37.376334],[36.470612,37.376643],[36.470856,37.376957],[36.471096,37.377285],[36.471329,37.377618],[36.471778,37.378292],[36.472209,37.378975],[36.472628,37.379664],[36.473238,37.380707],[36.473633,37.381411],[36.474012,37.382119],[36.474194,37.382476],[36.474537,37.383195],[36.474697,37.383557],[36.474846,37.383921],[36.474985,37.384296],[36.475109,37.384673],[36.475218,37.385053],[36.475309,37.385435],[36.475379,37.385819],[36.475425,37.386211],[36.47545,37.386606],[36.475455,37.387002],[36.475445,37.387399],[36.475419,37.387796],[36.475373,37.388238],[36.475314,37.388679],[36.475169,37.389561],[36.475006,37.390443],[36.473903,37.396169],[36.473775,37.39686],[36.473215,37.399893],[36.473286,37.401881],[36.472971,37.402827],[36.472529,37.403873]]]}},{"type":"Feature","properties":{"id":"TR-D-80-003","parent_id":"TR-P-80","region_id":"TR-R-AKD","level":"district","municipality_type":null,"municipality_type_label":null,"is_metropolitan_municipality":null,"name":"Hasanbeyli","name_ascii":"hasanbeyli","slug":"hasanbeyli-osmaniye"},"geometry":{"type":"Polygon","coordinates":[[[36.436655,37.175457],[36.43731,37.175265],[36.437825,37.175127],[36.438349,37.175],[36.438879,37.174881],[36.439952,37.17466],[36.441576,37.174349],[36.443207,37.174051],[36.444213,37.173882],[36.44484,37.173776],[36.445385,37.173696],[36.446056,37.173613],[36.446478,37.173569],[36.447026,37.173531],[36.447581,37.173516],[36.448136,37.17352],[36.448693,37.173538],[36.449251,37.173567],[36.450367,37.173641],[36.452545,37.173821],[36.458044,37.174275],[36.462146,37.174614],[36.462472,37.174641],[36.467084,37.174156],[36.470161,37.174274],[36.472367,37.174457],[36.474696,37.174335],[36.476351,37.174274],[36.477868,37.173668],[36.481648,37.171809],[36.484437,37.169826],[36.485615,37.168896],[36.487226,37.166665],[36.489147,37.16338],[36.490387,37.161025],[36.49144,37.158422],[36.493548,37.156501],[36.498258,37.153526],[36.502534,37.150923],[36.506563,37.149188],[36.510653,37.148878],[36.515239,37.148816],[36.519949,37.149559],[36.522614,37.151047],[36.525403,37.154394],[36.528006,37.157802],[36.52937,37.159352],[36.532406,37.16307],[36.535753,37.165301],[36.537984,37.167284],[36.53972,37.169392],[36.540897,37.170817],[36.543562,37.172057],[36.545173,37.172057],[36.549326,37.171003],[36.551309,37.170569],[36.552611,37.170135],[36.55385,37.168834],[36.556237,37.166143],[36.556701,37.163256],[36.556515,37.160281],[36.556515,37.157244],[36.556391,37.15303],[36.557445,37.150117],[36.558126,37.148878],[36.55918,37.148134],[36.561969,37.147018],[36.565316,37.146275],[36.570274,37.145717],[36.575728,37.145965],[36.580686,37.146956],[36.583537,37.14801],[36.587627,37.150179],[36.590106,37.152038],[36.592957,37.15365],[36.595622,37.154376],[36.598639,37.154645],[36.604776,37.155193],[36.608617,37.155438],[36.612784,37.15552],[36.620547,37.154294],[36.624388,37.154294],[36.626494,37.154102],[36.624576,37.151515],[36.623068,37.148143],[36.62218,37.144771],[36.621559,37.139714],[36.621382,37.137762],[36.620406,37.136342],[36.617833,37.134124],[36.615615,37.131906],[36.614461,37.128357],[36.613663,37.125961],[36.613751,37.124276],[36.614461,37.122324],[36.61526,37.120904],[36.61526,37.120017],[36.614727,37.117799],[36.612509,37.115048],[36.611571,37.113909],[36.610025,37.112031],[36.607186,37.108305],[36.606121,37.106708],[36.605769,37.105904],[36.6055,37.105288],[36.605589,37.10236],[36.602306,37.097747],[36.601895,37.097037],[36.60133,37.096061],[36.598402,37.091181],[36.596361,37.088963],[36.595462,37.08801],[36.593433,37.085857],[36.591481,37.084793],[36.590328,37.084459],[36.587488,37.083639],[36.584738,37.082752],[36.581987,37.081598],[36.58039,37.079469],[36.579503,37.076896],[36.578882,37.072637],[36.574712,37.064563],[36.573121,37.061984],[36.572139,37.060393],[36.571922,37.059944],[36.570808,37.057642],[36.569704,37.055508],[36.569477,37.055069],[36.567614,37.052762],[36.564242,37.051432],[36.562174,37.050817],[36.560959,37.050456],[36.557144,37.04806],[36.556523,37.047805],[36.553684,37.04664],[36.550844,37.044955],[36.550244,37.044323],[36.549159,37.04318],[36.548934,37.042606],[36.54836,37.041139],[36.546674,37.039808],[36.544634,37.038211],[36.543482,37.037544],[36.542948,37.037235],[36.542767,37.036925],[36.542327,37.036171],[36.541149,37.033708],[36.540375,37.032089],[36.539221,37.030137],[36.537713,37.028274],[36.53656,37.026677],[36.534164,37.024991],[36.532035,37.02437],[36.530331,37.023944],[36.529905,37.023838],[36.529337,37.023466],[36.527598,37.022329],[36.525817,37.021272],[36.524759,37.020644],[36.524047,37.02047],[36.521476,37.019845],[36.517572,37.019224],[36.51562,37.018514],[36.512071,37.017006],[36.509498,37.01674],[36.507058,37.016189],[36.506748,37.016119],[36.504618,37.014699],[36.502289,37.012287],[36.501827,37.014107],[36.50198,37.016176],[36.50175,37.018552],[36.500754,37.021771],[36.499604,37.02361],[36.497918,37.025909],[36.496155,37.027902],[36.493856,37.030814],[36.491863,37.033497],[36.490177,37.036179],[36.489334,37.038478],[36.488261,37.041084],[36.488108,37.04323],[36.486422,37.046296],[36.486422,37.047905],[36.486345,37.050128],[36.486345,37.052733],[36.485656,37.055033],[36.483893,37.057408],[36.481824,37.059095],[36.480674,37.059631],[36.478298,37.061241],[36.475539,37.063923],[36.473776,37.065609],[36.470481,37.068215],[36.467185,37.070054],[36.463736,37.071894],[36.461207,37.07312],[36.458755,37.074269],[36.456456,37.074423],[36.45316,37.074882],[36.451934,37.075266],[36.449558,37.076262],[36.447259,37.078178],[36.445189,37.080401],[36.443887,37.082163],[36.442584,37.084463],[36.441664,37.086455],[36.440591,37.088218],[36.439671,37.089597],[36.438828,37.091667],[36.438675,37.094119],[36.439518,37.096112],[36.440744,37.097491],[36.442124,37.098258],[36.443887,37.098871],[36.445879,37.099714],[36.447412,37.100557],[36.448715,37.101247],[36.450784,37.10232],[36.4527,37.103623],[36.454923,37.104466],[36.457452,37.105232],[36.459521,37.106535],[36.46182,37.107531],[36.465241,37.108754],[36.466654,37.10939],[36.467749,37.10992],[36.468738,37.110662],[36.469868,37.111509],[36.470434,37.111969],[36.471211,37.112428],[36.471917,37.11264],[36.472553,37.113134],[36.47326,37.113982],[36.473931,37.115183],[36.474849,37.117373],[36.47499,37.118504],[36.474849,37.119634],[36.474178,37.1208],[36.473012,37.122178],[36.471635,37.123485],[36.470822,37.124014],[36.469727,37.12518],[36.469338,37.12677],[36.469303,37.127759],[36.46895,37.128925],[36.468703,37.130302],[36.468173,37.13168],[36.468031,37.132881],[36.467407,37.13368],[36.466068,37.134601],[36.462718,37.135606],[36.46096,37.137113],[36.459704,37.137951],[36.45828,37.138035],[36.456941,37.137867],[36.455852,37.137867],[36.45535,37.138453],[36.453926,37.139123],[36.453591,37.139709],[36.453843,37.140714],[36.454429,37.141551],[36.454512,37.142389],[36.454429,37.143142],[36.454429,37.144482],[36.454094,37.145905],[36.454094,37.146743],[36.453591,37.147496],[36.452587,37.147831],[36.452,37.148836],[36.451498,37.15026],[36.451331,37.150929],[36.450661,37.151432],[36.449907,37.151516],[36.449488,37.151934],[36.449907,37.15252],[36.44974,37.15319],[36.448986,37.153358],[36.448484,37.15386],[36.448567,37.15453],[36.448651,37.155451],[36.4484,37.15587],[36.447646,37.15587],[36.446725,37.155367],[36.445469,37.1552],[36.444213,37.155367],[36.443012,37.156085],[36.442366,37.15657],[36.441719,37.156958],[36.441202,37.15754],[36.440911,37.157961],[36.440523,37.158025],[36.439811,37.157961],[36.439326,37.157831],[36.438938,37.157993],[36.438324,37.158284],[36.437839,37.158607],[36.437775,37.159028],[36.437969,37.159254],[36.438163,37.159512],[36.438195,37.159771],[36.43813,37.160127],[36.43813,37.160515],[36.438356,37.160967],[36.439229,37.161808],[36.440102,37.162519],[36.44049,37.163134],[36.440717,37.16378],[36.441105,37.164298],[36.441816,37.165559],[36.442495,37.166367],[36.442721,37.167143],[36.443045,37.168598],[36.443174,37.169245],[36.442786,37.171023],[36.442633,37.171913],[36.442276,37.171638],[36.441112,37.171638],[36.439702,37.171883],[36.438721,37.172496],[36.437618,37.17317],[36.437128,37.17409],[36.436638,37.174703],[36.436454,37.175009],[36.436655,37.175457]]]}},{"type":"Feature","properties":{"id":"TR-D-80-004","parent_id":"TR-P-80","region_id":"TR-R-AKD","level":"district","municipality_type":null,"municipality_type_label":null,"is_metropolitan_municipality":null,"name":"Kadirli","name_ascii":"kadirli","slug":"kadirli-osmaniye"},"geometry":{"type":"Polygon","coordinates":[[[36.190314,37.707925],[36.194224,37.708573],[36.198637,37.708981],[36.201416,37.709226],[36.204031,37.708818],[36.207872,37.707755],[36.210079,37.70751],[36.213838,37.706856],[36.217761,37.70702],[36.22005,37.70721],[36.221766,37.706393],[36.22291,37.705086],[36.226179,37.704105],[36.229857,37.702062],[36.230838,37.700427],[36.232145,37.697812],[36.233616,37.696177],[36.233494,37.695891],[36.233371,37.695605],[36.232881,37.69348],[36.232881,37.690457],[36.231982,37.687678],[36.230674,37.686452],[36.229857,37.684572],[36.229775,37.682611],[36.229693,37.679669],[36.228876,37.678361],[36.22528,37.675501],[36.222992,37.672313],[36.221684,37.669371],[36.22103,37.666838],[36.221439,37.66553],[36.222992,37.663569],[36.224054,37.662506],[36.226261,37.662179],[36.228468,37.66128],[36.231655,37.660054],[36.235169,37.660626],[36.237376,37.660626],[36.240154,37.659482],[36.241789,37.658828],[36.243505,37.658665],[36.245957,37.657929],[36.249063,37.657112],[36.251024,37.656704],[36.253639,37.655805],[36.255682,37.654824],[36.257235,37.654415],[36.260259,37.65417],[36.263283,37.653843],[36.265571,37.653108],[36.266389,37.652536],[36.267533,37.650002],[36.268105,37.649185],[36.270148,37.644935],[36.271456,37.642238],[36.271456,37.640079],[36.270694,37.638048],[36.270888,37.635243],[36.270694,37.630117],[36.268857,37.621703],[36.268373,37.619962],[36.267309,37.61706],[36.265278,37.613868],[36.260442,37.607678],[36.259668,37.604003],[36.259572,37.601295],[36.258024,37.598587],[36.255993,37.596652],[36.255316,37.595105],[36.255703,37.59346],[36.257057,37.591913],[36.256863,37.590849],[36.256414,37.589725],[36.256283,37.589398],[36.255603,37.587657],[36.254736,37.585433],[36.253478,37.583402],[36.252823,37.582327],[36.252086,37.58078],[36.251351,37.5789],[36.249635,37.576285],[36.249676,37.575982],[36.249717,37.575679],[36.249996,37.573439],[36.249996,37.572723],[36.249996,37.571118],[36.249996,37.570673],[36.249996,37.570335],[36.249996,37.569474],[36.250021,37.568978],[36.250841,37.564421],[36.251178,37.559976],[36.250989,37.559263],[36.250635,37.558],[36.250512,37.557577],[36.250147,37.55632],[36.249931,37.555608],[36.249765,37.555064],[36.249488,37.554221],[36.249098,37.553113],[36.249069,37.55303],[36.246558,37.546178],[36.246102,37.544957],[36.245812,37.544208],[36.245369,37.543138],[36.245362,37.543121],[36.245357,37.543108],[36.24502,37.542364],[36.244664,37.541641],[36.244285,37.540942],[36.243877,37.540255],[36.24366,37.539916],[36.243206,37.539257],[36.242729,37.538609],[36.241557,37.537073],[36.241532,37.537041],[36.241047,37.536361],[36.240625,37.535701],[36.240431,37.535365],[36.240251,37.535025],[36.240083,37.53467],[36.23993,37.53431],[36.23979,37.533946],[36.239541,37.53321],[36.239415,37.53278],[36.239188,37.531914],[36.238877,37.530607],[36.238081,37.527115],[36.237898,37.526241],[36.237744,37.525368],[36.237694,37.524985],[36.237656,37.524602],[36.237634,37.52422],[36.237633,37.52397],[36.237633,37.523905],[36.237655,37.523459],[36.237709,37.523071],[36.237789,37.522685],[36.23789,37.5223],[36.238008,37.521917],[36.238142,37.521536],[36.238302,37.521123],[36.238654,37.520301],[36.239029,37.519484],[36.241347,37.514596],[36.242485,37.51214],[36.246578,37.502964],[36.248842,37.497958],[36.24921,37.497121],[36.24933,37.496828],[36.249553,37.496282],[36.249707,37.495861],[36.249843,37.495438],[36.249953,37.495013],[36.250023,37.494626],[36.250065,37.494239],[36.250078,37.493851],[36.250061,37.493466],[36.250007,37.493083],[36.249911,37.492698],[36.249903,37.492674],[36.2498,37.492364],[36.249658,37.49201],[36.249496,37.491658],[36.24932,37.491309],[36.249133,37.490963],[36.248561,37.489929],[36.248385,37.489579],[36.24822,37.489217],[36.248072,37.488851],[36.247938,37.488481],[36.247819,37.488108],[36.247715,37.487732],[36.247625,37.487337],[36.24755,37.486941],[36.247487,37.486542],[36.247436,37.486142],[36.247362,37.485299],[36.247338,37.484855],[36.247308,37.483966],[36.247294,37.483186],[36.247294,37.483164],[36.247255,37.480849],[36.247248,37.479959],[36.247256,37.479071],[36.247278,37.478525],[36.247285,37.478422],[36.2473,37.478188],[36.247347,37.477751],[36.24741,37.47736],[36.247494,37.476974],[36.247601,37.476594],[36.247734,37.476221],[36.247899,37.475857],[36.24808,37.475539],[36.248286,37.47523],[36.248539,37.474893],[36.248566,37.47486],[36.248754,37.474629],[36.249274,37.474048],[36.250374,37.472905],[36.251191,37.472014],[36.251717,37.471408],[36.252491,37.470469],[36.253236,37.469512],[36.253956,37.468536],[36.254304,37.468029],[36.254638,37.467542],[36.255067,37.466868],[36.255271,37.466528],[36.255658,37.465836],[36.255839,37.465486],[36.256011,37.465134],[36.256171,37.464778],[36.256323,37.464411],[36.256463,37.464041],[36.256714,37.463293],[36.256956,37.462437],[36.25697,37.462378],[36.257148,37.461647],[36.257423,37.460371],[36.257663,37.459093],[36.257784,37.458243],[36.257823,37.457819],[36.257841,37.457395],[36.257829,37.456973],[36.257803,37.456741],[36.257792,37.456641],[36.257705,37.456111],[36.257611,37.45568],[36.257099,37.453519],[36.256699,37.451779],[36.25621,37.449603],[36.25593,37.448298],[36.255766,37.44743],[36.255697,37.446997],[36.255642,37.446559],[36.255642,37.446552],[36.255608,37.446136],[36.255602,37.445709],[36.255632,37.445284],[36.255706,37.444873],[36.255812,37.444464],[36.25603,37.443766],[36.256043,37.443726],[36.256332,37.442803],[36.256825,37.441098],[36.258341,37.435515],[36.258589,37.434572],[36.25861,37.43449],[36.258785,37.433792],[36.258973,37.43293],[36.259047,37.432498],[36.259102,37.432067],[36.25913,37.431645],[36.259133,37.431225],[36.259111,37.430808],[36.259063,37.430394],[36.258985,37.429998],[36.258984,37.429992],[36.258863,37.429586],[36.2587,37.429203],[36.2585,37.42883],[36.258268,37.428465],[36.258012,37.428109],[36.257733,37.427762],[36.257419,37.427407],[36.256779,37.426707],[36.256479,37.42635],[36.256212,37.42598],[36.256004,37.42562],[36.25583,37.425246],[36.255682,37.424862],[36.255554,37.42447],[36.255442,37.424073],[36.255344,37.42367],[36.255259,37.423264],[36.25518,37.422821],[36.255114,37.422376],[36.25506,37.421929],[36.255019,37.421484],[36.254993,37.421039],[36.254989,37.420598],[36.255012,37.420161],[36.255073,37.419732],[36.255167,37.419362],[36.255296,37.419002],[36.255455,37.418652],[36.255644,37.418316],[36.255864,37.417997],[36.256119,37.4177],[36.256415,37.417432],[36.256781,37.417182],[36.25719,37.416962],[36.257628,37.416766],[36.258019,37.416611],[36.258052,37.416597],[36.259508,37.416072],[36.259976,37.415895],[36.26043,37.415707],[36.260887,37.415489],[36.26131,37.415248],[36.261689,37.414979],[36.262007,37.414677],[36.262256,37.414332],[36.262445,37.413954],[36.262591,37.413553],[36.262706,37.413135],[36.262744,37.412958],[36.262799,37.412705],[36.262946,37.411823],[36.263067,37.410926],[36.263197,37.409855],[36.263286,37.409121],[36.263436,37.40777],[36.263512,37.406873],[36.263534,37.406427],[36.263539,37.405983],[36.263519,37.405542],[36.263466,37.405104],[36.263379,37.404696],[36.263263,37.404291],[36.263261,37.404284],[36.263126,37.403888],[36.262975,37.403486],[36.262493,37.402283],[36.26234,37.40188],[36.262199,37.401475],[36.262076,37.401066],[36.261974,37.400644],[36.261892,37.400218],[36.261825,37.399789],[36.261721,37.398927],[36.26157,37.397193],[36.261434,37.395351],[36.26141,37.395021],[36.261323,37.393718],[36.261278,37.392849],[36.261255,37.391981],[36.261258,37.391548],[36.261301,37.390662],[36.261378,37.389777],[36.261519,37.38845],[36.261827,37.385795],[36.261993,37.38447],[36.262122,37.38359],[36.262198,37.383152],[36.262286,37.382715],[36.262389,37.382282],[36.262512,37.38185],[36.262652,37.381421],[36.262962,37.380569],[36.263297,37.37972],[36.266061,37.373042],[36.266273,37.372529],[36.272019,37.358565],[36.272722,37.356874],[36.273266,37.355611],[36.274042,37.353924],[36.276152,37.349507],[36.277854,37.345946],[36.277399,37.345209],[36.276986,37.344461],[36.276601,37.343706],[36.276426,37.343324],[36.276254,37.342899],[36.276126,37.342533],[36.276003,37.342124],[36.275893,37.341712],[36.275792,37.341297],[36.275611,37.340463],[36.275028,37.33753],[36.274749,37.336278],[36.274642,37.335863],[36.27439,37.334997],[36.273969,37.333705],[36.272925,37.330701],[36.271998,37.328124],[36.268199,37.317796],[36.265992,37.311769],[36.265509,37.310481],[36.265171,37.309626],[36.264806,37.30878],[36.264615,37.308377],[36.264209,37.307579],[36.263566,37.306392],[36.262675,37.30482],[36.262213,37.30404],[36.261716,37.303239],[36.260951,37.302044],[36.259148,37.299265],[36.258396,37.298066],[36.25792,37.297257],[36.257704,37.296864],[36.257292,37.29607],[36.256859,37.295195],[36.256698,37.294869],[36.255538,37.292456],[36.254973,37.291245],[36.254619,37.290432],[36.254455,37.290022],[36.254306,37.289609],[36.254186,37.289233],[36.25408,37.288854],[36.253967,37.28838],[36.253905,37.288089],[36.253836,37.287704],[36.253782,37.287318],[36.25374,37.28688],[36.253719,37.286441],[36.253716,37.286002],[36.253733,37.285564],[36.253774,37.285127],[36.253839,37.284703],[36.253929,37.284282],[36.25404,37.283864],[36.254172,37.283451],[36.254329,37.283044],[36.254503,37.282664],[36.2547,37.282292],[36.254929,37.281906],[36.255152,37.28157],[36.255409,37.281223],[36.255672,37.280907],[36.255926,37.280632],[36.256252,37.280305],[36.256566,37.280021],[36.256895,37.279748],[36.257243,37.279491],[36.25766,37.279218],[36.258097,37.278962],[36.258548,37.27872],[36.259009,37.278487],[36.259952,37.278042],[36.260914,37.27762],[36.261836,37.27724],[36.26416,37.27632],[36.265084,37.275947],[36.265986,37.275564],[36.266426,37.275368],[36.267292,37.27496],[36.267716,37.274746],[36.268132,37.274523],[36.268537,37.274289],[36.268996,37.273997],[36.269317,37.27378],[36.270062,37.273235],[36.270782,37.272666],[36.271132,37.272374],[36.271475,37.272077],[36.271809,37.271773],[36.272132,37.271462],[36.272445,37.271144],[36.272748,37.270821],[36.273039,37.270491],[36.273317,37.270156],[36.27358,37.269814],[36.273823,37.269463],[36.274059,37.269072],[36.274273,37.268672],[36.274449,37.26831],[36.274655,37.267853],[36.274993,37.267018],[36.275283,37.266214],[36.275533,37.265443],[36.275763,37.264667],[36.275991,37.263823],[36.276312,37.262548],[36.276724,37.260835],[36.276915,37.259976],[36.277074,37.25912],[36.277131,37.258696],[36.277164,37.258315],[36.277174,37.257941],[36.277156,37.257579],[36.277104,37.257234],[36.277008,37.256911],[36.276838,37.256587],[36.276609,37.256311],[36.276313,37.256089],[36.276,37.255961],[36.275629,37.25592],[36.275225,37.255959],[36.2748,37.256058],[36.274363,37.256208],[36.273923,37.256397],[36.273483,37.256616],[36.273042,37.256856],[36.272603,37.257112],[36.270837,37.258207],[36.270389,37.25848],[36.269938,37.25874],[36.269483,37.258982],[36.269021,37.259196],[36.268577,37.259364],[36.26813,37.259493],[36.267685,37.259577],[36.267246,37.259605],[36.266842,37.259572],[36.266459,37.259483],[36.266104,37.259342],[36.26579,37.259149],[36.26553,37.25891],[36.265313,37.258629],[36.265131,37.258318],[36.264978,37.257984],[36.264853,37.257633],[36.264738,37.257213],[36.264647,37.256781],[36.264574,37.256342],[36.264457,37.255451],[36.264087,37.251871],[36.263691,37.248315],[36.263614,37.247429],[36.263591,37.246988],[36.263584,37.24655],[36.263601,37.246114],[36.263651,37.245684],[36.263728,37.245314],[36.263837,37.24495],[36.264004,37.244536],[36.264145,37.244247],[36.264347,37.243913],[36.264626,37.243545],[36.264945,37.243195],[36.265297,37.242863],[36.265678,37.242548],[36.266077,37.24226],[36.266497,37.241988],[36.266935,37.241734],[36.26739,37.241497],[36.267838,37.24129],[36.268298,37.2411],[36.26877,37.240926],[36.269252,37.240769],[36.269733,37.240633],[36.270222,37.24051],[36.270715,37.240396],[36.271855,37.24015],[36.272206,37.240075],[36.272695,37.239959],[36.273173,37.239831],[36.273618,37.239688],[36.274043,37.239524],[36.27444,37.239336],[36.274802,37.239116],[36.275113,37.238868],[36.275384,37.238592],[36.275618,37.238294],[36.275813,37.23798],[36.275968,37.237654],[36.276078,37.237308],[36.27614,37.236958],[36.27615,37.236611],[36.276102,37.236273],[36.275986,37.23595],[36.27577,37.235617],[36.275479,37.235305],[36.275135,37.235009],[36.274752,37.234725],[36.274252,37.234391],[36.273915,37.234178],[36.273475,37.233912],[36.272577,37.233387],[36.269856,37.231828],[36.266267,37.22975],[36.265808,37.229497],[36.265363,37.229252],[36.264906,37.229015],[36.264464,37.2288],[36.264014,37.228601],[36.263556,37.228422],[36.263084,37.228272],[36.262628,37.228162],[36.26216,37.228078],[36.261684,37.228015],[36.261202,37.227972],[36.2607,37.227943],[36.260195,37.227927],[36.258164,37.227895],[36.25766,37.22788],[36.257159,37.227856],[36.25665,37.227817],[36.256151,37.227759],[36.255665,37.227675],[36.255198,37.227556],[36.254771,37.227401],[36.254365,37.22721],[36.253982,37.226988],[36.253623,37.226737],[36.253308,37.226476],[36.253019,37.226202],[36.252737,37.225901],[36.252477,37.225593],[36.252233,37.225274],[36.251998,37.224934],[36.251778,37.224585],[36.251573,37.22423],[36.25138,37.223869],[36.251202,37.223503],[36.25104,37.223137],[36.25089,37.222767],[36.250625,37.222019],[36.250508,37.221642],[36.250399,37.221246],[36.250301,37.220849],[36.250126,37.22001],[36.249608,37.22006],[36.248713,37.220223],[36.247331,37.221443],[36.24603,37.222581],[36.244892,37.224045],[36.244485,37.225427],[36.243509,37.226809],[36.241883,37.22811],[36.240501,37.228761],[36.23798,37.22933],[36.23611,37.229655],[36.233589,37.230062],[36.231719,37.230387],[36.229767,37.230875],[36.227734,37.2312],[36.226352,37.23177],[36.225051,37.23242],[36.224319,37.233152],[36.223831,37.234046],[36.222855,37.235754],[36.221147,37.23673],[36.219521,37.237706],[36.217244,37.238112],[36.215211,37.237624],[36.212609,37.237868],[36.211796,37.239332],[36.211796,37.240958],[36.211308,37.242585],[36.211064,37.243642],[36.209519,37.245756],[36.206023,37.249415],[36.202282,37.252668],[36.200412,37.254294],[36.197241,37.256327],[36.194639,37.25714],[36.190979,37.258441],[36.186182,37.260067],[36.183173,37.260149],[36.179514,37.259742],[36.175611,37.259092],[36.170244,37.259173],[36.167479,37.259336],[36.164308,37.258929],[36.162925,37.259173],[36.159266,37.259742],[36.156664,37.26145],[36.1552,37.262019],[36.152029,37.262832],[36.148614,37.26267],[36.144142,37.261206],[36.14032,37.260067],[36.136335,37.258522],[36.1317,37.257953],[36.119178,37.256164],[36.111493,37.255324],[36.102928,37.252288],[36.10076,37.251312],[36.097615,37.249361],[36.094363,37.24806],[36.088725,37.246217],[36.086231,37.246108],[36.078533,37.246108],[36.073004,37.244699],[36.070944,37.243723],[36.069643,37.242422],[36.067691,37.241338],[36.063354,37.239928],[36.059777,37.238844],[36.058475,37.238194],[36.057933,37.237109],[36.057174,37.235049],[36.055765,37.233206],[36.055006,37.231363],[36.053705,37.227135],[36.052729,37.225834],[36.051428,37.2254],[36.049802,37.224424],[36.047742,37.222147],[36.045031,37.219762],[36.043839,37.21922],[36.041887,37.21922],[36.039285,37.219654],[36.035599,37.219545],[36.032563,37.219328],[36.029852,37.217702],[36.028551,37.215859],[36.027576,37.213907],[36.026242,37.211228],[36.025733,37.210206],[36.025468,37.210215],[36.024348,37.210272],[36.018189,37.210677],[36.013699,37.210957],[36.012576,37.211034],[36.011457,37.211129],[36.010901,37.21119],[36.010349,37.211265],[36.009855,37.211349],[36.009367,37.211448],[36.008886,37.211564],[36.008415,37.211698],[36.007932,37.211863],[36.007463,37.212051],[36.007012,37.212259],[36.006686,37.212434],[36.00658,37.212491],[36.006485,37.212552],[36.006172,37.212749],[36.005791,37.21303],[36.005439,37.213333],[36.005121,37.213659],[36.004878,37.213962],[36.004661,37.214281],[36.004461,37.21462],[36.004456,37.214628],[36.004287,37.214951],[36.004125,37.215299],[36.003965,37.215685],[36.003524,37.216866],[36.003218,37.217632],[36.003052,37.218],[36.002874,37.218363],[36.002682,37.21872],[36.002473,37.21907],[36.002255,37.219393],[36.002021,37.219706],[36.001772,37.220009],[36.001507,37.2203],[36.001226,37.220576],[36.000861,37.220888],[36.000501,37.221146],[36.000472,37.221167],[36.000056,37.221407],[35.99961,37.221593],[35.999161,37.22171],[35.99913,37.221715],[35.998689,37.221781],[35.998201,37.221814],[35.997703,37.221818],[35.99722,37.221798],[35.997199,37.221797],[35.997151,37.221793],[35.996695,37.221753],[35.996193,37.221685],[35.995699,37.22159],[35.995217,37.221463],[35.994809,37.221317],[35.99472,37.221286],[35.994573,37.221221],[35.99424,37.221074],[35.994086,37.220995],[35.993775,37.220836],[35.993397,37.220617],[35.993323,37.220575],[35.993208,37.220501],[35.992886,37.220295],[35.992592,37.220088],[35.992504,37.220027],[35.992458,37.219992],[35.992133,37.219747],[35.991961,37.219611],[35.99177,37.219459],[35.991575,37.219298],[35.991414,37.219164],[35.991061,37.218852],[35.990661,37.2185],[35.99062,37.21846],[35.990601,37.218443],[35.990352,37.218206],[35.990058,37.217928],[35.989721,37.217587],[35.989253,37.217095],[35.988738,37.216555],[35.98841,37.216221],[35.988076,37.215899],[35.987733,37.215598],[35.987485,37.215407],[35.987376,37.215324],[35.987,37.21509],[35.986721,37.214966],[35.986597,37.214911],[35.986157,37.214797],[35.985692,37.214743],[35.985213,37.214738],[35.984728,37.214775],[35.984246,37.214852],[35.983776,37.21497],[35.983328,37.215134],[35.982971,37.215314],[35.982841,37.215396],[35.982636,37.215526],[35.982479,37.215646],[35.982322,37.215765],[35.98203,37.216028],[35.981762,37.21631],[35.981508,37.216624],[35.981265,37.216964],[35.981257,37.216976],[35.980599,37.217964],[35.98036,37.218294],[35.980081,37.218636],[35.979781,37.218962],[35.97946,37.219272],[35.979118,37.219562],[35.978754,37.219828],[35.978436,37.220017],[35.978364,37.220061],[35.978257,37.22011],[35.97792,37.220266],[35.977452,37.220434],[35.976967,37.220568],[35.97647,37.220671],[35.975967,37.22074],[35.975462,37.220772],[35.97496,37.220757],[35.97449,37.220692],[35.974027,37.220584],[35.973636,37.220459],[35.973574,37.22044],[35.973276,37.220319],[35.973134,37.220262],[35.972671,37.220033],[35.972162,37.21974],[35.972101,37.219701],[35.971785,37.219503],[35.971527,37.219331],[35.971354,37.219216],[35.971004,37.218968],[35.970508,37.218617],[35.969952,37.218209],[35.969673,37.218004],[35.969223,37.217666],[35.968434,37.217075],[35.967808,37.216594],[35.967618,37.216449],[35.966818,37.215812],[35.966444,37.215502],[35.965812,37.214959],[35.965708,37.21487],[35.964983,37.214229],[35.96408,37.213408],[35.963263,37.212664],[35.963195,37.212603],[35.963132,37.212544],[35.962138,37.211617],[35.960762,37.210318],[35.96059,37.210163],[35.960419,37.210009],[35.96039,37.209985],[35.960071,37.209723],[35.959862,37.209577],[35.959716,37.209474],[35.959345,37.209276],[35.958953,37.209149],[35.958537,37.20911],[35.958099,37.209142],[35.957644,37.209226],[35.957529,37.209257],[35.957177,37.209349],[35.956701,37.209498],[35.956218,37.209666],[35.955856,37.209801],[35.955732,37.209847],[35.955481,37.209947],[35.954258,37.210433],[35.952388,37.211209],[35.951294,37.211663],[35.950815,37.211866],[35.948442,37.212874],[35.94802,37.213046],[35.94761,37.2132],[35.947215,37.213326],[35.946841,37.213413],[35.946492,37.213446],[35.946042,37.213344],[35.945668,37.213091],[35.945446,37.212848],[35.945362,37.212738],[35.945235,37.21257],[35.944835,37.211995],[35.944548,37.211582],[35.944176,37.211085],[35.943992,37.210838],[35.943401,37.210089],[35.942809,37.209367],[35.942483,37.208971],[35.941548,37.207862],[35.940294,37.206396],[35.938519,37.204334],[35.937674,37.203353],[35.936219,37.201663],[35.933098,37.198019],[35.932357,37.197173],[35.932149,37.196936],[35.931493,37.196232],[35.931323,37.196062],[35.931152,37.195891],[35.930805,37.195569],[35.930801,37.195565],[35.930541,37.195347],[35.930423,37.195247],[35.930141,37.195037],[35.930045,37.194965],[35.929649,37.194698],[35.92924,37.194441],[35.929013,37.194306],[35.928821,37.194192],[35.928446,37.193982],[35.927965,37.193711],[35.927092,37.193246],[35.926236,37.192811],[35.926206,37.192796],[35.926185,37.192785],[35.925307,37.192368],[35.924877,37.192179],[35.924849,37.192167],[35.924699,37.192106],[35.924383,37.191979],[35.924316,37.191954],[35.923881,37.191797],[35.923371,37.191628],[35.922855,37.19147],[35.921812,37.191173],[35.921115,37.190987],[35.920233,37.190752],[35.917775,37.190109],[35.916336,37.189733],[35.91203,37.188607],[35.90898,37.187809],[35.908593,37.187708],[35.906997,37.187297],[35.906285,37.18712],[35.905929,37.187031],[35.904854,37.186778],[35.903771,37.186548],[35.903226,37.186447],[35.902732,37.186366],[35.901253,37.186138],[35.901081,37.186107],[35.900767,37.18605],[35.900342,37.185959],[35.900291,37.185948],[35.900229,37.185931],[35.899828,37.185823],[35.899414,37.185681],[35.899328,37.185651],[35.899186,37.185591],[35.898851,37.185449],[35.898398,37.185223],[35.897975,37.184977],[35.897588,37.184713],[35.897251,37.184432],[35.896967,37.184103],[35.896952,37.184076],[35.896906,37.183991],[35.896803,37.183804],[35.896767,37.183635],[35.896739,37.183502],[35.896743,37.183341],[35.896747,37.183184],[35.896811,37.182854],[35.896921,37.182518],[35.897069,37.182178],[35.897251,37.181839],[35.897463,37.181503],[35.897539,37.1814],[35.897719,37.181155],[35.897857,37.180984],[35.897996,37.180813],[35.898797,37.179876],[35.898859,37.179803],[35.898992,37.179636],[35.899125,37.179468],[35.899361,37.179131],[35.899553,37.178792],[35.899684,37.17845],[35.899738,37.178085],[35.899712,37.177724],[35.899639,37.177479],[35.899608,37.177376],[35.899427,37.177051],[35.899256,37.176859],[35.899212,37.17681],[35.898845,37.176507],[35.898469,37.176288],[35.898048,37.17611],[35.897572,37.175973],[35.897066,37.175873],[35.896539,37.175801],[35.895997,37.175749],[35.895351,37.175706],[35.89533,37.175704],[35.895213,37.175699],[35.895192,37.175698],[35.894329,37.175656],[35.890949,37.175547],[35.887635,37.175424],[35.887575,37.175422],[35.887539,37.17542],[35.886461,37.175387],[35.886193,37.175382],[35.885911,37.175377],[35.885598,37.175378],[35.885285,37.175379],[35.885201,37.175381],[35.884839,37.175391],[35.884559,37.17541],[35.884328,37.175425],[35.883906,37.175481],[35.883842,37.175489],[35.883392,37.175594],[35.882992,37.175755],[35.88266,37.175982],[35.882383,37.176264],[35.882157,37.176589],[35.881981,37.176946],[35.881858,37.177328],[35.881799,37.177662],[35.88177,37.178006],[35.881761,37.178375],[35.881761,37.178392],[35.881761,37.1784],[35.881765,37.17951],[35.881737,37.180376],[35.881706,37.180809],[35.881662,37.181241],[35.881598,37.181681],[35.881597,37.181686],[35.881595,37.181694],[35.881565,37.181843],[35.881515,37.182091],[35.8814,37.182506],[35.881257,37.182888],[35.881085,37.18326],[35.880889,37.183619],[35.880672,37.183964],[35.880395,37.184337],[35.879527,37.185725],[35.879535,37.186624],[35.879542,37.187374],[35.879581,37.188485],[35.879618,37.189044],[35.879644,37.1893],[35.879673,37.189585],[35.879673,37.189589],[35.879674,37.189596],[35.879742,37.190052],[35.879837,37.19047],[35.879911,37.190713],[35.879968,37.190901],[35.880031,37.191074],[35.880124,37.191327],[35.880298,37.191751],[35.880483,37.192172],[35.88068,37.192592],[35.880876,37.193012],[35.881395,37.194064],[35.886192,37.203801],[35.886853,37.205145],[35.887337,37.206094],[35.887701,37.20681],[35.887947,37.207264],[35.888352,37.208013],[35.888671,37.208586],[35.88881,37.208836],[35.889242,37.20961],[35.891934,37.214393],[35.89263,37.215616],[35.892636,37.215627],[35.892647,37.215645],[35.893308,37.216774],[35.893742,37.217485],[35.89379,37.217564],[35.893836,37.217637],[35.894198,37.218215],[35.894528,37.218742],[35.898516,37.225014],[35.899291,37.226181],[35.899558,37.226554],[35.899825,37.226927],[35.900096,37.227286],[35.900616,37.227949],[35.900634,37.227972],[35.901226,37.228694],[35.90152,37.229036],[35.901634,37.229165],[35.90182,37.229372],[35.902057,37.229624],[35.902129,37.229699],[35.902292,37.22986],[35.902448,37.230014],[35.902586,37.230136],[35.902783,37.230312],[35.903139,37.230587],[35.903523,37.230831],[35.903935,37.231036],[35.904375,37.231211],[35.904834,37.231364],[35.905101,37.231442],[35.905308,37.231502],[35.905691,37.231603],[35.905792,37.231629],[35.905972,37.231673],[35.907275,37.23199],[35.908276,37.232247],[35.909025,37.232463],[35.909276,37.232535],[35.909513,37.232611],[35.910256,37.232848],[35.910734,37.233015],[35.9112,37.233193],[35.911648,37.233384],[35.911892,37.233503],[35.912074,37.233592],[35.912468,37.233824],[35.912838,37.234106],[35.912857,37.234125],[35.913125,37.234394],[35.913386,37.234734],[35.913616,37.235097],[35.913822,37.235477],[35.914012,37.235869],[35.914229,37.236366],[35.914256,37.236432],[35.914523,37.237088],[35.914838,37.237916],[35.915137,37.23875],[35.915413,37.239588],[35.915538,37.240009],[35.915642,37.240403],[35.915822,37.241195],[35.915968,37.241991],[35.916027,37.24239],[35.916122,37.24324],[35.916145,37.243535],[35.916189,37.244092],[35.916244,37.244945],[35.91629,37.245771],[35.916481,37.24921],[35.916517,37.250063],[35.916535,37.25089],[35.916528,37.251715],[35.91651,37.252126],[35.916477,37.252536],[35.916426,37.252943],[35.916346,37.253377],[35.916245,37.253809],[35.916128,37.254239],[35.915865,37.255096],[35.915581,37.255952],[35.913505,37.26193],[35.91157,37.267567],[35.911159,37.268765],[35.910704,37.270043],[35.910381,37.27089],[35.910209,37.27131],[35.909834,37.272146],[35.90923,37.273389],[35.908387,37.275035],[35.907729,37.276261],[35.907264,37.277069],[35.907032,37.277446],[35.906552,37.278194],[35.905321,37.28005],[35.904852,37.280797],[35.904631,37.281173],[35.904427,37.281553],[35.904243,37.281937],[35.904089,37.282328],[35.903969,37.282727],[35.903878,37.283133],[35.903809,37.283543],[35.903756,37.283956],[35.903715,37.284372],[35.903659,37.285209],[35.903628,37.286048],[35.903621,37.286468],[35.903633,37.287308],[35.903657,37.287727],[35.903697,37.288162],[35.90375,37.288596],[35.903882,37.289463],[35.904113,37.290762],[35.905411,37.29768],[35.905482,37.298071],[35.905771,37.299628],[35.90597,37.300706],[35.90584,37.300982],[35.905304,37.302115],[35.905056,37.302606],[35.904784,37.303113],[35.904495,37.303616],[35.904194,37.304091],[35.903887,37.304516],[35.903559,37.304896],[35.903216,37.305246],[35.902856,37.305587],[35.902484,37.305922],[35.902105,37.306253],[35.901328,37.306904],[35.900953,37.307205],[35.901016,37.309063],[35.90123,37.309561],[35.901077,37.31135],[35.900128,37.314024],[35.898144,37.315922],[35.897369,37.318478],[35.897282,37.318768],[35.895901,37.325496],[35.897195,37.333432],[35.898662,37.339211],[35.899869,37.342402],[35.901681,37.347319],[35.910565,37.36595],[35.912031,37.36871],[35.913498,37.371902],[35.913929,37.374489],[35.914188,37.376991],[35.914188,37.381735],[35.914188,37.38415],[35.916517,37.390016],[35.917983,37.392776],[35.919018,37.394846],[35.919708,37.396743],[35.919967,37.397434],[35.920051,37.397546],[35.920134,37.397659],[35.926107,37.397451],[35.935974,37.397634],[35.94502,37.397451],[35.948217,37.397451],[35.950227,37.397177],[35.954339,37.394893],[35.955892,37.394801],[35.961453,37.395561],[35.969803,37.396241],[35.981865,37.395437],[35.988327,37.394345],[35.99655,37.392517],[36.002306,37.391238],[36.005412,37.391147],[36.017198,37.393248],[36.024782,37.394436],[36.029258,37.395807],[36.034466,37.397086],[36.03803,37.398822],[36.040405,37.400283],[36.042781,37.402111],[36.044973,37.403938],[36.048902,37.410973],[36.051095,37.414536],[36.052922,37.417551],[36.055298,37.419196],[36.057582,37.420018],[36.06215,37.422851],[36.064525,37.424769],[36.066992,37.427693],[36.069185,37.430251],[36.073022,37.434271],[36.075398,37.434637],[36.079418,37.43555],[36.081702,37.43683],[36.083347,37.439022],[36.083788,37.443317],[36.083057,37.4449],[36.08123,37.447215],[36.079646,37.449408],[36.079403,37.4516],[36.080256,37.454646],[36.081352,37.456717],[36.08257,37.459397],[36.085007,37.462077],[36.087199,37.464635],[36.090839,37.468564],[36.091661,37.470848],[36.092118,37.473406],[36.092392,37.476969],[36.092666,37.481629],[36.092301,37.486563],[36.09157,37.489486],[36.090473,37.493507],[36.089468,37.496978],[36.089742,37.499263],[36.089194,37.502186],[36.089742,37.508856],[36.089651,37.511597],[36.090382,37.513972],[36.090839,37.515891],[36.091478,37.518906],[36.092209,37.52183],[36.09294,37.525576],[36.094219,37.530327],[36.094311,37.533433],[36.094493,37.536631],[36.095498,37.538093],[36.097782,37.539646],[36.102077,37.540286],[36.107741,37.540742],[36.110665,37.541565],[36.11167,37.543301],[36.112035,37.545859],[36.111761,37.547595],[36.111579,37.549788],[36.112127,37.552163],[36.113497,37.555452],[36.115051,37.557371],[36.117974,37.560112],[36.120898,37.561482],[36.12236,37.563218],[36.125009,37.565502],[36.125923,37.569979],[36.126014,37.572629],[36.124827,37.576832],[36.124004,37.578842],[36.123913,37.582588],[36.125558,37.587247],[36.127385,37.591633],[36.130583,37.595105],[36.133598,37.598394],[36.13643,37.602688],[36.137618,37.605155],[36.138075,37.606982],[36.137983,37.60881],[36.137526,37.611551],[36.136704,37.613743],[36.135973,37.615571],[36.135242,37.617581],[36.134968,37.619043],[36.135151,37.621144],[36.135151,37.623154],[36.135699,37.625438],[36.136704,37.628636],[36.137435,37.631194],[36.136978,37.635032],[36.13707,37.63759],[36.137892,37.640422],[36.139171,37.642615],[36.140907,37.645539],[36.142095,37.647366],[36.142552,37.649833],[36.143557,37.651569],[36.144744,37.655497],[36.145201,37.659243],[36.145384,37.662441],[36.145384,37.663812],[36.146297,37.667192],[36.146572,37.668837],[36.146389,37.670024],[36.145932,37.673222],[36.145932,37.675872],[36.145384,37.677973],[36.143374,37.681628],[36.139993,37.682907],[36.138166,37.684277],[36.136887,37.686744],[36.13643,37.688389],[36.135699,37.690216],[36.13506,37.691221],[36.134511,37.692044],[36.133356,37.693439],[36.134237,37.693862],[36.136117,37.695251],[36.139304,37.696722],[36.141592,37.697703],[36.144943,37.699092],[36.147068,37.699991],[36.149029,37.700809],[36.151318,37.701462],[36.154015,37.702198],[36.160389,37.704159],[36.166274,37.706775],[36.169298,37.707428],[36.174119,37.708082],[36.178778,37.708491],[36.183191,37.708327],[36.186951,37.708246],[36.190314,37.707925]]]}},{"type":"Feature","properties":{"id":"TR-D-80-005","parent_id":"TR-P-80","region_id":"TR-R-AKD","level":"district","municipality_type":null,"municipality_type_label":null,"is_metropolitan_municipality":null,"name":"Osmaniye","name_ascii":"osmaniye","slug":"osmaniye-osmaniye"},"geometry":{"type":"Polygon","coordinates":[[[36.025733,37.210206],[36.026242,37.211228],[36.027576,37.213907],[36.028551,37.215859],[36.029852,37.217702],[36.032563,37.219328],[36.035599,37.219545],[36.039285,37.219654],[36.041887,37.21922],[36.043839,37.21922],[36.045031,37.219762],[36.047742,37.222147],[36.049802,37.224424],[36.051428,37.2254],[36.052729,37.225834],[36.053705,37.227135],[36.055006,37.231363],[36.055765,37.233206],[36.057174,37.235049],[36.057933,37.237109],[36.058475,37.238194],[36.059777,37.238844],[36.063354,37.239928],[36.067691,37.241338],[36.069643,37.242422],[36.070944,37.243723],[36.073004,37.244699],[36.078533,37.246108],[36.086231,37.246108],[36.088725,37.246217],[36.094363,37.24806],[36.097615,37.249361],[36.10076,37.251312],[36.102928,37.252288],[36.111493,37.255324],[36.119178,37.256164],[36.1317,37.257953],[36.136335,37.258522],[36.14032,37.260067],[36.144142,37.261206],[36.148614,37.26267],[36.152029,37.262832],[36.1552,37.262019],[36.156664,37.26145],[36.159266,37.259742],[36.162925,37.259173],[36.164308,37.258929],[36.167479,37.259336],[36.170244,37.259173],[36.175611,37.259092],[36.179514,37.259742],[36.183173,37.260149],[36.186182,37.260067],[36.190979,37.258441],[36.194639,37.25714],[36.197241,37.256327],[36.200412,37.254294],[36.202282,37.252668],[36.206023,37.249415],[36.209519,37.245756],[36.211064,37.243642],[36.211308,37.242585],[36.211796,37.240958],[36.211796,37.239332],[36.212609,37.237868],[36.215211,37.237624],[36.217244,37.238112],[36.219521,37.237706],[36.221147,37.23673],[36.222855,37.235754],[36.223831,37.234046],[36.224319,37.233152],[36.225051,37.23242],[36.226352,37.23177],[36.227734,37.2312],[36.229767,37.230875],[36.231719,37.230387],[36.233589,37.230062],[36.23611,37.229655],[36.23798,37.22933],[36.240501,37.228761],[36.241883,37.22811],[36.243509,37.226809],[36.244485,37.225427],[36.244892,37.224045],[36.24603,37.222581],[36.247331,37.221443],[36.248713,37.220223],[36.249608,37.22006],[36.250126,37.22001],[36.250065,37.219652],[36.250008,37.219253],[36.249963,37.218853],[36.24993,37.218454],[36.249913,37.218054],[36.249913,37.217656],[36.249935,37.217261],[36.249978,37.216867],[36.25004,37.216475],[36.250123,37.216086],[36.250228,37.2157],[36.250352,37.215331],[36.250492,37.214965],[36.250952,37.213873],[36.251236,37.213141],[36.251357,37.212774],[36.251456,37.212405],[36.251526,37.212035],[36.251562,37.211651],[36.251562,37.211268],[36.251528,37.210886],[36.25146,37.210509],[36.251355,37.210138],[36.251216,37.20979],[36.251037,37.20944],[36.25083,37.209107],[36.250592,37.208786],[36.250323,37.208481],[36.249993,37.208169],[36.24963,37.207876],[36.249242,37.2076],[36.248832,37.20734],[36.248405,37.207098],[36.247964,37.206867],[36.24756,37.206668],[36.247481,37.20571],[36.24722,37.202517],[36.247156,37.198746],[36.247376,37.198399],[36.249081,37.197807],[36.251674,37.196769],[36.252934,37.196103],[36.254341,37.195213],[36.255156,37.19425],[36.256638,37.192324],[36.258565,37.190916],[36.261529,37.188989],[36.267086,37.186692],[36.269902,37.185951],[36.274347,37.185136],[36.280794,37.184469],[36.284276,37.184099],[36.286221,37.183773],[36.288142,37.183834],[36.290961,37.183589],[36.293106,37.182915],[36.296231,37.181076],[36.29758,37.179973],[36.299725,37.177277],[36.301441,37.175315],[36.303647,37.173232],[36.305118,37.172741],[36.307631,37.172006],[36.311553,37.171638],[36.31333,37.1717],[36.316701,37.172006],[36.319397,37.171454],[36.321052,37.170964],[36.3243,37.17029],[36.328223,37.170045],[36.329877,37.170167],[36.332758,37.170903],[36.335332,37.172435],[36.337416,37.173538],[36.340664,37.175928],[36.342502,37.177522],[36.344831,37.178809],[36.347283,37.180525],[36.349795,37.181444],[36.352124,37.182241],[36.355005,37.18316],[36.357027,37.184324],[36.35905,37.185244],[36.362114,37.185182],[36.366772,37.185182],[36.369223,37.185244],[36.37241,37.184815],[36.375352,37.184263],[36.3786,37.184141],[36.380806,37.184202],[36.384054,37.184263],[36.386444,37.184018],[36.389938,37.183221],[36.392328,37.182731],[36.395331,37.181444],[36.397537,37.180892],[36.400602,37.18077],[36.403543,37.180402],[36.407649,37.180218],[36.410775,37.180586],[36.41292,37.180892],[36.41531,37.180954],[36.418803,37.180218],[36.419903,37.179734],[36.42042,37.17905],[36.422481,37.177591],[36.423388,37.176932],[36.423851,37.176596],[36.424282,37.176681],[36.424775,37.176768],[36.425767,37.176916],[36.426266,37.176977],[36.426766,37.177027],[36.427263,37.177065],[36.42776,37.177091],[36.428259,37.177106],[36.428757,37.177108],[36.429298,37.177096],[36.42976,37.177074],[36.430379,37.177034],[36.431452,37.176936],[36.431984,37.176875],[36.432511,37.176804],[36.433031,37.176721],[36.433542,37.176621],[36.434041,37.176501],[36.434467,37.176371],[36.434978,37.176178],[36.435866,37.175783],[36.436318,37.175594],[36.436655,37.175457],[36.436454,37.175009],[36.436638,37.174703],[36.437128,37.17409],[36.437618,37.17317],[36.438721,37.172496],[36.439702,37.171883],[36.441112,37.171638],[36.442276,37.171638],[36.442633,37.171913],[36.442786,37.171023],[36.443174,37.169245],[36.443045,37.168598],[36.442721,37.167143],[36.442495,37.166367],[36.441816,37.165559],[36.441105,37.164298],[36.440717,37.16378],[36.44049,37.163134],[36.440102,37.162519],[36.439229,37.161808],[36.438356,37.160967],[36.43813,37.160515],[36.43813,37.160127],[36.438195,37.159771],[36.438163,37.159512],[36.437969,37.159254],[36.437775,37.159028],[36.437839,37.158607],[36.438324,37.158284],[36.438938,37.157993],[36.439326,37.157831],[36.439811,37.157961],[36.440523,37.158025],[36.440911,37.157961],[36.441202,37.15754],[36.441719,37.156958],[36.442366,37.15657],[36.443012,37.156085],[36.444213,37.155367],[36.445469,37.1552],[36.446725,37.155367],[36.447646,37.15587],[36.4484,37.15587],[36.448651,37.155451],[36.448567,37.15453],[36.448484,37.15386],[36.448986,37.153358],[36.44974,37.15319],[36.449907,37.15252],[36.449488,37.151934],[36.449907,37.151516],[36.450661,37.151432],[36.451331,37.150929],[36.451498,37.15026],[36.452,37.148836],[36.452587,37.147831],[36.453591,37.147496],[36.454094,37.146743],[36.454094,37.145905],[36.454429,37.144482],[36.454429,37.143142],[36.454512,37.142389],[36.454429,37.141551],[36.453843,37.140714],[36.453591,37.139709],[36.453926,37.139123],[36.45535,37.138453],[36.455852,37.137867],[36.456941,37.137867],[36.45828,37.138035],[36.459704,37.137951],[36.46096,37.137113],[36.462718,37.135606],[36.466068,37.134601],[36.467407,37.13368],[36.468031,37.132881],[36.468173,37.13168],[36.468703,37.130302],[36.46895,37.128925],[36.469303,37.127759],[36.469338,37.12677],[36.469727,37.12518],[36.470822,37.124014],[36.471635,37.123485],[36.473012,37.122178],[36.474178,37.1208],[36.474849,37.119634],[36.47499,37.118504],[36.474849,37.117373],[36.473931,37.115183],[36.47326,37.113982],[36.472553,37.113134],[36.471917,37.11264],[36.471211,37.112428],[36.470434,37.111969],[36.469868,37.111509],[36.468738,37.110662],[36.467749,37.10992],[36.466654,37.10939],[36.465241,37.108754],[36.46182,37.107531],[36.459521,37.106535],[36.457452,37.105232],[36.454923,37.104466],[36.4527,37.103623],[36.450784,37.10232],[36.448715,37.101247],[36.447412,37.100557],[36.445879,37.099714],[36.443887,37.098871],[36.442124,37.098258],[36.440744,37.097491],[36.439518,37.096112],[36.438675,37.094119],[36.438828,37.091667],[36.439671,37.089597],[36.440591,37.088218],[36.441664,37.086455],[36.442584,37.084463],[36.443887,37.082163],[36.445189,37.080401],[36.447259,37.078178],[36.449558,37.076262],[36.451934,37.075266],[36.45316,37.074882],[36.456456,37.074423],[36.458755,37.074269],[36.461207,37.07312],[36.463736,37.071894],[36.467185,37.070054],[36.470481,37.068215],[36.473776,37.065609],[36.475539,37.063923],[36.478298,37.061241],[36.480674,37.059631],[36.481824,37.059095],[36.483893,37.057408],[36.485656,37.055033],[36.486345,37.052733],[36.486345,37.050128],[36.486422,37.047905],[36.486422,37.046296],[36.488108,37.04323],[36.488261,37.041084],[36.489334,37.038478],[36.490177,37.036179],[36.491863,37.033497],[36.493856,37.030814],[36.496155,37.027902],[36.497918,37.025909],[36.499604,37.02361],[36.500754,37.021771],[36.50175,37.018552],[36.50198,37.016176],[36.501827,37.014107],[36.502289,37.012287],[36.500004,37.010618],[36.498407,37.008932],[36.498052,37.007246],[36.498585,37.004762],[36.498141,37.002189],[36.49681,36.999793],[36.495213,36.997397],[36.492906,36.995357],[36.492967,36.993896],[36.492995,36.993227],[36.493045,36.992547],[36.493173,36.990832],[36.493794,36.988702],[36.495036,36.986307],[36.495213,36.984088],[36.494148,36.981782],[36.49264,36.980362],[36.492177,36.979954],[36.490422,36.97841],[36.48871,36.976972],[36.488204,36.976547],[36.484655,36.974151],[36.483851,36.973869],[36.481372,36.972998],[36.478178,36.970868],[36.475693,36.968916],[36.471967,36.964746],[36.469715,36.962269],[36.469305,36.961818],[36.467619,36.959068],[36.467353,36.956761],[36.467619,36.955341],[36.468773,36.953478],[36.47037,36.950727],[36.471612,36.948509],[36.472144,36.946823],[36.471878,36.943807],[36.471435,36.941056],[36.470814,36.938128],[36.470015,36.932627],[36.46966,36.930409],[36.471523,36.926328],[36.471477,36.924885],[36.471435,36.923577],[36.47108,36.920915],[36.46966,36.919141],[36.467353,36.9171],[36.46691,36.91639],[36.465135,36.913551],[36.464565,36.910385],[36.463723,36.908869],[36.463399,36.908286],[36.463069,36.907844],[36.462184,36.906659],[36.46172,36.907167],[36.459459,36.908689],[36.455952,36.910442],[36.453777,36.911565],[36.451462,36.913319],[36.45041,36.914581],[36.448376,36.917317],[36.446271,36.919211],[36.446237,36.919247],[36.444728,36.920824],[36.442834,36.922929],[36.441571,36.925033],[36.439888,36.926436],[36.435819,36.927489],[36.433294,36.927489],[36.43168,36.927559],[36.430067,36.927629],[36.428598,36.927843],[36.4267,36.92812],[36.423683,36.92812],[36.420878,36.927909],[36.418492,36.927489],[36.414143,36.926506],[36.412881,36.926647],[36.411407,36.927629],[36.409303,36.928681],[36.407058,36.929242],[36.405164,36.929242],[36.404905,36.929221],[36.403481,36.929102],[36.402358,36.928471],[36.400605,36.927348],[36.3985,36.926436],[36.395414,36.926717],[36.391485,36.926717],[36.387557,36.926998],[36.3844,36.927208],[36.382015,36.927068],[36.377877,36.927138],[36.373668,36.927629],[36.371072,36.927769],[36.366653,36.926787],[36.363286,36.926717],[36.359381,36.92686],[36.357533,36.926927],[36.35706,36.927021],[36.356238,36.927183],[36.352202,36.92798],[36.348414,36.929242],[36.344556,36.930154],[36.339155,36.933311],[36.33684,36.934293],[36.327931,36.936888],[36.324914,36.93766],[36.321758,36.938712],[36.319794,36.939905],[36.31832,36.941168],[36.317338,36.942641],[36.316146,36.943553],[36.314041,36.943763],[36.311797,36.944114],[36.309973,36.944745],[36.308009,36.945587],[36.306606,36.945867],[36.302607,36.946429],[36.29931,36.947902],[36.297697,36.948673],[36.296154,36.949515],[36.292295,36.951058],[36.28984,36.95162],[36.287175,36.952251],[36.284719,36.952742],[36.282755,36.953023],[36.280791,36.952952],[36.278687,36.953303],[36.276933,36.954005],[36.275179,36.955127],[36.273917,36.956881],[36.273636,36.957933],[36.274127,36.960248],[36.274688,36.961791],[36.275109,36.963264],[36.27553,36.96614],[36.275811,36.967824],[36.276091,36.968525],[36.276302,36.969507],[36.277073,36.9707],[36.277564,36.972103],[36.277073,36.973506],[36.276372,36.975189],[36.2756,36.976663],[36.273215,36.978627],[36.270549,36.980451],[36.268094,36.981503],[36.265709,36.981222],[36.261711,36.98031],[36.258905,36.980591],[36.255608,36.980872],[36.253573,36.981573],[36.252381,36.983397],[36.251609,36.985221],[36.250136,36.986624],[36.247962,36.987886],[36.246559,36.988167],[36.242911,36.988518],[36.239824,36.987886],[36.236317,36.988167],[36.232669,36.990342],[36.231757,36.992025],[36.230565,36.994059],[36.228951,36.996374],[36.226216,36.99897],[36.224602,37.000443],[36.222919,37.001425],[36.220712,37.002459],[36.219949,37.002909],[36.219174,37.003967],[36.218046,37.004884],[36.216283,37.005871],[36.214732,37.006153],[36.211911,37.006223],[36.208738,37.006294],[36.204719,37.006646],[36.20204,37.006717],[36.200347,37.006576],[36.197809,37.005941],[36.195835,37.005377],[36.193719,37.005236],[36.190617,37.005236],[36.186527,37.005095],[36.184059,37.004954],[36.180322,37.00439],[36.176867,37.003967],[36.174047,37.003544],[36.171409,37.003079],[36.171038,37.004855],[36.170056,37.00682],[36.169792,37.007802],[36.169339,37.009237],[36.16915,37.010295],[36.169112,37.011012],[36.169414,37.012108],[36.16983,37.012901],[36.170585,37.013165],[36.171303,37.013656],[36.171982,37.014449],[36.172851,37.015847],[36.173342,37.016262],[36.174362,37.016451],[36.174891,37.016904],[36.175986,37.01732],[36.177119,37.018226],[36.178064,37.018944],[36.179197,37.019737],[36.180141,37.020833],[36.180708,37.022419],[36.181199,37.024194],[36.181539,37.025176],[36.182369,37.026272],[36.182703,37.02845],[36.182451,37.03127],[36.182351,37.032579],[36.1823,37.034644],[36.182602,37.036508],[36.182502,37.03822],[36.18225,37.039731],[36.181545,37.041997],[36.180336,37.044162],[36.179279,37.047537],[36.178825,37.048594],[36.178171,37.049954],[36.177516,37.051918],[36.176609,37.053076],[36.175199,37.053781],[36.174142,37.055846],[36.173638,37.057206],[36.171894,37.059246],[36.168457,37.060001],[36.167211,37.060568],[36.166833,37.061323],[36.166909,37.062041],[36.167362,37.065629],[36.167626,37.067291],[36.167626,37.068009],[36.166795,37.069746],[36.1657,37.07069],[36.164302,37.071861],[36.164038,37.073296],[36.164189,37.075109],[36.164114,37.07696],[36.163774,37.078849],[36.162943,37.079718],[36.160714,37.081228],[36.159392,37.081984],[36.158335,37.083646],[36.158146,37.085383],[36.156975,37.0878],[36.156559,37.088971],[36.156484,37.09018],[36.155659,37.093151],[36.155105,37.094964],[36.153796,37.096123],[36.152184,37.09708],[36.149616,37.099497],[36.145738,37.10277],[36.144076,37.104684],[36.14181,37.1069],[36.139745,37.108914],[36.138486,37.110476],[36.136925,37.111785],[36.135112,37.112893],[36.133903,37.113296],[36.132241,37.114353],[36.130932,37.114857],[36.125946,37.116368],[36.121867,37.117426],[36.114363,37.119339],[36.110938,37.119692],[36.10842,37.119944],[36.104291,37.119944],[36.100564,37.120095],[36.097945,37.119893],[36.094621,37.119541],[36.092355,37.119339],[36.090341,37.119289],[36.088733,37.119097],[36.087946,37.120973],[36.087256,37.123216],[36.087316,37.128873],[36.087342,37.131324],[36.087342,37.13486],[36.087425,37.135231],[36.087608,37.136043],[36.088237,37.138848],[36.088291,37.139087],[36.089282,37.14083],[36.090792,37.143486],[36.092345,37.146074],[36.093639,37.149869],[36.091741,37.156856],[36.088118,37.160479],[36.084582,37.16367],[36.07863,37.173158],[36.076301,37.178765],[36.07449,37.181611],[36.0738,37.184113],[36.073541,37.1867],[36.073249,37.189507],[36.07311,37.190841],[36.07311,37.19386],[36.073225,37.194636],[36.073324,37.195297],[36.074023,37.196736],[36.07431,37.199829],[36.074325,37.199987],[36.072811,37.2022],[36.072459,37.202332],[36.071948,37.202505],[36.071429,37.202667],[36.070377,37.202972],[36.068782,37.203406],[36.063446,37.204823],[36.048003,37.208843],[36.044808,37.209682],[36.040547,37.210815],[36.039482,37.211091],[36.038418,37.211349],[36.037887,37.211464],[36.037356,37.211565],[36.036825,37.211644],[36.036296,37.211695],[36.035768,37.211706],[36.035284,37.211673],[36.034903,37.211619],[36.034865,37.211613],[36.034852,37.211612],[36.03468,37.211579],[36.034321,37.211509],[36.033842,37.211393],[36.03336,37.21126],[36.031912,37.210826],[36.031436,37.210691],[36.030956,37.210566],[36.030473,37.210456],[36.029984,37.210365],[36.029499,37.210298],[36.029009,37.210251],[36.028978,37.210249],[36.028517,37.210218],[36.028021,37.210197],[36.027026,37.210181],[36.026028,37.210195],[36.025733,37.210206]]]}},{"type":"Feature","properties":{"id":"TR-D-80-006","parent_id":"TR-P-80","region_id":"TR-R-AKD","level":"district","municipality_type":null,"municipality_type_label":null,"is_metropolitan_municipality":null,"name":"Sumbas","name_ascii":"sumbas","slug":"sumbas-osmaniye"},"geometry":{"type":"Polygon","coordinates":[[[35.920134,37.397659],[35.922468,37.400798],[35.924539,37.405542],[35.927903,37.410544],[35.928248,37.417186],[35.928334,37.422189],[35.92773,37.427537],[35.927385,37.434006],[35.927299,37.445219],[35.928075,37.448928],[35.928851,37.454363],[35.929283,37.457382],[35.930663,37.460314],[35.931612,37.462039],[35.932733,37.464196],[35.933164,37.466956],[35.93394,37.471873],[35.933682,37.474288],[35.934027,37.476703],[35.935752,37.479894],[35.937132,37.482913],[35.938167,37.485415],[35.938857,37.48714],[35.940065,37.489037],[35.941962,37.492488],[35.942997,37.49473],[35.943946,37.496801],[35.943515,37.498784],[35.94248,37.500165],[35.941962,37.502407],[35.941703,37.50465],[35.941358,37.507065],[35.941013,37.50879],[35.940582,37.51224],[35.93903,37.514224],[35.937994,37.517588],[35.935234,37.52078],[35.934458,37.522936],[35.935062,37.525179],[35.937218,37.526904],[35.939547,37.528715],[35.949553,37.535961],[35.953348,37.53898],[35.956194,37.541826],[35.957661,37.542603],[35.959645,37.544414],[35.963354,37.550797],[35.96413,37.553816],[35.965596,37.555972],[35.969392,37.562355],[35.970944,37.563994],[35.973187,37.565633],[35.974998,37.567013],[35.978966,37.568048],[35.9844,37.569773],[35.987764,37.570204],[35.993026,37.570549],[35.994923,37.570808],[35.997511,37.570895],[36.002083,37.574],[36.003808,37.576415],[36.008811,37.580814],[36.010881,37.58435],[36.012692,37.586248],[36.012951,37.588491],[36.013296,37.59013],[36.013469,37.591423],[36.014417,37.594442],[36.016142,37.596513],[36.017695,37.597979],[36.020973,37.59979],[36.023906,37.601688],[36.027701,37.602637],[36.02934,37.603499],[36.032704,37.607122],[36.035636,37.610486],[36.038138,37.61385],[36.039432,37.617214],[36.03969,37.621354],[36.039345,37.623338],[36.038569,37.62515],[36.037793,37.626702],[36.037706,37.628082],[36.03969,37.631533],[36.040553,37.633948],[36.041933,37.637398],[36.042968,37.639641],[36.044866,37.642573],[36.047453,37.644471],[36.048747,37.645765],[36.050386,37.648585],[36.050479,37.648795],[36.050572,37.649004],[36.051157,37.650605],[36.051448,37.651446],[36.052102,37.652672],[36.052733,37.653245],[36.05833,37.658746],[36.065552,37.66455],[36.073869,37.668128],[36.076771,37.668805],[36.082381,37.669869],[36.089151,37.671417],[36.094084,37.673061],[36.097179,37.675189],[36.100951,37.678961],[36.103369,37.681282],[36.106561,37.683893],[36.110526,37.686989],[36.113815,37.68902],[36.118941,37.690374],[36.124647,37.691825],[36.127162,37.692211],[36.129691,37.692651],[36.129921,37.692725],[36.130151,37.692799],[36.132194,37.692881],[36.133356,37.693439],[36.134511,37.692044],[36.13506,37.691221],[36.135699,37.690216],[36.13643,37.688389],[36.136887,37.686744],[36.138166,37.684277],[36.139993,37.682907],[36.143374,37.681628],[36.145384,37.677973],[36.145932,37.675872],[36.145932,37.673222],[36.146389,37.670024],[36.146572,37.668837],[36.146297,37.667192],[36.145384,37.663812],[36.145384,37.662441],[36.145201,37.659243],[36.144744,37.655497],[36.143557,37.651569],[36.142552,37.649833],[36.142095,37.647366],[36.140907,37.645539],[36.139171,37.642615],[36.137892,37.640422],[36.13707,37.63759],[36.136978,37.635032],[36.137435,37.631194],[36.136704,37.628636],[36.135699,37.625438],[36.135151,37.623154],[36.135151,37.621144],[36.134968,37.619043],[36.135242,37.617581],[36.135973,37.615571],[36.136704,37.613743],[36.137526,37.611551],[36.137983,37.60881],[36.138075,37.606982],[36.137618,37.605155],[36.13643,37.602688],[36.133598,37.598394],[36.130583,37.595105],[36.127385,37.591633],[36.125558,37.587247],[36.123913,37.582588],[36.124004,37.578842],[36.124827,37.576832],[36.126014,37.572629],[36.125923,37.569979],[36.125009,37.565502],[36.12236,37.563218],[36.120898,37.561482],[36.117974,37.560112],[36.115051,37.557371],[36.113497,37.555452],[36.112127,37.552163],[36.111579,37.549788],[36.111761,37.547595],[36.112035,37.545859],[36.11167,37.543301],[36.110665,37.541565],[36.107741,37.540742],[36.102077,37.540286],[36.097782,37.539646],[36.095498,37.538093],[36.094493,37.536631],[36.094311,37.533433],[36.094219,37.530327],[36.09294,37.525576],[36.092209,37.52183],[36.091478,37.518906],[36.090839,37.515891],[36.090382,37.513972],[36.089651,37.511597],[36.089742,37.508856],[36.089194,37.502186],[36.089742,37.499263],[36.089468,37.496978],[36.090473,37.493507],[36.09157,37.489486],[36.092301,37.486563],[36.092666,37.481629],[36.092392,37.476969],[36.092118,37.473406],[36.091661,37.470848],[36.090839,37.468564],[36.087199,37.464635],[36.085007,37.462077],[36.08257,37.459397],[36.081352,37.456717],[36.080256,37.454646],[36.079403,37.4516],[36.079646,37.449408],[36.08123,37.447215],[36.083057,37.4449],[36.083788,37.443317],[36.083347,37.439022],[36.081702,37.43683],[36.079418,37.43555],[36.075398,37.434637],[36.073022,37.434271],[36.069185,37.430251],[36.066992,37.427693],[36.064525,37.424769],[36.06215,37.422851],[36.057582,37.420018],[36.055298,37.419196],[36.052922,37.417551],[36.051095,37.414536],[36.048902,37.410973],[36.044973,37.403938],[36.042781,37.402111],[36.040405,37.400283],[36.03803,37.398822],[36.034466,37.397086],[36.029258,37.395807],[36.024782,37.394436],[36.017198,37.393248],[36.005412,37.391147],[36.002306,37.391238],[35.99655,37.392517],[35.988327,37.394345],[35.981865,37.395437],[35.969803,37.396241],[35.961453,37.395561],[35.955892,37.394801],[35.954339,37.394893],[35.950227,37.397177],[35.948217,37.397451],[35.94502,37.397451],[35.935974,37.397634],[35.926107,37.397451],[35.920134,37.397659]]]}},{"type":"Feature","properties":{"id":"TR-D-80-007","parent_id":"TR-P-80","region_id":"TR-R-AKD","level":"district","municipality_type":null,"municipality_type_label":null,"is_metropolitan_municipality":null,"name":"Toprakkale","name_ascii":"toprakkale","slug":"toprakkale-osmaniye"},"geometry":{"type":"Polygon","coordinates":[[[36.088733,37.119097],[36.090341,37.119289],[36.092355,37.119339],[36.094621,37.119541],[36.097945,37.119893],[36.100564,37.120095],[36.104291,37.119944],[36.10842,37.119944],[36.110938,37.119692],[36.114363,37.119339],[36.121867,37.117426],[36.125946,37.116368],[36.130932,37.114857],[36.132241,37.114353],[36.133903,37.113296],[36.135112,37.112893],[36.136925,37.111785],[36.138486,37.110476],[36.139745,37.108914],[36.14181,37.1069],[36.144076,37.104684],[36.145738,37.10277],[36.149616,37.099497],[36.152184,37.09708],[36.153796,37.096123],[36.155105,37.094964],[36.155659,37.093151],[36.156484,37.09018],[36.156559,37.088971],[36.156975,37.0878],[36.158146,37.085383],[36.158335,37.083646],[36.159392,37.081984],[36.160714,37.081228],[36.162943,37.079718],[36.163774,37.078849],[36.164114,37.07696],[36.164189,37.075109],[36.164038,37.073296],[36.164302,37.071861],[36.1657,37.07069],[36.166795,37.069746],[36.167626,37.068009],[36.167626,37.067291],[36.167362,37.065629],[36.166909,37.062041],[36.166833,37.061323],[36.167211,37.060568],[36.168457,37.060001],[36.171894,37.059246],[36.173638,37.057206],[36.174142,37.055846],[36.175199,37.053781],[36.176609,37.053076],[36.177516,37.051918],[36.178171,37.049954],[36.178825,37.048594],[36.179279,37.047537],[36.180336,37.044162],[36.181545,37.041997],[36.18225,37.039731],[36.182502,37.03822],[36.182602,37.036508],[36.1823,37.034644],[36.182351,37.032579],[36.182451,37.03127],[36.182703,37.02845],[36.182369,37.026272],[36.181539,37.025176],[36.181199,37.024194],[36.180708,37.022419],[36.180141,37.020833],[36.179197,37.019737],[36.178064,37.018944],[36.177119,37.018226],[36.175986,37.01732],[36.174891,37.016904],[36.174362,37.016451],[36.173342,37.016262],[36.172851,37.015847],[36.171982,37.014449],[36.171303,37.013656],[36.170585,37.013165],[36.16983,37.012901],[36.169414,37.012108],[36.169112,37.011012],[36.16915,37.010295],[36.169339,37.009237],[36.169792,37.007802],[36.170056,37.00682],[36.171038,37.004855],[36.171409,37.003079],[36.16897,37.002557],[36.164528,37.002204],[36.16206,37.001499],[36.158111,37.000159],[36.15515,36.999243],[36.152541,36.998326],[36.150214,36.997692],[36.149156,36.997621],[36.142458,36.997339],[36.135407,36.997903],[36.126875,36.998467],[36.121516,36.998467],[36.116792,36.998326],[36.11383,36.998256],[36.110798,36.998397],[36.10685,36.998749],[36.10276,36.999384],[36.097542,37.000159],[36.09169,37.001429],[36.088729,37.002416],[36.084991,37.003403],[36.080267,37.003826],[36.075261,37.004672],[36.072159,37.00439],[36.065672,37.00305],[36.062216,37.001781],[36.056324,36.999576],[36.054737,37.002802],[36.052667,37.007546],[36.049993,37.011514],[36.048354,37.015655],[36.048613,37.01876],[36.049058,37.020591],[36.049389,37.021951],[36.049581,37.025445],[36.049734,37.028248],[36.050424,37.030318],[36.053271,37.03696],[36.054114,37.038944],[36.054737,37.04041],[36.055686,37.044119],[36.055715,37.044867],[36.055772,37.046362],[36.055772,37.047656],[36.055772,37.049984],[36.056629,37.052224],[36.056894,37.052917],[36.057598,37.054829],[36.058101,37.056195],[36.058446,37.05861],[36.059481,37.059214],[36.061034,37.060421],[36.061765,37.061091],[36.062069,37.06137],[36.063211,37.061736],[36.064225,37.06206],[36.066813,37.062492],[36.070522,37.063872],[36.071643,37.064327],[36.073282,37.064993],[36.074662,37.065424],[36.07587,37.065338],[36.078199,37.065079],[36.078479,37.065041],[36.078758,37.065003],[36.081643,37.066286],[36.082167,37.066635],[36.083477,37.067509],[36.084638,37.068748],[36.085161,37.069307],[36.085617,37.07129],[36.086221,37.075085],[36.090965,37.098633],[36.091303,37.106737],[36.09131,37.106913],[36.089671,37.112261],[36.089339,37.115582],[36.089067,37.118299],[36.08897,37.118531],[36.088733,37.119097]]]}}]}