{"type":"FeatureCollection","province":"Rize","province_id":"TR-P-53","features":[{"type":"Feature","properties":{"id":"TR-D-53-001","parent_id":"TR-P-53","region_id":"TR-R-KAR","level":"district","municipality_type":null,"municipality_type_label":null,"is_metropolitan_municipality":null,"name":"Ardeşen","name_ascii":"ardesen","slug":"ardesen-rize"},"geometry":{"type":"Polygon","coordinates":[[[40.961828,41.190024],[40.967474,41.191176],[40.97414,41.193795],[40.981881,41.195496],[40.986425,41.195715],[40.992402,41.194119],[40.993646,41.194503],[40.995617,41.195191],[40.997603,41.195797],[41.000036,41.196541],[41.002047,41.197255],[41.014073,41.201647],[41.014577,41.201838],[41.019101,41.203553],[41.023268,41.205841],[41.024062,41.206278],[41.024882,41.206688],[41.026126,41.20735],[41.02769,41.207955],[41.030323,41.208975],[41.032344,41.209758],[41.039675,41.211387],[41.04696,41.212165],[41.04767,41.212332],[41.05289,41.213555],[41.053852,41.214064],[41.057865,41.216187],[41.062971,41.218238],[41.068158,41.221202],[41.074587,41.226229],[41.079072,41.229775],[41.086005,41.234789],[41.089961,41.236932],[41.090233,41.237073],[41.092382,41.238189],[41.096288,41.241166],[41.100294,41.244219],[41.100648,41.243645],[41.103863,41.238797],[41.106432,41.235656],[41.108931,41.232087],[41.112857,41.226876],[41.114784,41.224306],[41.116926,41.222521],[41.118996,41.220737],[41.119924,41.219523],[41.121209,41.216311],[41.122351,41.209601],[41.12335,41.202605],[41.123993,41.200535],[41.125992,41.197251],[41.128633,41.193325],[41.130703,41.190827],[41.132131,41.189328],[41.134915,41.188328],[41.141767,41.18533],[41.14605,41.183117],[41.153046,41.180405],[41.1574,41.178549],[41.161969,41.176265],[41.167894,41.172481],[41.170606,41.170483],[41.172605,41.168555],[41.17389,41.166271],[41.174318,41.16313],[41.174033,41.160346],[41.174318,41.156777],[41.174889,41.154564],[41.176103,41.152422],[41.178958,41.150067],[41.183099,41.148282],[41.186953,41.146498],[41.196019,41.143428],[41.199446,41.141429],[41.202872,41.139431],[41.206298,41.137503],[41.20894,41.136076],[41.211367,41.135433],[41.217006,41.134719],[41.220647,41.133934],[41.222574,41.133006],[41.225001,41.131221],[41.230355,41.126938],[41.233496,41.124511],[41.234424,41.123583],[41.23578,41.122084],[41.236137,41.120585],[41.236922,41.119015],[41.238064,41.117944],[41.23942,41.117016],[41.243204,41.114875],[41.245131,41.11359],[41.246559,41.111377],[41.248486,41.108307],[41.251627,41.105666],[41.25434,41.103881],[41.259765,41.101383],[41.265761,41.098956],[41.2719,41.0971],[41.277325,41.09553],[41.28068,41.09453],[41.283536,41.093174],[41.286105,41.091532],[41.287961,41.089462],[41.290032,41.086678],[41.291245,41.084822],[41.29203,41.083251],[41.292887,41.082181],[41.295314,41.080111],[41.299026,41.078683],[41.302167,41.077112],[41.304523,41.074828],[41.305736,41.073329],[41.30802,41.070545],[41.310519,41.066976],[41.31159,41.06562],[41.314802,41.062836],[41.3183,41.059838],[41.324082,41.056126],[41.32965,41.052128],[41.335574,41.049273],[41.33893,41.04706],[41.340357,41.045204],[41.34207,41.042991],[41.342998,41.039993],[41.342784,41.037209],[41.342998,41.035282],[41.344783,41.031784],[41.346211,41.029428],[41.347793,41.027843],[41.347302,41.027324],[41.337486,41.020731],[41.330523,41.016445],[41.328916,41.015456],[41.310822,41.005567],[41.302471,41.000952],[41.300869,40.999771],[41.296611,40.99663],[41.290751,40.992748],[41.276832,40.986155],[41.271437,40.983212],[41.265551,40.980002],[41.26246,40.977372],[41.260643,40.975826],[41.253977,40.970918],[41.251813,40.969249],[41.248725,40.96619],[41.245013,40.963192],[41.240873,40.960408],[41.238446,40.962407],[41.236376,40.964477],[41.234377,40.965833],[41.233378,40.967118],[41.232807,40.968046],[41.232521,40.969189],[41.232875,40.970048],[41.233021,40.970402],[41.233792,40.971444],[41.234448,40.972329],[41.235519,40.973971],[41.236162,40.97547],[41.236282,40.97673],[41.236304,40.976969],[41.235947,40.979396],[41.235733,40.98011],[41.235854,40.980775],[41.235876,40.980895],[41.236131,40.981303],[41.236947,40.982609],[41.237652,40.984255],[41.237803,40.984607],[41.237838,40.984768],[41.23816,40.986249],[41.23816,40.987606],[41.238446,40.988534],[41.238946,40.989961],[41.23915,40.990675],[41.239231,40.990961],[41.239234,40.991032],[41.239302,40.992531],[41.238731,40.993673],[41.237375,40.994815],[41.236233,40.996029],[41.235234,40.997528],[41.233949,40.999312],[41.233163,41.000526],[41.232735,41.001954],[41.23245,41.003667],[41.232164,41.005594],[41.231593,41.007736],[41.23123,41.009342],[41.231093,41.009949],[41.230594,41.010948],[41.230406,41.01117],[41.229808,41.011876],[41.227167,41.014018],[41.223241,41.016302],[41.220743,41.01773],[41.218887,41.018515],[41.217031,41.019014],[41.214227,41.019482],[41.211891,41.019871],[41.210495,41.020307],[41.208465,41.020942],[41.205966,41.022084],[41.203967,41.023369],[41.200827,41.025867],[41.19885,41.027185],[41.197614,41.028009],[41.197091,41.028255],[41.196401,41.02858],[41.195199,41.028941],[41.194973,41.029008],[41.194778,41.029089],[41.194117,41.029365],[41.193403,41.029865],[41.193046,41.030579],[41.193046,41.031221],[41.193214,41.031838],[41.19326,41.032006],[41.19326,41.032792],[41.193046,41.03372],[41.192617,41.034005],[41.191547,41.033791],[41.190476,41.033934],[41.189405,41.034647],[41.188977,41.03529],[41.188882,41.035369],[41.187264,41.036718],[41.186523,41.037511],[41.186264,41.037788],[41.186069,41.03794],[41.185622,41.038288],[41.182981,41.041429],[41.181767,41.042642],[41.180482,41.044142],[41.179554,41.045498],[41.177912,41.048996],[41.175771,41.052208],[41.173986,41.054564],[41.171861,41.056595],[41.170774,41.057633],[41.170171,41.057907],[41.168418,41.058704],[41.167133,41.059418],[41.163421,41.060774],[41.160566,41.061631],[41.155926,41.063415],[41.150215,41.065771],[41.145219,41.068912],[41.140222,41.071053],[41.136296,41.07141],[41.131513,41.070625],[41.127944,41.070411],[41.123304,41.070125],[41.11588,41.069483],[41.108456,41.068341],[41.105244,41.068127],[41.100604,41.067912],[41.095321,41.068698],[41.093944,41.069076],[41.091681,41.069697],[41.088897,41.07141],[41.086041,41.073694],[41.080117,41.078406],[41.073169,41.082023],[41.06346,41.087067],[41.059463,41.088304],[41.05518,41.089304],[41.050897,41.090303],[41.043568,41.092873],[41.037572,41.094776],[41.030624,41.097061],[41.02577,41.098869],[41.023866,41.099821],[41.023105,41.100202],[41.021671,41.101097],[41.017013,41.104009],[41.012668,41.107711],[41.013213,41.109426],[41.013915,41.110907],[41.014227,41.112154],[41.014071,41.113246],[41.012668,41.11535],[41.011654,41.117299],[41.011031,41.118469],[41.009238,41.120729],[41.006665,41.123536],[41.00456,41.126966],[41.003313,41.128993],[41.00191,41.131409],[40.999415,41.134293],[40.997155,41.138191],[40.996063,41.139984],[40.994426,41.141621],[40.991854,41.14318],[40.989671,41.144739],[40.986865,41.145753],[40.98476,41.146688],[40.980083,41.148871],[40.977666,41.15043],[40.975873,41.152301],[40.975015,41.153704],[40.972365,41.156199],[40.969325,41.159473],[40.965271,41.163293],[40.962465,41.166177],[40.961529,41.16797],[40.961607,41.169919],[40.961841,41.171946],[40.962777,41.173817],[40.964102,41.175921],[40.964881,41.177948],[40.964881,41.180833],[40.96418,41.182392],[40.963244,41.184964],[40.962465,41.187069],[40.962079,41.189291],[40.962076,41.189303],[40.961828,41.190024]]]}},{"type":"Feature","properties":{"id":"TR-D-53-002","parent_id":"TR-P-53","region_id":"TR-R-KAR","level":"district","municipality_type":null,"municipality_type_label":null,"is_metropolitan_municipality":null,"name":"Çamlıhemşin","name_ascii":"camlihemsin","slug":"camlihemsin-rize"},"geometry":{"type":"Polygon","coordinates":[[[41.153166,40.811007],[41.143836,40.801803],[41.139595,40.797656],[41.130078,40.79172],[41.121597,40.787009],[41.112928,40.78258],[41.1085,40.779941],[41.103411,40.77702],[41.094742,40.77344],[41.08645,40.770613],[41.073352,40.766467],[41.066285,40.763451],[41.054318,40.761378],[41.049418,40.761001],[41.045837,40.761378],[41.041314,40.761661],[41.036132,40.761849],[41.031232,40.761378],[41.024542,40.760624],[41.016438,40.759494],[41.012669,40.759211],[41.006732,40.758457],[41.002209,40.757892],[40.998346,40.757703],[40.993446,40.756667],[40.988358,40.754028],[40.98506,40.751861],[40.982515,40.749977],[40.979406,40.747809],[40.975731,40.7447],[40.966308,40.741119],[40.962916,40.73914],[40.954435,40.736219],[40.946708,40.734617],[40.937568,40.733015],[40.929182,40.732544],[40.921549,40.73311],[40.91175,40.734335],[40.904965,40.735465],[40.896579,40.736596],[40.893846,40.73669],[40.890831,40.736408],[40.885742,40.736313],[40.872833,40.735465],[40.871895,40.739591],[40.870467,40.742922],[40.869135,40.745111],[40.865232,40.750251],[40.862567,40.7552],[40.859046,40.759769],[40.855048,40.764052],[40.85086,40.768811],[40.846387,40.773189],[40.840962,40.778233],[40.837345,40.780137],[40.834204,40.782136],[40.835061,40.784896],[40.836869,40.791273],[40.838582,40.796127],[40.839602,40.797962],[40.84001,40.798697],[40.840962,40.798982],[40.843341,40.799458],[40.847631,40.799788],[40.848291,40.799839],[40.851241,40.801076],[40.853924,40.803034],[40.854763,40.803646],[40.855859,40.805051],[40.857808,40.807548],[40.859558,40.810803],[40.862567,40.8164],[40.864376,40.820112],[40.865137,40.823253],[40.865328,40.825823],[40.865137,40.829249],[40.865613,40.833437],[40.866279,40.836578],[40.866375,40.838767],[40.867231,40.840575],[40.868088,40.841539],[40.868754,40.842288],[40.869087,40.842832],[40.870562,40.845239],[40.870848,40.847904],[40.870562,40.851521],[40.869801,40.857422],[40.869004,40.861653],[40.868564,40.863989],[40.868088,40.870176],[40.867041,40.876553],[40.865042,40.882549],[40.870562,40.884548],[40.879414,40.887784],[40.888456,40.892543],[40.892834,40.89654],[40.899401,40.90444],[40.906254,40.917004],[40.908729,40.921858],[40.910728,40.926236],[40.911204,40.928996],[40.910823,40.931661],[40.909586,40.935849],[40.909395,40.938799],[40.908824,40.944034],[40.908634,40.948508],[40.907872,40.953266],[40.907301,40.956217],[40.906825,40.958977],[40.906635,40.961737],[40.907206,40.964973],[40.908158,40.967638],[40.90911,40.970399],[40.910633,40.973254],[40.912155,40.97668],[40.914249,40.97906],[40.915487,40.980583],[40.919008,40.982962],[40.921673,40.985342],[40.923101,40.987626],[40.92548,40.990005],[40.927194,40.991719],[40.928241,40.992956],[40.928621,40.994574],[40.928621,40.996192],[40.928526,40.998381],[40.928241,41.000285],[40.92786,41.003045],[40.927098,41.008184],[40.926337,41.011706],[40.926813,41.014561],[40.927003,41.016179],[40.927955,41.017512],[40.93062,41.021605],[40.933951,41.025983],[40.936426,41.028838],[40.937568,41.032645],[40.938044,41.035881],[40.937854,41.039308],[40.937378,41.041687],[40.936997,41.044067],[40.936426,41.047588],[40.936426,41.050349],[40.936807,41.053775],[40.937378,41.05625],[40.937949,41.057677],[40.938901,41.059962],[40.938996,41.061008],[40.93871,41.063959],[40.937187,41.067861],[40.93576,41.070916],[40.936086,41.070916],[40.93674,41.070916],[40.94243,41.070838],[40.942898,41.070849],[40.952331,41.071072],[40.957476,41.072553],[40.969169,41.077309],[40.975249,41.079725],[40.979459,41.080894],[40.984214,41.081986],[40.987176,41.082999],[40.992399,41.084006],[40.993647,41.084246],[40.994562,41.084422],[40.999337,41.085338],[41.004249,41.087053],[41.004652,41.087319],[41.007211,41.089002],[41.00803,41.090014],[41.008536,41.090639],[41.010485,41.093991],[41.011264,41.099993],[41.012356,41.104749],[41.012652,41.107563],[41.012668,41.107711],[41.017013,41.104009],[41.021671,41.101097],[41.023105,41.100202],[41.023866,41.099821],[41.02577,41.098869],[41.030624,41.097061],[41.037572,41.094776],[41.043568,41.092873],[41.050897,41.090303],[41.05518,41.089304],[41.059463,41.088304],[41.06346,41.087067],[41.073169,41.082023],[41.080117,41.078406],[41.086041,41.073694],[41.088897,41.07141],[41.091681,41.069697],[41.093944,41.069076],[41.095321,41.068698],[41.100604,41.067912],[41.105244,41.068127],[41.108456,41.068341],[41.11588,41.069483],[41.123304,41.070125],[41.127944,41.070411],[41.131513,41.070625],[41.136296,41.07141],[41.140222,41.071053],[41.145219,41.068912],[41.150215,41.065771],[41.155926,41.063415],[41.160566,41.061631],[41.163421,41.060774],[41.167133,41.059418],[41.168418,41.058704],[41.170171,41.057907],[41.170774,41.057633],[41.171861,41.056595],[41.173986,41.054564],[41.175771,41.052208],[41.177912,41.048996],[41.179554,41.045498],[41.180482,41.044142],[41.181767,41.042642],[41.182981,41.041429],[41.185622,41.038288],[41.186069,41.03794],[41.186264,41.037788],[41.186523,41.037511],[41.187264,41.036718],[41.188882,41.035369],[41.188977,41.03529],[41.189405,41.034647],[41.190476,41.033934],[41.191547,41.033791],[41.192617,41.034005],[41.193046,41.03372],[41.19326,41.032792],[41.19326,41.032006],[41.193214,41.031838],[41.193046,41.031221],[41.193046,41.030579],[41.193403,41.029865],[41.194117,41.029365],[41.194778,41.029089],[41.194973,41.029008],[41.195199,41.028941],[41.196401,41.02858],[41.197091,41.028255],[41.197614,41.028009],[41.19885,41.027185],[41.200827,41.025867],[41.203967,41.023369],[41.205966,41.022084],[41.208465,41.020942],[41.210495,41.020307],[41.211891,41.019871],[41.214227,41.019482],[41.217031,41.019014],[41.218887,41.018515],[41.220743,41.01773],[41.223241,41.016302],[41.227167,41.014018],[41.229808,41.011876],[41.230406,41.01117],[41.230594,41.010948],[41.231093,41.009949],[41.23123,41.009342],[41.231593,41.007736],[41.232164,41.005594],[41.23245,41.003667],[41.232735,41.001954],[41.233163,41.000526],[41.233949,40.999312],[41.235234,40.997528],[41.236233,40.996029],[41.237375,40.994815],[41.238731,40.993673],[41.239302,40.992531],[41.239234,40.991032],[41.239231,40.990961],[41.23915,40.990675],[41.238946,40.989961],[41.238446,40.988534],[41.23816,40.987606],[41.23816,40.986249],[41.237838,40.984768],[41.237803,40.984607],[41.237652,40.984255],[41.236947,40.982609],[41.236131,40.981303],[41.235876,40.980895],[41.235854,40.980775],[41.235733,40.98011],[41.235947,40.979396],[41.236304,40.976969],[41.236282,40.97673],[41.236162,40.97547],[41.235519,40.973971],[41.234448,40.972329],[41.233792,40.971444],[41.233021,40.970402],[41.232875,40.970048],[41.232521,40.969189],[41.232807,40.968046],[41.233378,40.967118],[41.234377,40.965833],[41.236376,40.964477],[41.238446,40.962407],[41.240873,40.960408],[41.238731,40.959123],[41.236519,40.957838],[41.23352,40.955411],[41.231307,40.95377],[41.229594,40.951985],[41.22712,40.949016],[41.226644,40.945875],[41.226453,40.944257],[41.227881,40.94045],[41.228643,40.937975],[41.228167,40.935215],[41.226453,40.930171],[41.224074,40.925602],[41.222456,40.923603],[41.220172,40.9217],[41.215889,40.918749],[41.215222,40.917893],[41.214746,40.915799],[41.214556,40.913419],[41.213795,40.908089],[41.212272,40.904187],[41.210083,40.900761],[41.208655,40.898191],[41.206371,40.89229],[41.203325,40.884485],[41.200089,40.879155],[41.195901,40.875253],[41.189048,40.868495],[41.186479,40.867639],[41.183338,40.866306],[41.17915,40.863927],[41.176865,40.862023],[41.172868,40.858501],[41.169442,40.854504],[41.164778,40.848698],[41.162398,40.844986],[41.160114,40.840703],[41.15802,40.836325],[41.154784,40.827188],[41.153547,40.816242],[41.153261,40.813197],[41.153166,40.811007]]]}},{"type":"Feature","properties":{"id":"TR-D-53-003","parent_id":"TR-P-53","region_id":"TR-R-KAR","level":"district","municipality_type":null,"municipality_type_label":null,"is_metropolitan_municipality":null,"name":"Çayeli","name_ascii":"cayeli","slug":"cayeli-rize"},"geometry":{"type":"Polygon","coordinates":[[[40.865042,40.882549],[40.867041,40.876553],[40.868088,40.870176],[40.868564,40.863989],[40.869004,40.861653],[40.869801,40.857422],[40.870562,40.851521],[40.870848,40.847904],[40.870562,40.845239],[40.869087,40.842832],[40.868754,40.842288],[40.868088,40.841539],[40.867231,40.840575],[40.866375,40.838767],[40.866279,40.836578],[40.865613,40.833437],[40.865137,40.829249],[40.865328,40.825823],[40.865137,40.823253],[40.864376,40.820112],[40.862567,40.8164],[40.859558,40.810803],[40.857808,40.807548],[40.855859,40.805051],[40.854763,40.803646],[40.853924,40.803034],[40.851241,40.801076],[40.848291,40.799839],[40.847631,40.799788],[40.843341,40.799458],[40.840962,40.798982],[40.84001,40.798697],[40.839602,40.797962],[40.838582,40.796127],[40.836869,40.791273],[40.835061,40.784896],[40.834204,40.782136],[40.829986,40.782923],[40.827448,40.783304],[40.826179,40.783495],[40.825762,40.783554],[40.819516,40.784446],[40.81609,40.784446],[40.814377,40.784446],[40.811648,40.784538],[40.805906,40.784732],[40.80197,40.785585],[40.800195,40.785969],[40.79458,40.787873],[40.790868,40.789634],[40.787156,40.791394],[40.782302,40.794155],[40.775925,40.796915],[40.769643,40.799485],[40.764503,40.801007],[40.760696,40.800759],[40.760125,40.800722],[40.755556,40.800531],[40.755041,40.800428],[40.74937,40.799294],[40.745182,40.798533],[40.744252,40.798584],[40.743469,40.798628],[40.739757,40.798628],[40.738933,40.79882],[40.736901,40.799294],[40.734808,40.800531],[40.732809,40.803958],[40.731952,40.806623],[40.731191,40.809478],[40.730429,40.812048],[40.729478,40.815284],[40.728431,40.81833],[40.728282,40.81861],[40.727574,40.819948],[40.726527,40.822708],[40.72529,40.824136],[40.723576,40.826896],[40.722815,40.829371],[40.72253,40.83156],[40.72283,40.832837],[40.72291,40.833178],[40.723386,40.834225],[40.723513,40.834923],[40.723576,40.835272],[40.723573,40.835313],[40.723481,40.836319],[40.723005,40.837175],[40.721387,40.838603],[40.71996,40.839459],[40.717961,40.840506],[40.715449,40.842329],[40.712705,40.845073],[40.710536,40.848073],[40.707153,40.853433],[40.705749,40.856369],[40.703835,40.860134],[40.702495,40.863325],[40.701282,40.86894],[40.700836,40.871365],[40.70058,40.874365],[40.700772,40.876151],[40.701586,40.877004],[40.702112,40.877555],[40.703643,40.878576],[40.704689,40.879093],[40.70673,40.880101],[40.708239,40.881851],[40.709585,40.882861],[40.714344,40.885335],[40.716628,40.886763],[40.717675,40.888096],[40.718191,40.889348],[40.718342,40.889714],[40.718342,40.892283],[40.718344,40.89233],[40.718437,40.893902],[40.71897,40.894968],[40.719103,40.895234],[40.720816,40.896757],[40.722006,40.897709],[40.723196,40.89866],[40.724193,40.899366],[40.72548,40.900278],[40.727003,40.901897],[40.72786,40.90361],[40.729097,40.905037],[40.731571,40.906655],[40.732477,40.907178],[40.734046,40.908083],[40.736235,40.90932],[40.738424,40.911319],[40.740994,40.91465],[40.742185,40.91622],[40.743088,40.917411],[40.744325,40.919695],[40.744516,40.922836],[40.743849,40.926453],[40.742803,40.928642],[40.741375,40.93064],[40.740653,40.931783],[40.740233,40.932449],[40.739804,40.933734],[40.739376,40.935019],[40.738424,40.936827],[40.737948,40.939206],[40.738139,40.941015],[40.738139,40.942252],[40.73871,40.943585],[40.738811,40.944444],[40.7389,40.945203],[40.739035,40.946412],[40.739186,40.947773],[40.739329,40.948391],[40.739471,40.94901],[40.73905,40.949731],[40.738139,40.951294],[40.73614,40.954435],[40.732714,40.95729],[40.72811,40.959808],[40.726622,40.960622],[40.72487,40.9614],[40.722339,40.962525],[40.719782,40.963978],[40.718151,40.964905],[40.71758,40.96519],[40.716438,40.965761],[40.715391,40.966142],[40.714249,40.967094],[40.712536,40.968521],[40.707587,40.972424],[40.702637,40.976421],[40.700353,40.978801],[40.699496,40.979657],[40.698069,40.979848],[40.696165,40.979372],[40.693215,40.978896],[40.688741,40.978706],[40.685315,40.978801],[40.680841,40.979943],[40.677034,40.980759],[40.675511,40.981085],[40.674158,40.981249],[40.67237,40.981466],[40.66923,40.981466],[40.666945,40.981561],[40.6639,40.981942],[40.662377,40.983179],[40.661139,40.984702],[40.660568,40.986701],[40.659997,40.988128],[40.657523,40.991174],[40.655334,40.992887],[40.654762,40.993839],[40.653811,40.995838],[40.653335,40.997836],[40.652478,40.999074],[40.650765,41.000216],[40.649432,41.000977],[40.647644,41.002183],[40.646975,41.002634],[40.646494,41.002928],[40.645826,41.003336],[40.645252,41.004357],[40.644872,41.005769],[40.644805,41.006016],[40.645444,41.007675],[40.646848,41.009973],[40.647805,41.012589],[40.6479,41.013195],[40.647996,41.013802],[40.64806,41.013897],[40.648251,41.014185],[40.649336,41.014823],[40.650102,41.015333],[40.650421,41.016291],[40.650996,41.017184],[40.651761,41.017439],[40.654274,41.017417],[40.655048,41.017633],[40.656666,41.018585],[40.657713,41.018966],[40.659617,41.019537],[40.660378,41.020489],[40.660759,41.021155],[40.660759,41.022107],[40.660188,41.023059],[40.65857,41.025533],[40.657713,41.027342],[40.656856,41.030102],[40.65619,41.03153],[40.655524,41.033528],[40.656095,41.035242],[40.657332,41.036669],[40.65876,41.037621],[40.659902,41.038002],[40.660949,41.039144],[40.661615,41.041714],[40.66133,41.044283],[40.660854,41.045616],[40.660568,41.047424],[40.660854,41.049899],[40.66152,41.05323],[40.66171,41.055705],[40.662282,41.057799],[40.662757,41.059798],[40.663138,41.062082],[40.663138,41.063795],[40.663043,41.065794],[40.661996,41.069886],[40.661522,41.071954],[40.66131,41.072608],[40.663065,41.073103],[40.670779,41.075391],[40.675466,41.077563],[40.683787,41.079055],[40.689537,41.078481],[40.694369,41.079053],[40.698604,41.080893],[40.700546,41.08201],[40.705564,41.084898],[40.712242,41.086769],[40.720088,41.088785],[40.727813,41.093682],[40.728158,41.093901],[40.730093,41.09564],[40.733543,41.098743],[40.740197,41.105027],[40.740931,41.105641],[40.742711,41.107131],[40.745146,41.110385],[40.74637,41.112047],[40.754142,41.122597],[40.757582,41.126314],[40.76045,41.129464],[40.761088,41.130165],[40.766845,41.136489],[40.77138,41.139764],[40.774062,41.141701],[40.775685,41.14014],[40.776231,41.139672],[40.776542,41.138815],[40.776542,41.138035],[40.776854,41.137256],[40.77779,41.136009],[40.777946,41.135151],[40.777868,41.134138],[40.77818,41.133202],[40.778569,41.132189],[40.778647,41.130941],[40.778647,41.130084],[40.779349,41.129304],[40.780518,41.128291],[40.782935,41.126888],[40.78387,41.12642],[40.785273,41.12642],[40.786131,41.12603],[40.786988,41.125173],[40.78769,41.124237],[40.78847,41.1226],[40.789093,41.120573],[40.789873,41.11956],[40.791276,41.118703],[40.792055,41.118001],[40.792835,41.116754],[40.79377,41.114493],[40.795174,41.11231],[40.797123,41.111063],[40.801488,41.109426],[40.807335,41.108101],[40.814974,41.107165],[40.819729,41.106697],[40.82963,41.105138],[40.834307,41.10506],[40.843817,41.104982],[40.849508,41.104359],[40.851847,41.103579],[40.856446,41.09937],[40.858941,41.095628],[40.861435,41.089236],[40.862293,41.086429],[40.864398,41.082376],[40.866268,41.080816],[40.869632,41.078819],[40.86753,41.075152],[40.866871,41.074054],[40.866102,41.072773],[40.865245,41.070869],[40.865058,41.070349],[40.864389,41.06849],[40.864341,41.067919],[40.864294,41.067348],[40.864294,41.066396],[40.864215,41.066043],[40.864168,41.065829],[40.864131,41.065662],[40.864038,41.065315],[40.863818,41.064492],[40.863532,41.06335],[40.863437,41.062303],[40.863342,41.061352],[40.863532,41.060495],[40.863913,41.059543],[40.864294,41.058782],[40.864674,41.05783],[40.86443,41.057218],[40.864103,41.056402],[40.863818,41.05507],[40.864015,41.0544],[40.864294,41.053452],[40.86515,41.052119],[40.865341,41.050692],[40.865055,41.049359],[40.863913,41.048027],[40.862866,41.046694],[40.862295,41.045552],[40.861724,41.045266],[40.860582,41.044695],[40.859439,41.043744],[40.858392,41.043077],[40.857825,41.042597],[40.857155,41.04203],[40.856759,41.041317],[40.856203,41.040317],[40.854966,41.039556],[40.854078,41.039112],[40.853634,41.038889],[40.852491,41.037938],[40.851349,41.036605],[40.850398,41.034797],[40.849065,41.03375],[40.848837,41.033445],[40.847923,41.032227],[40.847542,41.030419],[40.847538,41.030336],[40.847447,41.028515],[40.847323,41.028059],[40.847161,41.027468],[40.84659,41.026897],[40.845734,41.02604],[40.845575,41.025723],[40.845258,41.025089],[40.845062,41.023767],[40.845003,41.023367],[40.844877,41.022519],[40.844822,41.022125],[40.844401,41.019092],[40.844306,41.016332],[40.844401,41.011954],[40.844602,41.00961],[40.844687,41.008623],[40.845073,41.006629],[40.845258,41.005672],[40.845353,41.002341],[40.844782,40.999866],[40.844021,40.997868],[40.843354,40.995869],[40.841356,40.990158],[40.840257,40.986497],[40.839928,40.985399],[40.839806,40.984881],[40.839547,40.983781],[40.839166,40.981782],[40.837739,40.98026],[40.836406,40.979638],[40.836311,40.979593],[40.834027,40.978546],[40.831171,40.976643],[40.83041,40.97493],[40.829661,40.973591],[40.829078,40.97255],[40.829048,40.972199],[40.828887,40.970266],[40.828506,40.969124],[40.827745,40.966839],[40.826281,40.963395],[40.826127,40.963032],[40.82489,40.961404],[40.824319,40.960653],[40.823081,40.957797],[40.82213,40.955513],[40.82213,40.953324],[40.82213,40.949612],[40.822796,40.947233],[40.823652,40.943235],[40.823938,40.941903],[40.824604,40.94038],[40.826413,40.938],[40.828411,40.935716],[40.829839,40.933432],[40.831838,40.930957],[40.833265,40.929434],[40.833932,40.927816],[40.834217,40.926389],[40.834883,40.922867],[40.835074,40.919821],[40.835074,40.918203],[40.834312,40.916585],[40.833907,40.915729],[40.833456,40.914777],[40.832409,40.912493],[40.832232,40.910018],[40.832218,40.909828],[40.83298,40.907829],[40.834441,40.906214],[40.834788,40.90583],[40.83578,40.905093],[40.8385,40.90307],[40.841451,40.900595],[40.845734,40.898882],[40.84897,40.897471],[40.849446,40.897264],[40.853348,40.894694],[40.855918,40.891934],[40.861533,40.885271],[40.865042,40.882549]]]}},{"type":"Feature","properties":{"id":"TR-D-53-004","parent_id":"TR-P-53","region_id":"TR-R-KAR","level":"district","municipality_type":null,"municipality_type_label":null,"is_metropolitan_municipality":null,"name":"Derepazarı","name_ascii":"derepazari","slug":"derepazari-rize"},"geometry":{"type":"Polygon","coordinates":[[[40.389943,41.028144],[40.392491,41.028201],[40.395685,41.028273],[40.402235,41.027127],[40.405232,41.026705],[40.408697,41.026136],[40.412326,41.026603],[40.414762,41.026211],[40.417924,41.025702],[40.422157,41.026971],[40.427186,41.027236],[40.427385,41.027246],[40.429622,41.027314],[40.429646,41.027319],[40.429681,41.027332],[40.431107,41.028143],[40.432261,41.028799],[40.433265,41.0295],[40.434065,41.030081],[40.435577,41.030129],[40.437453,41.030192],[40.441167,41.030625],[40.442694,41.030793],[40.445407,41.032744],[40.448122,41.033549],[40.451548,41.032762],[40.454717,41.032774],[40.454843,41.032253],[40.454717,41.031875],[40.454658,41.031121],[40.454466,41.031096],[40.454645,41.030965],[40.455219,41.030309],[40.45582,41.029745],[40.456347,41.029369],[40.456798,41.028918],[40.457136,41.028241],[40.457136,41.027678],[40.457136,41.026963],[40.457286,41.026512],[40.457474,41.026136],[40.457587,41.025723],[40.457775,41.025008],[40.457775,41.024031],[40.457662,41.022602],[40.457324,41.021399],[40.457136,41.020572],[40.457249,41.020008],[40.457362,41.019708],[40.458715,41.01858],[40.459504,41.017264],[40.459993,41.016249],[40.45973,41.015008],[40.459053,41.014106],[40.458602,41.013317],[40.458339,41.012565],[40.458565,41.011738],[40.45973,41.009895],[40.460543,41.0067],[40.460353,41.005749],[40.459687,41.00356],[40.45883,41.002132],[40.457403,41.001085],[40.455023,41.000133],[40.452644,40.999467],[40.448456,40.998515],[40.445981,40.997468],[40.44522,40.996421],[40.444649,40.994518],[40.444649,40.992995],[40.444363,40.991282],[40.444649,40.989949],[40.446267,40.989188],[40.44798,40.988712],[40.451502,40.988617],[40.454642,40.988236],[40.45626,40.987474],[40.456832,40.986332],[40.456736,40.985095],[40.45626,40.983667],[40.454833,40.982525],[40.452739,40.981669],[40.448361,40.980812],[40.443316,40.980812],[40.43989,40.980907],[40.437225,40.980812],[40.431133,40.980146],[40.426565,40.979194],[40.423043,40.978432],[40.420473,40.977386],[40.417808,40.975767],[40.416761,40.974054],[40.415429,40.972722],[40.414192,40.97177],[40.41324,40.971484],[40.412478,40.971294],[40.412002,40.970723],[40.411812,40.970057],[40.411431,40.969676],[40.410575,40.96901],[40.410289,40.968534],[40.409718,40.967963],[40.408481,40.967392],[40.407719,40.966821],[40.407244,40.96625],[40.406267,40.967496],[40.40384,40.970636],[40.402697,40.973563],[40.400841,40.977204],[40.399557,40.979916],[40.3992,40.983343],[40.398557,40.986484],[40.398129,40.989268],[40.397558,40.990981],[40.397201,40.993051],[40.397272,40.994764],[40.397986,40.996549],[40.398057,40.998119],[40.397843,41.000332],[40.396844,41.001831],[40.396201,41.003402],[40.393703,41.007328],[40.392561,41.009184],[40.391133,41.010397],[40.390062,41.011968],[40.389277,41.013181],[40.388278,41.015537],[40.388135,41.017893],[40.38785,41.020962],[40.388064,41.022604],[40.388421,41.024388],[40.388546,41.025589],[40.388547,41.025591],[40.389943,41.028144]]]}},{"type":"Feature","properties":{"id":"TR-D-53-005","parent_id":"TR-P-53","region_id":"TR-R-KAR","level":"district","municipality_type":null,"municipality_type_label":null,"is_metropolitan_municipality":null,"name":"Fındıklı","name_ascii":"findikli","slug":"findikli-rize"},"geometry":{"type":"Polygon","coordinates":[[[41.100294,41.244219],[41.101374,41.245042],[41.106699,41.248144],[41.108716,41.249248],[41.114603,41.252466],[41.122818,41.256786],[41.127662,41.259565],[41.128315,41.25994],[41.131384,41.263512],[41.133121,41.26546],[41.13366,41.266065],[41.136465,41.269227],[41.139084,41.27186],[41.14218,41.275498],[41.146586,41.278819],[41.14767,41.279692],[41.14947,41.281055],[41.15156,41.282616],[41.153148,41.283066],[41.154061,41.283357],[41.15459,41.283542],[41.15496,41.283635],[41.155265,41.283727],[41.155556,41.283833],[41.156045,41.283979],[41.156799,41.284204],[41.157606,41.284495],[41.161589,41.285897],[41.16987,41.285908],[41.170158,41.285909],[41.170439,41.285991],[41.176386,41.287719],[41.190842,41.293845],[41.199069,41.296204],[41.205658,41.299577],[41.212445,41.303732],[41.217588,41.30492],[41.218054,41.305028],[41.220568,41.306153],[41.221402,41.307004],[41.222989,41.308627],[41.227765,41.312344],[41.238892,41.31761],[41.243747,41.321526],[41.249727,41.327466],[41.250058,41.326649],[41.250827,41.324148],[41.254417,41.320631],[41.261083,41.311694],[41.263134,41.309277],[41.264745,41.305614],[41.266284,41.298509],[41.26709,41.295212],[41.269507,41.290817],[41.272584,41.283419],[41.276539,41.279023],[41.28174,41.274775],[41.286868,41.270892],[41.291337,41.269134],[41.295732,41.266497],[41.300567,41.262468],[41.304376,41.259245],[41.308258,41.255143],[41.311628,41.250015],[41.313093,41.245839],[41.313825,41.243349],[41.314412,41.238954],[41.316096,41.23346],[41.318953,41.228112],[41.323788,41.22335],[41.32833,41.219175],[41.336314,41.212729],[41.343493,41.205843],[41.348768,41.19969],[41.350233,41.196906],[41.353163,41.191851],[41.354774,41.18687],[41.355727,41.182988],[41.35851,41.17786],[41.360635,41.173098],[41.363491,41.167971],[41.365836,41.163429],[41.36796,41.160352],[41.370158,41.157788],[41.372135,41.155664],[41.374406,41.152441],[41.377996,41.147972],[41.381585,41.143577],[41.386127,41.137937],[41.38935,41.132003],[41.390815,41.129],[41.391694,41.12248],[41.39228,41.118598],[41.392207,41.113909],[41.39206,41.110467],[41.391914,41.106877],[41.392866,41.101896],[41.393526,41.097281],[41.394771,41.093325],[41.39521,41.090542],[41.395577,41.087538],[41.395506,41.087025],[41.395064,41.083802],[41.394112,41.077502],[41.39228,41.072594],[41.39069,41.068079],[41.390009,41.066148],[41.389345,41.064507],[41.387372,41.059628],[41.386332,41.058282],[41.386127,41.058017],[41.382318,41.055233],[41.378179,41.053366],[41.376311,41.052523],[41.373492,41.051532],[41.37089,41.050618],[41.368617,41.049226],[41.367301,41.048421],[41.366861,41.048128],[41.364664,41.046663],[41.360635,41.042853],[41.359934,41.042024],[41.357045,41.038605],[41.351038,41.031279],[41.347793,41.027843],[41.346211,41.029428],[41.344783,41.031784],[41.342998,41.035282],[41.342784,41.037209],[41.342998,41.039993],[41.34207,41.042991],[41.340357,41.045204],[41.33893,41.04706],[41.335574,41.049273],[41.32965,41.052128],[41.324082,41.056126],[41.3183,41.059838],[41.314802,41.062836],[41.31159,41.06562],[41.310519,41.066976],[41.30802,41.070545],[41.305736,41.073329],[41.304523,41.074828],[41.302167,41.077112],[41.299026,41.078683],[41.295314,41.080111],[41.292887,41.082181],[41.29203,41.083251],[41.291245,41.084822],[41.290032,41.086678],[41.287961,41.089462],[41.286105,41.091532],[41.283536,41.093174],[41.28068,41.09453],[41.277325,41.09553],[41.2719,41.0971],[41.265761,41.098956],[41.259765,41.101383],[41.25434,41.103881],[41.251627,41.105666],[41.248486,41.108307],[41.246559,41.111377],[41.245131,41.11359],[41.243204,41.114875],[41.23942,41.117016],[41.238064,41.117944],[41.236922,41.119015],[41.236137,41.120585],[41.23578,41.122084],[41.234424,41.123583],[41.233496,41.124511],[41.230355,41.126938],[41.225001,41.131221],[41.222574,41.133006],[41.220647,41.133934],[41.217006,41.134719],[41.211367,41.135433],[41.20894,41.136076],[41.206298,41.137503],[41.202872,41.139431],[41.199446,41.141429],[41.196019,41.143428],[41.186953,41.146498],[41.183099,41.148282],[41.178958,41.150067],[41.176103,41.152422],[41.174889,41.154564],[41.174318,41.156777],[41.174033,41.160346],[41.174318,41.16313],[41.17389,41.166271],[41.172605,41.168555],[41.170606,41.170483],[41.167894,41.172481],[41.161969,41.176265],[41.1574,41.178549],[41.153046,41.180405],[41.14605,41.183117],[41.141767,41.18533],[41.134915,41.188328],[41.132131,41.189328],[41.130703,41.190827],[41.128633,41.193325],[41.125992,41.197251],[41.123993,41.200535],[41.12335,41.202605],[41.122351,41.209601],[41.121209,41.216311],[41.119924,41.219523],[41.118996,41.220737],[41.116926,41.222521],[41.114784,41.224306],[41.112857,41.226876],[41.108931,41.232087],[41.106432,41.235656],[41.103863,41.238797],[41.100648,41.243645],[41.100294,41.244219]]]}},{"type":"Feature","properties":{"id":"TR-D-53-006","parent_id":"TR-P-53","region_id":"TR-R-KAR","level":"district","municipality_type":null,"municipality_type_label":null,"is_metropolitan_municipality":null,"name":"Güneysu","name_ascii":"guneysu","slug":"guneysu-rize"},"geometry":{"type":"Polygon","coordinates":[[[40.648251,41.014185],[40.64806,41.013897],[40.647996,41.013802],[40.6479,41.013195],[40.647805,41.012589],[40.646848,41.009973],[40.645444,41.007675],[40.644805,41.006016],[40.644872,41.005769],[40.645252,41.004357],[40.645826,41.003336],[40.646494,41.002928],[40.646975,41.002634],[40.647644,41.002183],[40.649432,41.000977],[40.650765,41.000216],[40.652478,40.999074],[40.653335,40.997836],[40.653811,40.995838],[40.654762,40.993839],[40.655334,40.992887],[40.657523,40.991174],[40.659997,40.988128],[40.660568,40.986701],[40.661139,40.984702],[40.662377,40.983179],[40.6639,40.981942],[40.666945,40.981561],[40.66923,40.981466],[40.67237,40.981466],[40.674158,40.981249],[40.675511,40.981085],[40.677034,40.980759],[40.680841,40.979943],[40.685315,40.978801],[40.688741,40.978706],[40.693215,40.978896],[40.696165,40.979372],[40.698069,40.979848],[40.699496,40.979657],[40.700353,40.978801],[40.702637,40.976421],[40.707587,40.972424],[40.712536,40.968521],[40.714249,40.967094],[40.715391,40.966142],[40.716438,40.965761],[40.71758,40.96519],[40.718151,40.964905],[40.719782,40.963978],[40.722339,40.962525],[40.72487,40.9614],[40.726622,40.960622],[40.72811,40.959808],[40.732714,40.95729],[40.73614,40.954435],[40.738139,40.951294],[40.73905,40.949731],[40.739471,40.94901],[40.739329,40.948391],[40.739186,40.947773],[40.739035,40.946412],[40.7389,40.945203],[40.738811,40.944444],[40.73871,40.943585],[40.738139,40.942252],[40.738139,40.941015],[40.737948,40.939206],[40.738424,40.936827],[40.739376,40.935019],[40.739804,40.933734],[40.740233,40.932449],[40.740653,40.931783],[40.741375,40.93064],[40.742803,40.928642],[40.743849,40.926453],[40.744516,40.922836],[40.744325,40.919695],[40.743088,40.917411],[40.742185,40.91622],[40.740994,40.91465],[40.738424,40.911319],[40.736235,40.90932],[40.734046,40.908083],[40.732477,40.907178],[40.731571,40.906655],[40.729097,40.905037],[40.72786,40.90361],[40.727003,40.901897],[40.72548,40.900278],[40.724193,40.899366],[40.723196,40.89866],[40.722006,40.897709],[40.720816,40.896757],[40.719103,40.895234],[40.71897,40.894968],[40.718437,40.893902],[40.718344,40.89233],[40.718342,40.892283],[40.718342,40.889714],[40.718191,40.889348],[40.717675,40.888096],[40.716628,40.886763],[40.714344,40.885335],[40.709585,40.882861],[40.708239,40.881851],[40.70673,40.880101],[40.704689,40.879093],[40.703643,40.878576],[40.702112,40.877555],[40.701586,40.877004],[40.700772,40.876151],[40.699751,40.875386],[40.698915,40.874624],[40.697581,40.873407],[40.693832,40.870637],[40.693178,40.870153],[40.68552,40.867728],[40.680415,40.866451],[40.675309,40.866388],[40.673331,40.866005],[40.670959,40.866229],[40.669949,40.866324],[40.665737,40.866834],[40.665397,40.866921],[40.662738,40.8676],[40.661078,40.868557],[40.658717,40.870025],[40.65642,40.87194],[40.653676,40.875067],[40.650357,40.878194],[40.647677,40.880555],[40.642061,40.882852],[40.640345,40.883575],[40.639636,40.883873],[40.635871,40.884703],[40.635536,40.884798],[40.633191,40.885469],[40.629362,40.887894],[40.627575,40.889489],[40.625916,40.890829],[40.623427,40.892042],[40.621768,40.892871],[40.620428,40.893126],[40.618705,40.893382],[40.615195,40.893382],[40.609771,40.894275],[40.60441,40.894977],[40.597582,40.896636],[40.594008,40.897976],[40.58935,40.899125],[40.587499,40.900338],[40.584894,40.901849],[40.584308,40.902188],[40.583287,40.902383],[40.578948,40.903209],[40.576778,40.904039],[40.575119,40.905251],[40.574353,40.907421],[40.573587,40.909208],[40.573396,40.91259],[40.573077,40.915334],[40.572311,40.916993],[40.571737,40.918972],[40.571545,40.920759],[40.570779,40.922737],[40.570205,40.924205],[40.569503,40.925609],[40.568737,40.927714],[40.568099,40.930139],[40.567844,40.931075],[40.567716,40.931543],[40.567737,40.932118],[40.56778,40.933266],[40.568099,40.935372],[40.568354,40.93767],[40.568801,40.940286],[40.56995,40.942456],[40.572566,40.945072],[40.574162,40.946923],[40.576842,40.949731],[40.577526,40.950898],[40.577927,40.951582],[40.577946,40.951817],[40.578054,40.953113],[40.578054,40.955028],[40.578027,40.955246],[40.577863,40.956559],[40.577097,40.957899],[40.576267,40.959303],[40.575119,40.961409],[40.574672,40.963324],[40.574927,40.964536],[40.575055,40.965621],[40.574672,40.966642],[40.574353,40.967599],[40.57397,40.96862],[40.573779,40.969258],[40.573268,40.969641],[40.57263,40.969897],[40.571354,40.970407],[40.570928,40.970833],[40.570716,40.971045],[40.570422,40.971544],[40.570077,40.97213],[40.569631,40.973087],[40.56912,40.973981],[40.568801,40.974491],[40.567971,40.974555],[40.567397,40.974938],[40.567589,40.975895],[40.568801,40.976725],[40.569992,40.977241],[40.570716,40.977554],[40.571737,40.978576],[40.573332,40.981256],[40.574061,40.982277],[40.574608,40.983043],[40.574988,40.983493],[40.575629,40.984255],[40.576279,40.984769],[40.577161,40.985468],[40.580607,40.986489],[40.586095,40.987446],[40.590243,40.98885],[40.593115,40.989743],[40.597518,40.992104],[40.598411,40.992998],[40.599241,40.994402],[40.599463,40.995024],[40.59956,40.995295],[40.60039,40.997529],[40.602432,41.001294],[40.603198,41.002825],[40.603733,41.004217],[40.603836,41.004485],[40.603963,41.005761],[40.603974,41.005899],[40.604091,41.00742],[40.6039,41.008696],[40.603708,41.009462],[40.604474,41.010164],[40.604921,41.010313],[40.605814,41.010611],[40.606968,41.010724],[40.609069,41.01093],[40.612451,41.011441],[40.615259,41.011632],[40.619152,41.011058],[40.620747,41.010292],[40.622725,41.009016],[40.624448,41.00825],[40.625214,41.007739],[40.626363,41.007037],[40.626937,41.007101],[40.627894,41.007484],[40.628852,41.007675],[40.629936,41.007675],[40.630575,41.007803],[40.630957,41.008122],[40.631029,41.008274],[40.631404,41.009079],[40.631869,41.009755],[40.632106,41.0101],[40.632285,41.010636],[40.632553,41.011441],[40.63268,41.012206],[40.632936,41.012615],[40.633,41.012717],[40.633797,41.013066],[40.634021,41.013164],[40.634536,41.013286],[40.636701,41.013802],[40.638232,41.014376],[40.638998,41.014695],[40.640338,41.014695],[40.641613,41.014418],[40.641806,41.014376],[40.641983,41.014337],[40.642955,41.014121],[40.644678,41.013993],[40.645635,41.013993],[40.646848,41.013993],[40.64739,41.013866],[40.647982,41.014085],[40.648251,41.014185]]]}},{"type":"Feature","properties":{"id":"TR-D-53-007","parent_id":"TR-P-53","region_id":"TR-R-KAR","level":"district","municipality_type":null,"municipality_type_label":null,"is_metropolitan_municipality":null,"name":"Hemşin","name_ascii":"hemsin","slug":"hemsin-rize"},"geometry":{"type":"Polygon","coordinates":[[[40.93576,41.070916],[40.937187,41.067861],[40.93871,41.063959],[40.938996,41.061008],[40.938901,41.059962],[40.937949,41.057677],[40.937378,41.05625],[40.936807,41.053775],[40.936426,41.050349],[40.936426,41.047588],[40.936997,41.044067],[40.937378,41.041687],[40.937854,41.039308],[40.938044,41.035881],[40.937568,41.032645],[40.936426,41.028838],[40.933951,41.025983],[40.93062,41.021605],[40.927955,41.017512],[40.927003,41.016179],[40.926813,41.014561],[40.926337,41.011706],[40.927098,41.008184],[40.92786,41.003045],[40.928241,41.000285],[40.928526,40.998381],[40.928621,40.996192],[40.928621,40.994574],[40.928241,40.992956],[40.927194,40.991719],[40.92548,40.990005],[40.923101,40.987626],[40.921673,40.985342],[40.919008,40.982962],[40.915487,40.980583],[40.914249,40.97906],[40.912155,40.97668],[40.910633,40.973254],[40.90911,40.970399],[40.908158,40.967638],[40.907206,40.964973],[40.906635,40.961737],[40.906825,40.958977],[40.907301,40.956217],[40.907872,40.953266],[40.908634,40.948508],[40.908824,40.944034],[40.909395,40.938799],[40.909586,40.935849],[40.910823,40.931661],[40.911204,40.928996],[40.910728,40.926236],[40.908729,40.921858],[40.906254,40.917004],[40.899401,40.90444],[40.892834,40.89654],[40.888456,40.892543],[40.879414,40.887784],[40.870562,40.884548],[40.865042,40.882549],[40.861533,40.885271],[40.855918,40.891934],[40.853348,40.894694],[40.849446,40.897264],[40.84897,40.897471],[40.845734,40.898882],[40.841451,40.900595],[40.8385,40.90307],[40.83578,40.905093],[40.834788,40.90583],[40.834441,40.906214],[40.83298,40.907829],[40.832218,40.909828],[40.832232,40.910018],[40.832409,40.912493],[40.833456,40.914777],[40.833907,40.915729],[40.834312,40.916585],[40.835074,40.918203],[40.835074,40.919821],[40.834883,40.922867],[40.834217,40.926389],[40.833932,40.927816],[40.833265,40.929434],[40.831838,40.930957],[40.829839,40.933432],[40.828411,40.935716],[40.826413,40.938],[40.824604,40.94038],[40.823938,40.941903],[40.823652,40.943235],[40.822796,40.947233],[40.82213,40.949612],[40.82213,40.953324],[40.82213,40.955513],[40.823081,40.957797],[40.824319,40.960653],[40.82489,40.961404],[40.826127,40.963032],[40.826281,40.963395],[40.827745,40.966839],[40.828506,40.969124],[40.828887,40.970266],[40.829048,40.972199],[40.829078,40.97255],[40.829661,40.973591],[40.83041,40.97493],[40.831171,40.976643],[40.834027,40.978546],[40.836311,40.979593],[40.836406,40.979638],[40.837739,40.98026],[40.839166,40.981782],[40.839547,40.983781],[40.839806,40.984881],[40.839928,40.985399],[40.840257,40.986497],[40.841356,40.990158],[40.843354,40.995869],[40.844021,40.997868],[40.844782,40.999866],[40.845353,41.002341],[40.845258,41.005672],[40.845073,41.006629],[40.844687,41.008623],[40.844602,41.00961],[40.844401,41.011954],[40.844306,41.016332],[40.844401,41.019092],[40.844822,41.022125],[40.844877,41.022519],[40.845003,41.023367],[40.845062,41.023767],[40.845258,41.025089],[40.845575,41.025723],[40.845734,41.02604],[40.84659,41.026897],[40.847161,41.027468],[40.847323,41.028059],[40.847447,41.028515],[40.847538,41.030336],[40.847542,41.030419],[40.847923,41.032227],[40.848837,41.033445],[40.849065,41.03375],[40.850398,41.034797],[40.851349,41.036605],[40.852491,41.037938],[40.853634,41.038889],[40.854078,41.039112],[40.854966,41.039556],[40.856203,41.040317],[40.856759,41.041317],[40.857155,41.04203],[40.857825,41.042597],[40.858392,41.043077],[40.859439,41.043744],[40.860582,41.044695],[40.861724,41.045266],[40.862295,41.045552],[40.862866,41.046694],[40.863913,41.048027],[40.865055,41.049359],[40.865341,41.050692],[40.86515,41.052119],[40.864294,41.053452],[40.864015,41.0544],[40.863818,41.05507],[40.864103,41.056402],[40.86443,41.057218],[40.864674,41.05783],[40.864294,41.058782],[40.863913,41.059543],[40.863532,41.060495],[40.863342,41.061352],[40.863437,41.062303],[40.863532,41.06335],[40.863818,41.064492],[40.864038,41.065315],[40.864131,41.065662],[40.864168,41.065829],[40.864215,41.066043],[40.864294,41.066396],[40.864294,41.067348],[40.864341,41.067919],[40.864389,41.06849],[40.865058,41.070349],[40.865245,41.070869],[40.866102,41.072773],[40.866871,41.074054],[40.86753,41.075152],[40.869632,41.078819],[40.871258,41.077854],[40.876636,41.075827],[40.879599,41.074892],[40.881802,41.074679],[40.882015,41.074658],[40.886537,41.074736],[40.894722,41.07497],[40.898776,41.075827],[40.901816,41.075827],[40.903492,41.075501],[40.904622,41.075282],[40.909767,41.073723],[40.912496,41.073021],[40.918576,41.071618],[40.925436,41.070916],[40.93576,41.070916]]]}},{"type":"Feature","properties":{"id":"TR-D-53-008","parent_id":"TR-P-53","region_id":"TR-R-KAR","level":"district","municipality_type":null,"municipality_type_label":null,"is_metropolitan_municipality":null,"name":"İkizdere","name_ascii":"ikizdere","slug":"ikizdere-rize"},"geometry":{"type":"Polygon","coordinates":[[[40.872833,40.735465],[40.865295,40.735654],[40.860583,40.736125],[40.85427,40.736785],[40.849747,40.73735],[40.844282,40.738104],[40.839382,40.739329],[40.835613,40.741213],[40.831843,40.74159],[40.827697,40.741779],[40.826567,40.741308],[40.824493,40.739329],[40.82242,40.73556],[40.821478,40.731319],[40.820913,40.727173],[40.821572,40.720766],[40.822326,40.713604],[40.823645,40.708327],[40.826943,40.700695],[40.828074,40.696172],[40.828828,40.691555],[40.829205,40.688634],[40.829393,40.681378],[40.829582,40.673745],[40.829111,40.667903],[40.827886,40.664605],[40.824305,40.660365],[40.816578,40.65669],[40.804705,40.651507],[40.795,40.647644],[40.791325,40.646702],[40.786237,40.645854],[40.78096,40.644817],[40.778981,40.644063],[40.777191,40.642932],[40.775589,40.640859],[40.773987,40.638504],[40.772479,40.635394],[40.770783,40.629552],[40.767485,40.623144],[40.76447,40.616171],[40.761209,40.611366],[40.760889,40.610895],[40.756272,40.607502],[40.749299,40.604864],[40.736766,40.603262],[40.729793,40.603545],[40.72169,40.604016],[40.714528,40.604016],[40.709346,40.603074],[40.701902,40.600718],[40.696813,40.598362],[40.688804,40.596289],[40.679946,40.593368],[40.675329,40.591766],[40.671466,40.589693],[40.665529,40.586207],[40.66242,40.585264],[40.658839,40.583851],[40.652808,40.581401],[40.644045,40.576784],[40.638957,40.573109],[40.628403,40.565005],[40.621618,40.559728],[40.618226,40.55709],[40.615211,40.553698],[40.597496,40.542296],[40.589581,40.537019],[40.586377,40.535417],[40.576537,40.529925],[40.564164,40.523834],[40.558072,40.521359],[40.549696,40.520503],[40.542368,40.520503],[40.53837,40.520598],[40.536562,40.520503],[40.533897,40.519932],[40.531613,40.51917],[40.527044,40.518409],[40.524569,40.518694],[40.520191,40.518789],[40.516765,40.518504],[40.510959,40.517742],[40.507628,40.517076],[40.504867,40.516886],[40.501346,40.516981],[40.497348,40.518123],[40.492209,40.51917],[40.489258,40.520122],[40.48745,40.520693],[40.485261,40.521169],[40.482881,40.522311],[40.480407,40.523548],[40.479169,40.524405],[40.477551,40.526213],[40.476409,40.527736],[40.476409,40.529259],[40.47698,40.530782],[40.477837,40.532685],[40.477837,40.535922],[40.47698,40.539824],[40.475552,40.542679],[40.473173,40.547343],[40.470984,40.550008],[40.468509,40.553054],[40.467082,40.555148],[40.466035,40.557813],[40.465749,40.559335],[40.465559,40.561049],[40.465844,40.562857],[40.467177,40.564951],[40.468795,40.566759],[40.469842,40.568758],[40.469937,40.570567],[40.4687,40.573612],[40.466225,40.575896],[40.463465,40.57761],[40.459087,40.580655],[40.453661,40.58551],[40.449759,40.590364],[40.445476,40.595218],[40.441669,40.602451],[40.440146,40.606354],[40.438814,40.608733],[40.437862,40.611398],[40.437767,40.614729],[40.437862,40.617394],[40.438243,40.622153],[40.438433,40.6232],[40.439385,40.624628],[40.441386,40.627519],[40.441954,40.62834],[40.443858,40.630434],[40.446713,40.632813],[40.450901,40.634526],[40.454328,40.63643],[40.457183,40.638334],[40.459562,40.641284],[40.461656,40.644425],[40.462799,40.6469],[40.464988,40.650612],[40.467557,40.654133],[40.469461,40.656417],[40.471745,40.65794],[40.47422,40.659178],[40.477361,40.660034],[40.479645,40.660986],[40.482881,40.662033],[40.485737,40.664032],[40.486403,40.665364],[40.486879,40.667934],[40.486974,40.670504],[40.486308,40.67374],[40.486022,40.676119],[40.486022,40.678118],[40.486688,40.680117],[40.488116,40.682306],[40.490495,40.68421],[40.493065,40.685923],[40.499252,40.690872],[40.502583,40.693442],[40.504963,40.695345],[40.506295,40.696963],[40.506485,40.698582],[40.506581,40.70058],[40.506581,40.703055],[40.506581,40.704958],[40.50639,40.706672],[40.505914,40.709051],[40.504867,40.713715],[40.502298,40.718093],[40.500299,40.720568],[40.496968,40.723613],[40.495445,40.724756],[40.494683,40.725707],[40.494398,40.726659],[40.493732,40.727896],[40.49278,40.729039],[40.490115,40.730942],[40.486212,40.732751],[40.483547,40.734083],[40.481263,40.735796],[40.480121,40.737129],[40.47936,40.738556],[40.478789,40.741031],[40.478598,40.742744],[40.477837,40.744648],[40.476028,40.74598],[40.472412,40.748074],[40.470413,40.749597],[40.467462,40.752357],[40.464702,40.755689],[40.463465,40.758734],[40.462037,40.762541],[40.461847,40.765016],[40.461276,40.767681],[40.460514,40.770061],[40.460134,40.771964],[40.459182,40.774058],[40.45823,40.776057],[40.457564,40.777389],[40.456326,40.778627],[40.452234,40.783957],[40.449854,40.786812],[40.447189,40.790048],[40.445666,40.792713],[40.445286,40.794712],[40.444144,40.79633],[40.44243,40.798233],[40.438814,40.80166],[40.436529,40.80442],[40.435673,40.805752],[40.435292,40.808132],[40.435673,40.80956],[40.435768,40.810702],[40.435006,40.813081],[40.433959,40.814604],[40.433388,40.816698],[40.433103,40.818221],[40.433696,40.819917],[40.433769,40.820124],[40.435102,40.82298],[40.436295,40.824074],[40.437201,40.824904],[40.438528,40.826121],[40.43977,40.827155],[40.440199,40.827513],[40.440812,40.828024],[40.440871,40.828088],[40.441954,40.829262],[40.44243,40.830308],[40.442963,40.830557],[40.443858,40.830975],[40.445563,40.831959],[40.446333,40.832402],[40.448643,40.833818],[40.449283,40.834211],[40.451571,40.835234],[40.451868,40.835367],[40.4529,40.835829],[40.455472,40.83649],[40.456231,40.836685],[40.459076,40.837713],[40.460031,40.837936],[40.463156,40.838668],[40.465238,40.839441],[40.466466,40.839896],[40.466451,40.840307],[40.466455,40.840715],[40.466485,40.841119],[40.466546,40.841505],[40.466641,40.841882],[40.46674,40.84215],[40.466776,40.842249],[40.466792,40.842279],[40.466806,40.842306],[40.466953,40.84259],[40.466958,40.842601],[40.466996,40.842653],[40.467171,40.8429],[40.467183,40.842917],[40.467192,40.842929],[40.480903,40.834658],[40.483663,40.831898],[40.486709,40.828662],[40.490136,40.82752],[40.495751,40.826758],[40.500034,40.827329],[40.502985,40.827329],[40.506697,40.826568],[40.50841,40.826758],[40.51117,40.828091],[40.514121,40.828757],[40.517166,40.828757],[40.522782,40.829138],[40.524781,40.829614],[40.528493,40.831517],[40.531633,40.833326],[40.534584,40.833897],[40.538391,40.834658],[40.54039,40.834658],[40.542579,40.834753],[40.545149,40.835705],[40.54867,40.837323],[40.550288,40.83856],[40.552287,40.839512],[40.554191,40.839703],[40.555904,40.839607],[40.558759,40.839036],[40.561234,40.838751],[40.564851,40.839132],[40.569039,40.839893],[40.573607,40.840083],[40.575891,40.840083],[40.5777,40.839227],[40.580932,40.837335],[40.581602,40.836942],[40.582268,40.836688],[40.584838,40.835705],[40.589883,40.833897],[40.59388,40.83285],[40.597592,40.832755],[40.601321,40.832928],[40.601685,40.832945],[40.606348,40.83304],[40.611964,40.833516],[40.616164,40.833699],[40.616342,40.833706],[40.61777,40.833944],[40.622053,40.834658],[40.62542,40.835003],[40.625765,40.835039],[40.631476,40.835324],[40.636996,40.835705],[40.641565,40.835705],[40.64626,40.835578],[40.648608,40.835515],[40.651225,40.835229],[40.653843,40.834944],[40.654699,40.834706],[40.655556,40.834468],[40.656873,40.833406],[40.658506,40.832088],[40.6606,40.829804],[40.66298,40.828186],[40.667168,40.828091],[40.670118,40.828472],[40.675067,40.829328],[40.678518,40.82997],[40.67916,40.83009],[40.687821,40.832659],[40.689728,40.833179],[40.690962,40.833516],[40.693532,40.834182],[40.697054,40.834753],[40.70067,40.835515],[40.701117,40.835581],[40.70324,40.835895],[40.707142,40.836847],[40.710569,40.837514],[40.714471,40.839132],[40.717961,40.840506],[40.71996,40.839459],[40.721387,40.838603],[40.723005,40.837175],[40.723481,40.836319],[40.723573,40.835313],[40.723576,40.835272],[40.723513,40.834923],[40.723386,40.834225],[40.72291,40.833178],[40.72283,40.832837],[40.72253,40.83156],[40.722815,40.829371],[40.723576,40.826896],[40.72529,40.824136],[40.726527,40.822708],[40.727574,40.819948],[40.728282,40.81861],[40.728431,40.81833],[40.729478,40.815284],[40.730429,40.812048],[40.731191,40.809478],[40.731952,40.806623],[40.732809,40.803958],[40.734808,40.800531],[40.736901,40.799294],[40.738933,40.79882],[40.739757,40.798628],[40.743469,40.798628],[40.744252,40.798584],[40.745182,40.798533],[40.74937,40.799294],[40.755041,40.800428],[40.755556,40.800531],[40.760125,40.800722],[40.760696,40.800759],[40.764503,40.801007],[40.769643,40.799485],[40.775925,40.796915],[40.782302,40.794155],[40.787156,40.791394],[40.790868,40.789634],[40.79458,40.787873],[40.800195,40.785969],[40.80197,40.785585],[40.805906,40.784732],[40.811648,40.784538],[40.814377,40.784446],[40.81609,40.784446],[40.819516,40.784446],[40.825762,40.783554],[40.826179,40.783495],[40.827448,40.783304],[40.829986,40.782923],[40.834204,40.782136],[40.837345,40.780137],[40.840962,40.778233],[40.846387,40.773189],[40.85086,40.768811],[40.855048,40.764052],[40.859046,40.759769],[40.862567,40.7552],[40.865232,40.750251],[40.869135,40.745111],[40.870467,40.742922],[40.871895,40.739591],[40.872833,40.735465]]]}},{"type":"Feature","properties":{"id":"TR-D-53-009","parent_id":"TR-P-53","region_id":"TR-R-KAR","level":"district","municipality_type":null,"municipality_type_label":null,"is_metropolitan_municipality":null,"name":"İyidere","name_ascii":"iyidere","slug":"iyidere-rize"},"geometry":{"type":"Polygon","coordinates":[[[40.327233,40.987197],[40.327871,40.987911],[40.329723,40.990054],[40.330305,40.990702],[40.330486,40.991016],[40.330751,40.991502],[40.331075,40.992076],[40.331598,40.993062],[40.333733,40.995045],[40.334716,40.995977],[40.33614,40.99735],[40.338309,40.999519],[40.339377,41.000045],[40.341631,41.001129],[40.342028,41.001339],[40.344449,41.00301],[40.349474,41.007178],[40.351976,41.008753],[40.352667,41.009179],[40.353183,41.009489],[40.35386,41.009945],[40.35723,41.012026],[40.365365,41.016172],[40.377123,41.023152],[40.382243,41.025946],[40.389943,41.028144],[40.388547,41.025591],[40.388546,41.025589],[40.388421,41.024388],[40.388064,41.022604],[40.38785,41.020962],[40.388135,41.017893],[40.388278,41.015537],[40.389277,41.013181],[40.390062,41.011968],[40.391133,41.010397],[40.392561,41.009184],[40.393703,41.007328],[40.396201,41.003402],[40.396844,41.001831],[40.397843,41.000332],[40.398057,40.998119],[40.397986,40.996549],[40.397272,40.994764],[40.397201,40.993051],[40.397558,40.990981],[40.398129,40.989268],[40.398557,40.986484],[40.3992,40.983343],[40.399557,40.979916],[40.400841,40.977204],[40.402697,40.973563],[40.40384,40.970636],[40.406267,40.967496],[40.407244,40.96625],[40.407434,40.965203],[40.40791,40.963585],[40.409062,40.960914],[40.408386,40.960729],[40.406672,40.960063],[40.403627,40.960444],[40.401438,40.960634],[40.400581,40.960634],[40.393906,40.960406],[40.393675,40.960757],[40.393403,40.961135],[40.3931,40.961492],[40.392754,40.961819],[40.39236,40.962107],[40.391923,40.962364],[40.391455,40.9626],[40.390965,40.96282],[40.390459,40.963029],[40.389941,40.963228],[40.388903,40.963598],[40.38787,40.963945],[40.385786,40.964616],[40.384216,40.965102],[40.383161,40.965407],[40.382106,40.965684],[40.38051,40.966069],[40.378906,40.966435],[40.377833,40.966667],[40.376756,40.966879],[40.376214,40.966973],[40.37567,40.967054],[40.375126,40.967121],[40.374579,40.967175],[40.37348,40.967258],[40.372378,40.967319],[40.372091,40.96733],[40.371275,40.967362],[40.370174,40.967383],[40.369627,40.96738],[40.369081,40.967365],[40.368539,40.967334],[40.368002,40.96728],[40.367489,40.967203],[40.366981,40.967106],[40.366475,40.966993],[40.365469,40.96674],[40.363351,40.96618],[40.362792,40.966044],[40.36223,40.965918],[40.361667,40.965806],[40.361101,40.965715],[40.360531,40.965651],[40.360132,40.96563],[40.359969,40.965621],[40.359403,40.965618],[40.358834,40.965635],[40.358263,40.965665],[40.357691,40.965706],[40.356544,40.965805],[40.355395,40.965919],[40.354247,40.966044],[40.353106,40.966185],[40.352541,40.966267],[40.351982,40.96636],[40.351431,40.966469],[40.350892,40.966601],[40.350356,40.966765],[40.349835,40.966955],[40.349329,40.967166],[40.348838,40.967398],[40.348365,40.96765],[40.347914,40.967924],[40.347513,40.968204],[40.347131,40.968501],[40.346763,40.968811],[40.346054,40.969456],[40.345366,40.970119],[40.344687,40.970789],[40.343342,40.972138],[40.337423,40.978124],[40.336363,40.97917],[40.335639,40.979855],[40.335266,40.980191],[40.334514,40.980831],[40.333347,40.981766],[40.331762,40.982994],[40.329117,40.985026],[40.327485,40.98628],[40.327459,40.9863],[40.327476,40.986313],[40.327233,40.987197]]]}},{"type":"Feature","properties":{"id":"TR-D-53-010","parent_id":"TR-P-53","region_id":"TR-R-KAR","level":"district","municipality_type":null,"municipality_type_label":null,"is_metropolitan_municipality":null,"name":"Kalkandere","name_ascii":"kalkandere","slug":"kalkandere-rize"},"geometry":{"type":"Polygon","coordinates":[[[40.409062,40.960914],[40.411527,40.961586],[40.414768,40.962474],[40.420811,40.962016],[40.423527,40.963205],[40.42702,40.964733],[40.434052,40.965056],[40.434392,40.965072],[40.43444,40.965073],[40.437836,40.965121],[40.439339,40.965266],[40.440649,40.965751],[40.442443,40.965897],[40.444626,40.9658],[40.445547,40.965703],[40.446165,40.965927],[40.446614,40.966091],[40.446826,40.96613],[40.44739,40.966236],[40.448748,40.965848],[40.449185,40.965412],[40.449864,40.965218],[40.450883,40.965121],[40.451756,40.96483],[40.45258,40.964344],[40.453259,40.963956],[40.454375,40.963374],[40.455539,40.962501],[40.457139,40.961919],[40.45971,40.961434],[40.46068,40.961289],[40.461699,40.961095],[40.46296,40.960804],[40.463736,40.960464],[40.464366,40.959979],[40.464366,40.959543],[40.464312,40.959252],[40.464221,40.958767],[40.464221,40.95833],[40.46456,40.957748],[40.4649,40.957118],[40.465724,40.956633],[40.467131,40.956439],[40.468246,40.95639],[40.469701,40.956342],[40.469996,40.956181],[40.470048,40.956152],[40.470901,40.955806],[40.473773,40.954638],[40.475106,40.95321],[40.47739,40.950069],[40.48253,40.94531],[40.48548,40.942741],[40.487765,40.940932],[40.490144,40.938172],[40.490905,40.936078],[40.491667,40.931224],[40.491952,40.929416],[40.491857,40.927512],[40.491762,40.92637],[40.491648,40.925799],[40.491476,40.924942],[40.491286,40.924688],[40.490905,40.924181],[40.489858,40.923229],[40.489648,40.922984],[40.489287,40.922563],[40.489383,40.921896],[40.489728,40.921255],[40.490049,40.920659],[40.491096,40.919707],[40.492619,40.918756],[40.495379,40.916757],[40.498139,40.915234],[40.499852,40.913045],[40.501756,40.911141],[40.502612,40.909618],[40.503183,40.908191],[40.503469,40.906668],[40.504611,40.905526],[40.505563,40.90486],[40.509751,40.902861],[40.512321,40.901338],[40.513748,40.900577],[40.51451,40.899434],[40.514605,40.897912],[40.514986,40.894675],[40.515081,40.893533],[40.516223,40.891535],[40.517746,40.889917],[40.519459,40.888965],[40.522695,40.888299],[40.526121,40.887727],[40.528501,40.887537],[40.531071,40.887252],[40.531832,40.886776],[40.532594,40.885538],[40.533926,40.884111],[40.536486,40.882292],[40.537543,40.881541],[40.53786,40.881224],[40.538495,40.880589],[40.539637,40.879257],[40.541255,40.876877],[40.542397,40.875449],[40.544776,40.872309],[40.547156,40.869929],[40.548679,40.868406],[40.550582,40.866503],[40.553247,40.863552],[40.556198,40.860697],[40.5601,40.856985],[40.562099,40.855224],[40.564098,40.853463],[40.564822,40.853058],[40.568857,40.850798],[40.571331,40.848228],[40.57314,40.844992],[40.575891,40.840083],[40.573607,40.840083],[40.569039,40.839893],[40.564851,40.839132],[40.561234,40.838751],[40.558759,40.839036],[40.555904,40.839607],[40.554191,40.839703],[40.552287,40.839512],[40.550288,40.83856],[40.54867,40.837323],[40.545149,40.835705],[40.542579,40.834753],[40.54039,40.834658],[40.538391,40.834658],[40.534584,40.833897],[40.531633,40.833326],[40.528493,40.831517],[40.524781,40.829614],[40.522782,40.829138],[40.517166,40.828757],[40.514121,40.828757],[40.51117,40.828091],[40.50841,40.826758],[40.506697,40.826568],[40.502985,40.827329],[40.500034,40.827329],[40.495751,40.826758],[40.490136,40.82752],[40.486709,40.828662],[40.483663,40.831898],[40.480903,40.834658],[40.467192,40.842929],[40.467515,40.843299],[40.467853,40.843628],[40.468077,40.843827],[40.468215,40.84395],[40.468711,40.84436],[40.468826,40.844456],[40.468966,40.844571],[40.46975,40.84522],[40.470126,40.845545],[40.47049,40.845876],[40.470835,40.846215],[40.471155,40.846565],[40.471241,40.846674],[40.47144,40.846928],[40.471662,40.847275],[40.471729,40.847399],[40.471853,40.847633],[40.472017,40.848001],[40.472139,40.848324],[40.472158,40.848375],[40.472218,40.848565],[40.472278,40.848755],[40.472297,40.848833],[40.472375,40.84914],[40.4724,40.849269],[40.472449,40.849527],[40.472497,40.849908],[40.472521,40.85029],[40.472526,40.850673],[40.472511,40.851056],[40.472476,40.851439],[40.472418,40.85182],[40.472338,40.852189],[40.472237,40.852555],[40.472167,40.852773],[40.47212,40.85292],[40.472035,40.853147],[40.471848,40.853645],[40.471667,40.85407],[40.471474,40.854493],[40.471063,40.855331],[40.470616,40.856157],[40.470374,40.856563],[40.470116,40.856963],[40.469839,40.857351],[40.469545,40.857734],[40.469429,40.857878],[40.46924,40.858111],[40.468608,40.858857],[40.467633,40.859966],[40.461747,40.866592],[40.46075,40.867686],[40.460063,40.868404],[40.459711,40.868754],[40.458623,40.869787],[40.457511,40.870808],[40.44595,40.881306],[40.444059,40.882979],[40.439472,40.88696],[40.437929,40.888276],[40.437141,40.888921],[40.436739,40.889237],[40.436327,40.889546],[40.436112,40.889699],[40.435896,40.889853],[40.435452,40.890149],[40.435008,40.890446],[40.434101,40.891024],[40.433184,40.891595],[40.431207,40.892803],[40.42995,40.893571],[40.429589,40.893787],[40.428158,40.894642],[40.424609,40.896739],[40.423288,40.897537],[40.422008,40.898348],[40.421175,40.898899],[40.420353,40.899458],[40.41955,40.900029],[40.419159,40.900321],[40.418779,40.90062],[40.418414,40.900927],[40.418068,40.901246],[40.417746,40.901581],[40.417444,40.901927],[40.417157,40.902282],[40.41688,40.902644],[40.416612,40.903011],[40.416092,40.903752],[40.415587,40.904502],[40.415097,40.905257],[40.414631,40.906019],[40.414412,40.906404],[40.414206,40.906794],[40.414009,40.907206],[40.413656,40.908044],[40.413334,40.90889],[40.413026,40.909741],[40.411524,40.914003],[40.411235,40.914856],[40.410969,40.915709],[40.410851,40.916136],[40.41075,40.916564],[40.41067,40.916993],[40.410621,40.917423],[40.410608,40.917834],[40.410621,40.918247],[40.410625,40.918301],[40.410652,40.91866],[40.41076,40.919689],[40.410783,40.919905],[40.410807,40.920182],[40.410819,40.920321],[40.410841,40.920744],[40.41085,40.921168],[40.410846,40.921592],[40.410827,40.922015],[40.410793,40.922438],[40.410742,40.922859],[40.410601,40.923698],[40.410431,40.924536],[40.410055,40.926211],[40.409559,40.928303],[40.409344,40.929135],[40.409226,40.929549],[40.409091,40.929985],[40.408943,40.930416],[40.408777,40.930842],[40.408589,40.931261],[40.408474,40.931479],[40.408372,40.93167],[40.40833,40.931736],[40.408147,40.932026],[40.407897,40.932372],[40.407629,40.932712],[40.407345,40.933046],[40.407048,40.933375],[40.40674,40.933698],[40.406421,40.934017],[40.406093,40.93433],[40.405753,40.934635],[40.405377,40.934955],[40.40423,40.935895],[40.403867,40.936215],[40.403526,40.936545],[40.403264,40.936833],[40.403027,40.93713],[40.402815,40.937436],[40.402633,40.93775],[40.402483,40.938074],[40.402351,40.938478],[40.402262,40.938893],[40.402203,40.939316],[40.402164,40.939744],[40.402057,40.941478],[40.402009,40.941912],[40.401944,40.942332],[40.401862,40.942751],[40.401665,40.943586],[40.401553,40.944002],[40.401313,40.944832],[40.401052,40.945659],[40.400912,40.94607],[40.400607,40.946887],[40.400423,40.947314],[40.400239,40.947741],[40.400037,40.948164],[40.399633,40.949009],[40.397941,40.952383],[40.3971,40.954059],[40.39502,40.958287],[40.394808,40.958707],[40.394383,40.959546],[40.394207,40.95987],[40.394159,40.959958],[40.394092,40.960077],[40.393906,40.960406],[40.400581,40.960634],[40.401438,40.960634],[40.403627,40.960444],[40.406672,40.960063],[40.408386,40.960729],[40.409062,40.960914]]]}},{"type":"Feature","properties":{"id":"TR-D-53-011","parent_id":"TR-P-53","region_id":"TR-R-KAR","level":"district","municipality_type":null,"municipality_type_label":null,"is_metropolitan_municipality":null,"name":"Pazar","name_ascii":"pazar","slug":"pazar-rize"},"geometry":{"type":"Polygon","coordinates":[[[40.774062,41.141701],[40.776981,41.143809],[40.778829,41.145908],[40.779848,41.146966],[40.780273,41.147379],[40.782164,41.149216],[40.784188,41.150168],[40.785471,41.150803],[40.78556,41.150845],[40.787888,41.151936],[40.790266,41.15373],[40.797885,41.15948],[40.805011,41.163712],[40.81425,41.164385],[40.818493,41.166333],[40.838978,41.173654],[40.842439,41.174891],[40.848707,41.174596],[40.849859,41.174541],[40.85108,41.175081],[40.856831,41.177621],[40.864375,41.179195],[40.866307,41.17951],[40.870509,41.180195],[40.872461,41.181603],[40.875325,41.183668],[40.878502,41.183997],[40.886443,41.183107],[40.887748,41.182961],[40.888167,41.183262],[40.89109,41.185361],[40.896392,41.184977],[40.901849,41.184889],[40.9079,41.181094],[40.909328,41.18069],[40.920463,41.177535],[40.925468,41.178901],[40.932734,41.178539],[40.943197,41.182076],[40.953669,41.187199],[40.961258,41.189908],[40.961828,41.190024],[40.962076,41.189303],[40.962079,41.189291],[40.962465,41.187069],[40.963244,41.184964],[40.96418,41.182392],[40.964881,41.180833],[40.964881,41.177948],[40.964102,41.175921],[40.962777,41.173817],[40.961841,41.171946],[40.961607,41.169919],[40.961529,41.16797],[40.962465,41.166177],[40.965271,41.163293],[40.969325,41.159473],[40.972365,41.156199],[40.975015,41.153704],[40.975873,41.152301],[40.977666,41.15043],[40.980083,41.148871],[40.98476,41.146688],[40.986865,41.145753],[40.989671,41.144739],[40.991854,41.14318],[40.994426,41.141621],[40.996063,41.139984],[40.997155,41.138191],[40.999415,41.134293],[41.00191,41.131409],[41.003313,41.128993],[41.00456,41.126966],[41.006665,41.123536],[41.009238,41.120729],[41.011031,41.118469],[41.011654,41.117299],[41.012668,41.11535],[41.014071,41.113246],[41.014227,41.112154],[41.013915,41.110907],[41.013213,41.109426],[41.012668,41.107711],[41.012652,41.107563],[41.012356,41.104749],[41.011264,41.099993],[41.010485,41.093991],[41.008536,41.090639],[41.00803,41.090014],[41.007211,41.089002],[41.004652,41.087319],[41.004249,41.087053],[40.999337,41.085338],[40.994562,41.084422],[40.993647,41.084246],[40.992399,41.084006],[40.987176,41.082999],[40.984214,41.081986],[40.979459,41.080894],[40.975249,41.079725],[40.969169,41.077309],[40.957476,41.072553],[40.952331,41.071072],[40.942898,41.070849],[40.94243,41.070838],[40.93674,41.070916],[40.936086,41.070916],[40.93576,41.070916],[40.925436,41.070916],[40.918576,41.071618],[40.912496,41.073021],[40.909767,41.073723],[40.904622,41.075282],[40.903492,41.075501],[40.901816,41.075827],[40.898776,41.075827],[40.894722,41.07497],[40.886537,41.074736],[40.882015,41.074658],[40.881802,41.074679],[40.879599,41.074892],[40.876636,41.075827],[40.871258,41.077854],[40.869632,41.078819],[40.866268,41.080816],[40.864398,41.082376],[40.862293,41.086429],[40.861435,41.089236],[40.858941,41.095628],[40.856446,41.09937],[40.851847,41.103579],[40.849508,41.104359],[40.843817,41.104982],[40.834307,41.10506],[40.82963,41.105138],[40.819729,41.106697],[40.814974,41.107165],[40.807335,41.108101],[40.801488,41.109426],[40.797123,41.111063],[40.795174,41.11231],[40.79377,41.114493],[40.792835,41.116754],[40.792055,41.118001],[40.791276,41.118703],[40.789873,41.11956],[40.789093,41.120573],[40.78847,41.1226],[40.78769,41.124237],[40.786988,41.125173],[40.786131,41.12603],[40.785273,41.12642],[40.78387,41.12642],[40.782935,41.126888],[40.780518,41.128291],[40.779349,41.129304],[40.778647,41.130084],[40.778647,41.130941],[40.778569,41.132189],[40.77818,41.133202],[40.777868,41.134138],[40.777946,41.135151],[40.77779,41.136009],[40.776854,41.137256],[40.776542,41.138035],[40.776542,41.138815],[40.776231,41.139672],[40.775685,41.14014],[40.774062,41.141701]]]}},{"type":"Feature","properties":{"id":"TR-D-53-012","parent_id":"TR-P-53","region_id":"TR-R-KAR","level":"district","municipality_type":null,"municipality_type_label":null,"is_metropolitan_municipality":null,"name":"Rize","name_ascii":"rize","slug":"rize-rize"},"geometry":{"type":"Polygon","coordinates":[[[40.409062,40.960914],[40.40791,40.963585],[40.407434,40.965203],[40.407244,40.96625],[40.407719,40.966821],[40.408481,40.967392],[40.409718,40.967963],[40.410289,40.968534],[40.410575,40.96901],[40.411431,40.969676],[40.411812,40.970057],[40.412002,40.970723],[40.412478,40.971294],[40.41324,40.971484],[40.414192,40.97177],[40.415429,40.972722],[40.416761,40.974054],[40.417808,40.975767],[40.420473,40.977386],[40.423043,40.978432],[40.426565,40.979194],[40.431133,40.980146],[40.437225,40.980812],[40.43989,40.980907],[40.443316,40.980812],[40.448361,40.980812],[40.452739,40.981669],[40.454833,40.982525],[40.45626,40.983667],[40.456736,40.985095],[40.456832,40.986332],[40.45626,40.987474],[40.454642,40.988236],[40.451502,40.988617],[40.44798,40.988712],[40.446267,40.989188],[40.444649,40.989949],[40.444363,40.991282],[40.444649,40.992995],[40.444649,40.994518],[40.44522,40.996421],[40.445981,40.997468],[40.448456,40.998515],[40.452644,40.999467],[40.455023,41.000133],[40.457403,41.001085],[40.45883,41.002132],[40.459687,41.00356],[40.460353,41.005749],[40.460543,41.0067],[40.45973,41.009895],[40.458565,41.011738],[40.458339,41.012565],[40.458602,41.013317],[40.459053,41.014106],[40.45973,41.015008],[40.459993,41.016249],[40.459504,41.017264],[40.458715,41.01858],[40.457362,41.019708],[40.457249,41.020008],[40.457136,41.020572],[40.457324,41.021399],[40.457662,41.022602],[40.457775,41.024031],[40.457775,41.025008],[40.457587,41.025723],[40.457474,41.026136],[40.457286,41.026512],[40.457136,41.026963],[40.457136,41.027678],[40.457136,41.028241],[40.456798,41.028918],[40.456347,41.029369],[40.45582,41.029745],[40.455219,41.030309],[40.454645,41.030965],[40.454466,41.031096],[40.454658,41.031121],[40.454717,41.031875],[40.454843,41.032253],[40.454717,41.032774],[40.456232,41.03278],[40.458257,41.033449],[40.463381,41.033256],[40.466216,41.033396],[40.469421,41.033573],[40.475303,41.035281],[40.477962,41.036038],[40.478478,41.036246],[40.478516,41.036351],[40.478576,41.036373],[40.478643,41.036351],[40.478666,41.03631],[40.479282,41.036548],[40.479454,41.036885],[40.479709,41.037184],[40.480116,41.037413],[40.480504,41.037579],[40.481414,41.037999],[40.481725,41.037903],[40.481433,41.037763],[40.480179,41.037152],[40.48009,41.037082],[40.479957,41.036936],[40.479709,41.036446],[40.480159,41.036035],[40.480447,41.035772],[40.481178,41.036198],[40.48136,41.036383],[40.481503,41.036529],[40.481827,41.03672],[40.482101,41.036802],[40.482622,41.036821],[40.482797,41.036786],[40.483189,41.036707],[40.483468,41.036523],[40.483494,41.036446],[40.484938,41.036674],[40.484989,41.03674],[40.485378,41.036761],[40.486022,41.036879],[40.486586,41.037194],[40.486989,41.037333],[40.488058,41.037699],[40.488708,41.037917],[40.488673,41.038116],[40.489025,41.038329],[40.489113,41.038256],[40.489101,41.038237],[40.489091,41.038221],[40.489064,41.038223],[40.489009,41.03825],[40.488819,41.038099],[40.489051,41.037838],[40.491441,41.038658],[40.492994,41.03923],[40.493089,41.039251],[40.493184,41.039339],[40.493536,41.039427],[40.494444,41.039735],[40.494487,41.039798],[40.494554,41.039896],[40.49492,41.039962],[40.495528,41.040789],[40.495638,41.040811],[40.495711,41.040767],[40.495718,41.040709],[40.495191,41.040006],[40.49555,41.040079],[40.495982,41.040225],[40.496993,41.040482],[40.497601,41.040592],[40.498069,41.041683],[40.498172,41.041785],[40.49916,41.041763],[40.49949,41.041778],[40.499571,41.041749],[40.499578,41.04169],[40.499534,41.041654],[40.499475,41.041653],[40.499427,41.041677],[40.498612,41.04169],[40.498251,41.041696],[40.498208,41.04168],[40.498178,41.04165],[40.49785,41.040907],[40.498308,41.04076],[40.498391,41.040754],[40.498536,41.04076],[40.498596,41.040763],[40.499554,41.040805],[40.499545,41.040898],[40.499534,41.041006],[40.499508,41.041019],[40.499504,41.04107],[40.499543,41.041107],[40.499605,41.041114],[40.499654,41.041084],[40.499662,41.04104],[40.49965,41.041019],[40.499662,41.040904],[40.499672,41.040803],[40.500435,41.040781],[40.501228,41.040717],[40.501647,41.040641],[40.501954,41.040599],[40.502285,41.040572],[40.502823,41.040544],[40.503621,41.040507],[40.503661,41.040505],[40.504624,41.040456],[40.505134,41.040432],[40.505339,41.040419],[40.505515,41.040115],[40.506405,41.040532],[40.507702,41.041033],[40.508165,41.041172],[40.50886,41.041283],[40.509397,41.041292],[40.509879,41.041237],[40.510759,41.04107],[40.51151,41.040884],[40.512622,41.040625],[40.513437,41.040523],[40.514021,41.040412],[40.514206,41.040282],[40.514299,41.040134],[40.514252,41.040084],[40.512895,41.04033],[40.510151,41.040999],[40.50974,41.041081],[40.508475,41.040793],[40.508074,41.040752],[40.507509,41.040526],[40.508045,41.039189],[40.508259,41.038655],[40.508095,41.038316],[40.508825,41.037874],[40.50986,41.037253],[40.51051,41.036867],[40.510752,41.037082],[40.511076,41.03737],[40.511425,41.037679],[40.511672,41.037905],[40.511816,41.038039],[40.512515,41.037555],[40.512597,41.037041],[40.511565,41.036112],[40.51125,41.035829],[40.51196,41.035078],[40.512238,41.035253],[40.513059,41.035767],[40.513584,41.036096],[40.514087,41.035561],[40.514618,41.034974],[40.513101,41.034134],[40.512947,41.034049],[40.513798,41.033177],[40.513869,41.033216],[40.514996,41.03385],[40.515627,41.033187],[40.514913,41.032835],[40.514478,41.032577],[40.514183,41.032401],[40.513824,41.032177],[40.513747,41.032074],[40.514062,41.031676],[40.514165,41.031645],[40.514228,41.031639],[40.514283,41.031649],[40.514319,41.031655],[40.514366,41.031655],[40.51482,41.031918],[40.515043,41.032045],[40.516221,41.032713],[40.516555,41.032802],[40.516786,41.032797],[40.517143,41.032621],[40.517307,41.032522],[40.517752,41.032204],[40.518104,41.031967],[40.518908,41.031428],[40.520467,41.03005],[40.523963,41.031767],[40.524084,41.031591],[40.520232,41.0293],[40.519662,41.028961],[40.520353,41.028616],[40.521509,41.0279],[40.522332,41.027754],[40.523402,41.027527],[40.524363,41.027413],[40.524987,41.027341],[40.52639,41.02719],[40.527955,41.027081],[40.529365,41.027054],[40.530435,41.02702],[40.531316,41.026903],[40.53541,41.026843],[40.536898,41.026813],[40.537965,41.026913],[40.541307,41.027642],[40.54134,41.027694],[40.541481,41.027919],[40.541584,41.028026],[40.542102,41.028254],[40.542191,41.028209],[40.542218,41.028156],[40.542178,41.028098],[40.542093,41.02809],[40.541992,41.028046],[40.541869,41.027994],[40.541706,41.027927],[40.541635,41.02784],[40.541613,41.027737],[40.541509,41.027245],[40.542205,41.027348],[40.542288,41.027637],[40.542345,41.027721],[40.542327,41.027827],[40.542304,41.027848],[40.542288,41.027863],[40.542306,41.02793],[40.542377,41.027936],[40.542452,41.027927],[40.542475,41.027879],[40.543572,41.028142],[40.544412,41.028387],[40.544856,41.028518],[40.546014,41.028918],[40.546763,41.02919],[40.547481,41.029441],[40.547874,41.029575],[40.547375,41.030477],[40.547318,41.030461],[40.547234,41.030607],[40.54728,41.030624],[40.547227,41.0307],[40.547373,41.03075],[40.547463,41.030605],[40.547413,41.030579],[40.547686,41.030098],[40.547952,41.029709],[40.547994,41.029716],[40.548055,41.029652],[40.549592,41.030303],[40.549985,41.030474],[40.549226,41.031384],[40.549276,41.031405],[40.550022,41.030491],[40.550838,41.030891],[40.550069,41.031804],[40.550109,41.031818],[40.550861,41.030897],[40.551657,41.031287],[40.550889,41.032217],[40.550922,41.032239],[40.551701,41.0313],[40.552883,41.031887],[40.552191,41.03261],[40.552406,41.032597],[40.553046,41.031918],[40.553474,41.032187],[40.554821,41.032852],[40.555148,41.033015],[40.55548,41.033175],[40.556804,41.033883],[40.558511,41.035002],[40.559602,41.035715],[40.559606,41.035821],[40.559636,41.035952],[40.559695,41.036074],[40.559978,41.036368],[40.559984,41.036398],[40.560019,41.036436],[40.560094,41.036443],[40.560139,41.036416],[40.560171,41.036368],[40.560144,41.03632],[40.560096,41.036298],[40.560058,41.036294],[40.559778,41.036005],[40.559734,41.035874],[40.559725,41.035741],[40.559755,41.03561],[40.559788,41.035522],[40.559826,41.035422],[40.559945,41.035294],[40.560668,41.035752],[40.560415,41.035869],[40.560397,41.035877],[40.560216,41.03602],[40.560198,41.036075],[40.560207,41.036109],[40.560213,41.036127],[40.560293,41.036154],[40.560424,41.036127],[40.560582,41.036068],[40.560711,41.036033],[40.560825,41.036002],[40.560932,41.035949],[40.561475,41.036184],[40.562548,41.036846],[40.562605,41.037081],[40.562737,41.037628],[40.563922,41.038224],[40.563719,41.039575],[40.56548,41.040491],[40.565514,41.040528],[40.565536,41.040542],[40.5656,41.04054],[40.565655,41.040509],[40.565657,41.040479],[40.565642,41.040447],[40.565618,41.040426],[40.565554,41.040421],[40.56388,41.039533],[40.56388,41.03948],[40.564469,41.038831],[40.56598,41.039652],[40.567009,41.040193],[40.56742,41.040842],[40.56746,41.040874],[40.567816,41.041024],[40.567839,41.041065],[40.567891,41.041085],[40.56795,41.041068],[40.567976,41.041059],[40.567995,41.041022],[40.567984,41.040981],[40.567955,41.040959],[40.567912,41.040946],[40.567875,41.040954],[40.567555,41.040804],[40.567513,41.040768],[40.56719,41.04024],[40.567174,41.040207],[40.567177,41.040175],[40.567434,41.039797],[40.56764,41.039888],[40.568397,41.040224],[40.568338,41.040301],[40.568204,41.040477],[40.568157,41.040505],[40.568144,41.040528],[40.568146,41.040549],[40.568172,41.040604],[40.568229,41.040604],[40.568273,41.040596],[40.568301,41.040564],[40.568313,41.040524],[40.568383,41.040446],[40.568436,41.040456],[40.570048,41.04145],[40.5702,41.041543],[40.571115,41.042128],[40.571647,41.042816],[40.571726,41.042936],[40.572191,41.043644],[40.573,41.04399],[40.57289,41.045501],[40.572818,41.046516],[40.572787,41.046557],[40.572795,41.04663],[40.572878,41.046694],[40.572998,41.046712],[40.573072,41.046677],[40.573119,41.046612],[40.573119,41.046539],[40.573067,41.046487],[40.573098,41.046015],[40.573232,41.044296],[40.573506,41.044339],[40.57402,41.044418],[40.574013,41.044676],[40.573948,41.047055],[40.57405,41.04723],[40.57422,41.04736],[40.575007,41.047692],[40.577141,41.048601],[40.578215,41.049026],[40.578368,41.048615],[40.57817,41.048561],[40.577846,41.048483],[40.577352,41.048358],[40.574553,41.047181],[40.574342,41.047035],[40.574277,41.046881],[40.57442,41.044932],[40.574423,41.044893],[40.5745,41.044757],[40.576979,41.045826],[40.578853,41.046451],[40.580825,41.047108],[40.580698,41.047321],[40.580113,41.0483],[40.579973,41.048277],[40.579908,41.048342],[40.579889,41.04842],[40.579938,41.048498],[40.580015,41.048518],[40.580127,41.048491],[40.580162,41.048455],[40.580228,41.04848],[40.580276,41.048456],[40.580332,41.048358],[40.58094,41.04737],[40.581061,41.047173],[40.581155,41.047089],[40.581272,41.047057],[40.581982,41.047031],[40.582725,41.047018],[40.583584,41.047259],[40.583942,41.047356],[40.584229,41.047441],[40.585797,41.047884],[40.586061,41.047959],[40.586518,41.04792],[40.588548,41.047745],[40.590148,41.047998],[40.598078,41.04925],[40.605939,41.049597],[40.607778,41.050323],[40.610351,41.05134],[40.613488,41.052579],[40.61566,41.053872],[40.619831,41.056355],[40.624364,41.060482],[40.628482,41.061503],[40.630411,41.061981],[40.633332,41.062772],[40.636672,41.063676],[40.638425,41.06415],[40.641308,41.065805],[40.64522,41.068049],[40.649758,41.069882],[40.65284,41.07043],[40.654897,41.070798],[40.66131,41.072608],[40.661522,41.071954],[40.661996,41.069886],[40.663043,41.065794],[40.663138,41.063795],[40.663138,41.062082],[40.662757,41.059798],[40.662282,41.057799],[40.66171,41.055705],[40.66152,41.05323],[40.660854,41.049899],[40.660568,41.047424],[40.660854,41.045616],[40.66133,41.044283],[40.661615,41.041714],[40.660949,41.039144],[40.659902,41.038002],[40.65876,41.037621],[40.657332,41.036669],[40.656095,41.035242],[40.655524,41.033528],[40.65619,41.03153],[40.656856,41.030102],[40.657713,41.027342],[40.65857,41.025533],[40.660188,41.023059],[40.660759,41.022107],[40.660759,41.021155],[40.660378,41.020489],[40.659617,41.019537],[40.657713,41.018966],[40.656666,41.018585],[40.655048,41.017633],[40.654274,41.017417],[40.651761,41.017439],[40.650996,41.017184],[40.650421,41.016291],[40.650102,41.015333],[40.649336,41.014823],[40.648251,41.014185],[40.647982,41.014085],[40.64739,41.013866],[40.646848,41.013993],[40.645635,41.013993],[40.644678,41.013993],[40.642955,41.014121],[40.641983,41.014337],[40.641806,41.014376],[40.641613,41.014418],[40.640338,41.014695],[40.638998,41.014695],[40.638232,41.014376],[40.636701,41.013802],[40.634536,41.013286],[40.634021,41.013164],[40.633797,41.013066],[40.633,41.012717],[40.632936,41.012615],[40.63268,41.012206],[40.632553,41.011441],[40.632285,41.010636],[40.632106,41.0101],[40.631869,41.009755],[40.631404,41.009079],[40.631029,41.008274],[40.630957,41.008122],[40.630575,41.007803],[40.629936,41.007675],[40.628852,41.007675],[40.627894,41.007484],[40.626937,41.007101],[40.626363,41.007037],[40.625214,41.007739],[40.624448,41.00825],[40.622725,41.009016],[40.620747,41.010292],[40.619152,41.011058],[40.615259,41.011632],[40.612451,41.011441],[40.609069,41.01093],[40.606968,41.010724],[40.605814,41.010611],[40.604921,41.010313],[40.604474,41.010164],[40.603708,41.009462],[40.6039,41.008696],[40.604091,41.00742],[40.603974,41.005899],[40.603963,41.005761],[40.603836,41.004485],[40.603733,41.004217],[40.603198,41.002825],[40.602432,41.001294],[40.60039,40.997529],[40.59956,40.995295],[40.599463,40.995024],[40.599241,40.994402],[40.598411,40.992998],[40.597518,40.992104],[40.593115,40.989743],[40.590243,40.98885],[40.586095,40.987446],[40.580607,40.986489],[40.577161,40.985468],[40.576279,40.984769],[40.575629,40.984255],[40.574988,40.983493],[40.574608,40.983043],[40.574061,40.982277],[40.573332,40.981256],[40.571737,40.978576],[40.570716,40.977554],[40.569992,40.977241],[40.568801,40.976725],[40.567589,40.975895],[40.567397,40.974938],[40.567971,40.974555],[40.568801,40.974491],[40.56912,40.973981],[40.569631,40.973087],[40.570077,40.97213],[40.570422,40.971544],[40.570716,40.971045],[40.570928,40.970833],[40.571354,40.970407],[40.57263,40.969897],[40.573268,40.969641],[40.573779,40.969258],[40.57397,40.96862],[40.574353,40.967599],[40.574672,40.966642],[40.575055,40.965621],[40.574927,40.964536],[40.574672,40.963324],[40.575119,40.961409],[40.576267,40.959303],[40.577097,40.957899],[40.577863,40.956559],[40.578027,40.955246],[40.578054,40.955028],[40.578054,40.953113],[40.577946,40.951817],[40.577927,40.951582],[40.577526,40.950898],[40.576842,40.949731],[40.574162,40.946923],[40.572566,40.945072],[40.56995,40.942456],[40.568801,40.940286],[40.568354,40.93767],[40.568099,40.935372],[40.56778,40.933266],[40.567737,40.932118],[40.567716,40.931543],[40.567844,40.931075],[40.568099,40.930139],[40.568737,40.927714],[40.569503,40.925609],[40.570205,40.924205],[40.570779,40.922737],[40.571545,40.920759],[40.571737,40.918972],[40.572311,40.916993],[40.573077,40.915334],[40.573396,40.91259],[40.573587,40.909208],[40.574353,40.907421],[40.575119,40.905251],[40.576778,40.904039],[40.578948,40.903209],[40.583287,40.902383],[40.584308,40.902188],[40.584894,40.901849],[40.587499,40.900338],[40.58935,40.899125],[40.594008,40.897976],[40.597582,40.896636],[40.60441,40.894977],[40.609771,40.894275],[40.615195,40.893382],[40.618705,40.893382],[40.620428,40.893126],[40.621768,40.892871],[40.623427,40.892042],[40.625916,40.890829],[40.627575,40.889489],[40.629362,40.887894],[40.633191,40.885469],[40.635536,40.884798],[40.635871,40.884703],[40.639636,40.883873],[40.640345,40.883575],[40.642061,40.882852],[40.647677,40.880555],[40.650357,40.878194],[40.653676,40.875067],[40.65642,40.87194],[40.658717,40.870025],[40.661078,40.868557],[40.662738,40.8676],[40.665397,40.866921],[40.665737,40.866834],[40.669949,40.866324],[40.670959,40.866229],[40.673331,40.866005],[40.675309,40.866388],[40.680415,40.866451],[40.68552,40.867728],[40.693178,40.870153],[40.693832,40.870637],[40.697581,40.873407],[40.698915,40.874624],[40.699751,40.875386],[40.700772,40.876151],[40.70058,40.874365],[40.700836,40.871365],[40.701282,40.86894],[40.702495,40.863325],[40.703835,40.860134],[40.705749,40.856369],[40.707153,40.853433],[40.710536,40.848073],[40.712705,40.845073],[40.715449,40.842329],[40.717961,40.840506],[40.714471,40.839132],[40.710569,40.837514],[40.707142,40.836847],[40.70324,40.835895],[40.701117,40.835581],[40.70067,40.835515],[40.697054,40.834753],[40.693532,40.834182],[40.690962,40.833516],[40.689728,40.833179],[40.687821,40.832659],[40.67916,40.83009],[40.678518,40.82997],[40.675067,40.829328],[40.670118,40.828472],[40.667168,40.828091],[40.66298,40.828186],[40.6606,40.829804],[40.658506,40.832088],[40.656873,40.833406],[40.655556,40.834468],[40.654699,40.834706],[40.653843,40.834944],[40.651225,40.835229],[40.648608,40.835515],[40.64626,40.835578],[40.641565,40.835705],[40.636996,40.835705],[40.631476,40.835324],[40.625765,40.835039],[40.62542,40.835003],[40.622053,40.834658],[40.61777,40.833944],[40.616342,40.833706],[40.616164,40.833699],[40.611964,40.833516],[40.606348,40.83304],[40.601685,40.832945],[40.601321,40.832928],[40.597592,40.832755],[40.59388,40.83285],[40.589883,40.833897],[40.584838,40.835705],[40.582268,40.836688],[40.581602,40.836942],[40.580932,40.837335],[40.5777,40.839227],[40.575891,40.840083],[40.57314,40.844992],[40.571331,40.848228],[40.568857,40.850798],[40.564822,40.853058],[40.564098,40.853463],[40.562099,40.855224],[40.5601,40.856985],[40.556198,40.860697],[40.553247,40.863552],[40.550582,40.866503],[40.548679,40.868406],[40.547156,40.869929],[40.544776,40.872309],[40.542397,40.875449],[40.541255,40.876877],[40.539637,40.879257],[40.538495,40.880589],[40.53786,40.881224],[40.537543,40.881541],[40.536486,40.882292],[40.533926,40.884111],[40.532594,40.885538],[40.531832,40.886776],[40.531071,40.887252],[40.528501,40.887537],[40.526121,40.887727],[40.522695,40.888299],[40.519459,40.888965],[40.517746,40.889917],[40.516223,40.891535],[40.515081,40.893533],[40.514986,40.894675],[40.514605,40.897912],[40.51451,40.899434],[40.513748,40.900577],[40.512321,40.901338],[40.509751,40.902861],[40.505563,40.90486],[40.504611,40.905526],[40.503469,40.906668],[40.503183,40.908191],[40.502612,40.909618],[40.501756,40.911141],[40.499852,40.913045],[40.498139,40.915234],[40.495379,40.916757],[40.492619,40.918756],[40.491096,40.919707],[40.490049,40.920659],[40.489728,40.921255],[40.489383,40.921896],[40.489287,40.922563],[40.489648,40.922984],[40.489858,40.923229],[40.490905,40.924181],[40.491286,40.924688],[40.491476,40.924942],[40.491648,40.925799],[40.491762,40.92637],[40.491857,40.927512],[40.491952,40.929416],[40.491667,40.931224],[40.490905,40.936078],[40.490144,40.938172],[40.487765,40.940932],[40.48548,40.942741],[40.48253,40.94531],[40.47739,40.950069],[40.475106,40.95321],[40.473773,40.954638],[40.470901,40.955806],[40.470048,40.956152],[40.469996,40.956181],[40.469701,40.956342],[40.468246,40.95639],[40.467131,40.956439],[40.465724,40.956633],[40.4649,40.957118],[40.46456,40.957748],[40.464221,40.95833],[40.464221,40.958767],[40.464312,40.959252],[40.464366,40.959543],[40.464366,40.959979],[40.463736,40.960464],[40.46296,40.960804],[40.461699,40.961095],[40.46068,40.961289],[40.45971,40.961434],[40.457139,40.961919],[40.455539,40.962501],[40.454375,40.963374],[40.453259,40.963956],[40.45258,40.964344],[40.451756,40.96483],[40.450883,40.965121],[40.449864,40.965218],[40.449185,40.965412],[40.448748,40.965848],[40.44739,40.966236],[40.446826,40.96613],[40.446614,40.966091],[40.446165,40.965927],[40.445547,40.965703],[40.444626,40.9658],[40.442443,40.965897],[40.440649,40.965751],[40.439339,40.965266],[40.437836,40.965121],[40.43444,40.965073],[40.434392,40.965072],[40.434052,40.965056],[40.42702,40.964733],[40.423527,40.963205],[40.420811,40.962016],[40.414768,40.962474],[40.411527,40.961586],[40.409062,40.960914]]]}}]}