{"type":"FeatureCollection","province":"Siirt","province_id":"TR-P-56","features":[{"type":"Feature","properties":{"id":"TR-D-56-001","parent_id":"TR-P-56","region_id":"TR-R-GDA","level":"district","municipality_type":null,"municipality_type_label":null,"is_metropolitan_municipality":null,"name":"Baykan","name_ascii":"baykan","slug":"baykan-siirt"},"geometry":{"type":"Polygon","coordinates":[[[41.949387,38.16493],[41.948481,38.164439],[41.947597,38.163079],[41.94678,38.161106],[41.945896,38.158794],[41.944604,38.156413],[41.942971,38.154712],[41.939366,38.15308],[41.936713,38.152536],[41.9327,38.152467],[41.92821,38.151923],[41.926101,38.150563],[41.926101,38.149338],[41.926101,38.146073],[41.926169,38.144441],[41.925897,38.141516],[41.924197,38.135938],[41.921952,38.127231],[41.920183,38.121857],[41.918483,38.117572],[41.917735,38.113967],[41.917599,38.11281],[41.917395,38.109749],[41.917531,38.1073],[41.917871,38.103695],[41.917531,38.098594],[41.915898,38.094104],[41.913789,38.089206],[41.911341,38.085397],[41.908824,38.082948],[41.906511,38.080295],[41.903586,38.077915],[41.901409,38.074309],[41.901205,38.072541],[41.900661,38.067031],[41.900457,38.064786],[41.901137,38.061453],[41.901681,38.059549],[41.903518,38.057712],[41.907191,38.055059],[41.912837,38.050638],[41.914266,38.048665],[41.915898,38.042747],[41.91651,38.035264],[41.917632,38.02815],[41.914363,38.028513],[41.9067,38.028513],[41.901365,38.028964],[41.897083,38.030016],[41.89235,38.031819],[41.887692,38.032871],[41.878751,38.0349],[41.871689,38.037003],[41.86673,38.039407],[41.855987,38.044516],[41.8493,38.048573],[41.843816,38.051654],[41.838106,38.056537],[41.835476,38.058641],[41.832922,38.059693],[41.826235,38.060519],[41.822403,38.060669],[41.819774,38.060519],[41.810909,38.059392],[41.804522,38.05834],[41.798437,38.058566],[41.795989,38.058196],[41.793795,38.058515],[41.792284,38.058741],[41.790772,38.059195],[41.787825,38.060253],[41.78382,38.06184],[41.781553,38.062595],[41.780419,38.062671],[41.779059,38.062747],[41.777094,38.062747],[41.773013,38.062369],[41.770293,38.06184],[41.763038,38.05927],[41.754121,38.055416],[41.748151,38.052696],[41.745052,38.051109],[41.74339,38.050353],[41.738251,38.047784],[41.731827,38.045894],[41.727822,38.045516],[41.724875,38.04529],[41.718905,38.045819],[41.710743,38.04733],[41.704018,38.048237],[41.697745,38.048615],[41.689206,38.048539],[41.685201,38.047632],[41.682253,38.046045],[41.676434,38.045441],[41.670842,38.045668],[41.668122,38.04597],[41.66321,38.047481],[41.656106,38.051184],[41.649229,38.054358],[41.643335,38.057003],[41.63744,38.059119],[41.62754,38.064409],[41.621873,38.069094],[41.619983,38.070606],[41.61817,38.073629],[41.617867,38.075593],[41.617574,38.081454],[41.619953,38.083548],[41.621571,38.085737],[41.622047,38.087831],[41.621476,38.090401],[41.619287,38.09259],[41.616812,38.096397],[41.614338,38.1003],[41.613005,38.104678],[41.61272,38.108104],[41.612625,38.111055],[41.612434,38.114005],[41.613672,38.117527],[41.616432,38.120382],[41.619953,38.123143],[41.623665,38.125046],[41.63147,38.127521],[41.637086,38.129615],[41.641749,38.13228],[41.647079,38.135801],[41.65022,38.139704],[41.652695,38.144082],[41.655265,38.149126],[41.656216,38.151506],[41.656692,38.155408],[41.655836,38.158263],[41.654694,38.160643],[41.654598,38.164164],[41.653551,38.167781],[41.651838,38.173587],[41.647365,38.183962],[41.644795,38.189101],[41.642225,38.195383],[41.638799,38.201189],[41.634611,38.206424],[41.63166,38.210897],[41.630233,38.213372],[41.629471,38.215656],[41.629662,38.218511],[41.631851,38.225459],[41.633945,38.229171],[41.636514,38.233169],[41.638418,38.23669],[41.640417,38.24183],[41.642987,38.24459],[41.645937,38.247636],[41.649173,38.250967],[41.653713,38.254016],[41.657282,38.256752],[41.659423,38.258894],[41.661166,38.261056],[41.663069,38.260675],[41.666972,38.259628],[41.671826,38.258201],[41.676204,38.255726],[41.680201,38.253537],[41.686673,38.250301],[41.690576,38.248207],[41.695144,38.246589],[41.699903,38.24459],[41.7059,38.24202],[41.710373,38.239165],[41.714941,38.237928],[41.720081,38.237357],[41.723983,38.237166],[41.729874,38.236927],[41.734715,38.236562],[41.739648,38.236196],[41.747687,38.235557],[41.753625,38.234461],[41.759836,38.233182],[41.763581,38.232177],[41.768423,38.231446],[41.774178,38.229893],[41.78112,38.228889],[41.787423,38.228249],[41.794183,38.227792],[41.801034,38.227336],[41.802782,38.227257],[41.807155,38.227062],[41.810534,38.226696],[41.812818,38.225965],[41.814736,38.223864],[41.816563,38.220485],[41.818116,38.216374],[41.818847,38.213268],[41.8204,38.210528],[41.822227,38.207787],[41.82515,38.20596],[41.827251,38.205138],[41.830814,38.203951],[41.83465,38.202032],[41.837848,38.200114],[41.84205,38.198561],[41.846434,38.196917],[41.850271,38.195729],[41.853377,38.19509],[41.856848,38.194998],[41.86105,38.195273],[41.864887,38.195364],[41.869363,38.195821],[41.872834,38.195455],[41.876762,38.194907],[41.879959,38.193354],[41.884435,38.190522],[41.890373,38.187051],[41.895671,38.185498],[41.900238,38.184402],[41.904258,38.184402],[41.907637,38.186412],[41.90983,38.188147],[41.912844,38.189152],[41.916864,38.189609],[41.92134,38.189883],[41.923715,38.189792],[41.92609,38.190522],[41.929287,38.190705],[41.93221,38.1897],[41.934128,38.188513],[41.936869,38.186777],[41.939518,38.184859],[41.942076,38.182484],[41.943903,38.180657],[41.94509,38.178739],[41.946095,38.174811],[41.947009,38.170609],[41.948744,38.165858],[41.949387,38.16493]]]}},{"type":"Feature","properties":{"id":"TR-D-56-002","parent_id":"TR-P-56","region_id":"TR-R-GDA","level":"district","municipality_type":null,"municipality_type_label":null,"is_metropolitan_municipality":null,"name":"Eruh","name_ascii":"eruh","slug":"eruh-siirt"},"geometry":{"type":"Polygon","coordinates":[[[42.151148,37.898911],[42.154356,37.899744],[42.162065,37.901805],[42.164216,37.902164],[42.167174,37.897772],[42.172104,37.891677],[42.174883,37.889525],[42.181158,37.886926],[42.184295,37.885761],[42.188329,37.884057],[42.192183,37.881637],[42.19532,37.878141],[42.200878,37.872853],[42.206166,37.869716],[42.212889,37.868461],[42.216833,37.867744],[42.219881,37.866847],[42.225976,37.864158],[42.230727,37.862814],[42.23736,37.862455],[42.248116,37.862097],[42.256094,37.862007],[42.26183,37.86138],[42.272138,37.860483],[42.275814,37.859856],[42.284329,37.857973],[42.292844,37.855464],[42.29894,37.852774],[42.306111,37.849637],[42.311847,37.845514],[42.314088,37.843094],[42.315164,37.840315],[42.315433,37.838881],[42.314626,37.835923],[42.312744,37.832337],[42.310413,37.827318],[42.309606,37.820864],[42.3088,37.814052],[42.30871,37.806522],[42.309248,37.800068],[42.310772,37.795407],[42.311758,37.789402],[42.311937,37.783665],[42.311937,37.778556],[42.312027,37.773177],[42.311668,37.766365],[42.311489,37.761077],[42.312027,37.755698],[42.312833,37.750858],[42.314268,37.748438],[42.316508,37.746107],[42.322783,37.742611],[42.324038,37.741625],[42.324755,37.739833],[42.325831,37.736695],[42.326548,37.731586],[42.327085,37.723071],[42.329057,37.712673],[42.329775,37.705681],[42.331209,37.699945],[42.333091,37.694208],[42.335511,37.688919],[42.337304,37.686678],[42.340441,37.683272],[42.343758,37.679508],[42.344744,37.678073],[42.345282,37.675295],[42.345999,37.674309],[42.347343,37.673412],[42.350391,37.671888],[42.354693,37.670723],[42.359355,37.66902],[42.363657,37.667407],[42.368139,37.666331],[42.372621,37.665972],[42.375758,37.665255],[42.377991,37.664737],[42.375722,37.660307],[42.373345,37.653824],[42.369455,37.647773],[42.363728,37.641399],[42.35919,37.637185],[42.351654,37.633889],[42.344361,37.631701],[42.330747,37.625219],[42.322725,37.621572],[42.318025,37.619465],[42.311785,37.615008],[42.303925,37.60966],[42.293957,37.601475],[42.281316,37.591265],[42.273131,37.583567],[42.270619,37.582351],[42.264299,37.579677],[42.257249,37.57757],[42.249793,37.577084],[42.241042,37.577894],[42.236342,37.579434],[42.232695,37.580163],[42.226617,37.581136],[42.218757,37.582432],[42.208223,37.585431],[42.198742,37.588105],[42.182697,37.59791],[42.172405,37.604717],[42.165031,37.609336],[42.161871,37.610956],[42.157495,37.612496],[42.150526,37.61436],[42.142665,37.617196],[42.137074,37.619951],[42.129295,37.623274],[42.122083,37.626515],[42.117869,37.627974],[42.114789,37.628298],[42.112764,37.628055],[42.111062,37.62765],[42.110081,37.627266],[42.109198,37.62692],[42.107334,37.62692],[42.104822,37.627082],[42.102796,37.626839],[42.10077,37.627001],[42.098339,37.627163],[42.095827,37.627163],[42.092829,37.627163],[42.090803,37.626839],[42.086103,37.625624],[42.082375,37.624976],[42.076541,37.624489],[42.07095,37.6253],[42.064872,37.625705],[42.061063,37.625381],[42.051177,37.622707],[42.045099,37.62141],[42.038779,37.620519],[42.024517,37.619384],[42.012523,37.618736],[42.007175,37.618007],[42.001827,37.616143],[41.995182,37.615332],[41.988375,37.615008],[41.978489,37.615332],[41.97152,37.615251],[41.962768,37.616629],[41.958068,37.618007],[41.952639,37.6206],[41.944373,37.625381],[41.93708,37.629919],[41.933515,37.632512],[41.930516,37.634943],[41.928814,37.636158],[41.923547,37.640696],[41.918361,37.644829],[41.906611,37.651879],[41.89559,37.6582],[41.889999,37.661036],[41.8823,37.665736],[41.876223,37.669464],[41.870875,37.672219],[41.856612,37.675217],[41.845754,37.677324],[41.83615,37.689975],[41.830119,37.712439],[41.824541,37.721183],[41.829366,37.735204],[41.841427,37.744551],[41.866152,37.753899],[41.892686,37.759477],[41.916959,37.779227],[41.927211,37.788725],[41.948468,37.804253],[41.949523,37.809681],[41.972741,37.82928],[41.984083,37.832866],[41.985962,37.83295],[41.989568,37.833551],[41.99355,37.835729],[41.997081,37.837007],[42.000763,37.837007],[42.006022,37.83633],[42.009628,37.835504],[42.014436,37.833551],[42.020747,37.832198],[42.025781,37.831823],[42.032618,37.831146],[42.037952,37.829869],[42.043962,37.828517],[42.052602,37.826488],[42.059815,37.824234],[42.062144,37.823859],[42.067027,37.824685],[42.080025,37.827014],[42.087989,37.829193],[42.092346,37.831823],[42.096854,37.835504],[42.102489,37.84204],[42.105118,37.84497],[42.113909,37.854286],[42.118642,37.859546],[42.126906,37.867209],[42.131715,37.871491],[42.144562,37.881784],[42.149295,37.886292],[42.151925,37.889973],[42.152751,37.892528],[42.152676,37.894707],[42.152375,37.897411],[42.151148,37.898911]]]}},{"type":"Feature","properties":{"id":"TR-D-56-003","parent_id":"TR-P-56","region_id":"TR-R-GDA","level":"district","municipality_type":null,"municipality_type_label":null,"is_metropolitan_municipality":null,"name":"Kurtalan","name_ascii":"kurtalan","slug":"kurtalan-siirt"},"geometry":{"type":"Polygon","coordinates":[[[41.675938,37.730384],[41.674847,37.732895],[41.674694,37.733248],[41.675311,37.735436],[41.677405,37.742857],[41.679761,37.752708],[41.682331,37.762238],[41.684365,37.76984],[41.685543,37.772624],[41.686935,37.777764],[41.689505,37.782689],[41.691111,37.786437],[41.693895,37.791791],[41.696144,37.797037],[41.701283,37.807424],[41.70214,37.810101],[41.702461,37.814705],[41.702782,37.817275],[41.702461,37.824663],[41.701712,37.829695],[41.699463,37.834621],[41.697536,37.836441],[41.693788,37.84051],[41.692503,37.842009],[41.677727,37.856143],[41.67323,37.85882],[41.666055,37.862675],[41.657918,37.868671],[41.648602,37.872847],[41.641749,37.875096],[41.631791,37.877772],[41.623975,37.879486],[41.617229,37.879807],[41.608449,37.880878],[41.604487,37.881413],[41.596135,37.880664],[41.592066,37.880342],[41.578467,37.881199],[41.557159,37.88152],[41.547094,37.881734],[41.532104,37.880985],[41.510903,37.880664],[41.502122,37.880342],[41.485312,37.880449],[41.471178,37.882591],[41.45972,37.886124],[41.451262,37.889444],[41.441732,37.893513],[41.428776,37.899937],[41.420531,37.903471],[41.416997,37.906362],[41.413357,37.910216],[41.409181,37.917176],[41.408217,37.918783],[41.406076,37.924136],[41.40372,37.929918],[41.400293,37.935379],[41.393869,37.940091],[41.388943,37.94266],[41.38466,37.945016],[41.38102,37.947586],[41.375773,37.95219],[41.373525,37.95658],[41.372668,37.960649],[41.372561,37.96429],[41.373632,37.967395],[41.375559,37.972856],[41.378985,37.97564],[41.382626,37.97821],[41.385089,37.979816],[41.388622,37.9826],[41.390764,37.983563],[41.392798,37.983777],[41.393869,37.984206],[41.394511,37.985062],[41.395582,37.985705],[41.396867,37.985919],[41.398687,37.985491],[41.400293,37.985705],[41.402221,37.986347],[41.403184,37.987204],[41.40372,37.987953],[41.40372,37.988703],[41.40372,37.989667],[41.404362,37.99063],[41.405219,37.990844],[41.406076,37.991166],[41.406611,37.991808],[41.406932,37.992772],[41.407039,37.993736],[41.407896,37.994485],[41.410144,37.99502],[41.412714,37.99577],[41.41507,37.997269],[41.417533,37.999196],[41.419353,38.000053],[41.420745,38.000053],[41.422886,38.000695],[41.424814,38.001017],[41.426848,38.001659],[41.428561,38.002195],[41.429311,38.003265],[41.429739,38.004443],[41.429846,38.005514],[41.430596,38.006156],[41.431667,38.005942],[41.432952,38.005407],[41.434129,38.0053],[41.4352,38.005407],[41.436271,38.006478],[41.437663,38.008726],[41.437877,38.010332],[41.438627,38.011617],[41.44034,38.013223],[41.441625,38.01408],[41.443873,38.014294],[41.446015,38.014615],[41.447086,38.015469],[41.447265,38.015509],[41.447444,38.01555],[41.448602,38.016113],[41.449894,38.016741],[41.451946,38.01747],[41.453668,38.017867],[41.455389,38.01747],[41.456117,38.016874],[41.457309,38.016807],[41.458368,38.017139],[41.459759,38.017536],[41.460818,38.018463],[41.462209,38.019323],[41.463334,38.020052],[41.464195,38.02131],[41.464327,38.022303],[41.464526,38.022535],[41.464725,38.022766],[41.465651,38.022833],[41.466016,38.022899],[41.46638,38.022965],[41.467373,38.023495],[41.468697,38.025481],[41.470154,38.026408],[41.470683,38.0276],[41.471412,38.028526],[41.472471,38.029056],[41.474126,38.029387],[41.475318,38.030248],[41.475715,38.03091],[41.47598,38.031903],[41.476179,38.033558],[41.476775,38.034816],[41.47737,38.036472],[41.478033,38.037663],[41.478959,38.038656],[41.480284,38.03912],[41.481542,38.039385],[41.482336,38.03912],[41.482667,38.039021],[41.482998,38.038921],[41.48366,38.038921],[41.483859,38.039054],[41.484058,38.039186],[41.48419,38.039848],[41.484653,38.04051],[41.485183,38.04104],[41.486441,38.041702],[41.48803,38.043092],[41.48942,38.044946],[41.490811,38.046138],[41.491368,38.04666],[41.493128,38.048665],[41.497839,38.051985],[41.502122,38.053698],[41.507797,38.054983],[41.513044,38.055411],[41.52054,38.056268],[41.528142,38.058731],[41.53296,38.060551],[41.537993,38.061622],[41.546571,38.063846],[41.550854,38.065845],[41.555518,38.067463],[41.560277,38.068796],[41.563703,38.071175],[41.566939,38.073745],[41.570556,38.076505],[41.574458,38.078885],[41.577218,38.080693],[41.579027,38.080978],[41.582834,38.081169],[41.58864,38.081264],[41.593399,38.081454],[41.598253,38.081074],[41.600347,38.081074],[41.60501,38.080978],[41.607675,38.080788],[41.611673,38.080693],[41.614719,38.080693],[41.617574,38.081454],[41.617867,38.075593],[41.61817,38.073629],[41.619983,38.070606],[41.621873,38.069094],[41.62754,38.064409],[41.63744,38.059119],[41.643335,38.057003],[41.649229,38.054358],[41.656106,38.051184],[41.66321,38.047481],[41.668122,38.04597],[41.670842,38.045668],[41.676434,38.045441],[41.682253,38.046045],[41.685201,38.047632],[41.689206,38.048539],[41.697745,38.048615],[41.704018,38.048237],[41.710743,38.04733],[41.718905,38.045819],[41.724875,38.04529],[41.727822,38.045516],[41.731827,38.045894],[41.738251,38.047784],[41.74339,38.050353],[41.745052,38.051109],[41.748151,38.052696],[41.754121,38.055416],[41.763038,38.05927],[41.770293,38.06184],[41.773013,38.062369],[41.777094,38.062747],[41.779059,38.062747],[41.780419,38.062671],[41.783094,38.060332],[41.782836,38.057195],[41.782671,38.05496],[41.782588,38.053621],[41.782539,38.052284],[41.782528,38.050954],[41.782535,38.049624],[41.782641,38.038538],[41.782639,38.037208],[41.78262,38.036322],[41.782601,38.035879],[41.782536,38.034984],[41.782401,38.033643],[41.781405,38.025153],[41.78126,38.023812],[41.781143,38.022474],[41.781085,38.021586],[41.781013,38.020255],[41.780654,38.012705],[41.780599,38.011372],[41.78056,38.010038],[41.780553,38.008922],[41.780548,38.008294],[41.780532,38.007427],[41.780488,38.006633],[41.780415,38.005841],[41.780308,38.00505],[41.780144,38.004194],[41.780046,38.003758],[41.779832,38.002902],[41.779587,38.002054],[41.77945,38.001636],[41.779297,38.001225],[41.779124,38.000823],[41.77892,38.000428],[41.778685,38.000051],[41.778364,37.999647],[41.778096,37.999373],[41.777746,37.9991],[41.777355,37.998859],[41.776932,37.998648],[41.776481,37.998466],[41.776038,37.998323],[41.775581,37.998199],[41.775116,37.99809],[41.77418,37.997887],[41.773721,37.997779],[41.773279,37.997654],[41.772864,37.997501],[41.772475,37.997305],[41.772126,37.997073],[41.771821,37.996808],[41.771566,37.996511],[41.771352,37.996153],[41.771191,37.995767],[41.77107,37.995362],[41.770976,37.994942],[41.770901,37.994512],[41.770788,37.993635],[41.770699,37.992747],[41.770542,37.990963],[41.770431,37.989627],[41.770366,37.988737],[41.770278,37.986986],[41.770192,37.984621],[41.772371,37.975765],[41.772321,37.975542],[41.772285,37.975249],[41.772267,37.974874],[41.77228,37.97441],[41.772333,37.9739],[41.772428,37.973365],[41.772563,37.97283],[41.772749,37.972285],[41.772964,37.971788],[41.773189,37.971359],[41.773662,37.97055],[41.774152,37.969744],[41.7754,37.967735],[41.776157,37.966533],[41.776673,37.965738],[41.776937,37.965346],[41.777209,37.964957],[41.777492,37.964576],[41.777789,37.964204],[41.778105,37.963845],[41.778401,37.963544],[41.778714,37.963256],[41.77904,37.962978],[41.779379,37.962713],[41.78012,37.962174],[41.780479,37.961901],[41.780814,37.961613],[41.781137,37.961274],[41.781427,37.960911],[41.781692,37.960531],[41.781938,37.960139],[41.782172,37.959737],[41.782396,37.959329],[41.783039,37.958084],[41.785747,37.95263],[41.789109,37.945933],[41.78952,37.945094],[41.789917,37.944251],[41.790282,37.9434],[41.790442,37.942984],[41.790735,37.942146],[41.791007,37.941302],[41.791395,37.940031],[41.791766,37.938758],[41.791998,37.937907],[41.792204,37.937052],[41.792284,37.936667],[41.792418,37.935892],[41.792528,37.935057],[41.792616,37.93416],[41.792722,37.932813],[41.792982,37.929218],[41.793101,37.927872],[41.793199,37.926984],[41.793257,37.926526],[41.793479,37.924767],[41.793834,37.922093],[41.794,37.920883],[41.795078,37.912983],[41.795151,37.91245],[41.793225,37.910829],[41.792206,37.909951],[41.791741,37.909539],[41.791334,37.909166],[41.790976,37.908822],[41.790288,37.908117],[41.789621,37.907398],[41.788964,37.906673],[41.78602,37.903392],[41.785052,37.902292],[41.784437,37.90155],[41.784148,37.901172],[41.78388,37.900789],[41.783662,37.900437],[41.783469,37.900079],[41.783305,37.899715],[41.783177,37.899343],[41.783087,37.898943],[41.783034,37.898537],[41.783008,37.898126],[41.783002,37.897711],[41.783011,37.897293],[41.783056,37.896453],[41.783166,37.895188],[41.783261,37.894345],[41.783382,37.893503],[41.783456,37.893083],[41.783641,37.892246],[41.78407,37.89058],[41.78427,37.889752],[41.784353,37.889341],[41.784418,37.888931],[41.784458,37.888526],[41.784463,37.888145],[41.784431,37.887772],[41.78436,37.887436],[41.784223,37.887063],[41.784019,37.88672],[41.783756,37.886397],[41.783445,37.886091],[41.783096,37.885803],[41.782715,37.885532],[41.782314,37.885273],[41.781491,37.884765],[41.781092,37.884508],[41.780693,37.884229],[41.780335,37.883942],[41.780021,37.883637],[41.779766,37.883309],[41.779573,37.882964],[41.779447,37.882606],[41.779398,37.882241],[41.779437,37.881869],[41.779549,37.881497],[41.779719,37.881128],[41.779934,37.880763],[41.780189,37.880407],[41.780479,37.880063],[41.780807,37.879737],[41.781185,37.879423],[41.781595,37.879128],[41.782027,37.878849],[41.782475,37.87858],[41.782934,37.878322],[41.783402,37.878073],[41.783875,37.877833],[41.784355,37.877605],[41.78484,37.877391],[41.785332,37.877197],[41.785832,37.877028],[41.786286,37.876904],[41.786746,37.876807],[41.78721,37.876737],[41.787675,37.876696],[41.788168,37.876683],[41.789151,37.876688],[41.789639,37.876664],[41.790106,37.876604],[41.790569,37.876511],[41.791028,37.87639],[41.791483,37.876247],[41.791931,37.876084],[41.792372,37.875903],[41.792802,37.875704],[41.79322,37.875486],[41.793664,37.87522],[41.794093,37.874933],[41.794511,37.874633],[41.795323,37.874004],[41.796114,37.873354],[41.796883,37.872691],[41.797257,37.872354],[41.797619,37.872012],[41.797965,37.871662],[41.798289,37.871302],[41.798582,37.870929],[41.79883,37.870551],[41.799048,37.87016],[41.799245,37.86976],[41.799427,37.869353],[41.799598,37.868941],[41.79992,37.868108],[41.801284,37.864326],[41.802023,37.862228],[41.802725,37.860143],[41.803969,37.856385],[41.804395,37.855135],[41.804697,37.854308],[41.80486,37.853898],[41.805034,37.853492],[41.805224,37.853091],[41.805431,37.852701],[41.805654,37.852316],[41.805891,37.851936],[41.806139,37.85156],[41.806398,37.851188],[41.806667,37.850821],[41.806948,37.850459],[41.807242,37.850103],[41.807859,37.849403],[41.808496,37.848714],[41.809472,37.84769],[41.810795,37.846343],[41.811471,37.845686],[41.811817,37.845365],[41.81217,37.845052],[41.812533,37.84475],[41.812909,37.844461],[41.814018,37.843693],[41.814369,37.843425],[41.814726,37.843108],[41.815059,37.842771],[41.815373,37.84242],[41.815674,37.842056],[41.815965,37.841685],[41.816528,37.840927],[41.817079,37.840158],[41.821982,37.833183],[41.822517,37.832405],[41.823033,37.831621],[41.82328,37.831224],[41.823514,37.830824],[41.823729,37.830428],[41.823932,37.830028],[41.824315,37.82922],[41.825038,37.827588],[41.826094,37.82513],[41.826783,37.823489],[41.827109,37.822664],[41.827407,37.821835],[41.827725,37.820843],[41.827808,37.820586],[41.828183,37.81933],[41.828915,37.816816],[41.829215,37.815826],[41.829694,37.815073],[41.834197,37.807991],[41.833828,37.807741],[41.833492,37.807457],[41.833179,37.807147],[41.832885,37.806819],[41.832602,37.806477],[41.832344,37.806145],[41.830733,37.803947],[41.830453,37.803586],[41.830164,37.80323],[41.829863,37.802882],[41.829547,37.802545],[41.829237,37.802244],[41.828909,37.801956],[41.828566,37.801682],[41.828205,37.801424],[41.827796,37.801167],[41.827369,37.800928],[41.826925,37.800708],[41.826467,37.800507],[41.826014,37.800332],[41.825551,37.800172],[41.825078,37.800028],[41.824598,37.799897],[41.824118,37.799781],[41.822661,37.79946],[41.822173,37.799344],[41.821207,37.799089],[41.820729,37.798949],[41.820248,37.798798],[41.819772,37.798639],[41.819301,37.798471],[41.818836,37.798294],[41.818372,37.798104],[41.817915,37.797904],[41.817466,37.797695],[41.817025,37.797475],[41.816564,37.797227],[41.816112,37.796968],[41.815669,37.796699],[41.815235,37.796422],[41.814811,37.796136],[41.814399,37.79584],[41.814003,37.795531],[41.813661,37.79524],[41.813333,37.794938],[41.813019,37.794627],[41.812717,37.794307],[41.812415,37.793966],[41.812126,37.793619],[41.811847,37.793265],[41.811556,37.792875],[41.811309,37.792525],[41.810798,37.791751],[41.810314,37.790966],[41.810082,37.790569],[41.809866,37.790182],[41.809449,37.789372],[41.809259,37.788969],[41.80908,37.788563],[41.808928,37.788191],[41.808784,37.787818],[41.808554,37.787157],[41.808284,37.786291],[41.808067,37.785513],[41.807677,37.783953],[41.807001,37.781034],[41.80663,37.779366],[41.806462,37.778532],[41.806389,37.778115],[41.806327,37.777699],[41.806278,37.777265],[41.806249,37.776832],[41.806246,37.776401],[41.806278,37.775971],[41.806342,37.775587],[41.806432,37.775204],[41.806539,37.774823],[41.806892,37.773678],[41.806995,37.773296],[41.807079,37.772911],[41.807136,37.772509],[41.807162,37.772107],[41.807156,37.771705],[41.807112,37.771305],[41.807032,37.770918],[41.806919,37.770534],[41.806779,37.770154],[41.806619,37.769778],[41.806438,37.769406],[41.806239,37.76904],[41.806021,37.768681],[41.805779,37.768332],[41.805516,37.767996],[41.80523,37.767671],[41.804927,37.767355],[41.804608,37.767047],[41.804274,37.766748],[41.80393,37.766456],[41.803216,37.765887],[41.802495,37.765343],[41.800674,37.764001],[41.799962,37.76345],[41.799615,37.763166],[41.799276,37.762877],[41.798947,37.762582],[41.798617,37.762269],[41.798298,37.76195],[41.797988,37.761625],[41.797397,37.76096],[41.797117,37.76062],[41.79685,37.760274],[41.796631,37.759963],[41.796364,37.759545],[41.796149,37.75916],[41.795955,37.758768],[41.795783,37.75837],[41.795629,37.757947],[41.795496,37.757519],[41.795377,37.757087],[41.795167,37.756216],[41.794884,37.754902],[41.794025,37.750762],[41.793791,37.749637],[41.793445,37.747882],[41.793225,37.746552],[41.793035,37.745214],[41.792997,37.74492],[41.792542,37.741408],[41.792225,37.73896],[41.792091,37.738069],[41.791927,37.737182],[41.791825,37.736742],[41.791709,37.736319],[41.791578,37.735899],[41.791432,37.735482],[41.791271,37.735067],[41.791093,37.734648],[41.790705,37.733817],[41.790303,37.733021],[41.789848,37.732177],[41.789617,37.731775],[41.789374,37.731377],[41.789117,37.730987],[41.78884,37.730607],[41.788564,37.730271],[41.788269,37.729945],[41.787959,37.729627],[41.787636,37.729319],[41.787301,37.729019],[41.786953,37.728731],[41.786591,37.728455],[41.786212,37.728196],[41.785801,37.727951],[41.785371,37.727727],[41.784925,37.727524],[41.784463,37.727344],[41.783968,37.727183],[41.783461,37.727043],[41.783134,37.726964],[41.771377,37.727878],[41.770922,37.728076],[41.770446,37.728242],[41.769984,37.728364],[41.769508,37.728461],[41.769022,37.728538],[41.76853,37.728598],[41.768033,37.728643],[41.767533,37.728676],[41.767032,37.728696],[41.76653,37.728702],[41.766033,37.728693],[41.765537,37.728669],[41.765043,37.728632],[41.76455,37.728581],[41.764049,37.728513],[41.763549,37.728435],[41.761555,37.728081],[41.761055,37.728],[41.760553,37.727929],[41.760064,37.727874],[41.759574,37.727832],[41.759083,37.727805],[41.758591,37.727792],[41.758096,37.727796],[41.757601,37.727813],[41.757105,37.727841],[41.75661,37.727879],[41.755613,37.727976],[41.754121,37.72816],[41.752634,37.728377],[41.751643,37.728537],[41.750656,37.72871],[41.749673,37.728898],[41.748697,37.729105],[41.74772,37.729337],[41.745773,37.729834],[41.745285,37.729952],[41.744794,37.730061],[41.74431,37.730156],[41.743823,37.730236],[41.743334,37.730299],[41.742843,37.730342],[41.742352,37.73036],[41.741859,37.730358],[41.741367,37.730336],[41.740874,37.730298],[41.74038,37.730243],[41.739886,37.730175],[41.738902,37.730013],[41.73841,37.729921],[41.737428,37.729724],[41.735958,37.729403],[41.734495,37.729056],[41.733041,37.728681],[41.732078,37.728413],[41.731121,37.728129],[41.730643,37.727979],[41.729693,37.727666],[41.728714,37.727325],[41.727201,37.726775],[41.724172,37.725657],[41.722155,37.724898],[41.721195,37.724507],[41.72074,37.724306],[41.720298,37.724095],[41.719875,37.723869],[41.719476,37.723625],[41.719109,37.723361],[41.718804,37.723096],[41.718504,37.722765],[41.718301,37.722448],[41.718145,37.722111],[41.718031,37.721758],[41.717954,37.721394],[41.717911,37.721012],[41.717902,37.720625],[41.717925,37.720235],[41.717982,37.719845],[41.718082,37.719428],[41.718214,37.719013],[41.718372,37.7186],[41.718549,37.71819],[41.718742,37.717782],[41.719349,37.716563],[41.719542,37.716157],[41.719722,37.715748],[41.719887,37.715337],[41.72003,37.714921],[41.720139,37.714529],[41.720227,37.714133],[41.720299,37.713734],[41.720355,37.713333],[41.720398,37.712933],[41.720427,37.712533],[41.720442,37.712131],[41.72044,37.71173],[41.720414,37.711282],[41.720362,37.710836],[41.720282,37.710395],[41.720169,37.709959],[41.720007,37.709516],[41.717337,37.708448],[41.716264,37.708023],[41.714263,37.708376],[41.712732,37.708965],[41.711673,37.709907],[41.711673,37.710848],[41.711555,37.711908],[41.711085,37.713202],[41.710261,37.713673],[41.70826,37.714262],[41.705199,37.714732],[41.703434,37.714968],[41.702374,37.715556],[41.701668,37.717675],[41.70108,37.7205],[41.700844,37.722266],[41.700138,37.724031],[41.697902,37.726268],[41.696372,37.727798],[41.692605,37.728269],[41.689074,37.728739],[41.686249,37.729328],[41.683895,37.729328],[41.682012,37.729092],[41.679893,37.727915],[41.679069,37.727562],[41.678951,37.726738],[41.678363,37.726032],[41.677882,37.725912],[41.675938,37.730384]]]}},{"type":"Feature","properties":{"id":"TR-D-56-004","parent_id":"TR-P-56","region_id":"TR-R-GDA","level":"district","municipality_type":null,"municipality_type_label":null,"is_metropolitan_municipality":null,"name":"Pervari","name_ascii":"pervari","slug":"pervari-siirt"},"geometry":{"type":"Polygon","coordinates":[[[42.830894,37.676054],[42.816632,37.67573],[42.811041,37.675973],[42.804234,37.676622],[42.79686,37.676622],[42.792808,37.676865],[42.784623,37.676865],[42.770199,37.67573],[42.764932,37.675649],[42.755289,37.675082],[42.739892,37.674191],[42.731302,37.675001],[42.722956,37.675325],[42.719633,37.675163],[42.713961,37.673461],[42.707235,37.671273],[42.700671,37.670544],[42.696052,37.670139],[42.690137,37.671192],[42.680737,37.674434],[42.6732,37.677513],[42.661775,37.683104],[42.647918,37.689587],[42.643056,37.692018],[42.63714,37.694287],[42.633818,37.695098],[42.618097,37.697853],[42.598892,37.700689],[42.577822,37.704579],[42.559103,37.70863],[42.5416,37.712763],[42.533091,37.715275],[42.524988,37.716734],[42.516884,37.716977],[42.510483,37.715599],[42.503189,37.712925],[42.492898,37.709279],[42.487226,37.707901],[42.475962,37.70628],[42.46567,37.704822],[42.460646,37.703444],[42.454163,37.701499],[42.435201,37.69218],[42.415375,37.684185],[42.408568,37.681592],[42.397115,37.678026],[42.3902,37.674353],[42.38631,37.672084],[42.382096,37.668626],[42.377991,37.664737],[42.375758,37.665255],[42.372621,37.665972],[42.368139,37.666331],[42.363657,37.667407],[42.359355,37.66902],[42.354693,37.670723],[42.350391,37.671888],[42.347343,37.673412],[42.345999,37.674309],[42.345282,37.675295],[42.344744,37.678073],[42.343758,37.679508],[42.340441,37.683272],[42.337304,37.686678],[42.335511,37.688919],[42.333091,37.694208],[42.331209,37.699945],[42.329775,37.705681],[42.329057,37.712673],[42.327085,37.723071],[42.326548,37.731586],[42.325831,37.736695],[42.324755,37.739833],[42.324038,37.741625],[42.322783,37.742611],[42.316508,37.746107],[42.314268,37.748438],[42.312833,37.750858],[42.312027,37.755698],[42.311489,37.761077],[42.311668,37.766365],[42.312027,37.773177],[42.311937,37.778556],[42.311937,37.783665],[42.311758,37.789402],[42.310772,37.795407],[42.309248,37.800068],[42.30871,37.806522],[42.3088,37.814052],[42.309606,37.820864],[42.310413,37.827318],[42.312744,37.832337],[42.314626,37.835923],[42.315433,37.838881],[42.315164,37.840315],[42.314088,37.843094],[42.311847,37.845514],[42.306111,37.849637],[42.29894,37.852774],[42.292844,37.855464],[42.284329,37.857973],[42.275814,37.859856],[42.272138,37.860483],[42.26183,37.86138],[42.256094,37.862007],[42.248116,37.862097],[42.23736,37.862455],[42.230727,37.862814],[42.225976,37.864158],[42.219881,37.866847],[42.216833,37.867744],[42.212889,37.868461],[42.206166,37.869716],[42.200878,37.872853],[42.19532,37.878141],[42.192183,37.881637],[42.188329,37.884057],[42.184295,37.885761],[42.181158,37.886926],[42.174883,37.889525],[42.172104,37.891677],[42.167174,37.897772],[42.164216,37.902164],[42.167712,37.904584],[42.171298,37.90799],[42.175242,37.911307],[42.178469,37.91292],[42.182144,37.914086],[42.187253,37.91543],[42.190838,37.915878],[42.195499,37.918388],[42.199085,37.921705],[42.20276,37.925021],[42.204045,37.926463],[42.205588,37.928194],[42.205964,37.927934],[42.206389,37.927654],[42.206819,37.927383],[42.207255,37.927126],[42.207654,37.926912],[42.208159,37.926675],[42.208636,37.926498],[42.209137,37.926365],[42.209657,37.926269],[42.21019,37.926199],[42.210732,37.926148],[42.211281,37.92611],[42.211835,37.926082],[42.212951,37.926041],[42.219121,37.925879],[42.22536,37.925678],[42.225844,37.925662],[42.226965,37.925635],[42.228084,37.925625],[42.228643,37.925633],[42.229201,37.925653],[42.229749,37.925689],[42.230306,37.925739],[42.230842,37.925799],[42.231385,37.925869],[42.231926,37.925948],[42.232464,37.926037],[42.232997,37.926139],[42.233523,37.926256],[42.23404,37.926393],[42.2345,37.926539],[42.234952,37.926702],[42.235398,37.926878],[42.235838,37.927065],[42.236296,37.927271],[42.236748,37.927486],[42.237194,37.927709],[42.237633,37.92794],[42.238069,37.928183],[42.238494,37.928436],[42.238906,37.9287],[42.239303,37.928976],[42.239658,37.929249],[42.239996,37.929536],[42.240312,37.929835],[42.240605,37.930149],[42.240873,37.930479],[42.241119,37.930822],[42.241352,37.931173],[42.242236,37.932607],[42.242468,37.932962],[42.242742,37.933355],[42.243029,37.933742],[42.243629,37.934506],[42.244566,37.935636],[42.245839,37.937131],[42.248716,37.940488],[42.24936,37.941231],[42.250012,37.941967],[42.250682,37.942689],[42.251028,37.943041],[42.251387,37.943384],[42.251762,37.943715],[42.252124,37.944006],[42.253254,37.944849],[42.253961,37.945399],[42.254643,37.945969],[42.255322,37.946587],[42.255973,37.947225],[42.256606,37.947892],[42.257218,37.948573],[42.257802,37.949258],[42.258368,37.949954],[42.258917,37.950666],[42.259447,37.951387],[42.259967,37.952128],[42.260723,37.953252],[42.261459,37.95439],[42.263865,37.958217],[42.264116,37.958595],[42.264377,37.958965],[42.264647,37.959318],[42.264933,37.959657],[42.265241,37.959979],[42.265578,37.960278],[42.26595,37.960549],[42.266352,37.960792],[42.26678,37.961008],[42.267232,37.961194],[42.267735,37.96136],[42.268256,37.961499],[42.268791,37.961618],[42.269334,37.961725],[42.269884,37.961822],[42.270993,37.962],[42.276567,37.962838],[42.282123,37.963711],[42.283235,37.963878],[42.284348,37.964027],[42.284905,37.964088],[42.285463,37.964136],[42.285959,37.964163],[42.286455,37.964175],[42.28695,37.964172],[42.287444,37.964152],[42.288042,37.9641],[42.288417,37.964055],[42.288897,37.963978],[42.289371,37.96388],[42.289857,37.963755],[42.290336,37.963611],[42.29081,37.963453],[42.291281,37.963285],[42.292704,37.962754],[42.293201,37.962578],[42.293652,37.962429],[42.294126,37.962285],[42.294605,37.962157],[42.29509,37.962049],[42.295572,37.961964],[42.296058,37.961901],[42.296548,37.961858],[42.29704,37.961836],[42.29753,37.961836],[42.29802,37.961855],[42.298508,37.961894],[42.298994,37.961952],[42.299488,37.962033],[42.299979,37.96213],[42.300468,37.96224],[42.301495,37.962495],[42.302572,37.962781],[42.309019,37.964535],[42.314929,37.966121],[42.316006,37.966403],[42.317086,37.966674],[42.318173,37.966924],[42.318764,37.967046],[42.319684,37.967221],[42.321415,37.967524],[42.330113,37.968966],[42.338236,37.970322],[42.340347,37.970667],[42.34193,37.970916],[42.342986,37.971064],[42.343513,37.971126],[42.34404,37.971178],[42.344566,37.971213],[42.345091,37.971226],[42.345579,37.971214],[42.346064,37.971178],[42.346546,37.971121],[42.347024,37.971041],[42.347514,37.970934],[42.348,37.970809],[42.349794,37.970284],[42.360202,37.976546],[42.365834,37.982468],[42.366381,37.982984],[42.369341,37.985784],[42.372541,37.991224],[42.376061,37.995944],[42.379421,38.000184],[42.384141,38.008424],[42.386221,38.011864],[42.388221,38.014024],[42.391021,38.015784],[42.396621,38.017464],[42.402701,38.019064],[42.405021,38.020024],[42.408141,38.022024],[42.414141,38.026824],[42.416861,38.029784],[42.422381,38.035224],[42.425021,38.038904],[42.429509,38.04601],[42.43499,38.042173],[42.439649,38.037971],[42.446226,38.034957],[42.45125,38.033678],[42.458193,38.032764],[42.463765,38.032125],[42.470981,38.030846],[42.476006,38.029384],[42.480756,38.027009],[42.482309,38.026278],[42.484136,38.025365],[42.486145,38.022807],[42.48715,38.019336],[42.487333,38.014951],[42.486693,38.01212],[42.486602,38.008831],[42.485232,38.00335],[42.483862,38.000518],[42.483862,37.998326],[42.485049,37.99522],[42.488246,37.991201],[42.491443,37.989465],[42.494549,37.986359],[42.498477,37.982614],[42.50204,37.980604],[42.505328,37.9796],[42.510261,37.978321],[42.51355,37.977681],[42.515925,37.977316],[42.520218,37.976037],[42.524146,37.97421],[42.526338,37.973297],[42.52981,37.9722],[42.53456,37.97147],[42.537757,37.971104],[42.540315,37.971104],[42.543421,37.970282],[42.544608,37.969825],[42.546983,37.969186],[42.548445,37.968638],[42.555478,37.968272],[42.561873,37.968272],[42.570551,37.969186],[42.574113,37.970465],[42.579229,37.971835],[42.585258,37.972566],[42.59147,37.973753],[42.595763,37.974575],[42.601701,37.975854],[42.606907,37.975763],[42.610927,37.975763],[42.616499,37.97558],[42.62198,37.975763],[42.6281,37.977133],[42.632394,37.979051],[42.637326,37.982797],[42.640889,37.985811],[42.643538,37.989557],[42.645822,37.992662],[42.64975,37.996225],[42.652947,37.998874],[42.654155,37.999693],[42.655779,38.000792],[42.660072,38.002619],[42.667837,38.005999],[42.672861,38.007187],[42.677154,38.008466],[42.680717,38.009653],[42.68364,38.010293],[42.690582,38.013124],[42.697525,38.01486],[42.705107,38.01623],[42.712141,38.015682],[42.720362,38.013216],[42.729771,38.008374],[42.737809,38.004355],[42.744843,37.999239],[42.756992,37.990013],[42.759276,37.986999],[42.76156,37.983162],[42.762656,37.979782],[42.763844,37.974119],[42.7643,37.969003],[42.763295,37.964527],[42.761925,37.958681],[42.76156,37.95183],[42.761743,37.949637],[42.763021,37.945435],[42.765488,37.941599],[42.769964,37.938767],[42.777637,37.932921],[42.788599,37.923146],[42.796272,37.91529],[42.79883,37.913189],[42.804219,37.907526],[42.817282,37.890718],[42.823403,37.881674],[42.829614,37.871626],[42.830893,37.867333],[42.831898,37.856828],[42.832811,37.850068],[42.835735,37.840659],[42.841489,37.82787],[42.846057,37.818096],[42.850533,37.810697],[42.854278,37.804668],[42.860307,37.798548],[42.868346,37.794163],[42.87611,37.789321],[42.884332,37.785485],[42.887132,37.784317],[42.885593,37.780265],[42.883891,37.776376],[42.88146,37.770217],[42.880407,37.767543],[42.8783,37.76341],[42.877732,37.759926],[42.87757,37.754901],[42.877084,37.748338],[42.874572,37.741774],[42.871817,37.735048],[42.869953,37.732374],[42.867765,37.728079],[42.867036,37.725243],[42.866874,37.721191],[42.867603,37.715518],[42.867846,37.71017],[42.868332,37.70466],[42.868089,37.699798],[42.867927,37.695827],[42.866874,37.691451],[42.864362,37.687805],[42.861769,37.685049],[42.855043,37.680917],[42.848641,37.678567],[42.83608,37.676703],[42.830894,37.676054]]]}},{"type":"Feature","properties":{"id":"TR-D-56-005","parent_id":"TR-P-56","region_id":"TR-R-GDA","level":"district","municipality_type":null,"municipality_type_label":null,"is_metropolitan_municipality":null,"name":"Siirt","name_ascii":"siirt","slug":"siirt-siirt"},"geometry":{"type":"Polygon","coordinates":[[[41.917632,38.02815],[41.91842,38.028063],[41.928863,38.027612],[41.933221,38.027086],[41.937202,38.026034],[41.939081,38.024682],[41.940959,38.022203],[41.944265,38.017845],[41.946368,38.015215],[41.949223,38.012661],[41.951477,38.010482],[41.953205,38.007552],[41.953347,38.006324],[41.953431,38.005599],[41.954032,38.002068],[41.954482,37.995005],[41.955234,37.984788],[41.957037,37.979003],[41.957863,37.976523],[41.958539,37.973744],[41.959666,37.97179],[41.960944,37.970588],[41.963348,37.969236],[41.967104,37.968334],[41.971462,37.967658],[41.974016,37.967658],[41.976871,37.967132],[41.982656,37.965629],[41.988141,37.964127],[41.991672,37.96285],[41.99325,37.961873],[41.994301,37.960821],[41.994677,37.95744],[41.995053,37.953834],[41.995879,37.945795],[41.995804,37.94016],[41.994301,37.931445],[41.993099,37.926562],[41.993024,37.923932],[41.993325,37.917922],[41.994151,37.91394],[41.997382,37.906803],[41.999175,37.903182],[42.003463,37.894245],[42.004085,37.893249],[42.004364,37.892803],[42.007297,37.888173],[42.007865,37.8883],[42.008401,37.888399],[42.00894,37.888473],[42.00949,37.888516],[42.010043,37.888533],[42.0106,37.888531],[42.011089,37.888517],[42.011719,37.88849],[42.013405,37.888381],[42.015091,37.888247],[42.016214,37.888143],[42.016774,37.888084],[42.017851,37.887954],[42.019998,37.887661],[42.024822,37.886968],[42.025893,37.886808],[42.026962,37.886639],[42.028024,37.886452],[42.028552,37.886347],[42.029076,37.886231],[42.029595,37.886102],[42.030622,37.885814],[42.033162,37.88503],[42.03417,37.884738],[42.034671,37.884611],[42.035168,37.884504],[42.035662,37.884425],[42.036148,37.884385],[42.036626,37.884399],[42.037074,37.884473],[42.037513,37.884597],[42.037986,37.884778],[42.03837,37.88495],[42.038791,37.885162],[42.039206,37.88539],[42.039615,37.885632],[42.040016,37.885886],[42.040407,37.88615],[42.040786,37.886427],[42.041148,37.886718],[42.041513,37.887047],[42.04186,37.88739],[42.042193,37.887743],[42.042516,37.888103],[42.043146,37.888835],[42.046222,37.892537],[42.047135,37.893648],[42.04772,37.894397],[42.047997,37.894777],[42.048259,37.895161],[42.048485,37.895529],[42.048689,37.895902],[42.048871,37.896282],[42.049024,37.896668],[42.04915,37.897079],[42.049244,37.897497],[42.049312,37.897919],[42.049355,37.898345],[42.049375,37.898757],[42.049371,37.899584],[42.04934,37.900407],[42.0492,37.903247],[42.049173,37.904055],[42.049163,37.904862],[42.049182,37.905657],[42.049204,37.906054],[42.049239,37.90645],[42.049285,37.906839],[42.049344,37.907228],[42.049415,37.907615],[42.0495,37.908],[42.049608,37.908421],[42.04973,37.90884],[42.050003,37.909672],[42.050304,37.910499],[42.050633,37.911318],[42.050813,37.911723],[42.051006,37.912122],[42.051218,37.912515],[42.051441,37.912881],[42.051683,37.91324],[42.051941,37.913592],[42.052213,37.913939],[42.052499,37.914279],[42.052796,37.914614],[42.053103,37.914944],[42.053418,37.915269],[42.054069,37.9159],[42.05475,37.91651],[42.05514,37.916836],[42.055538,37.917156],[42.056357,37.917776],[42.056778,37.918076],[42.057207,37.918367],[42.057647,37.918648],[42.058084,37.918908],[42.05853,37.919159],[42.060354,37.920123],[42.061243,37.920607],[42.061672,37.920854],[42.06209,37.921111],[42.062494,37.921379],[42.062857,37.921644],[42.063205,37.921921],[42.063538,37.92221],[42.063852,37.922511],[42.064167,37.922843],[42.064462,37.923188],[42.064737,37.923542],[42.064994,37.923906],[42.065235,37.924286],[42.065454,37.924674],[42.065653,37.925068],[42.065828,37.92547],[42.065965,37.925843],[42.066081,37.92622],[42.066178,37.926601],[42.066254,37.926986],[42.066317,37.92743],[42.066359,37.927877],[42.066404,37.928776],[42.066437,37.929989],[42.066461,37.930392],[42.066497,37.930782],[42.066547,37.93117],[42.06661,37.931556],[42.066689,37.931941],[42.066784,37.932324],[42.066893,37.932704],[42.067013,37.933083],[42.067303,37.933883],[42.067644,37.934726],[42.068002,37.935565],[42.069655,37.939335],[42.070403,37.941006],[42.070802,37.941832],[42.071015,37.94224],[42.071243,37.942642],[42.071461,37.942994],[42.071693,37.94334],[42.071935,37.943682],[42.072188,37.944019],[42.072452,37.94435],[42.072726,37.944675],[42.073013,37.944993],[42.073315,37.945301],[42.073631,37.945595],[42.073961,37.945879],[42.074652,37.946429],[42.075374,37.946963],[42.076921,37.948051],[42.078962,37.949449],[42.079747,37.949972],[42.080326,37.950353],[42.083941,37.949888],[42.084874,37.949743],[42.087695,37.949303],[42.090521,37.946934],[42.097305,37.942339],[42.102639,37.938958],[42.10572,37.936329],[42.108199,37.932798],[42.111505,37.928816],[42.115036,37.925059],[42.117815,37.921077],[42.120295,37.915518],[42.121948,37.911461],[42.124652,37.908155],[42.128033,37.905751],[42.132466,37.904248],[42.138627,37.903797],[42.141106,37.903722],[42.146215,37.901769],[42.150347,37.899891],[42.151148,37.898911],[42.152375,37.897411],[42.152676,37.894707],[42.152751,37.892528],[42.151925,37.889973],[42.149295,37.886292],[42.144562,37.881784],[42.131715,37.871491],[42.126906,37.867209],[42.118642,37.859546],[42.113909,37.854286],[42.105118,37.84497],[42.102489,37.84204],[42.096854,37.835504],[42.092346,37.831823],[42.087989,37.829193],[42.080025,37.827014],[42.067027,37.824685],[42.062144,37.823859],[42.059815,37.824234],[42.052602,37.826488],[42.043962,37.828517],[42.037952,37.829869],[42.032618,37.831146],[42.025781,37.831823],[42.020747,37.832198],[42.014436,37.833551],[42.009628,37.835504],[42.006022,37.83633],[42.000763,37.837007],[41.997081,37.837007],[41.99355,37.835729],[41.989568,37.833551],[41.985962,37.83295],[41.984083,37.832866],[41.972741,37.82928],[41.949523,37.809681],[41.948468,37.804253],[41.927211,37.788725],[41.916959,37.779227],[41.892686,37.759477],[41.866152,37.753899],[41.841427,37.744551],[41.829366,37.735204],[41.824541,37.721183],[41.830119,37.712439],[41.83615,37.689975],[41.845754,37.677324],[41.844214,37.677729],[41.837569,37.678864],[41.831613,37.678784],[41.828606,37.679114],[41.824895,37.678846],[41.820277,37.676645],[41.820181,37.6766],[41.817783,37.67637],[41.817779,37.67637],[41.81356,37.675904],[41.80656,37.674681],[41.800444,37.673525],[41.800118,37.673398],[41.799955,37.673334],[41.798881,37.672914],[41.792425,37.671215],[41.787464,37.670195],[41.782028,37.668904],[41.775843,37.668293],[41.772106,37.667953],[41.767009,37.667681],[41.760145,37.667545],[41.756747,37.667545],[41.754097,37.667409],[41.746282,37.666594],[41.739622,37.667137],[41.732079,37.668564],[41.729768,37.670127],[41.72671,37.671962],[41.724943,37.67305],[41.724527,37.673508],[41.723584,37.674545],[41.722905,37.677127],[41.722701,37.680185],[41.722701,37.68501],[41.722972,37.687049],[41.722701,37.689903],[41.723244,37.693029],[41.722293,37.699757],[41.721206,37.703766],[41.72026,37.706367],[41.720118,37.706757],[41.718283,37.708591],[41.717356,37.70845],[41.717337,37.708448],[41.720007,37.709516],[41.720169,37.709959],[41.720282,37.710395],[41.720362,37.710836],[41.720414,37.711282],[41.72044,37.71173],[41.720442,37.712131],[41.720427,37.712533],[41.720398,37.712933],[41.720355,37.713333],[41.720299,37.713734],[41.720227,37.714133],[41.720139,37.714529],[41.72003,37.714921],[41.719887,37.715337],[41.719722,37.715748],[41.719542,37.716157],[41.719349,37.716563],[41.718742,37.717782],[41.718549,37.71819],[41.718372,37.7186],[41.718214,37.719013],[41.718082,37.719428],[41.717982,37.719845],[41.717925,37.720235],[41.717902,37.720625],[41.717911,37.721012],[41.717954,37.721394],[41.718031,37.721758],[41.718145,37.722111],[41.718301,37.722448],[41.718504,37.722765],[41.718804,37.723096],[41.719109,37.723361],[41.719476,37.723625],[41.719875,37.723869],[41.720298,37.724095],[41.72074,37.724306],[41.721195,37.724507],[41.722155,37.724898],[41.724172,37.725657],[41.727201,37.726775],[41.728714,37.727325],[41.729693,37.727666],[41.730643,37.727979],[41.731121,37.728129],[41.732078,37.728413],[41.733041,37.728681],[41.734495,37.729056],[41.735958,37.729403],[41.737428,37.729724],[41.73841,37.729921],[41.738902,37.730013],[41.739886,37.730175],[41.74038,37.730243],[41.740874,37.730298],[41.741367,37.730336],[41.741859,37.730358],[41.742352,37.73036],[41.742843,37.730342],[41.743334,37.730299],[41.743823,37.730236],[41.74431,37.730156],[41.744794,37.730061],[41.745285,37.729952],[41.745773,37.729834],[41.74772,37.729337],[41.748697,37.729105],[41.749673,37.728898],[41.750656,37.72871],[41.751643,37.728537],[41.752634,37.728377],[41.754121,37.72816],[41.755613,37.727976],[41.75661,37.727879],[41.757105,37.727841],[41.757601,37.727813],[41.758096,37.727796],[41.758591,37.727792],[41.759083,37.727805],[41.759574,37.727832],[41.760064,37.727874],[41.760553,37.727929],[41.761055,37.728],[41.761555,37.728081],[41.763549,37.728435],[41.764049,37.728513],[41.76455,37.728581],[41.765043,37.728632],[41.765537,37.728669],[41.766033,37.728693],[41.76653,37.728702],[41.767032,37.728696],[41.767533,37.728676],[41.768033,37.728643],[41.76853,37.728598],[41.769022,37.728538],[41.769508,37.728461],[41.769984,37.728364],[41.770446,37.728242],[41.770922,37.728076],[41.771377,37.727878],[41.783134,37.726964],[41.783461,37.727043],[41.783968,37.727183],[41.784463,37.727344],[41.784925,37.727524],[41.785371,37.727727],[41.785801,37.727951],[41.786212,37.728196],[41.786591,37.728455],[41.786953,37.728731],[41.787301,37.729019],[41.787636,37.729319],[41.787959,37.729627],[41.788269,37.729945],[41.788564,37.730271],[41.78884,37.730607],[41.789117,37.730987],[41.789374,37.731377],[41.789617,37.731775],[41.789848,37.732177],[41.790303,37.733021],[41.790705,37.733817],[41.791093,37.734648],[41.791271,37.735067],[41.791432,37.735482],[41.791578,37.735899],[41.791709,37.736319],[41.791825,37.736742],[41.791927,37.737182],[41.792091,37.738069],[41.792225,37.73896],[41.792542,37.741408],[41.792997,37.74492],[41.793035,37.745214],[41.793225,37.746552],[41.793445,37.747882],[41.793791,37.749637],[41.794025,37.750762],[41.794884,37.754902],[41.795167,37.756216],[41.795377,37.757087],[41.795496,37.757519],[41.795629,37.757947],[41.795783,37.75837],[41.795955,37.758768],[41.796149,37.75916],[41.796364,37.759545],[41.796631,37.759963],[41.79685,37.760274],[41.797117,37.76062],[41.797397,37.76096],[41.797988,37.761625],[41.798298,37.76195],[41.798617,37.762269],[41.798947,37.762582],[41.799276,37.762877],[41.799615,37.763166],[41.799962,37.76345],[41.800674,37.764001],[41.802495,37.765343],[41.803216,37.765887],[41.80393,37.766456],[41.804274,37.766748],[41.804608,37.767047],[41.804927,37.767355],[41.80523,37.767671],[41.805516,37.767996],[41.805779,37.768332],[41.806021,37.768681],[41.806239,37.76904],[41.806438,37.769406],[41.806619,37.769778],[41.806779,37.770154],[41.806919,37.770534],[41.807032,37.770918],[41.807112,37.771305],[41.807156,37.771705],[41.807162,37.772107],[41.807136,37.772509],[41.807079,37.772911],[41.806995,37.773296],[41.806892,37.773678],[41.806539,37.774823],[41.806432,37.775204],[41.806342,37.775587],[41.806278,37.775971],[41.806246,37.776401],[41.806249,37.776832],[41.806278,37.777265],[41.806327,37.777699],[41.806389,37.778115],[41.806462,37.778532],[41.80663,37.779366],[41.807001,37.781034],[41.807677,37.783953],[41.808067,37.785513],[41.808284,37.786291],[41.808554,37.787157],[41.808784,37.787818],[41.808928,37.788191],[41.80908,37.788563],[41.809259,37.788969],[41.809449,37.789372],[41.809866,37.790182],[41.810082,37.790569],[41.810314,37.790966],[41.810798,37.791751],[41.811309,37.792525],[41.811556,37.792875],[41.811847,37.793265],[41.812126,37.793619],[41.812415,37.793966],[41.812717,37.794307],[41.813019,37.794627],[41.813333,37.794938],[41.813661,37.79524],[41.814003,37.795531],[41.814399,37.79584],[41.814811,37.796136],[41.815235,37.796422],[41.815669,37.796699],[41.816112,37.796968],[41.816564,37.797227],[41.817025,37.797475],[41.817466,37.797695],[41.817915,37.797904],[41.818372,37.798104],[41.818836,37.798294],[41.819301,37.798471],[41.819772,37.798639],[41.820248,37.798798],[41.820729,37.798949],[41.821207,37.799089],[41.822173,37.799344],[41.822661,37.79946],[41.824118,37.799781],[41.824598,37.799897],[41.825078,37.800028],[41.825551,37.800172],[41.826014,37.800332],[41.826467,37.800507],[41.826925,37.800708],[41.827369,37.800928],[41.827796,37.801167],[41.828205,37.801424],[41.828566,37.801682],[41.828909,37.801956],[41.829237,37.802244],[41.829547,37.802545],[41.829863,37.802882],[41.830164,37.80323],[41.830453,37.803586],[41.830733,37.803947],[41.832344,37.806145],[41.832602,37.806477],[41.832885,37.806819],[41.833179,37.807147],[41.833492,37.807457],[41.833828,37.807741],[41.834197,37.807991],[41.829694,37.815073],[41.829215,37.815826],[41.828915,37.816816],[41.828183,37.81933],[41.827808,37.820586],[41.827725,37.820843],[41.827407,37.821835],[41.827109,37.822664],[41.826783,37.823489],[41.826094,37.82513],[41.825038,37.827588],[41.824315,37.82922],[41.823932,37.830028],[41.823729,37.830428],[41.823514,37.830824],[41.82328,37.831224],[41.823033,37.831621],[41.822517,37.832405],[41.821982,37.833183],[41.817079,37.840158],[41.816528,37.840927],[41.815965,37.841685],[41.815674,37.842056],[41.815373,37.84242],[41.815059,37.842771],[41.814726,37.843108],[41.814369,37.843425],[41.814018,37.843693],[41.812909,37.844461],[41.812533,37.84475],[41.81217,37.845052],[41.811817,37.845365],[41.811471,37.845686],[41.810795,37.846343],[41.809472,37.84769],[41.808496,37.848714],[41.807859,37.849403],[41.807242,37.850103],[41.806948,37.850459],[41.806667,37.850821],[41.806398,37.851188],[41.806139,37.85156],[41.805891,37.851936],[41.805654,37.852316],[41.805431,37.852701],[41.805224,37.853091],[41.805034,37.853492],[41.80486,37.853898],[41.804697,37.854308],[41.804395,37.855135],[41.803969,37.856385],[41.802725,37.860143],[41.802023,37.862228],[41.801284,37.864326],[41.79992,37.868108],[41.799598,37.868941],[41.799427,37.869353],[41.799245,37.86976],[41.799048,37.87016],[41.79883,37.870551],[41.798582,37.870929],[41.798289,37.871302],[41.797965,37.871662],[41.797619,37.872012],[41.797257,37.872354],[41.796883,37.872691],[41.796114,37.873354],[41.795323,37.874004],[41.794511,37.874633],[41.794093,37.874933],[41.793664,37.87522],[41.79322,37.875486],[41.792802,37.875704],[41.792372,37.875903],[41.791931,37.876084],[41.791483,37.876247],[41.791028,37.87639],[41.790569,37.876511],[41.790106,37.876604],[41.789639,37.876664],[41.789151,37.876688],[41.788168,37.876683],[41.787675,37.876696],[41.78721,37.876737],[41.786746,37.876807],[41.786286,37.876904],[41.785832,37.877028],[41.785332,37.877197],[41.78484,37.877391],[41.784355,37.877605],[41.783875,37.877833],[41.783402,37.878073],[41.782934,37.878322],[41.782475,37.87858],[41.782027,37.878849],[41.781595,37.879128],[41.781185,37.879423],[41.780807,37.879737],[41.780479,37.880063],[41.780189,37.880407],[41.779934,37.880763],[41.779719,37.881128],[41.779549,37.881497],[41.779437,37.881869],[41.779398,37.882241],[41.779447,37.882606],[41.779573,37.882964],[41.779766,37.883309],[41.780021,37.883637],[41.780335,37.883942],[41.780693,37.884229],[41.781092,37.884508],[41.781491,37.884765],[41.782314,37.885273],[41.782715,37.885532],[41.783096,37.885803],[41.783445,37.886091],[41.783756,37.886397],[41.784019,37.88672],[41.784223,37.887063],[41.78436,37.887436],[41.784431,37.887772],[41.784463,37.888145],[41.784458,37.888526],[41.784418,37.888931],[41.784353,37.889341],[41.78427,37.889752],[41.78407,37.89058],[41.783641,37.892246],[41.783456,37.893083],[41.783382,37.893503],[41.783261,37.894345],[41.783166,37.895188],[41.783056,37.896453],[41.783011,37.897293],[41.783002,37.897711],[41.783008,37.898126],[41.783034,37.898537],[41.783087,37.898943],[41.783177,37.899343],[41.783305,37.899715],[41.783469,37.900079],[41.783662,37.900437],[41.78388,37.900789],[41.784148,37.901172],[41.784437,37.90155],[41.785052,37.902292],[41.78602,37.903392],[41.788964,37.906673],[41.789621,37.907398],[41.790288,37.908117],[41.790976,37.908822],[41.791334,37.909166],[41.791741,37.909539],[41.792206,37.909951],[41.793225,37.910829],[41.795151,37.91245],[41.795078,37.912983],[41.794,37.920883],[41.793834,37.922093],[41.793479,37.924767],[41.793257,37.926526],[41.793199,37.926984],[41.793101,37.927872],[41.792982,37.929218],[41.792722,37.932813],[41.792616,37.93416],[41.792528,37.935057],[41.792418,37.935892],[41.792284,37.936667],[41.792204,37.937052],[41.791998,37.937907],[41.791766,37.938758],[41.791395,37.940031],[41.791007,37.941302],[41.790735,37.942146],[41.790442,37.942984],[41.790282,37.9434],[41.789917,37.944251],[41.78952,37.945094],[41.789109,37.945933],[41.785747,37.95263],[41.783039,37.958084],[41.782396,37.959329],[41.782172,37.959737],[41.781938,37.960139],[41.781692,37.960531],[41.781427,37.960911],[41.781137,37.961274],[41.780814,37.961613],[41.780479,37.961901],[41.78012,37.962174],[41.779379,37.962713],[41.77904,37.962978],[41.778714,37.963256],[41.778401,37.963544],[41.778105,37.963845],[41.777789,37.964204],[41.777492,37.964576],[41.777209,37.964957],[41.776937,37.965346],[41.776673,37.965738],[41.776157,37.966533],[41.7754,37.967735],[41.774152,37.969744],[41.773662,37.97055],[41.773189,37.971359],[41.772964,37.971788],[41.772749,37.972285],[41.772563,37.97283],[41.772428,37.973365],[41.772333,37.9739],[41.77228,37.97441],[41.772267,37.974874],[41.772285,37.975249],[41.772321,37.975542],[41.772371,37.975765],[41.770192,37.984621],[41.770278,37.986986],[41.770366,37.988737],[41.770431,37.989627],[41.770542,37.990963],[41.770699,37.992747],[41.770788,37.993635],[41.770901,37.994512],[41.770976,37.994942],[41.77107,37.995362],[41.771191,37.995767],[41.771352,37.996153],[41.771566,37.996511],[41.771821,37.996808],[41.772126,37.997073],[41.772475,37.997305],[41.772864,37.997501],[41.773279,37.997654],[41.773721,37.997779],[41.77418,37.997887],[41.775116,37.99809],[41.775581,37.998199],[41.776038,37.998323],[41.776481,37.998466],[41.776932,37.998648],[41.777355,37.998859],[41.777746,37.9991],[41.778096,37.999373],[41.778364,37.999647],[41.778685,38.000051],[41.77892,38.000428],[41.779124,38.000823],[41.779297,38.001225],[41.77945,38.001636],[41.779587,38.002054],[41.779832,38.002902],[41.780046,38.003758],[41.780144,38.004194],[41.780308,38.00505],[41.780415,38.005841],[41.780488,38.006633],[41.780532,38.007427],[41.780548,38.008294],[41.780553,38.008922],[41.78056,38.010038],[41.780599,38.011372],[41.780654,38.012705],[41.781013,38.020255],[41.781085,38.021586],[41.781143,38.022474],[41.78126,38.023812],[41.781405,38.025153],[41.782401,38.033643],[41.782536,38.034984],[41.782601,38.035879],[41.78262,38.036322],[41.782639,38.037208],[41.782641,38.038538],[41.782535,38.049624],[41.782528,38.050954],[41.782539,38.052284],[41.782588,38.053621],[41.782671,38.05496],[41.782836,38.057195],[41.783094,38.060332],[41.780419,38.062671],[41.781553,38.062595],[41.78382,38.06184],[41.787825,38.060253],[41.790772,38.059195],[41.792284,38.058741],[41.793795,38.058515],[41.795989,38.058196],[41.798437,38.058566],[41.804522,38.05834],[41.810909,38.059392],[41.819774,38.060519],[41.822403,38.060669],[41.826235,38.060519],[41.832922,38.059693],[41.835476,38.058641],[41.838106,38.056537],[41.843816,38.051654],[41.8493,38.048573],[41.855987,38.044516],[41.86673,38.039407],[41.871689,38.037003],[41.878751,38.0349],[41.887692,38.032871],[41.89235,38.031819],[41.897083,38.030016],[41.901365,38.028964],[41.9067,38.028513],[41.914363,38.028513],[41.917632,38.02815]]]}},{"type":"Feature","properties":{"id":"TR-D-56-006","parent_id":"TR-P-56","region_id":"TR-R-GDA","level":"district","municipality_type":null,"municipality_type_label":null,"is_metropolitan_municipality":null,"name":"Şirvan","name_ascii":"sirvan","slug":"sirvan-siirt"},"geometry":{"type":"Polygon","coordinates":[[[41.953347,38.006324],[41.953205,38.007552],[41.951477,38.010482],[41.949223,38.012661],[41.946368,38.015215],[41.944265,38.017845],[41.940959,38.022203],[41.939081,38.024682],[41.937202,38.026034],[41.933221,38.027086],[41.928863,38.027612],[41.91842,38.028063],[41.917632,38.02815],[41.91651,38.035264],[41.915898,38.042747],[41.914266,38.048665],[41.912837,38.050638],[41.907191,38.055059],[41.903518,38.057712],[41.901681,38.059549],[41.901137,38.061453],[41.900457,38.064786],[41.900661,38.067031],[41.901205,38.072541],[41.901409,38.074309],[41.903586,38.077915],[41.906511,38.080295],[41.908824,38.082948],[41.911341,38.085397],[41.913789,38.089206],[41.915898,38.094104],[41.917531,38.098594],[41.917871,38.103695],[41.917531,38.1073],[41.917395,38.109749],[41.917599,38.11281],[41.917735,38.113967],[41.918483,38.117572],[41.920183,38.121857],[41.921952,38.127231],[41.924197,38.135938],[41.925897,38.141516],[41.926169,38.144441],[41.926101,38.146073],[41.926101,38.149338],[41.926101,38.150563],[41.92821,38.151923],[41.9327,38.152467],[41.936713,38.152536],[41.939366,38.15308],[41.942971,38.154712],[41.944604,38.156413],[41.945896,38.158794],[41.94678,38.161106],[41.947597,38.163079],[41.948481,38.164439],[41.949387,38.16493],[41.950388,38.163483],[41.953586,38.160195],[41.956509,38.15782],[41.960437,38.155719],[41.964365,38.155262],[41.968749,38.154623],[41.972312,38.154531],[41.974778,38.154805],[41.978067,38.156632],[41.981721,38.15919],[41.986471,38.162753],[41.990856,38.16595],[41.993231,38.167594],[41.996062,38.169238],[42.000813,38.171979],[42.00401,38.173532],[42.008029,38.175267],[42.012596,38.177186],[42.015885,38.178282],[42.019996,38.179561],[42.022553,38.180748],[42.029405,38.183032],[42.033789,38.183854],[42.039361,38.183489],[42.044203,38.183489],[42.048953,38.18358],[42.053977,38.182758],[42.058088,38.181936],[42.061376,38.181205],[42.064025,38.180748],[42.065852,38.181114],[42.068228,38.182118],[42.070968,38.183123],[42.074531,38.184219],[42.078002,38.184493],[42.082295,38.185864],[42.084853,38.187965],[42.087411,38.190614],[42.092526,38.194633],[42.093988,38.19646],[42.100199,38.203859],[42.102209,38.208153],[42.105498,38.212629],[42.10705,38.215186],[42.107964,38.21811],[42.108786,38.221398],[42.109517,38.22359],[42.110704,38.224961],[42.113536,38.226696],[42.116094,38.228158],[42.119565,38.229711],[42.123219,38.231172],[42.127604,38.232999],[42.134364,38.234552],[42.139753,38.235648],[42.147883,38.236745],[42.155008,38.237932],[42.161951,38.238115],[42.170081,38.238297],[42.177754,38.238206],[42.183783,38.237658],[42.191365,38.237201],[42.197211,38.237201],[42.202783,38.236653],[42.208447,38.235557],[42.216851,38.233182],[42.223428,38.230259],[42.228361,38.227336],[42.230919,38.224778],[42.232015,38.223134],[42.234116,38.21948],[42.237313,38.213542],[42.239962,38.207879],[42.240323,38.206316],[42.24051,38.205504],[42.239904,38.201487],[42.239791,38.194779],[42.239961,38.187875],[42.240813,38.184125],[42.242944,38.177307],[42.247206,38.171511],[42.252864,38.168287],[42.258371,38.167137],[42.258758,38.167137],[42.259145,38.167137],[42.263895,38.166224],[42.265996,38.165767],[42.267549,38.164671],[42.268554,38.163301],[42.270198,38.161017],[42.272573,38.15645],[42.274857,38.150421],[42.277415,38.144118],[42.279698,38.14019],[42.282439,38.135805],[42.28655,38.131329],[42.291665,38.12667],[42.296415,38.123199],[42.302261,38.119454],[42.307651,38.115708],[42.314776,38.113699],[42.321079,38.11242],[42.327199,38.11178],[42.334233,38.109314],[42.339988,38.10767],[42.345378,38.107487],[42.349123,38.107578],[42.351772,38.107578],[42.355791,38.106665],[42.360724,38.104198],[42.36584,38.100636],[42.370681,38.095338],[42.375066,38.090131],[42.379725,38.084924],[42.382465,38.081179],[42.385845,38.077799],[42.388129,38.075424],[42.391965,38.072957],[42.396167,38.070308],[42.400552,38.068207],[42.40585,38.066289],[42.408682,38.064827],[42.411971,38.063],[42.414802,38.061082],[42.417086,38.058159],[42.418639,38.056423],[42.423206,38.051125],[42.427317,38.047563],[42.429509,38.04601],[42.425021,38.038904],[42.422381,38.035224],[42.416861,38.029784],[42.414141,38.026824],[42.408141,38.022024],[42.405021,38.020024],[42.402701,38.019064],[42.396621,38.017464],[42.391021,38.015784],[42.388221,38.014024],[42.386221,38.011864],[42.384141,38.008424],[42.379421,38.000184],[42.376061,37.995944],[42.372541,37.991224],[42.369341,37.985784],[42.366381,37.982984],[42.365834,37.982468],[42.360202,37.976546],[42.349794,37.970284],[42.348,37.970809],[42.347514,37.970934],[42.347024,37.971041],[42.346546,37.971121],[42.346064,37.971178],[42.345579,37.971214],[42.345091,37.971226],[42.344566,37.971213],[42.34404,37.971178],[42.343513,37.971126],[42.342986,37.971064],[42.34193,37.970916],[42.340347,37.970667],[42.338236,37.970322],[42.330113,37.968966],[42.321415,37.967524],[42.319684,37.967221],[42.318764,37.967046],[42.318173,37.966924],[42.317086,37.966674],[42.316006,37.966403],[42.314929,37.966121],[42.309019,37.964535],[42.302572,37.962781],[42.301495,37.962495],[42.300468,37.96224],[42.299979,37.96213],[42.299488,37.962033],[42.298994,37.961952],[42.298508,37.961894],[42.29802,37.961855],[42.29753,37.961836],[42.29704,37.961836],[42.296548,37.961858],[42.296058,37.961901],[42.295572,37.961964],[42.29509,37.962049],[42.294605,37.962157],[42.294126,37.962285],[42.293652,37.962429],[42.293201,37.962578],[42.292704,37.962754],[42.291281,37.963285],[42.29081,37.963453],[42.290336,37.963611],[42.289857,37.963755],[42.289371,37.96388],[42.288897,37.963978],[42.288417,37.964055],[42.288042,37.9641],[42.287444,37.964152],[42.28695,37.964172],[42.286455,37.964175],[42.285959,37.964163],[42.285463,37.964136],[42.284905,37.964088],[42.284348,37.964027],[42.283235,37.963878],[42.282123,37.963711],[42.276567,37.962838],[42.270993,37.962],[42.269884,37.961822],[42.269334,37.961725],[42.268791,37.961618],[42.268256,37.961499],[42.267735,37.96136],[42.267232,37.961194],[42.26678,37.961008],[42.266352,37.960792],[42.26595,37.960549],[42.265578,37.960278],[42.265241,37.959979],[42.264933,37.959657],[42.264647,37.959318],[42.264377,37.958965],[42.264116,37.958595],[42.263865,37.958217],[42.261459,37.95439],[42.260723,37.953252],[42.259967,37.952128],[42.259447,37.951387],[42.258917,37.950666],[42.258368,37.949954],[42.257802,37.949258],[42.257218,37.948573],[42.256606,37.947892],[42.255973,37.947225],[42.255322,37.946587],[42.254643,37.945969],[42.253961,37.945399],[42.253254,37.944849],[42.252124,37.944006],[42.251762,37.943715],[42.251387,37.943384],[42.251028,37.943041],[42.250682,37.942689],[42.250012,37.941967],[42.24936,37.941231],[42.248716,37.940488],[42.245839,37.937131],[42.244566,37.935636],[42.243629,37.934506],[42.243029,37.933742],[42.242742,37.933355],[42.242468,37.932962],[42.242236,37.932607],[42.241352,37.931173],[42.241119,37.930822],[42.240873,37.930479],[42.240605,37.930149],[42.240312,37.929835],[42.239996,37.929536],[42.239658,37.929249],[42.239303,37.928976],[42.238906,37.9287],[42.238494,37.928436],[42.238069,37.928183],[42.237633,37.92794],[42.237194,37.927709],[42.236748,37.927486],[42.236296,37.927271],[42.235838,37.927065],[42.235398,37.926878],[42.234952,37.926702],[42.2345,37.926539],[42.23404,37.926393],[42.233523,37.926256],[42.232997,37.926139],[42.232464,37.926037],[42.231926,37.925948],[42.231385,37.925869],[42.230842,37.925799],[42.230306,37.925739],[42.229749,37.925689],[42.229201,37.925653],[42.228643,37.925633],[42.228084,37.925625],[42.226965,37.925635],[42.225844,37.925662],[42.22536,37.925678],[42.219121,37.925879],[42.212951,37.926041],[42.211835,37.926082],[42.211281,37.92611],[42.210732,37.926148],[42.21019,37.926199],[42.209657,37.926269],[42.209137,37.926365],[42.208636,37.926498],[42.208159,37.926675],[42.207654,37.926912],[42.207255,37.927126],[42.206819,37.927383],[42.206389,37.927654],[42.205964,37.927934],[42.205588,37.928194],[42.204704,37.928803],[42.200104,37.932042],[42.199283,37.932641],[42.198881,37.932947],[42.198184,37.933511],[42.197848,37.933801],[42.197523,37.934099],[42.197198,37.934416],[42.196887,37.934741],[42.19659,37.935074],[42.196308,37.935416],[42.196052,37.935756],[42.195809,37.936103],[42.195579,37.936455],[42.195358,37.936813],[42.194944,37.937539],[42.194752,37.937909],[42.194572,37.938282],[42.194388,37.938704],[42.194217,37.939131],[42.193901,37.939994],[42.19302,37.942591],[42.192865,37.943009],[42.192701,37.943413],[42.192525,37.943799],[42.192329,37.944157],[42.192108,37.944476],[42.191849,37.94474],[42.191539,37.944929],[42.191162,37.945028],[42.190733,37.945051],[42.190267,37.945019],[42.189774,37.944947],[42.189261,37.944848],[42.188736,37.944731],[42.188067,37.94457],[42.186567,37.944208],[42.186016,37.944087],[42.185463,37.943978],[42.184906,37.943889],[42.184412,37.943831],[42.183916,37.943791],[42.183419,37.943767],[42.182921,37.94376],[42.182378,37.94377],[42.181835,37.943795],[42.181329,37.943828],[42.180205,37.943923],[42.178033,37.944141],[42.174233,37.944546],[42.173162,37.944678],[42.172623,37.944755],[42.172096,37.944842],[42.171578,37.944945],[42.171072,37.94507],[42.17062,37.945209],[42.170183,37.945372],[42.169764,37.945559],[42.169367,37.945773],[42.168987,37.946021],[42.168629,37.946292],[42.168287,37.946582],[42.167959,37.946886],[42.167635,37.947207],[42.167318,37.947535],[42.166381,37.948537],[42.165745,37.949199],[42.165415,37.949522],[42.165053,37.949859],[42.164681,37.950189],[42.164302,37.950513],[42.163527,37.951152],[42.162347,37.952095],[42.158771,37.954899],[42.156772,37.956446],[42.15518,37.957642],[42.147576,37.963295],[42.146371,37.964185],[42.14554,37.964787],[42.144699,37.965379],[42.144273,37.965669],[42.143841,37.965953],[42.143402,37.966228],[42.142973,37.96648],[42.142535,37.966721],[42.142087,37.96695],[42.141628,37.967163],[42.141191,37.967346],[42.140745,37.967516],[42.140293,37.967676],[42.139835,37.967826],[42.138906,37.968104],[42.138436,37.968231],[42.137961,37.968348],[42.137421,37.968467],[42.136876,37.968576],[42.135778,37.968774],[42.133017,37.969223],[42.130804,37.969571],[42.129697,37.969738],[42.128588,37.96989],[42.128032,37.969957],[42.127475,37.970012],[42.126929,37.970055],[42.126382,37.970087],[42.125286,37.970128],[42.124544,37.970141],[42.124189,37.970147],[42.12364,37.970149],[42.123093,37.970143],[42.122547,37.970128],[42.122115,37.970107],[42.121461,37.970058],[42.120969,37.970001],[42.120479,37.969928],[42.119993,37.96984],[42.119511,37.969738],[42.11899,37.969611],[42.118472,37.969471],[42.117958,37.969321],[42.117479,37.96917],[42.116426,37.96884],[42.113409,37.967849],[42.111881,37.968398],[42.10986,37.969125],[42.102802,37.971662],[42.092325,37.974579],[42.090554,37.975507],[42.088581,37.976164],[42.084261,37.978084],[42.080601,37.979344],[42.076581,37.981264],[42.073881,37.982344],[42.069861,37.984504],[42.066201,37.986244],[42.063561,37.987324],[42.060801,37.987744],[42.057801,37.988224],[42.051441,37.990084],[42.046881,37.992424],[42.041661,37.994764],[42.035541,37.995964],[42.027921,37.996684],[42.023781,37.997524],[42.019281,37.997944],[42.015981,37.998604],[42.013221,37.998604],[42.007821,37.998964],[42.000201,38.000224],[41.995101,38.001184],[41.989461,38.002084],[41.983521,38.002444],[41.975661,38.003104],[41.969361,38.003944],[41.961141,38.005204],[41.953347,38.006324]]]}},{"type":"Feature","properties":{"id":"TR-D-56-007","parent_id":"TR-P-56","region_id":"TR-R-GDA","level":"district","municipality_type":null,"municipality_type_label":null,"is_metropolitan_municipality":null,"name":"Tillo","name_ascii":"tillo","slug":"tillo-siirt"},"geometry":{"type":"Polygon","coordinates":[[[42.164216,37.902164],[42.162065,37.901805],[42.154356,37.899744],[42.151148,37.898911],[42.150347,37.899891],[42.146215,37.901769],[42.141106,37.903722],[42.138627,37.903797],[42.132466,37.904248],[42.128033,37.905751],[42.124652,37.908155],[42.121948,37.911461],[42.120295,37.915518],[42.117815,37.921077],[42.115036,37.925059],[42.111505,37.928816],[42.108199,37.932798],[42.10572,37.936329],[42.102639,37.938958],[42.097305,37.942339],[42.090521,37.946934],[42.087695,37.949303],[42.084874,37.949743],[42.083941,37.949888],[42.080326,37.950353],[42.079747,37.949972],[42.078962,37.949449],[42.076921,37.948051],[42.075374,37.946963],[42.074652,37.946429],[42.073961,37.945879],[42.073631,37.945595],[42.073315,37.945301],[42.073013,37.944993],[42.072726,37.944675],[42.072452,37.94435],[42.072188,37.944019],[42.071935,37.943682],[42.071693,37.94334],[42.071461,37.942994],[42.071243,37.942642],[42.071015,37.94224],[42.070802,37.941832],[42.070403,37.941006],[42.069655,37.939335],[42.068002,37.935565],[42.067644,37.934726],[42.067303,37.933883],[42.067013,37.933083],[42.066893,37.932704],[42.066784,37.932324],[42.066689,37.931941],[42.06661,37.931556],[42.066547,37.93117],[42.066497,37.930782],[42.066461,37.930392],[42.066437,37.929989],[42.066404,37.928776],[42.066359,37.927877],[42.066317,37.92743],[42.066254,37.926986],[42.066178,37.926601],[42.066081,37.92622],[42.065965,37.925843],[42.065828,37.92547],[42.065653,37.925068],[42.065454,37.924674],[42.065235,37.924286],[42.064994,37.923906],[42.064737,37.923542],[42.064462,37.923188],[42.064167,37.922843],[42.063852,37.922511],[42.063538,37.92221],[42.063205,37.921921],[42.062857,37.921644],[42.062494,37.921379],[42.06209,37.921111],[42.061672,37.920854],[42.061243,37.920607],[42.060354,37.920123],[42.05853,37.919159],[42.058084,37.918908],[42.057647,37.918648],[42.057207,37.918367],[42.056778,37.918076],[42.056357,37.917776],[42.055538,37.917156],[42.05514,37.916836],[42.05475,37.91651],[42.054069,37.9159],[42.053418,37.915269],[42.053103,37.914944],[42.052796,37.914614],[42.052499,37.914279],[42.052213,37.913939],[42.051941,37.913592],[42.051683,37.91324],[42.051441,37.912881],[42.051218,37.912515],[42.051006,37.912122],[42.050813,37.911723],[42.050633,37.911318],[42.050304,37.910499],[42.050003,37.909672],[42.04973,37.90884],[42.049608,37.908421],[42.0495,37.908],[42.049415,37.907615],[42.049344,37.907228],[42.049285,37.906839],[42.049239,37.90645],[42.049204,37.906054],[42.049182,37.905657],[42.049163,37.904862],[42.049173,37.904055],[42.0492,37.903247],[42.04934,37.900407],[42.049371,37.899584],[42.049375,37.898757],[42.049355,37.898345],[42.049312,37.897919],[42.049244,37.897497],[42.04915,37.897079],[42.049024,37.896668],[42.048871,37.896282],[42.048689,37.895902],[42.048485,37.895529],[42.048259,37.895161],[42.047997,37.894777],[42.04772,37.894397],[42.047135,37.893648],[42.046222,37.892537],[42.043146,37.888835],[42.042516,37.888103],[42.042193,37.887743],[42.04186,37.88739],[42.041513,37.887047],[42.041148,37.886718],[42.040786,37.886427],[42.040407,37.88615],[42.040016,37.885886],[42.039615,37.885632],[42.039206,37.88539],[42.038791,37.885162],[42.03837,37.88495],[42.037986,37.884778],[42.037513,37.884597],[42.037074,37.884473],[42.036626,37.884399],[42.036148,37.884385],[42.035662,37.884425],[42.035168,37.884504],[42.034671,37.884611],[42.03417,37.884738],[42.033162,37.88503],[42.030622,37.885814],[42.029595,37.886102],[42.029076,37.886231],[42.028552,37.886347],[42.028024,37.886452],[42.026962,37.886639],[42.025893,37.886808],[42.024822,37.886968],[42.019998,37.887661],[42.017851,37.887954],[42.016774,37.888084],[42.016214,37.888143],[42.015091,37.888247],[42.013405,37.888381],[42.011719,37.88849],[42.011089,37.888517],[42.0106,37.888531],[42.010043,37.888533],[42.00949,37.888516],[42.00894,37.888473],[42.008401,37.888399],[42.007865,37.8883],[42.007297,37.888173],[42.004364,37.892803],[42.004085,37.893249],[42.003463,37.894245],[41.999175,37.903182],[41.997382,37.906803],[41.994151,37.91394],[41.993325,37.917922],[41.993024,37.923932],[41.993099,37.926562],[41.994301,37.931445],[41.995804,37.94016],[41.995879,37.945795],[41.995053,37.953834],[41.994677,37.95744],[41.994301,37.960821],[41.99325,37.961873],[41.991672,37.96285],[41.988141,37.964127],[41.982656,37.965629],[41.976871,37.967132],[41.974016,37.967658],[41.971462,37.967658],[41.967104,37.968334],[41.963348,37.969236],[41.960944,37.970588],[41.959666,37.97179],[41.958539,37.973744],[41.957863,37.976523],[41.957037,37.979003],[41.955234,37.984788],[41.954482,37.995005],[41.954032,38.002068],[41.953431,38.005599],[41.953347,38.006324],[41.961141,38.005204],[41.969361,38.003944],[41.975661,38.003104],[41.983521,38.002444],[41.989461,38.002084],[41.995101,38.001184],[42.000201,38.000224],[42.007821,37.998964],[42.013221,37.998604],[42.015981,37.998604],[42.019281,37.997944],[42.023781,37.997524],[42.027921,37.996684],[42.035541,37.995964],[42.041661,37.994764],[42.046881,37.992424],[42.051441,37.990084],[42.057801,37.988224],[42.060801,37.987744],[42.063561,37.987324],[42.066201,37.986244],[42.069861,37.984504],[42.073881,37.982344],[42.076581,37.981264],[42.080601,37.979344],[42.084261,37.978084],[42.088581,37.976164],[42.090554,37.975507],[42.092325,37.974579],[42.102802,37.971662],[42.10986,37.969125],[42.111881,37.968398],[42.113409,37.967849],[42.116426,37.96884],[42.117479,37.96917],[42.117958,37.969321],[42.118472,37.969471],[42.11899,37.969611],[42.119511,37.969738],[42.119993,37.96984],[42.120479,37.969928],[42.120969,37.970001],[42.121461,37.970058],[42.122115,37.970107],[42.122547,37.970128],[42.123093,37.970143],[42.12364,37.970149],[42.124189,37.970147],[42.124544,37.970141],[42.125286,37.970128],[42.126382,37.970087],[42.126929,37.970055],[42.127475,37.970012],[42.128032,37.969957],[42.128588,37.96989],[42.129697,37.969738],[42.130804,37.969571],[42.133017,37.969223],[42.135778,37.968774],[42.136876,37.968576],[42.137421,37.968467],[42.137961,37.968348],[42.138436,37.968231],[42.138906,37.968104],[42.139835,37.967826],[42.140293,37.967676],[42.140745,37.967516],[42.141191,37.967346],[42.141628,37.967163],[42.142087,37.96695],[42.142535,37.966721],[42.142973,37.96648],[42.143402,37.966228],[42.143841,37.965953],[42.144273,37.965669],[42.144699,37.965379],[42.14554,37.964787],[42.146371,37.964185],[42.147576,37.963295],[42.15518,37.957642],[42.156772,37.956446],[42.158771,37.954899],[42.162347,37.952095],[42.163527,37.951152],[42.164302,37.950513],[42.164681,37.950189],[42.165053,37.949859],[42.165415,37.949522],[42.165745,37.949199],[42.166381,37.948537],[42.167318,37.947535],[42.167635,37.947207],[42.167959,37.946886],[42.168287,37.946582],[42.168629,37.946292],[42.168987,37.946021],[42.169367,37.945773],[42.169764,37.945559],[42.170183,37.945372],[42.17062,37.945209],[42.171072,37.94507],[42.171578,37.944945],[42.172096,37.944842],[42.172623,37.944755],[42.173162,37.944678],[42.174233,37.944546],[42.178033,37.944141],[42.180205,37.943923],[42.181329,37.943828],[42.181835,37.943795],[42.182378,37.94377],[42.182921,37.94376],[42.183419,37.943767],[42.183916,37.943791],[42.184412,37.943831],[42.184906,37.943889],[42.185463,37.943978],[42.186016,37.944087],[42.186567,37.944208],[42.188067,37.94457],[42.188736,37.944731],[42.189261,37.944848],[42.189774,37.944947],[42.190267,37.945019],[42.190733,37.945051],[42.191162,37.945028],[42.191539,37.944929],[42.191849,37.94474],[42.192108,37.944476],[42.192329,37.944157],[42.192525,37.943799],[42.192701,37.943413],[42.192865,37.943009],[42.19302,37.942591],[42.193901,37.939994],[42.194217,37.939131],[42.194388,37.938704],[42.194572,37.938282],[42.194752,37.937909],[42.194944,37.937539],[42.195358,37.936813],[42.195579,37.936455],[42.195809,37.936103],[42.196052,37.935756],[42.196308,37.935416],[42.19659,37.935074],[42.196887,37.934741],[42.197198,37.934416],[42.197523,37.934099],[42.197848,37.933801],[42.198184,37.933511],[42.198881,37.932947],[42.199283,37.932641],[42.200104,37.932042],[42.204704,37.928803],[42.205588,37.928194],[42.204045,37.926463],[42.20276,37.925021],[42.199085,37.921705],[42.195499,37.918388],[42.190838,37.915878],[42.187253,37.91543],[42.182144,37.914086],[42.178469,37.91292],[42.175242,37.911307],[42.171298,37.90799],[42.167712,37.904584],[42.164216,37.902164]]]}}]}