{"type":"FeatureCollection","province":"Uşak","province_id":"TR-P-64","features":[{"type":"Feature","properties":{"id":"TR-D-64-001","parent_id":"TR-P-64","region_id":"TR-R-EGE","level":"district","municipality_type":null,"municipality_type_label":null,"is_metropolitan_municipality":null,"name":"Banaz","name_ascii":"banaz","slug":"banaz-usak"},"geometry":{"type":"Polygon","coordinates":[[[29.861697,38.898531],[29.863476,38.897345],[29.866104,38.895723],[29.869124,38.894717],[29.872479,38.894717],[29.876673,38.895611],[29.878238,38.896282],[29.880363,38.897848],[29.882376,38.899917],[29.88383,38.90098],[29.886123,38.901874],[29.890149,38.903272],[29.896635,38.905453],[29.899878,38.906068],[29.903793,38.906068],[29.907651,38.906068],[29.911397,38.906292],[29.914026,38.906851],[29.917996,38.909088],[29.919617,38.90987],[29.921519,38.910597],[29.923923,38.911101],[29.926383,38.911268],[29.9289,38.910989],[29.93136,38.909647],[29.933317,38.907522],[29.934547,38.905397],[29.935889,38.903328],[29.937231,38.901315],[29.937958,38.898519],[29.937846,38.896786],[29.937846,38.89371],[29.937846,38.891194],[29.937567,38.889628],[29.938573,38.887671],[29.940978,38.884652],[29.942823,38.882694],[29.944109,38.881297],[29.947185,38.879004],[29.949813,38.87727],[29.951379,38.875649],[29.953727,38.8733],[29.954901,38.871846],[29.956523,38.869666],[29.957641,38.866422],[29.957977,38.864465],[29.958872,38.862173],[29.959375,38.859153],[29.959543,38.855854],[29.957921,38.849983],[29.95753,38.84741],[29.956691,38.844279],[29.95697,38.842713],[29.958536,38.840421],[29.96122,38.838575],[29.966532,38.835835],[29.975815,38.833767],[29.982077,38.832313],[29.986103,38.831474],[29.98957,38.830076],[29.992534,38.828958],[29.995274,38.827951],[30.000027,38.826329],[30.002879,38.825435],[30.006582,38.824112],[30.010449,38.819203],[30.013159,38.813104],[30.013328,38.807091],[30.013348,38.806362],[30.013498,38.800908],[30.013244,38.795233],[30.01282,38.789388],[30.012143,38.783544],[30.011041,38.774905],[30.009771,38.770077],[30.007785,38.763644],[30.007017,38.763198],[30.003046,38.760906],[30.001369,38.759116],[29.998293,38.755538],[29.994883,38.75263],[29.991751,38.750337],[29.988061,38.748548],[29.98437,38.747038],[29.980344,38.745584],[29.976263,38.744638],[29.973354,38.743963],[29.969775,38.743515],[29.963848,38.741391],[29.960996,38.739993],[29.957697,38.738259],[29.954957,38.736414],[29.952721,38.734848],[29.950875,38.733171],[29.949813,38.732388],[29.947632,38.73194],[29.945172,38.731549],[29.94204,38.730095],[29.939748,38.728474],[29.936337,38.727132],[29.932982,38.724056],[29.930465,38.721987],[29.927166,38.720142],[29.923252,38.718688],[29.920512,38.718073],[29.91643,38.717402],[29.913131,38.715557],[29.911397,38.714662],[29.908322,38.712649],[29.906812,38.710244],[29.905023,38.707728],[29.902786,38.702807],[29.900438,38.700403],[29.89904,38.696768],[29.898425,38.695091],[29.897921,38.692295],[29.897027,38.689108],[29.895349,38.684243],[29.894128,38.679322],[29.894203,38.677383],[29.895545,38.673134],[29.89711,38.670599],[29.898005,38.664112],[29.898527,38.660459],[29.900391,38.653674],[29.900391,38.652258],[29.900689,38.649723],[29.901509,38.646442],[29.901808,38.643833],[29.901808,38.640702],[29.902031,38.638241],[29.902851,38.632575],[29.903,38.628027],[29.90218,38.623852],[29.900466,38.621764],[29.898154,38.619676],[29.892935,38.615725],[29.890549,38.613414],[29.887791,38.611624],[29.884287,38.609388],[29.880261,38.604616],[29.875936,38.601112],[29.87191,38.599322],[29.868481,38.596937],[29.863933,38.593805],[29.860652,38.592612],[29.855657,38.591569],[29.851333,38.590227],[29.846934,38.588884],[29.844995,38.588139],[29.842982,38.586797],[29.841118,38.584411],[29.838509,38.581652],[29.83739,38.580012],[29.836496,38.578447],[29.834557,38.573899],[29.830904,38.567934],[29.827251,38.564132],[29.823896,38.56018],[29.823133,38.559514],[29.817564,38.562195],[29.813837,38.563417],[29.810843,38.564395],[29.808583,38.566167],[29.80064,38.570138],[29.793553,38.574537],[29.79001,38.577408],[29.787138,38.580463],[29.784205,38.58309],[29.780478,38.584801],[29.774552,38.587917],[29.767709,38.59085],[29.765021,38.592866],[29.763433,38.595615],[29.761783,38.600197],[29.758423,38.60594],[29.757384,38.609301],[29.756773,38.611134],[29.754207,38.613272],[29.751824,38.614555],[29.748403,38.615105],[29.741499,38.615594],[29.73765,38.615777],[29.732029,38.617732],[29.729157,38.620237],[29.725308,38.622864],[29.720726,38.625491],[29.716572,38.627691],[29.710279,38.63044],[29.705696,38.631051],[29.702397,38.631662],[29.696776,38.633251],[29.690911,38.633678],[29.67136,38.633495],[29.659752,38.632212],[29.643928,38.631784],[29.630426,38.631357],[29.623644,38.630012],[29.618145,38.629218],[29.613991,38.630135],[29.609531,38.630929],[29.607651,38.631365],[29.60961,38.63643],[29.610472,38.64048],[29.611161,38.64272],[29.611936,38.647201],[29.612281,38.65013],[29.614317,38.660449],[29.615092,38.664197],[29.61548,38.669755],[29.61436,38.685029],[29.612227,38.690005],[29.609642,38.703706],[29.60919,38.707583],[29.609513,38.710879],[29.609642,38.719927],[29.610095,38.723029],[29.610935,38.725291],[29.613003,38.728716],[29.615717,38.734726],[29.618625,38.738604],[29.621404,38.742417],[29.623149,38.744485],[29.625023,38.749461],[29.626316,38.755924],[29.627802,38.762128],[29.629353,38.767556],[29.629482,38.770658],[29.628707,38.77376],[29.625411,38.778413],[29.623084,38.780675],[29.620241,38.782679],[29.616686,38.784294],[29.612744,38.786298],[29.608091,38.789206],[29.602469,38.792373],[29.597299,38.795281],[29.591805,38.797349],[29.58502,38.799029],[29.578557,38.800709],[29.566537,38.802519],[29.562724,38.803812],[29.556455,38.804458],[29.552448,38.804393],[29.5434,38.80756],[29.536744,38.809693],[29.532866,38.811179],[29.526856,38.814281],[29.52356,38.816284],[29.521169,38.818546],[29.518455,38.821196],[29.514965,38.824169],[29.512638,38.827271],[29.511734,38.828563],[29.506563,38.83425],[29.504043,38.83871],[29.502169,38.841618],[29.500101,38.845302],[29.497904,38.846917],[29.48989,38.851118],[29.486335,38.85254],[29.482522,38.856353],[29.479162,38.859778],[29.476718,38.864073],[29.477532,38.864345],[29.481695,38.865625],[29.484576,38.867354],[29.485729,38.867739],[29.487138,38.868059],[29.489251,38.868379],[29.490659,38.868827],[29.494053,38.870748],[29.495846,38.872605],[29.497767,38.87427],[29.499432,38.875807],[29.501033,38.87728],[29.502826,38.878112],[29.50558,38.879265],[29.50686,38.879905],[29.508205,38.881058],[29.509614,38.882659],[29.510638,38.883235],[29.513904,38.885604],[29.514993,38.886693],[29.516017,38.888038],[29.517362,38.889767],[29.518771,38.891496],[29.521012,38.893032],[29.524214,38.893481],[29.528248,38.893417],[29.52864,38.893417],[29.529033,38.893417],[29.53194,38.893654],[29.538091,38.894549],[29.542229,38.895891],[29.546926,38.897177],[29.551959,38.898351],[29.55783,38.898463],[29.562807,38.897289],[29.567168,38.896562],[29.573599,38.896282],[29.581371,38.897065],[29.584503,38.898128],[29.588697,38.899582],[29.59166,38.900532],[29.59345,38.902713],[29.594512,38.904502],[29.597196,38.908473],[29.59988,38.913337],[29.602956,38.918034],[29.605975,38.921334],[29.607261,38.922955],[29.609498,38.926254],[29.610113,38.927988],[29.611287,38.931007],[29.612909,38.933468],[29.614642,38.935425],[29.616991,38.937102],[29.619955,38.938612],[29.627224,38.940122],[29.63097,38.941184],[29.634158,38.942303],[29.638352,38.943477],[29.641371,38.945322],[29.644335,38.947615],[29.646236,38.949069],[29.648025,38.950411],[29.650094,38.951361],[29.652051,38.951585],[29.658985,38.951641],[29.660942,38.951585],[29.665472,38.950131],[29.669386,38.948789],[29.673132,38.948565],[29.676376,38.947839],[29.680066,38.947],[29.685266,38.945881],[29.690131,38.944372],[29.694884,38.941911],[29.698128,38.94001],[29.70316,38.937438],[29.70741,38.935704],[29.709591,38.934754],[29.718705,38.932741],[29.725751,38.932238],[29.727932,38.93207],[29.730448,38.931511],[29.733412,38.930504],[29.736599,38.929498],[29.742247,38.927261],[29.749572,38.924968],[29.752591,38.92385],[29.756953,38.92385],[29.759357,38.924297],[29.760532,38.924409],[29.763383,38.923738],[29.767298,38.921949],[29.77138,38.920215],[29.776412,38.918594],[29.78329,38.915854],[29.786421,38.914959],[29.78905,38.914512],[29.793635,38.914008],[29.796375,38.913393],[29.799506,38.912275],[29.80398,38.911157],[29.805657,38.910374],[29.811473,38.909982],[29.816673,38.909591],[29.822432,38.90892],[29.827018,38.907522],[29.829702,38.906348],[29.832665,38.905677],[29.835685,38.906068],[29.838816,38.906683],[29.842842,38.906907],[29.845862,38.906739],[29.849553,38.9059],[29.853299,38.904223],[29.856207,38.902601],[29.859562,38.900309],[29.860792,38.899134],[29.861697,38.898531]]]}},{"type":"Feature","properties":{"id":"TR-D-64-002","parent_id":"TR-P-64","region_id":"TR-R-EGE","level":"district","municipality_type":null,"municipality_type_label":null,"is_metropolitan_municipality":null,"name":"Eşme","name_ascii":"esme","slug":"esme-usak"},"geometry":{"type":"Polygon","coordinates":[[[28.776957,38.360271],[28.776797,38.360765],[28.776622,38.362574],[28.776622,38.364382],[28.776622,38.365238],[28.776622,38.365782],[28.77773,38.367299],[28.779305,38.368757],[28.78088,38.370274],[28.781114,38.371091],[28.781055,38.372024],[28.780705,38.373307],[28.780005,38.375933],[28.778722,38.378616],[28.777263,38.381416],[28.776155,38.384216],[28.77633,38.385616],[28.77598,38.38865],[28.776505,38.39075],[28.777147,38.391916],[28.777322,38.392908],[28.777555,38.394133],[28.77808,38.396642],[28.778139,38.397633],[28.778897,38.398275],[28.779714,38.398917],[28.779714,38.399733],[28.779889,38.400958],[28.779947,38.401717],[28.780472,38.402242],[28.780764,38.402388],[28.781055,38.402533],[28.781522,38.403525],[28.782864,38.405684],[28.783389,38.407025],[28.784555,38.408367],[28.787355,38.411167],[28.788989,38.412334],[28.790972,38.413617],[28.793131,38.414842],[28.795989,38.416359],[28.798381,38.417409],[28.801123,38.419276],[28.804448,38.422484],[28.806956,38.424526],[28.808823,38.426334],[28.810223,38.427384],[28.810515,38.428318],[28.81034,38.430243],[28.80999,38.432285],[28.81034,38.433976],[28.811215,38.436485],[28.816815,38.445235],[28.818614,38.450497],[28.821097,38.455933],[28.822998,38.463552],[28.823232,38.464719],[28.824107,38.466877],[28.824398,38.468861],[28.824457,38.470436],[28.823873,38.471661],[28.822823,38.472594],[28.821307,38.474403],[28.819907,38.476853],[28.81909,38.478369],[28.817457,38.481578],[28.817223,38.483153],[28.816757,38.484728],[28.816407,38.485895],[28.815531,38.487528],[28.814481,38.489045],[28.813956,38.490562],[28.811856,38.49482],[28.810806,38.49762],[28.810865,38.499545],[28.811798,38.502695],[28.812498,38.504445],[28.813198,38.506195],[28.814423,38.508179],[28.815706,38.510979],[28.816698,38.514712],[28.817748,38.517512],[28.81874,38.520021],[28.819207,38.521888],[28.819382,38.523521],[28.819382,38.525971],[28.818973,38.528188],[28.819032,38.529763],[28.819615,38.532388],[28.819557,38.534313],[28.818915,38.535655],[28.81804,38.537288],[28.816757,38.538863],[28.813781,38.541138],[28.812731,38.541722],[28.811506,38.542013],[28.809756,38.543238],[28.808706,38.543997],[28.808123,38.544872],[28.804564,38.54598],[28.801473,38.547614],[28.801123,38.549014],[28.800131,38.550764],[28.799956,38.552105],[28.800248,38.553447],[28.802406,38.555722],[28.803748,38.557297],[28.804681,38.559397],[28.805031,38.560856],[28.805556,38.562372],[28.806081,38.563656],[28.807741,38.566875],[28.810426,38.570701],[28.813245,38.573856],[28.816115,38.576431],[28.816753,38.576789],[28.818996,38.576095],[28.820394,38.575523],[28.822236,38.575396],[28.826175,38.575142],[28.829287,38.573808],[28.83132,38.57222],[28.83348,38.570759],[28.835513,38.569425],[28.837927,38.568408],[28.839197,38.568091],[28.841802,38.567329],[28.844914,38.566566],[28.850886,38.564533],[28.85349,38.563835],[28.857683,38.563581],[28.861875,38.563708],[28.864226,38.564216],[28.867021,38.565423],[28.86791,38.565931],[28.869625,38.566947],[28.870769,38.568281],[28.872548,38.569742],[28.874326,38.57114],[28.875088,38.572538],[28.875216,38.574253],[28.875851,38.576476],[28.876994,38.577683],[28.877757,38.57889],[28.879789,38.580796],[28.88214,38.582003],[28.883664,38.582511],[28.887285,38.583527],[28.889254,38.58448],[28.892748,38.587085],[28.895734,38.58899],[28.899418,38.591531],[28.900308,38.592167],[28.903982,38.594435],[28.905813,38.596588],[28.907428,38.599281],[28.907967,38.602188],[28.908402,38.606014],[28.908206,38.606667],[28.906909,38.609771],[28.907058,38.610181],[28.907172,38.610565],[28.907253,38.610885],[28.907629,38.612538],[28.90773,38.612926],[28.907847,38.613306],[28.907986,38.613675],[28.908155,38.614026],[28.908386,38.614391],[28.908664,38.614723],[28.908987,38.615015],[28.909361,38.615255],[28.909654,38.615381],[28.91016,38.615542],[28.910603,38.615632],[28.911067,38.615697],[28.911542,38.615741],[28.912027,38.615771],[28.9131,38.615799],[28.913498,38.615801],[28.914525,38.615794],[28.916039,38.615759],[28.917551,38.615699],[28.919056,38.615604],[28.920057,38.615518],[28.921149,38.615403],[28.921552,38.615355],[28.922544,38.615219],[28.923531,38.615059],[28.924023,38.614969],[28.925024,38.614761],[28.925974,38.614531],[28.927061,38.614231],[28.927905,38.613978],[28.928897,38.61367],[28.92983,38.61338],[28.930315,38.61324],[28.930804,38.613112],[28.931344,38.61299],[28.931888,38.612887],[28.932433,38.612803],[28.932977,38.612742],[28.933519,38.612706],[28.934055,38.612705],[28.934583,38.612748],[28.935102,38.612845],[28.935637,38.612993],[28.936116,38.613157],[28.936614,38.613351],[28.937108,38.613562],[28.937597,38.613785],[28.93856,38.614256],[28.93903,38.614503],[28.939486,38.614757],[28.939821,38.61496],[28.940338,38.615302],[28.940716,38.615601],[28.941044,38.615926],[28.941269,38.616218],[28.941458,38.616529],[28.941618,38.616854],[28.941755,38.617191],[28.941902,38.617635],[28.941992,38.617945],[28.942186,38.618779],[28.942682,38.62137],[28.942732,38.621609],[28.944597,38.622139],[28.946026,38.622964],[28.947112,38.623726],[28.947327,38.624695],[28.947435,38.625234],[28.948404,38.626041],[28.954273,38.627065],[28.957181,38.626688],[28.961919,38.625395],[28.96515,38.624857],[28.967519,38.625126],[28.969457,38.626957],[28.971503,38.628626],[28.973657,38.63008],[28.975757,38.631372],[28.978234,38.63358],[28.980765,38.637295],[28.983134,38.639933],[28.984318,38.64058],[28.986849,38.640687],[28.99078,38.640687],[28.993149,38.640956],[28.996595,38.64128],[28.999287,38.641549],[29.002626,38.642626],[29.006772,38.644079],[29.009141,38.644941],[29.011995,38.645049],[29.015441,38.644833],[29.018025,38.643864],[29.019587,38.642895],[29.021956,38.640687],[29.023464,38.639449],[29.024756,38.637887],[29.024864,38.636864],[29.02524,38.63541],[29.025456,38.633903],[29.026048,38.631426],[29.026371,38.630026],[29.031163,38.623834],[29.036386,38.617965],[29.038486,38.616242],[29.044463,38.609619],[29.046778,38.605904],[29.048501,38.602565],[29.050278,38.601004],[29.054424,38.599981],[29.05787,38.599658],[29.067724,38.598634],[29.07397,38.598311],[29.078385,38.597827],[29.081454,38.596911],[29.087377,38.595458],[29.089908,38.594435],[29.095616,38.590396],[29.0989,38.587758],[29.101485,38.586304],[29.105577,38.585766],[29.107677,38.585873],[29.110423,38.585389],[29.114461,38.584743],[29.118069,38.584904],[29.120546,38.585119],[29.128569,38.584204],[29.133872,38.585263],[29.137175,38.585981],[29.144282,38.586196],[29.152826,38.586125],[29.164169,38.586555],[29.172784,38.586699],[29.173338,38.586683],[29.173459,38.585748],[29.174079,38.583189],[29.175359,38.580436],[29.177026,38.578072],[29.178731,38.575048],[29.178848,38.57214],[29.178576,38.569504],[29.178654,38.565743],[29.178538,38.561983],[29.177995,38.560083],[29.176476,38.559032],[29.174133,38.558136],[29.172134,38.556413],[29.170274,38.555104],[29.167448,38.554001],[29.165449,38.553036],[29.161796,38.551658],[29.159522,38.551244],[29.15711,38.550968],[29.154697,38.54959],[29.15325,38.548349],[29.152009,38.546695],[29.149942,38.545661],[29.147323,38.54511],[29.144566,38.545317],[29.142223,38.545317],[29.140431,38.545179],[29.138708,38.544972],[29.136985,38.544696],[29.134779,38.543938],[29.133194,38.542973],[29.131333,38.541388],[29.129403,38.538907],[29.127405,38.535875],[29.124786,38.530912],[29.124441,38.529327],[29.124648,38.52464],[29.12513,38.519678],[29.125544,38.516025],[29.127749,38.512579],[29.12899,38.511063],[29.131953,38.510512],[29.135468,38.510374],[29.142429,38.508858],[29.145944,38.508582],[29.150286,38.508582],[29.154628,38.508099],[29.161176,38.50617],[29.163106,38.505205],[29.165036,38.501828],[29.166276,38.499002],[29.168068,38.495487],[29.168482,38.492316],[29.167655,38.488802],[29.165932,38.485907],[29.161934,38.482805],[29.158419,38.481082],[29.154422,38.479428],[29.150424,38.478601],[29.146909,38.478188],[29.145117,38.478188],[29.140844,38.478188],[29.138501,38.47743],[29.133814,38.474604],[29.130506,38.473019],[29.127267,38.471158],[29.122787,38.469917],[29.120099,38.469228],[29.114448,38.467298],[29.111966,38.465989],[29.108727,38.464059],[29.106659,38.461302],[29.106246,38.457994],[29.106659,38.454341],[29.107211,38.451446],[29.108314,38.449034],[29.109072,38.445726],[29.109072,38.444761],[29.10852,38.441453],[29.106453,38.437938],[29.105695,38.434423],[29.106039,38.428702],[29.1079,38.42567],[29.110933,38.423878],[29.114723,38.422017],[29.117135,38.420639],[29.117687,38.417951],[29.11941,38.416365],[29.125613,38.406648],[29.12644,38.405958],[29.128645,38.40458],[29.129886,38.403339],[29.130575,38.402719],[29.13216,38.401203],[29.133263,38.399618],[29.134366,38.398377],[29.135193,38.397412],[29.135813,38.396447],[29.136571,38.395413],[29.137191,38.394793],[29.13795,38.394173],[29.138087,38.393139],[29.138639,38.392381],[29.139742,38.391623],[29.140293,38.390589],[29.141258,38.38928],[29.141671,38.388659],[29.142705,38.388039],[29.143739,38.387419],[29.144428,38.386661],[29.144704,38.385765],[29.14498,38.384869],[29.14498,38.384042],[29.145048,38.383283],[29.145324,38.382043],[29.145807,38.380527],[29.146082,38.379906],[29.146289,38.37777],[29.14613,38.377293],[29.14486,38.37152],[29.142605,38.369734],[29.141177,38.368603],[29.137595,38.365747],[29.137235,38.365459],[29.136442,38.364836],[29.135641,38.364224],[29.135234,38.363926],[29.134731,38.363577],[29.134398,38.363358],[29.133963,38.363097],[29.13351,38.362858],[29.133083,38.362665],[29.132643,38.362491],[29.132192,38.362329],[29.130828,38.361875],[29.130383,38.361713],[29.12995,38.361535],[29.1295,38.361314],[29.129069,38.361069],[29.128653,38.360805],[29.128251,38.360524],[29.127945,38.360292],[29.124994,38.356974],[29.124104,38.355974],[29.124134,38.355658],[29.124184,38.355305],[29.124266,38.35486],[29.124387,38.354352],[29.124554,38.353809],[29.124735,38.353344],[29.124947,38.35289],[29.125181,38.352459],[29.125427,38.352066],[29.125675,38.351724],[29.125923,38.35142],[29.126183,38.351121],[29.126396,38.350888],[29.127016,38.350252],[29.128088,38.349256],[29.128441,38.348922],[29.128793,38.348571],[29.129133,38.348213],[29.129458,38.347848],[29.129765,38.347473],[29.130049,38.347093],[29.130318,38.346707],[29.130575,38.346314],[29.130889,38.34581],[29.13107,38.345518],[29.132985,38.342284],[29.133694,38.341065],[29.134091,38.340344],[29.134346,38.339846],[29.13453,38.339441],[29.134663,38.339101],[29.134769,38.338763],[29.134841,38.338429],[29.134871,38.338102],[29.134845,38.337783],[29.134728,38.33742],[29.13453,38.337076],[29.134261,38.336757],[29.133927,38.33647],[29.13357,38.336242],[29.133176,38.336037],[29.132758,38.335846],[29.131886,38.335472],[29.131453,38.335276],[29.130964,38.335023],[29.130645,38.334834],[29.130267,38.334557],[29.129936,38.334251],[29.129655,38.33392],[29.129436,38.333566],[29.129296,38.333223],[29.129209,38.332865],[29.129165,38.332498],[29.129161,38.332124],[29.129196,38.331748],[29.129268,38.331376],[29.129373,38.331006],[29.129506,38.33064],[29.129667,38.330278],[29.129855,38.329923],[29.130059,38.329596],[29.130285,38.329277],[29.130531,38.328965],[29.130794,38.328661],[29.131075,38.328365],[29.131501,38.327961],[29.131797,38.327698],[29.132177,38.327375],[29.133337,38.326419],[29.133714,38.326097],[29.134078,38.325769],[29.13443,38.325424],[29.134755,38.32507],[29.135046,38.324704],[29.135293,38.324324],[29.135457,38.32399],[29.135584,38.323646],[29.135676,38.323295],[29.135733,38.322938],[29.135755,38.322578],[29.135737,38.322202],[29.135687,38.321825],[29.135612,38.321446],[29.13552,38.321067],[29.135414,38.320687],[29.134825,38.318782],[29.134619,38.318022],[29.134529,38.31764],[29.134452,38.317257],[29.13439,38.316873],[29.134339,38.316433],[29.134308,38.315991],[29.13429,38.315548],[29.134285,38.315087],[29.134292,38.314796],[29.134548,38.310891],[29.134992,38.310394],[29.135383,38.30994],[29.135746,38.30949],[29.136117,38.308996],[29.136468,38.308477],[29.136772,38.307953],[29.136978,38.307508],[29.137124,38.307093],[29.137218,38.306712],[29.137292,38.306329],[29.137347,38.305943],[29.137385,38.305546],[29.137481,38.303952],[29.137516,38.303556],[29.137562,38.303163],[29.137624,38.302773],[29.137705,38.302388],[29.13781,38.302008],[29.137939,38.301649],[29.138096,38.301297],[29.138279,38.300955],[29.138489,38.300623],[29.138729,38.300306],[29.139046,38.299957],[29.139397,38.299625],[29.139624,38.299431],[29.137949,38.293568],[29.138837,38.291231],[29.139466,38.290378],[29.142016,38.285691],[29.142705,38.283348],[29.142981,38.280729],[29.142567,38.275904],[29.142567,38.272872],[29.143739,38.26791],[29.144911,38.264601],[29.145186,38.259846],[29.146013,38.256951],[29.146082,38.252058],[29.145944,38.249439],[29.145531,38.242753],[29.145393,38.238411],[29.145807,38.231864],[29.145627,38.224972],[29.143912,38.22445],[29.142794,38.224003],[29.141303,38.224301],[29.139662,38.224749],[29.13929,38.224786],[29.138917,38.224823],[29.137649,38.224525],[29.136456,38.224674],[29.134965,38.226091],[29.133772,38.226836],[29.131834,38.227135],[29.130343,38.227433],[29.129373,38.227955],[29.128181,38.228402],[29.128106,38.229446],[29.127957,38.230191],[29.12736,38.231086],[29.126093,38.232055],[29.1249,38.233248],[29.123931,38.233472],[29.122887,38.233696],[29.12147,38.233472],[29.119756,38.233099],[29.119159,38.233546],[29.11901,38.23459],[29.118712,38.235559],[29.118115,38.237722],[29.118041,38.238542],[29.118339,38.239586],[29.118265,38.240257],[29.117743,38.240778],[29.115953,38.240928],[29.115282,38.239958],[29.114388,38.239735],[29.112375,38.240033],[29.110883,38.240555],[29.108945,38.240778],[29.106857,38.24048],[29.105068,38.240853],[29.103577,38.241151],[29.101787,38.241151],[29.099849,38.241449],[29.098283,38.242195],[29.096718,38.242866],[29.095301,38.243015],[29.093139,38.242941],[29.091349,38.242941],[29.09038,38.243239],[29.089486,38.243612],[29.088516,38.244506],[29.087249,38.245326],[29.082104,38.244954],[29.079644,38.244432],[29.077631,38.24391],[29.074118,38.243071],[29.070539,38.242344],[29.066009,38.240107],[29.062878,38.237703],[29.059859,38.23569],[29.054826,38.232894],[29.049961,38.230098],[29.046997,38.229036],[29.036709,38.227638],[29.028992,38.227023],[29.026755,38.227358],[29.024574,38.227135],[29.022338,38.228085],[29.018927,38.23049],[29.016522,38.232838],[29.01395,38.234963],[29.010986,38.236752],[29.00752,38.237759],[29.003494,38.237703],[29.00053,38.236808],[28.997119,38.236137],[28.992422,38.235634],[28.987892,38.234739],[28.981126,38.234068],[28.978219,38.232838],[28.973745,38.231832],[28.970726,38.231217],[28.960661,38.231943],[28.955293,38.231608],[28.951099,38.232838],[28.945619,38.234627],[28.938238,38.236081],[28.934379,38.236808],[28.929626,38.238709],[28.92683,38.240331],[28.923811,38.241841],[28.920903,38.242624],[28.916653,38.243239],[28.912907,38.242736],[28.909496,38.242344],[28.904552,38.241785],[28.90052,38.241456],[28.899688,38.241443],[28.895254,38.241373],[28.890975,38.241456],[28.888753,38.241538],[28.883158,38.243266],[28.879867,38.245241],[28.877481,38.246557],[28.875506,38.247051],[28.874025,38.24738],[28.870693,38.246454],[28.870658,38.24707],[28.870717,38.24987],[28.86955,38.251503],[28.867917,38.252145],[28.863425,38.252845],[28.860916,38.25407],[28.859575,38.256462],[28.854733,38.261537],[28.851933,38.264279],[28.848491,38.267954],[28.845691,38.270287],[28.842832,38.272562],[28.839449,38.274896],[28.837232,38.276354],[28.833907,38.276879],[28.831632,38.277696],[28.829649,38.279038],[28.828365,38.281196],[28.827724,38.282479],[28.827082,38.284463],[28.82714,38.286913],[28.827724,38.28948],[28.827782,38.293038],[28.827957,38.296363],[28.828074,38.300972],[28.828132,38.30383],[28.827957,38.306338],[28.827082,38.308964],[28.825799,38.310655],[28.824107,38.312405],[28.821015,38.314739],[28.817865,38.316547],[28.814831,38.318472],[28.812615,38.320281],[28.809056,38.320747],[28.805614,38.320747],[28.802639,38.320572],[28.800656,38.321797],[28.799256,38.323547],[28.798673,38.324831],[28.797623,38.326814],[28.797214,38.328448],[28.796747,38.331831],[28.796281,38.334048],[28.795464,38.337256],[28.795114,38.34029],[28.794822,38.341923],[28.794589,38.342798],[28.793889,38.343556],[28.792372,38.345306],[28.789281,38.34659],[28.786422,38.348107],[28.782689,38.350907],[28.780122,38.35394],[28.778022,38.356974],[28.776957,38.360271]]]}},{"type":"Feature","properties":{"id":"TR-D-64-003","parent_id":"TR-P-64","region_id":"TR-R-EGE","level":"district","municipality_type":null,"municipality_type_label":null,"is_metropolitan_municipality":null,"name":"Karahallı","name_ascii":"karahalli","slug":"karahalli-usak"},"geometry":{"type":"Polygon","coordinates":[[[29.484356,38.472476],[29.486834,38.472476],[29.48757,38.472413],[29.493134,38.471938],[29.501803,38.470215],[29.511602,38.468222],[29.517579,38.466822],[29.520164,38.465261],[29.522856,38.463161],[29.527648,38.459553],[29.532602,38.455246],[29.533786,38.453307],[29.539709,38.447869],[29.549132,38.441246],[29.551878,38.439954],[29.557209,38.436454],[29.56927,38.429508],[29.574978,38.425847],[29.581224,38.420731],[29.586931,38.417124],[29.594523,38.412762],[29.601254,38.411309],[29.608254,38.410501],[29.612669,38.409155],[29.613649,38.408901],[29.612676,38.407264],[29.612154,38.403536],[29.611856,38.400703],[29.614093,38.397199],[29.614913,38.395559],[29.616702,38.393769],[29.619647,38.389609],[29.623966,38.382917],[29.625322,38.377242],[29.626846,38.370721],[29.628184,38.365587],[29.627886,38.361411],[29.628408,38.350824],[29.62796,38.348513],[29.627662,38.338001],[29.627587,38.333005],[29.62796,38.329277],[29.628631,38.325028],[29.630421,38.320405],[29.631763,38.316379],[29.632508,38.311309],[29.63303,38.309073],[29.633701,38.305643],[29.63549,38.301766],[29.636683,38.298858],[29.636832,38.296323],[29.637802,38.294832],[29.640038,38.291253],[29.642499,38.287153],[29.643095,38.284916],[29.642872,38.283872],[29.639815,38.28171],[29.635789,38.278504],[29.63139,38.274627],[29.629228,38.272018],[29.625326,38.269035],[29.608998,38.260089],[29.60184,38.256286],[29.590731,38.252037],[29.589422,38.251212],[29.584692,38.248234],[29.577237,38.243761],[29.572912,38.243164],[29.571645,38.24391],[29.569781,38.246967],[29.569259,38.248756],[29.56665,38.253155],[29.564935,38.258299],[29.559194,38.266873],[29.553751,38.270452],[29.547787,38.273136],[29.538542,38.275298],[29.52624,38.277386],[29.516473,38.277237],[29.508197,38.276417],[29.501636,38.276193],[29.49679,38.276044],[29.492987,38.274702],[29.488141,38.272689],[29.485233,38.271869],[29.481058,38.271943],[29.476734,38.272987],[29.47241,38.273285],[29.469651,38.273882],[29.463761,38.275298],[29.459362,38.27746],[29.456156,38.279324],[29.454516,38.280666],[29.449595,38.285885],[29.447955,38.287749],[29.446315,38.290061],[29.445047,38.291477],[29.443183,38.292745],[29.440276,38.293788],[29.434833,38.295354],[29.432895,38.295876],[29.430956,38.297889],[29.428645,38.300349],[29.427676,38.302586],[29.426706,38.305196],[29.424768,38.308103],[29.422606,38.310564],[29.418729,38.314068],[29.41679,38.316603],[29.415299,38.318392],[29.412466,38.320032],[29.414336,38.321354],[29.41734,38.322889],[29.419943,38.324557],[29.420878,38.32676],[29.421478,38.331566],[29.422613,38.339843],[29.424549,38.348454],[29.42822,38.356664],[29.430756,38.360001],[29.431557,38.363405],[29.43336,38.372617],[29.434428,38.377222],[29.434761,38.381427],[29.435763,38.388236],[29.435362,38.39144],[29.434695,38.394644],[29.434294,38.399183],[29.434027,38.404522],[29.435028,38.415269],[29.436363,38.422678],[29.438366,38.426416],[29.443238,38.431956],[29.451115,38.43783],[29.454519,38.444705],[29.460994,38.450312],[29.466934,38.453449],[29.471006,38.458923],[29.474944,38.463662],[29.480484,38.468067],[29.484356,38.472476]]]}},{"type":"Feature","properties":{"id":"TR-D-64-004","parent_id":"TR-P-64","region_id":"TR-R-EGE","level":"district","municipality_type":null,"municipality_type_label":null,"is_metropolitan_municipality":null,"name":"Sivaslı","name_ascii":"sivasli","slug":"sivasli-usak"},"geometry":{"type":"Polygon","coordinates":[[[29.613649,38.408901],[29.612669,38.409155],[29.608254,38.410501],[29.601254,38.411309],[29.594523,38.412762],[29.586931,38.417124],[29.581224,38.420731],[29.574978,38.425847],[29.56927,38.429508],[29.557209,38.436454],[29.551878,38.439954],[29.549132,38.441246],[29.539709,38.447869],[29.533786,38.453307],[29.532602,38.455246],[29.527648,38.459553],[29.522856,38.463161],[29.520164,38.465261],[29.517579,38.466822],[29.511602,38.468222],[29.501803,38.470215],[29.493134,38.471938],[29.48757,38.472413],[29.488026,38.484687],[29.487768,38.488048],[29.486562,38.498561],[29.486475,38.501232],[29.48458,38.507436],[29.483201,38.513812],[29.48389,38.520706],[29.484235,38.527341],[29.485614,38.533114],[29.487337,38.541817],[29.489061,38.545264],[29.4938,38.55052],[29.499228,38.554398],[29.505346,38.559568],[29.510344,38.565341],[29.523872,38.571631],[29.527492,38.57301],[29.534213,38.57706],[29.542399,38.584298],[29.549895,38.592915],[29.556875,38.599119],[29.561442,38.601532],[29.564716,38.603341],[29.57273,38.605926],[29.583673,38.609028],[29.591773,38.614198],[29.597115,38.6173],[29.601252,38.620661],[29.606249,38.62721],[29.607111,38.629967],[29.607651,38.631365],[29.609531,38.630929],[29.613991,38.630135],[29.618145,38.629218],[29.623644,38.630012],[29.630426,38.631357],[29.643928,38.631784],[29.659752,38.632212],[29.67136,38.633495],[29.690911,38.633678],[29.696776,38.633251],[29.702397,38.631662],[29.705696,38.631051],[29.710279,38.63044],[29.716572,38.627691],[29.720726,38.625491],[29.725308,38.622864],[29.729157,38.620237],[29.732029,38.617732],[29.73765,38.615777],[29.741499,38.615594],[29.748403,38.615105],[29.751824,38.614555],[29.754207,38.613272],[29.756773,38.611134],[29.757384,38.609301],[29.758423,38.60594],[29.761783,38.600197],[29.763433,38.595615],[29.765021,38.592866],[29.767709,38.59085],[29.774552,38.587917],[29.780478,38.584801],[29.784205,38.58309],[29.787138,38.580463],[29.79001,38.577408],[29.793553,38.574537],[29.80064,38.570138],[29.808583,38.566167],[29.810843,38.564395],[29.813837,38.563417],[29.817564,38.562195],[29.823133,38.559514],[29.819199,38.556079],[29.815247,38.552352],[29.810625,38.549966],[29.806449,38.547431],[29.802871,38.544896],[29.799217,38.541914],[29.79631,38.539379],[29.789376,38.533712],[29.785872,38.531177],[29.775359,38.523647],[29.766711,38.518205],[29.761939,38.514775],[29.758957,38.510898],[29.7559,38.507692],[29.753738,38.504188],[29.750532,38.49964],[29.74822,38.496434],[29.746207,38.493004],[29.744269,38.49032],[29.7433,38.48704],[29.743747,38.485176],[29.745014,38.483387],[29.746133,38.481895],[29.746953,38.480255],[29.747326,38.478018],[29.747326,38.47608],[29.747475,38.473918],[29.747848,38.471979],[29.748146,38.469743],[29.748295,38.466462],[29.747997,38.464374],[29.748071,38.462063],[29.747848,38.456695],[29.747321,38.455964],[29.746506,38.454831],[29.744418,38.453489],[29.741436,38.452967],[29.736739,38.452595],[29.732042,38.452371],[29.727046,38.451327],[29.721976,38.450432],[29.690215,38.43828],[29.682088,38.433806],[29.677168,38.431495],[29.666506,38.427469],[29.661063,38.425605],[29.654055,38.423741],[29.649134,38.42225],[29.641753,38.421355],[29.634223,38.418746],[29.625202,38.415316],[29.618641,38.41375],[29.614316,38.410023],[29.613649,38.408901]]]}},{"type":"Feature","properties":{"id":"TR-D-64-005","parent_id":"TR-P-64","region_id":"TR-R-EGE","level":"district","municipality_type":null,"municipality_type_label":null,"is_metropolitan_municipality":null,"name":"Ulubey","name_ascii":"ulubey","slug":"ulubey-usak"},"geometry":{"type":"Polygon","coordinates":[[[29.173338,38.586683],[29.180251,38.586484],[29.18708,38.586842],[29.196449,38.587973],[29.209856,38.590289],[29.214056,38.590127],[29.220248,38.589212],[29.225687,38.588242],[29.231448,38.58695],[29.241302,38.584689],[29.24534,38.584635],[29.253955,38.585819],[29.262193,38.585119],[29.267686,38.583181],[29.271455,38.581673],[29.275278,38.580112],[29.279531,38.577473],[29.283193,38.574835],[29.287447,38.572951],[29.294123,38.568804],[29.300962,38.562666],[29.305861,38.55782],[29.315984,38.549582],[29.318838,38.546997],[29.32433,38.543067],[29.334668,38.539351],[29.345007,38.538167],[29.352653,38.537305],[29.368483,38.535528],[29.374298,38.535636],[29.37866,38.534344],[29.387275,38.532082],[29.392659,38.529552],[29.397721,38.521044],[29.398528,38.51846],[29.400628,38.513344],[29.40149,38.511298],[29.401544,38.508983],[29.401221,38.507421],[29.401274,38.505321],[29.401544,38.50306],[29.401274,38.501391],[29.400736,38.499506],[29.400198,38.498645],[29.399498,38.496599],[29.398798,38.494983],[29.397936,38.493045],[29.397236,38.49073],[29.396859,38.487283],[29.396536,38.484268],[29.396913,38.482061],[29.397451,38.480661],[29.399121,38.478668],[29.401598,38.476676],[29.403967,38.476084],[29.417374,38.475061],[29.42922,38.474899],[29.435358,38.473661],[29.440366,38.471776],[29.449358,38.469838],[29.459104,38.470592],[29.467988,38.471884],[29.472888,38.472422],[29.480049,38.472476],[29.484356,38.472476],[29.480484,38.468067],[29.474944,38.463662],[29.471006,38.458923],[29.466934,38.453449],[29.460994,38.450312],[29.454519,38.444705],[29.451115,38.43783],[29.443238,38.431956],[29.438366,38.426416],[29.436363,38.422678],[29.435028,38.415269],[29.434027,38.404522],[29.434294,38.399183],[29.434695,38.394644],[29.435362,38.39144],[29.435763,38.388236],[29.434761,38.381427],[29.434428,38.377222],[29.43336,38.372617],[29.431557,38.363405],[29.430756,38.360001],[29.42822,38.356664],[29.424549,38.348454],[29.422613,38.339843],[29.421478,38.331566],[29.420878,38.32676],[29.419943,38.324557],[29.41734,38.322889],[29.414336,38.321354],[29.412466,38.320032],[29.408365,38.321896],[29.402624,38.323313],[29.397405,38.324208],[29.389652,38.324655],[29.38488,38.324506],[29.380034,38.323835],[29.375329,38.32222],[29.375038,38.32212],[29.374535,38.322007],[29.370043,38.321002],[29.361022,38.319138],[29.354908,38.316976],[29.349093,38.314664],[29.343352,38.311533],[29.34218,38.310996],[29.341126,38.310987],[29.327809,38.308518],[29.327407,38.30827],[29.326545,38.30776],[29.326108,38.307514],[29.325665,38.307277],[29.325213,38.307052],[29.324769,38.30685],[29.324316,38.306658],[29.323856,38.306477],[29.322922,38.306138],[29.322352,38.30595],[29.322256,38.30592],[29.321969,38.305831],[29.321486,38.305693],[29.321007,38.30557],[29.320523,38.305458],[29.320036,38.305357],[29.319544,38.305266],[29.319054,38.305186],[29.318066,38.305053],[29.3169,38.304929],[29.316089,38.304843],[29.315597,38.304783],[29.315104,38.304712],[29.314613,38.30463],[29.314124,38.304539],[29.313104,38.304321],[29.312044,38.304064],[29.310989,38.30379],[29.309939,38.303504],[29.308894,38.303206],[29.307861,38.302889],[29.307389,38.302731],[29.306458,38.302394],[29.306001,38.302212],[29.30551,38.302002],[29.304544,38.301557],[29.303118,38.300855],[29.293211,38.295829],[29.284224,38.291304],[29.28329,38.290814],[29.282397,38.290315],[29.281972,38.290061],[29.281556,38.289798],[29.281153,38.289526],[29.28075,38.28923],[29.280364,38.288922],[29.279994,38.288602],[29.279728,38.28835],[29.279686,38.28831],[29.279386,38.288002],[29.279032,38.287607],[29.278468,38.286914],[29.278198,38.286561],[29.277674,38.285845],[29.27742,38.285484],[29.276951,38.284783],[29.27652,38.284106],[29.27504,38.281716],[29.274529,38.280935],[29.274007,38.280159],[29.272947,38.278613],[29.269211,38.273215],[29.268403,38.272061],[29.267574,38.270918],[29.266989,38.270164],[29.266064,38.269044],[29.264799,38.267566],[29.262242,38.264619],[29.261301,38.263508],[29.260703,38.262757],[29.260423,38.262375],[29.260161,38.261987],[29.259926,38.261591],[29.259748,38.261238],[29.259594,38.260879],[29.259461,38.260514],[29.259348,38.260144],[29.259256,38.25977],[29.259183,38.259381],[29.259126,38.258988],[29.258953,38.257415],[29.258895,38.257027],[29.258822,38.256644],[29.258725,38.256266],[29.258595,38.255898],[29.258442,38.255568],[29.258261,38.255245],[29.258057,38.254929],[29.257836,38.254617],[29.257603,38.254308],[29.257035,38.253614],[29.25644,38.252927],[29.255832,38.252244],[29.254909,38.251222],[29.253975,38.250208],[29.25338,38.249586],[29.25281,38.249021],[29.252215,38.248473],[29.251842,38.248156],[29.251067,38.247543],[29.250267,38.246953],[29.24945,38.246382],[29.249035,38.246104],[29.248615,38.245831],[29.248188,38.245565],[29.247935,38.245417],[29.247753,38.24531],[29.247306,38.245068],[29.24687,38.244853],[29.246422,38.244651],[29.246161,38.244541],[29.245967,38.24446],[29.245504,38.244278],[29.244572,38.243941],[29.243101,38.243451],[29.241138,38.242827],[29.23781,38.241769],[29.234648,38.240763],[29.23397,38.240544],[29.226729,38.238205],[29.226171,38.238031],[29.221144,38.240185],[29.220814,38.239973],[29.220414,38.239842],[29.219965,38.239789],[29.219535,38.2398],[29.219088,38.239853],[29.21854,38.23995],[29.218453,38.239968],[29.218299,38.239999],[29.217208,38.240221],[29.216732,38.240298],[29.21626,38.240346],[29.215844,38.240355],[29.215439,38.24033],[29.21505,38.240268],[29.214685,38.240166],[29.214214,38.239934],[29.214156,38.239893],[29.213913,38.239721],[29.213633,38.239437],[29.213399,38.239115],[29.213201,38.238765],[29.213035,38.238395],[29.2129,38.238009],[29.212796,38.237612],[29.212722,38.237185],[29.212674,38.236752],[29.212646,38.236313],[29.212625,38.235428],[29.212615,38.233648],[29.212599,38.232761],[29.212566,38.231879],[29.212539,38.231442],[29.212501,38.23101],[29.212447,38.230586],[29.21237,38.230171],[29.212262,38.229772],[29.21211,38.229393],[29.211943,38.229099],[29.211738,38.228829],[29.211493,38.228586],[29.211206,38.228377],[29.210843,38.228191],[29.210437,38.228044],[29.209999,38.227925],[29.209539,38.227828],[29.209063,38.227746],[29.208732,38.227698],[29.207736,38.227553],[29.207295,38.227481],[29.206854,38.227394],[29.206425,38.227292],[29.206013,38.227173],[29.205623,38.227032],[29.205264,38.226866],[29.204889,38.22663],[29.204885,38.226627],[29.204558,38.226346],[29.204307,38.226035],[29.204143,38.225697],[29.204079,38.225363],[29.204085,38.225011],[29.204144,38.224648],[29.204243,38.224276],[29.204371,38.223899],[29.20453,38.223498],[29.204707,38.223096],[29.205092,38.222288],[29.205501,38.22148],[29.205928,38.22067],[29.208541,38.215821],[29.208982,38.215022],[29.20921,38.214628],[29.209445,38.214239],[29.209692,38.213859],[29.209956,38.213491],[29.210244,38.21314],[29.210566,38.212815],[29.210933,38.212519],[29.211337,38.212251],[29.21177,38.212009],[29.212227,38.211791],[29.212706,38.211598],[29.213184,38.211438],[29.213676,38.211299],[29.214205,38.21117],[29.214815,38.211039],[29.215482,38.210909],[29.216868,38.210661],[29.219059,38.210298],[29.219362,38.210242],[29.219823,38.210451],[29.220921,38.211028],[29.220752,38.210721],[29.22068,38.210423],[29.220673,38.210109],[29.220715,38.209783],[29.220795,38.209448],[29.220903,38.209107],[29.221058,38.208692],[29.221232,38.208272],[29.22199,38.20657],[29.222171,38.206141],[29.22229,38.205837],[29.222339,38.205711],[29.222487,38.205279],[29.222608,38.204843],[29.22268,38.204492],[29.222731,38.204139],[29.222753,38.203884],[29.222761,38.203785],[29.222763,38.203717],[29.222773,38.203348],[29.222763,38.202911],[29.222737,38.202472],[29.222699,38.202034],[29.222604,38.201156],[29.222126,38.197504],[29.221857,38.19545],[29.221668,38.194136],[29.221519,38.193284],[29.221339,38.192459],[29.221229,38.19205],[29.221117,38.191682],[29.220858,38.190952],[29.220567,38.190229],[29.220233,38.189485],[29.21986,38.188719],[29.219465,38.187961],[29.219044,38.187212],[29.218821,38.186843],[29.218583,38.186475],[29.218333,38.186112],[29.218073,38.185754],[29.2178,38.185404],[29.217515,38.18506],[29.217213,38.184727],[29.216903,38.184413],[29.215937,38.183498],[29.215626,38.183188],[29.215332,38.182869],[29.215048,38.182517],[29.214785,38.182153],[29.21454,38.18178],[29.214309,38.181399],[29.214087,38.181014],[29.213669,38.180232],[29.213282,38.179439],[29.213102,38.179039],[29.212966,38.178712],[29.212934,38.178635],[29.212783,38.178228],[29.212646,38.177799],[29.212525,38.177365],[29.212417,38.176929],[29.212135,38.175611],[29.211623,38.172988],[29.211446,38.172083],[29.210976,38.169924],[29.210679,38.16863],[29.210364,38.16734],[29.210131,38.166484],[29.210001,38.166058],[29.209869,38.165664],[29.209578,38.164881],[29.209564,38.164847],[29.209258,38.164105],[29.209146,38.163859],[29.207983,38.161954],[29.207213,38.162155],[29.206697,38.1623],[29.206105,38.16248],[29.205468,38.162692],[29.204819,38.162932],[29.20425,38.163171],[29.203715,38.163421],[29.203232,38.163671],[29.202816,38.16391],[29.202431,38.164148],[29.202053,38.164394],[29.201682,38.164647],[29.201272,38.164944],[29.20087,38.165247],[29.200162,38.165804],[29.199302,38.166499],[29.195048,38.169995],[29.190387,38.173794],[29.189624,38.174435],[29.188885,38.175087],[29.188532,38.175422],[29.188197,38.175766],[29.187884,38.176121],[29.187622,38.176461],[29.18738,38.176811],[29.187154,38.177169],[29.186927,38.177554],[29.186499,38.178336],[29.186089,38.179127],[29.184494,38.182313],[29.183926,38.183513],[29.183729,38.18398],[29.183598,38.184293],[29.183458,38.184674],[29.183335,38.185057],[29.183234,38.185443],[29.183152,38.185878],[29.183096,38.186316],[29.183057,38.186783],[29.183055,38.186807],[29.183034,38.187201],[29.18301,38.18809],[29.183005,38.188983],[29.18302,38.193896],[29.183048,38.195682],[29.183082,38.196559],[29.183128,38.197436],[29.183161,38.197912],[29.183162,38.197916],[29.183219,38.19875],[29.183299,38.199622],[29.183347,38.200056],[29.183414,38.200563],[29.183421,38.200621],[29.18353,38.201445],[29.183559,38.201845],[29.183569,38.202246],[29.18356,38.202648],[29.183532,38.203079],[29.183431,38.203942],[29.183366,38.204353],[29.183224,38.20524],[29.182514,38.209145],[29.182339,38.210005],[29.182241,38.210429],[29.182132,38.210846],[29.182007,38.211254],[29.18186,38.211648],[29.181681,38.212022],[29.18146,38.21237],[29.181239,38.212629],[29.18098,38.21286],[29.180687,38.213057],[29.180365,38.213224],[29.180022,38.213362],[29.179603,38.213489],[29.178828,38.213679],[29.178494,38.213773],[29.178188,38.213887],[29.17792,38.214035],[29.177595,38.214367],[29.170239,38.214965],[29.168623,38.215073],[29.164641,38.216188],[29.161824,38.216977],[29.161471,38.217076],[29.161433,38.217069],[29.161104,38.217036],[29.16106,38.217032],[29.160687,38.216995],[29.159793,38.217144],[29.158898,38.217442],[29.157556,38.217815],[29.157404,38.217882],[29.156363,38.218337],[29.155335,38.21855],[29.155079,38.218632],[29.153381,38.219231],[29.151741,38.22035],[29.151299,38.220734],[29.150026,38.221841],[29.149862,38.222064],[29.148982,38.223258],[29.148478,38.223584],[29.147714,38.224078],[29.146671,38.224972],[29.145627,38.224972],[29.145807,38.231864],[29.145393,38.238411],[29.145531,38.242753],[29.145944,38.249439],[29.146082,38.252058],[29.146013,38.256951],[29.145186,38.259846],[29.144911,38.264601],[29.143739,38.26791],[29.142567,38.272872],[29.142567,38.275904],[29.142981,38.280729],[29.142705,38.283348],[29.142016,38.285691],[29.139466,38.290378],[29.138837,38.291231],[29.137949,38.293568],[29.139624,38.299431],[29.139397,38.299625],[29.139046,38.299957],[29.138729,38.300306],[29.138489,38.300623],[29.138279,38.300955],[29.138096,38.301297],[29.137939,38.301649],[29.13781,38.302008],[29.137705,38.302388],[29.137624,38.302773],[29.137562,38.303163],[29.137516,38.303556],[29.137481,38.303952],[29.137385,38.305546],[29.137347,38.305943],[29.137292,38.306329],[29.137218,38.306712],[29.137124,38.307093],[29.136978,38.307508],[29.136772,38.307953],[29.136468,38.308477],[29.136117,38.308996],[29.135746,38.30949],[29.135383,38.30994],[29.134992,38.310394],[29.134548,38.310891],[29.134292,38.314796],[29.134285,38.315087],[29.13429,38.315548],[29.134308,38.315991],[29.134339,38.316433],[29.13439,38.316873],[29.134452,38.317257],[29.134529,38.31764],[29.134619,38.318022],[29.134825,38.318782],[29.135414,38.320687],[29.13552,38.321067],[29.135612,38.321446],[29.135687,38.321825],[29.135737,38.322202],[29.135755,38.322578],[29.135733,38.322938],[29.135676,38.323295],[29.135584,38.323646],[29.135457,38.32399],[29.135293,38.324324],[29.135046,38.324704],[29.134755,38.32507],[29.13443,38.325424],[29.134078,38.325769],[29.133714,38.326097],[29.133337,38.326419],[29.132177,38.327375],[29.131797,38.327698],[29.131501,38.327961],[29.131075,38.328365],[29.130794,38.328661],[29.130531,38.328965],[29.130285,38.329277],[29.130059,38.329596],[29.129855,38.329923],[29.129667,38.330278],[29.129506,38.33064],[29.129373,38.331006],[29.129268,38.331376],[29.129196,38.331748],[29.129161,38.332124],[29.129165,38.332498],[29.129209,38.332865],[29.129296,38.333223],[29.129436,38.333566],[29.129655,38.33392],[29.129936,38.334251],[29.130267,38.334557],[29.130645,38.334834],[29.130964,38.335023],[29.131453,38.335276],[29.131886,38.335472],[29.132758,38.335846],[29.133176,38.336037],[29.13357,38.336242],[29.133927,38.33647],[29.134261,38.336757],[29.13453,38.337076],[29.134728,38.33742],[29.134845,38.337783],[29.134871,38.338102],[29.134841,38.338429],[29.134769,38.338763],[29.134663,38.339101],[29.13453,38.339441],[29.134346,38.339846],[29.134091,38.340344],[29.133694,38.341065],[29.132985,38.342284],[29.13107,38.345518],[29.130889,38.34581],[29.130575,38.346314],[29.130318,38.346707],[29.130049,38.347093],[29.129765,38.347473],[29.129458,38.347848],[29.129133,38.348213],[29.128793,38.348571],[29.128441,38.348922],[29.128088,38.349256],[29.127016,38.350252],[29.126396,38.350888],[29.126183,38.351121],[29.125923,38.35142],[29.125675,38.351724],[29.125427,38.352066],[29.125181,38.352459],[29.124947,38.35289],[29.124735,38.353344],[29.124554,38.353809],[29.124387,38.354352],[29.124266,38.35486],[29.124184,38.355305],[29.124134,38.355658],[29.124104,38.355974],[29.124994,38.356974],[29.127945,38.360292],[29.128251,38.360524],[29.128653,38.360805],[29.129069,38.361069],[29.1295,38.361314],[29.12995,38.361535],[29.130383,38.361713],[29.130828,38.361875],[29.132192,38.362329],[29.132643,38.362491],[29.133083,38.362665],[29.13351,38.362858],[29.133963,38.363097],[29.134398,38.363358],[29.134731,38.363577],[29.135234,38.363926],[29.135641,38.364224],[29.136442,38.364836],[29.137235,38.365459],[29.137595,38.365747],[29.141177,38.368603],[29.142605,38.369734],[29.14486,38.37152],[29.14613,38.377293],[29.146289,38.37777],[29.146082,38.379906],[29.145807,38.380527],[29.145324,38.382043],[29.145048,38.383283],[29.14498,38.384042],[29.14498,38.384869],[29.144704,38.385765],[29.144428,38.386661],[29.143739,38.387419],[29.142705,38.388039],[29.141671,38.388659],[29.141258,38.38928],[29.140293,38.390589],[29.139742,38.391623],[29.138639,38.392381],[29.138087,38.393139],[29.13795,38.394173],[29.137191,38.394793],[29.136571,38.395413],[29.135813,38.396447],[29.135193,38.397412],[29.134366,38.398377],[29.133263,38.399618],[29.13216,38.401203],[29.130575,38.402719],[29.129886,38.403339],[29.128645,38.40458],[29.12644,38.405958],[29.125613,38.406648],[29.11941,38.416365],[29.117687,38.417951],[29.117135,38.420639],[29.114723,38.422017],[29.110933,38.423878],[29.1079,38.42567],[29.106039,38.428702],[29.105695,38.434423],[29.106453,38.437938],[29.10852,38.441453],[29.109072,38.444761],[29.109072,38.445726],[29.108314,38.449034],[29.107211,38.451446],[29.106659,38.454341],[29.106246,38.457994],[29.106659,38.461302],[29.108727,38.464059],[29.111966,38.465989],[29.114448,38.467298],[29.120099,38.469228],[29.122787,38.469917],[29.127267,38.471158],[29.130506,38.473019],[29.133814,38.474604],[29.138501,38.47743],[29.140844,38.478188],[29.145117,38.478188],[29.146909,38.478188],[29.150424,38.478601],[29.154422,38.479428],[29.158419,38.481082],[29.161934,38.482805],[29.165932,38.485907],[29.167655,38.488802],[29.168482,38.492316],[29.168068,38.495487],[29.166276,38.499002],[29.165036,38.501828],[29.163106,38.505205],[29.161176,38.50617],[29.154628,38.508099],[29.150286,38.508582],[29.145944,38.508582],[29.142429,38.508858],[29.135468,38.510374],[29.131953,38.510512],[29.12899,38.511063],[29.127749,38.512579],[29.125544,38.516025],[29.12513,38.519678],[29.124648,38.52464],[29.124441,38.529327],[29.124786,38.530912],[29.127405,38.535875],[29.129403,38.538907],[29.131333,38.541388],[29.133194,38.542973],[29.134779,38.543938],[29.136985,38.544696],[29.138708,38.544972],[29.140431,38.545179],[29.142223,38.545317],[29.144566,38.545317],[29.147323,38.54511],[29.149942,38.545661],[29.152009,38.546695],[29.15325,38.548349],[29.154697,38.54959],[29.15711,38.550968],[29.159522,38.551244],[29.161796,38.551658],[29.165449,38.553036],[29.167448,38.554001],[29.170274,38.555104],[29.172134,38.556413],[29.174133,38.558136],[29.176476,38.559032],[29.177995,38.560083],[29.178538,38.561983],[29.178654,38.565743],[29.178576,38.569504],[29.178848,38.57214],[29.178731,38.575048],[29.177026,38.578072],[29.175359,38.580436],[29.174079,38.583189],[29.173459,38.585748],[29.173338,38.586683]]]}},{"type":"Feature","properties":{"id":"TR-D-64-006","parent_id":"TR-P-64","region_id":"TR-R-EGE","level":"district","municipality_type":null,"municipality_type_label":null,"is_metropolitan_municipality":null,"name":"Uşak","name_ascii":"usak","slug":"usak-usak"},"geometry":{"type":"Polygon","coordinates":[[[29.113863,38.839716],[29.1139,38.839726],[29.116054,38.840278],[29.117335,38.840278],[29.119576,38.841047],[29.120857,38.842007],[29.121881,38.84444],[29.122329,38.84649],[29.123482,38.848603],[29.125723,38.850012],[29.127516,38.851741],[29.128093,38.853085],[29.128733,38.854046],[29.129822,38.854878],[29.131206,38.856815],[29.132455,38.859073],[29.133175,38.860513],[29.134808,38.862386],[29.136201,38.864067],[29.138122,38.8657],[29.139323,38.866613],[29.139659,38.867525],[29.140043,38.868582],[29.14134,38.869062],[29.142781,38.869302],[29.144942,38.869975],[29.1484,38.870215],[29.148718,38.870166],[29.148877,38.870141],[29.149648,38.870023],[29.150753,38.869638],[29.152338,38.868822],[29.15325,38.867669],[29.154163,38.866084],[29.154787,38.864163],[29.156564,38.86253],[29.158485,38.859985],[29.159734,38.85888],[29.16134,38.855454],[29.16261,38.852235],[29.163881,38.848508],[29.164643,38.846645],[29.166252,38.844782],[29.168624,38.843172],[29.171334,38.841817],[29.173282,38.840123],[29.175654,38.839276],[29.177941,38.839276],[29.180228,38.84097],[29.181668,38.843426],[29.182853,38.844951],[29.184039,38.84673],[29.185479,38.847916],[29.187597,38.848763],[29.189883,38.849525],[29.191916,38.849694],[29.193356,38.849864],[29.194792,38.849859],[29.197339,38.847978],[29.198011,38.84673],[29.198299,38.845673],[29.198731,38.844569],[29.199644,38.843608],[29.200989,38.842936],[29.201109,38.842744],[29.201229,38.842551],[29.201709,38.84039],[29.202237,38.839526],[29.20339,38.838373],[29.203606,38.838157],[29.203822,38.837941],[29.204879,38.836644],[29.205983,38.835011],[29.20752,38.833859],[29.209729,38.833186],[29.212851,38.832946],[29.215685,38.832994],[29.219335,38.833282],[29.223369,38.834099],[29.226683,38.835059],[29.227399,38.835568],[29.228171,38.836116],[29.228981,38.836863],[29.231555,38.837845],[29.233406,38.837845],[29.237633,38.837413],[29.240274,38.837124],[29.242243,38.836932],[29.243924,38.836164],[29.245653,38.834867],[29.245701,38.833378],[29.245029,38.831265],[29.244933,38.829152],[29.245365,38.827903],[29.246902,38.825838],[29.249766,38.824115],[29.252222,38.821913],[29.252241,38.821825],[29.252532,38.82045],[29.252815,38.819118],[29.252815,38.818653],[29.252815,38.818021],[29.252471,38.817113],[29.252318,38.816753],[29.252142,38.816403],[29.251948,38.816093],[29.251726,38.815795],[29.251477,38.815512],[29.251202,38.815244],[29.250901,38.814995],[29.250625,38.814805],[29.250577,38.814772],[29.250129,38.814506],[29.249707,38.814291],[29.249267,38.814091],[29.248772,38.81389],[29.248266,38.8137],[29.247752,38.813519],[29.246709,38.813171],[29.244072,38.812335],[29.243015,38.812015],[29.242485,38.811862],[29.241954,38.811717],[29.241422,38.811583],[29.240838,38.811457],[29.24079,38.811449],[29.240691,38.811432],[29.24035,38.811372],[29.239807,38.811308],[29.239324,38.811284],[29.238839,38.811287],[29.238353,38.811314],[29.237867,38.811361],[29.237373,38.811429],[29.236984,38.811493],[29.235911,38.811669],[29.235434,38.811734],[29.234964,38.811777],[29.234503,38.811788],[29.234057,38.811754],[29.233584,38.811653],[29.233133,38.811496],[29.232704,38.811294],[29.2323,38.811057],[29.231928,38.810788],[29.231596,38.810489],[29.231318,38.810158],[29.23112,38.809831],[29.230965,38.809481],[29.230841,38.809116],[29.230738,38.808739],[29.230649,38.808354],[29.230479,38.807513],[29.230173,38.805855],[29.22985,38.804106],[29.22951,38.802406],[29.229509,38.802401],[29.22946,38.802179],[29.229323,38.801569],[29.229219,38.80115],[29.229107,38.800732],[29.228841,38.799869],[29.228547,38.79901],[29.228383,38.798553],[29.22824,38.798155],[29.226822,38.794309],[29.225731,38.791312],[29.225247,38.790034],[29.224914,38.789241],[29.225236,38.78695],[29.225239,38.78693],[29.22558,38.784498],[29.226037,38.783374],[29.227534,38.782268],[29.230351,38.782182],[29.234535,38.782182],[29.237267,38.782012],[29.241109,38.781243],[29.243585,38.781243],[29.246061,38.782695],[29.248281,38.784744],[29.250501,38.785854],[29.253404,38.786622],[29.256051,38.786878],[29.258015,38.78722],[29.260064,38.788586],[29.263052,38.791403],[29.266723,38.793709],[29.270992,38.794989],[29.27318,38.796932],[29.275229,38.798789],[29.27715,38.799685],[29.279776,38.800198],[29.282849,38.800966],[29.285539,38.801222],[29.288997,38.801094],[29.292326,38.800987],[29.293519,38.800528],[29.295386,38.800591],[29.300721,38.800771],[29.301047,38.800912],[29.301617,38.801149],[29.302546,38.801534],[29.305559,38.802758],[29.309581,38.804383],[29.3116,38.805181],[29.312618,38.805564],[29.313132,38.805747],[29.313651,38.805922],[29.314117,38.806069],[29.31506,38.806345],[29.317432,38.807012],[29.318385,38.807304],[29.319327,38.807614],[29.320256,38.807944],[29.320713,38.80812],[29.321163,38.808304],[29.321614,38.808504],[29.322054,38.808717],[29.322483,38.808942],[29.3229,38.809182],[29.323328,38.809455],[29.323743,38.809742],[29.324147,38.81004],[29.324933,38.810656],[29.3258,38.811374],[29.325901,38.81146],[29.326133,38.811656],[29.326457,38.811929],[29.329848,38.814825],[29.330965,38.815798],[29.331689,38.816458],[29.33204,38.816796],[29.33252,38.81729],[29.332719,38.817494],[29.333691,38.81857],[29.334605,38.819622],[29.334624,38.819644],[29.334956,38.820026],[29.33809,38.823674],[29.343523,38.824334],[29.34417,38.824444],[29.344703,38.824551],[29.345236,38.824679],[29.345244,38.824681],[29.345739,38.824826],[29.346231,38.825002],[29.34671,38.825201],[29.347181,38.825416],[29.347647,38.825642],[29.348567,38.826115],[29.350389,38.827098],[29.354473,38.829334],[29.355821,38.830092],[29.356703,38.830612],[29.357236,38.830949],[29.35752,38.831128],[29.359411,38.832392],[29.359797,38.832637],[29.360211,38.832887],[29.360451,38.833026],[29.360542,38.833078],[29.361061,38.833366],[29.362074,38.833884],[29.362167,38.833928],[29.362921,38.834293],[29.363988,38.834794],[29.364109,38.834849],[29.365953,38.835698],[29.365903,38.837601],[29.365825,38.840641],[29.363342,38.846486],[29.363214,38.847712],[29.363406,38.849056],[29.363598,38.850145],[29.363915,38.851097],[29.363982,38.851298],[29.36432,38.851974],[29.364366,38.852066],[29.364622,38.853027],[29.365135,38.854115],[29.365775,38.85482],[29.367056,38.85546],[29.367376,38.855652],[29.367696,38.855844],[29.3684,38.857445],[29.369297,38.859174],[29.370026,38.859903],[29.370193,38.86007],[29.370578,38.860775],[29.370578,38.86109],[29.370578,38.861671],[29.370514,38.862504],[29.370989,38.863296],[29.37109,38.863464],[29.372755,38.863848],[29.374548,38.864233],[29.376213,38.864425],[29.378518,38.864681],[29.380183,38.864873],[29.382296,38.865065],[29.384537,38.865385],[29.38537,38.865705],[29.386843,38.866154],[29.38902,38.867178],[29.390364,38.867563],[29.391581,38.867947],[29.39235,38.868779],[29.393246,38.86974],[29.395039,38.870508],[29.395679,38.871725],[29.396192,38.872877],[29.397024,38.874222],[29.397985,38.875247],[29.399137,38.876399],[29.402083,38.87768],[29.409,38.880694],[29.414844,38.882981],[29.41891,38.884336],[29.422044,38.885353],[29.426109,38.885945],[29.430598,38.885691],[29.434325,38.884675],[29.439238,38.88315],[29.443557,38.881795],[29.448385,38.880101],[29.451265,38.879424],[29.454738,38.877221],[29.458803,38.874257],[29.461652,38.871004],[29.463381,38.869532],[29.464661,38.868123],[29.467031,38.866586],[29.469272,38.864921],[29.470424,38.864025],[29.473114,38.863768],[29.475611,38.863704],[29.476718,38.864073],[29.479162,38.859778],[29.482522,38.856353],[29.486335,38.85254],[29.48989,38.851118],[29.497904,38.846917],[29.500101,38.845302],[29.502169,38.841618],[29.504043,38.83871],[29.506563,38.83425],[29.511734,38.828563],[29.512638,38.827271],[29.514965,38.824169],[29.518455,38.821196],[29.521169,38.818546],[29.52356,38.816284],[29.526856,38.814281],[29.532866,38.811179],[29.536744,38.809693],[29.5434,38.80756],[29.552448,38.804393],[29.556455,38.804458],[29.562724,38.803812],[29.566537,38.802519],[29.578557,38.800709],[29.58502,38.799029],[29.591805,38.797349],[29.597299,38.795281],[29.602469,38.792373],[29.608091,38.789206],[29.612744,38.786298],[29.616686,38.784294],[29.620241,38.782679],[29.623084,38.780675],[29.625411,38.778413],[29.628707,38.77376],[29.629482,38.770658],[29.629353,38.767556],[29.627802,38.762128],[29.626316,38.755924],[29.625023,38.749461],[29.623149,38.744485],[29.621404,38.742417],[29.618625,38.738604],[29.615717,38.734726],[29.613003,38.728716],[29.610935,38.725291],[29.610095,38.723029],[29.609642,38.719927],[29.609513,38.710879],[29.60919,38.707583],[29.609642,38.703706],[29.612227,38.690005],[29.61436,38.685029],[29.61548,38.669755],[29.615092,38.664197],[29.614317,38.660449],[29.612281,38.65013],[29.611936,38.647201],[29.611161,38.64272],[29.610472,38.64048],[29.60961,38.63643],[29.607651,38.631365],[29.607111,38.629967],[29.606249,38.62721],[29.601252,38.620661],[29.597115,38.6173],[29.591773,38.614198],[29.583673,38.609028],[29.57273,38.605926],[29.564716,38.603341],[29.561442,38.601532],[29.556875,38.599119],[29.549895,38.592915],[29.542399,38.584298],[29.534213,38.57706],[29.527492,38.57301],[29.523872,38.571631],[29.510344,38.565341],[29.505346,38.559568],[29.499228,38.554398],[29.4938,38.55052],[29.489061,38.545264],[29.487337,38.541817],[29.485614,38.533114],[29.484235,38.527341],[29.48389,38.520706],[29.483201,38.513812],[29.48458,38.507436],[29.486475,38.501232],[29.486562,38.498561],[29.487768,38.488048],[29.488026,38.484687],[29.48757,38.472413],[29.486834,38.472476],[29.484356,38.472476],[29.480049,38.472476],[29.472888,38.472422],[29.467988,38.471884],[29.459104,38.470592],[29.449358,38.469838],[29.440366,38.471776],[29.435358,38.473661],[29.42922,38.474899],[29.417374,38.475061],[29.403967,38.476084],[29.401598,38.476676],[29.399121,38.478668],[29.397451,38.480661],[29.396913,38.482061],[29.396536,38.484268],[29.396859,38.487283],[29.397236,38.49073],[29.397936,38.493045],[29.398798,38.494983],[29.399498,38.496599],[29.400198,38.498645],[29.400736,38.499506],[29.401274,38.501391],[29.401544,38.50306],[29.401274,38.505321],[29.401221,38.507421],[29.401544,38.508983],[29.40149,38.511298],[29.400628,38.513344],[29.398528,38.51846],[29.397721,38.521044],[29.392659,38.529552],[29.387275,38.532082],[29.37866,38.534344],[29.374298,38.535636],[29.368483,38.535528],[29.352653,38.537305],[29.345007,38.538167],[29.334668,38.539351],[29.32433,38.543067],[29.318838,38.546997],[29.315984,38.549582],[29.305861,38.55782],[29.300962,38.562666],[29.294123,38.568804],[29.287447,38.572951],[29.283193,38.574835],[29.279531,38.577473],[29.275278,38.580112],[29.271455,38.581673],[29.267686,38.583181],[29.262193,38.585119],[29.253955,38.585819],[29.24534,38.584635],[29.241302,38.584689],[29.231448,38.58695],[29.225687,38.588242],[29.220248,38.589212],[29.214056,38.590127],[29.209856,38.590289],[29.196449,38.587973],[29.18708,38.586842],[29.180251,38.586484],[29.173338,38.586683],[29.172784,38.586699],[29.164169,38.586555],[29.152826,38.586125],[29.144282,38.586196],[29.137175,38.585981],[29.133872,38.585263],[29.128569,38.584204],[29.120546,38.585119],[29.118069,38.584904],[29.114461,38.584743],[29.110423,38.585389],[29.107677,38.585873],[29.105577,38.585766],[29.101485,38.586304],[29.0989,38.587758],[29.095616,38.590396],[29.089908,38.594435],[29.087377,38.595458],[29.081454,38.596911],[29.078385,38.597827],[29.07397,38.598311],[29.067724,38.598634],[29.05787,38.599658],[29.054424,38.599981],[29.050278,38.601004],[29.048501,38.602565],[29.046778,38.605904],[29.044463,38.609619],[29.038486,38.616242],[29.036386,38.617965],[29.031163,38.623834],[29.026371,38.630026],[29.026048,38.631426],[29.025456,38.633903],[29.02524,38.63541],[29.024864,38.636864],[29.024756,38.637887],[29.023464,38.639449],[29.021956,38.640687],[29.019587,38.642895],[29.018025,38.643864],[29.015441,38.644833],[29.011995,38.645049],[29.009141,38.644941],[29.006772,38.644079],[29.002626,38.642626],[28.999287,38.641549],[28.996595,38.64128],[28.993149,38.640956],[28.99078,38.640687],[28.986849,38.640687],[28.984318,38.64058],[28.983134,38.639933],[28.980765,38.637295],[28.978234,38.63358],[28.975757,38.631372],[28.973657,38.63008],[28.971503,38.628626],[28.969457,38.626957],[28.967519,38.625126],[28.96515,38.624857],[28.961919,38.625395],[28.957181,38.626688],[28.954273,38.627065],[28.948404,38.626041],[28.947435,38.625234],[28.947327,38.624695],[28.947112,38.623726],[28.946026,38.622964],[28.944597,38.622139],[28.942732,38.621609],[28.942682,38.62137],[28.942186,38.618779],[28.941992,38.617945],[28.941902,38.617635],[28.941755,38.617191],[28.941618,38.616854],[28.941458,38.616529],[28.941269,38.616218],[28.941044,38.615926],[28.940716,38.615601],[28.940338,38.615302],[28.939821,38.61496],[28.939486,38.614757],[28.93903,38.614503],[28.93856,38.614256],[28.937597,38.613785],[28.937108,38.613562],[28.936614,38.613351],[28.936116,38.613157],[28.935637,38.612993],[28.935102,38.612845],[28.934583,38.612748],[28.934055,38.612705],[28.933519,38.612706],[28.932977,38.612742],[28.932433,38.612803],[28.931888,38.612887],[28.931344,38.61299],[28.930804,38.613112],[28.930315,38.61324],[28.92983,38.61338],[28.928897,38.61367],[28.927905,38.613978],[28.927061,38.614231],[28.925974,38.614531],[28.925024,38.614761],[28.924023,38.614969],[28.923531,38.615059],[28.922544,38.615219],[28.921552,38.615355],[28.921149,38.615403],[28.920057,38.615518],[28.919056,38.615604],[28.917551,38.615699],[28.916039,38.615759],[28.914525,38.615794],[28.913498,38.615801],[28.9131,38.615799],[28.912027,38.615771],[28.911542,38.615741],[28.911067,38.615697],[28.910603,38.615632],[28.91016,38.615542],[28.909654,38.615381],[28.909361,38.615255],[28.908987,38.615015],[28.908664,38.614723],[28.908386,38.614391],[28.908155,38.614026],[28.907986,38.613675],[28.907847,38.613306],[28.90773,38.612926],[28.907629,38.612538],[28.907253,38.610885],[28.907172,38.610565],[28.907058,38.610181],[28.906909,38.609771],[28.908206,38.606667],[28.908402,38.606014],[28.907967,38.602188],[28.907428,38.599281],[28.905813,38.596588],[28.903982,38.594435],[28.900308,38.592167],[28.899418,38.591531],[28.895734,38.58899],[28.892748,38.587085],[28.889254,38.58448],[28.887285,38.583527],[28.883664,38.582511],[28.88214,38.582003],[28.879789,38.580796],[28.877757,38.57889],[28.876994,38.577683],[28.875851,38.576476],[28.875216,38.574253],[28.875088,38.572538],[28.874326,38.57114],[28.872548,38.569742],[28.870769,38.568281],[28.869625,38.566947],[28.86791,38.565931],[28.867021,38.565423],[28.864226,38.564216],[28.861875,38.563708],[28.857683,38.563581],[28.85349,38.563835],[28.850886,38.564533],[28.844914,38.566566],[28.841802,38.567329],[28.839197,38.568091],[28.837927,38.568408],[28.835513,38.569425],[28.83348,38.570759],[28.83132,38.57222],[28.829287,38.573808],[28.826175,38.575142],[28.822236,38.575396],[28.820394,38.575523],[28.818996,38.576095],[28.816753,38.576789],[28.817573,38.577248],[28.820257,38.57859],[28.82084,38.579815],[28.821657,38.58139],[28.822473,38.582673],[28.822182,38.584306],[28.821657,38.585648],[28.821248,38.586523],[28.820723,38.588098],[28.819965,38.589732],[28.819965,38.590898],[28.819848,38.59189],[28.819323,38.593348],[28.819557,38.594632],[28.81979,38.596032],[28.820082,38.599474],[28.82049,38.605191],[28.821132,38.611141],[28.822648,38.617849],[28.82364,38.620066],[28.825623,38.622808],[28.828015,38.62415],[28.833265,38.625666],[28.835407,38.628831],[28.838032,38.6322],[28.838644,38.63395],[28.839607,38.636487],[28.840701,38.638063],[28.841926,38.640644],[28.843151,38.642963],[28.843238,38.644144],[28.843151,38.645019],[28.84302,38.646769],[28.842976,38.649963],[28.842888,38.651801],[28.84337,38.654119],[28.844113,38.656307],[28.84512,38.657882],[28.847428,38.659777],[28.848051,38.660288],[28.849976,38.661513],[28.852689,38.66287],[28.855008,38.663613],[28.856495,38.66462],[28.85807,38.665407],[28.859908,38.666151],[28.861483,38.66672],[28.86472,38.66777],[28.86892,38.669345],[28.873427,38.670351],[28.874914,38.670745],[28.876883,38.671401],[28.877583,38.67197],[28.879333,38.673633],[28.879574,38.673873],[28.879815,38.674114],[28.88069,38.674726],[28.881783,38.675295],[28.882833,38.675601],[28.884802,38.67582],[28.885677,38.676301],[28.887865,38.677833],[28.888652,38.678314],[28.88979,38.679101],[28.897511,38.682662],[28.89877,38.683158],[28.899108,38.683292],[28.899446,38.683425],[28.902128,38.684483],[28.903047,38.684745],[28.90414,38.68457],[28.904512,38.684636],[28.904884,38.684702],[28.906459,38.68597],[28.907772,38.686845],[28.908516,38.687108],[28.911972,38.687414],[28.915647,38.688246],[28.92046,38.690127],[28.924791,38.691308],[28.927591,38.692227],[28.935904,38.694239],[28.940892,38.696427],[28.943823,38.696427],[28.945748,38.696733],[28.947936,38.697696],[28.950823,38.698921],[28.951917,38.700233],[28.953142,38.702771],[28.954892,38.705396],[28.956249,38.706665],[28.960055,38.707759],[28.96163,38.708371],[28.963249,38.708546],[28.965349,38.708809],[28.968455,38.709509],[28.979437,38.712703],[28.985737,38.715021],[28.989193,38.715853],[28.996325,38.717078],[29.001006,38.718434],[29.003544,38.719265],[29.005163,38.719528],[29.007219,38.719528],[29.008925,38.719484],[29.011375,38.71979],[29.013301,38.71979],[29.015576,38.719922],[29.018463,38.721059],[29.019338,38.721759],[29.020126,38.722678],[29.020782,38.723991],[29.021613,38.725391],[29.023013,38.727141],[29.024938,38.73086],[29.027301,38.73471],[29.027739,38.736197],[29.028526,38.738735],[29.029007,38.739785],[29.030757,38.742016],[29.031764,38.743985],[29.032595,38.745035],[29.033995,38.746041],[29.035089,38.747048],[29.038195,38.750198],[29.048675,38.756205],[29.050533,38.757679],[29.052371,38.758554],[29.055493,38.758904],[29.057036,38.759987],[29.058184,38.761234],[29.059365,38.76235],[29.060055,38.763039],[29.061433,38.764975],[29.062712,38.766517],[29.063434,38.768584],[29.064287,38.770127],[29.065009,38.7718],[29.065469,38.773375],[29.065403,38.775081],[29.065108,38.778067],[29.065698,38.779741],[29.068225,38.782071],[29.070662,38.786204],[29.073082,38.790307],[29.074132,38.792309],[29.074919,38.793851],[29.075214,38.794474],[29.075936,38.795426],[29.07633,38.796443],[29.076166,38.797985],[29.076199,38.79897],[29.077282,38.800709],[29.078233,38.801595],[29.080301,38.802448],[29.08309,38.803367],[29.085026,38.804286],[29.086141,38.805795],[29.086634,38.807862],[29.087913,38.809142],[29.089849,38.810553],[29.091096,38.81203],[29.092409,38.813933],[29.093426,38.815212],[29.094279,38.816656],[29.094903,38.817411],[29.09578,38.81867],[29.098839,38.823055],[29.099529,38.824367],[29.100317,38.825483],[29.10117,38.826369],[29.10688,38.829322],[29.108816,38.82988],[29.110522,38.830241],[29.111375,38.830897],[29.111999,38.831751],[29.112195,38.832702],[29.112195,38.833785],[29.112458,38.83454],[29.113245,38.835458],[29.113639,38.836509],[29.113574,38.83769],[29.11377,38.838904],[29.113863,38.839716]]]}}]}