{"type":"FeatureCollection","province":"Yalova","province_id":"TR-P-77","features":[{"type":"Feature","properties":{"id":"TR-D-77-001","parent_id":"TR-P-77","region_id":"TR-R-MAR","level":"district","municipality_type":null,"municipality_type_label":null,"is_metropolitan_municipality":null,"name":"Altınova","name_ascii":"altinova","slug":"altinova-yalova"},"geometry":{"type":"MultiPolygon","coordinates":[[[[29.419034,40.545137],[29.420138,40.545403],[29.420996,40.546138],[29.421547,40.546996],[29.421792,40.548099],[29.421792,40.550489],[29.421731,40.55343],[29.421731,40.555636],[29.421547,40.556677],[29.421363,40.557658],[29.421118,40.558271],[29.421118,40.558822],[29.421731,40.559251],[29.422773,40.560109],[29.423263,40.560844],[29.423263,40.561886],[29.423385,40.562682],[29.42355,40.563236],[29.423876,40.564337],[29.423998,40.56544],[29.424059,40.566297],[29.424182,40.566971],[29.424611,40.567462],[29.425101,40.567707],[29.426633,40.567829],[29.427858,40.568136],[29.428594,40.568626],[29.4289,40.569545],[29.42939,40.571261],[29.429513,40.573405],[29.429758,40.575489],[29.429819,40.576653],[29.429697,40.576898],[29.429268,40.577327],[29.428594,40.577878],[29.428287,40.578797],[29.428349,40.580268],[29.428165,40.581555],[29.428165,40.582351],[29.428471,40.582903],[29.429023,40.583393],[29.429574,40.584251],[29.429697,40.58517],[29.429758,40.586334],[29.429758,40.587069],[29.429942,40.587743],[29.431474,40.589827],[29.432454,40.591236],[29.433005,40.592461],[29.433496,40.593442],[29.433924,40.593932],[29.434599,40.5943],[29.434966,40.595096],[29.434905,40.596199],[29.434599,40.597179],[29.434599,40.598037],[29.43515,40.599018],[29.436621,40.600366],[29.438765,40.603736],[29.439807,40.60539],[29.442319,40.607351],[29.444831,40.609067],[29.448446,40.61164],[29.449978,40.612314],[29.452307,40.614214],[29.454635,40.617216],[29.454819,40.618993],[29.454513,40.621873],[29.453839,40.624998],[29.45151,40.629103],[29.45004,40.631799],[29.447221,40.635169],[29.441339,40.642338],[29.440297,40.643503],[29.435701,40.646505],[29.433189,40.648282],[29.431535,40.65202],[29.431351,40.655083],[29.431535,40.657902],[29.432086,40.659924],[29.432638,40.662252],[29.433434,40.664765],[29.434537,40.667767],[29.437111,40.671872],[29.438336,40.673956],[29.439071,40.677142],[29.439071,40.679409],[29.438397,40.681799],[29.437907,40.684801],[29.437233,40.690066],[29.437124,40.694516],[29.437388,40.69702],[29.436815,40.699804],[29.436814,40.699811],[29.436857,40.699773],[29.43685,40.699811],[29.439198,40.700642],[29.440521,40.700478],[29.440505,40.700988],[29.442784,40.700529],[29.445023,40.700776],[29.453479,40.705131],[29.457534,40.705452],[29.467032,40.706203],[29.468748,40.707245],[29.471029,40.708629],[29.476022,40.716683],[29.477748,40.719467],[29.483031,40.724155],[29.483516,40.728951],[29.494742,40.731903],[29.509469,40.739806],[29.513213,40.743385],[29.514335,40.74908],[29.517354,40.74947],[29.521098,40.745266],[29.522528,40.741265],[29.524159,40.743438],[29.526815,40.747917],[29.531031,40.750227],[29.5329,40.747569],[29.532922,40.737018],[29.533617,40.733734],[29.533726,40.732437],[29.53444,40.730375],[29.536113,40.728086],[29.538467,40.726759],[29.539918,40.7256],[29.54065,40.724761],[29.542608,40.72331],[29.545326,40.720849],[29.547971,40.717802],[29.550413,40.713381],[29.552165,40.711519],[29.555566,40.708476],[29.556911,40.705175],[29.561779,40.699431],[29.562173,40.699174],[29.562776,40.698744],[29.563661,40.698116],[29.562534,40.695561],[29.561576,40.69359],[29.560755,40.691755],[29.56018,40.690468],[29.55944,40.688853],[29.558664,40.687219],[29.55843,40.687263],[29.558261,40.687296],[29.558184,40.68731],[29.557966,40.687361],[29.557799,40.687399],[29.557699,40.687422],[29.557225,40.687554],[29.557027,40.687579],[29.556702,40.687619],[29.554538,40.681847],[29.551952,40.678321],[29.549836,40.675421],[29.539179,40.66829],[29.535809,40.667272],[29.532518,40.666096],[29.52907,40.664137],[29.525857,40.662256],[29.524054,40.660062],[29.522409,40.656771],[29.520528,40.654812],[29.519118,40.652696],[29.517315,40.649875],[29.515937,40.648699],[29.514651,40.647602],[29.511203,40.646035],[29.50752,40.645016],[29.50415,40.644154],[29.500859,40.643292],[29.494041,40.639766],[29.492474,40.637807],[29.49169,40.635926],[29.49122,40.631224],[29.490436,40.626679],[29.491142,40.621742],[29.492239,40.617746],[29.493101,40.613044],[29.494041,40.609831],[29.495687,40.605051],[29.497254,40.60027],[29.496705,40.596431],[29.495843,40.593218],[29.494433,40.590632],[29.492239,40.587889],[29.489888,40.585851],[29.488118,40.582443],[29.486433,40.576629],[29.481642,40.565525],[29.479588,40.559136],[29.479132,40.556094],[29.471146,40.554953],[29.46742,40.554801],[29.457913,40.555486],[29.449775,40.556094],[29.448406,40.556094],[29.443234,40.554041],[29.442146,40.553356],[29.438519,40.551074],[29.436282,40.549812],[29.433803,40.548412],[29.43284,40.547937],[29.427643,40.54537],[29.423764,40.543925],[29.421558,40.544001],[29.419046,40.545131],[29.419034,40.545137]]],[[[29.41887,40.545211],[29.419034,40.545137],[29.419011,40.545131],[29.418834,40.545211],[29.41848,40.54537],[29.414069,40.547348],[29.410647,40.548565],[29.405931,40.550086],[29.401146,40.550693],[29.401175,40.550694],[29.405967,40.550086],[29.410682,40.548565],[29.414105,40.547348],[29.418516,40.54537],[29.41887,40.545211]]]]}},{"type":"Feature","properties":{"id":"TR-D-77-002","parent_id":"TR-P-77","region_id":"TR-R-MAR","level":"district","municipality_type":null,"municipality_type_label":null,"is_metropolitan_municipality":null,"name":"Armutlu","name_ascii":"armutlu","slug":"armutlu-yalova"},"geometry":{"type":"Polygon","coordinates":[[[28.989841,40.466232],[28.989734,40.466149],[28.989397,40.465945],[28.989207,40.46583],[28.989011,40.465615],[28.988953,40.465452],[28.988835,40.465159],[28.988731,40.464541],[28.988582,40.464424],[28.988419,40.464332],[28.988217,40.464313],[28.988022,40.4643],[28.98765,40.464456],[28.987123,40.464489],[28.986889,40.464339],[28.98663,40.464266],[28.986425,40.464253],[28.98586,40.463776],[28.984424,40.462568],[28.982614,40.46106],[28.980725,40.459456],[28.98009,40.458932],[28.978962,40.457932],[28.977677,40.456905],[28.976232,40.455614],[28.975819,40.455408],[28.975168,40.455122],[28.974832,40.455167],[28.974431,40.455215],[28.973628,40.455551],[28.973278,40.455947],[28.972484,40.456948],[28.97222,40.457612],[28.972159,40.457766],[28.971995,40.458831],[28.971812,40.459021],[28.971304,40.459592],[28.970725,40.460092],[28.970336,40.460323],[28.970114,40.460449],[28.969455,40.460616],[28.969051,40.460648],[28.968828,40.460553],[28.968495,40.460584],[28.968225,40.460711],[28.967924,40.460743],[28.967675,40.46071],[28.967448,40.46068],[28.967217,40.460703],[28.967114,40.460783],[28.96706,40.46096],[28.966789,40.461065],[28.966626,40.461125],[28.966575,40.460917],[28.966408,40.460941],[28.966376,40.461005],[28.966376,40.461156],[28.966273,40.461255],[28.965963,40.461552],[28.965678,40.461711],[28.965273,40.46179],[28.965035,40.461679],[28.965028,40.461666],[28.964845,40.461314],[28.964329,40.461171],[28.964249,40.461267],[28.964686,40.461394],[28.964876,40.461592],[28.964559,40.461727],[28.963464,40.461838],[28.96294,40.461727],[28.962454,40.461823],[28.960773,40.462155],[28.959329,40.462425],[28.958766,40.462528],[28.958591,40.462521],[28.958568,40.46252],[28.958274,40.462521],[28.957901,40.4625],[28.948867,40.462233],[28.948009,40.462207],[28.946898,40.462173],[28.946867,40.462188],[28.946418,40.462158],[28.942954,40.463284],[28.942132,40.463551],[28.942113,40.463557],[28.942065,40.463573],[28.942009,40.463578],[28.941961,40.463586],[28.94189,40.463573],[28.941854,40.46357],[28.938462,40.463045],[28.937754,40.462935],[28.936309,40.462713],[28.936174,40.462697],[28.935833,40.462641],[28.935703,40.462635],[28.935674,40.462633],[28.935668,40.46263],[28.935608,40.462631],[28.935576,40.462655],[28.935454,40.462693],[28.935421,40.46271],[28.935309,40.462768],[28.93519,40.462832],[28.933706,40.46358],[28.932451,40.464213],[28.930117,40.465404],[28.927323,40.465991],[28.927269,40.466003],[28.927132,40.465991],[28.926736,40.466055],[28.926395,40.465991],[28.9258,40.465904],[28.925736,40.465896],[28.925608,40.46588],[28.925466,40.46588],[28.924916,40.466022],[28.924751,40.466071],[28.922211,40.46642],[28.921149,40.46671],[28.921084,40.466722],[28.918051,40.46723],[28.917273,40.467484],[28.917117,40.467546],[28.917065,40.467567],[28.916969,40.467631],[28.916289,40.468246],[28.916213,40.468326],[28.916008,40.468551],[28.915936,40.468773],[28.915765,40.469389],[28.915731,40.469461],[28.915431,40.470104],[28.914971,40.470802],[28.914796,40.471088],[28.914533,40.471283],[28.914479,40.471342],[28.913971,40.471676],[28.913875,40.471723],[28.912897,40.471757],[28.912492,40.471813],[28.911881,40.471939],[28.910462,40.472152],[28.908162,40.472281],[28.907405,40.472184],[28.906906,40.47212],[28.905889,40.471977],[28.903889,40.472215],[28.901079,40.472485],[28.900063,40.472469],[28.899078,40.472406],[28.898945,40.472418],[28.898793,40.47242],[28.898602,40.472485],[28.898539,40.472581],[28.89848,40.472648],[28.898465,40.472664],[28.89843,40.472716],[28.898389,40.472775],[28.898269,40.47293],[28.898118,40.473162],[28.898046,40.473247],[28.897999,40.473295],[28.897935,40.473438],[28.898154,40.473747],[28.898192,40.473804],[28.898443,40.474168],[28.89865,40.474486],[28.898842,40.474908],[28.898866,40.474973],[28.899021,40.475391],[28.899015,40.475518],[28.898756,40.475592],[28.898078,40.475788],[28.897602,40.475947],[28.896119,40.475871],[28.895125,40.47582],[28.894649,40.475978],[28.89349,40.476486],[28.892058,40.477057],[28.891533,40.477287],[28.891406,40.477386],[28.89117,40.47757],[28.890471,40.478089],[28.890246,40.478257],[28.890013,40.478344],[28.888362,40.478789],[28.887949,40.478908],[28.887178,40.479091],[28.886625,40.479202],[28.886361,40.479265],[28.885215,40.479528],[28.884841,40.479671],[28.884619,40.479743],[28.88438,40.479822],[28.884368,40.479827],[28.884011,40.479947],[28.88384,40.479997],[28.883594,40.480109],[28.88349,40.48018],[28.883434,40.480245],[28.882952,40.480659],[28.88293,40.48068],[28.882703,40.480895],[28.882552,40.481038],[28.882409,40.481166],[28.882306,40.481317],[28.882318,40.481441],[28.882305,40.481536],[28.882304,40.481568],[28.882309,40.481938],[28.882306,40.482294],[28.882298,40.482469],[28.882294,40.482655],[28.882313,40.482837],[28.882298,40.483002],[28.882242,40.483049],[28.882035,40.483143],[28.881559,40.483303],[28.881058,40.483494],[28.87982,40.483949],[28.87956,40.484035],[28.879486,40.48406],[28.878996,40.484499],[28.878645,40.484727],[28.877152,40.486051],[28.874819,40.488807],[28.873677,40.490208],[28.873011,40.490738],[28.872567,40.49108],[28.870123,40.493016],[28.868932,40.493952],[28.868479,40.494341],[28.867606,40.495089],[28.867377,40.495286],[28.864606,40.49764],[28.863837,40.498071],[28.86306,40.498357],[28.862766,40.498404],[28.862068,40.498476],[28.861481,40.498872],[28.861076,40.49919],[28.860758,40.499015],[28.860465,40.499221],[28.860655,40.499261],[28.860679,40.499452],[28.860155,40.500523],[28.859457,40.50142],[28.858727,40.502435],[28.858307,40.502992],[28.857848,40.503551],[28.857695,40.503737],[28.856814,40.504546],[28.856052,40.50507],[28.85537,40.505546],[28.855116,40.505705],[28.854862,40.505895],[28.854616,40.506006],[28.854291,40.506189],[28.854005,40.506276],[28.853727,40.506356],[28.8526,40.506332],[28.852563,40.506311],[28.852156,40.506078],[28.851759,40.505967],[28.850886,40.50607],[28.850291,40.506094],[28.849886,40.506006],[28.849632,40.505927],[28.849466,40.505689],[28.849577,40.505657],[28.849577,40.505506],[28.848902,40.505649],[28.848982,40.505776],[28.849212,40.505745],[28.849275,40.505856],[28.849029,40.50599],[28.848625,40.506118],[28.847894,40.506578],[28.847117,40.507197],[28.846617,40.507562],[28.846043,40.507849],[28.845998,40.507871],[28.845561,40.50807],[28.845102,40.50806],[28.844799,40.508054],[28.844394,40.508219],[28.844022,40.508371],[28.842752,40.508696],[28.841839,40.508824],[28.841711,40.508815],[28.84149,40.5088],[28.841078,40.508887],[28.840834,40.509003],[28.840514,40.509157],[28.839713,40.50926],[28.83956,40.509254],[28.838856,40.509228],[28.838062,40.509133],[28.838133,40.508093],[28.838014,40.508093],[28.837927,40.508879],[28.837585,40.508927],[28.836546,40.508752],[28.835586,40.508593],[28.835038,40.508569],[28.83453,40.508569],[28.834522,40.50845],[28.834752,40.508474],[28.834729,40.508331],[28.834467,40.508323],[28.834403,40.508522],[28.833888,40.508633],[28.833888,40.508744],[28.832792,40.508919],[28.832015,40.509053],[28.831507,40.509165],[28.830983,40.509379],[28.830205,40.509538],[28.829475,40.50968],[28.828777,40.509887],[28.828499,40.509926],[28.827444,40.509752],[28.825706,40.509563],[28.824539,40.509038],[28.824468,40.509443],[28.822466,40.510921],[28.821489,40.511588],[28.820822,40.511874],[28.819893,40.512112],[28.818129,40.511898],[28.816461,40.511588],[28.815199,40.511659],[28.813416,40.512415],[28.812085,40.512711],[28.811197,40.512612],[28.808485,40.513499],[28.808123,40.513587],[28.807771,40.513672],[28.806785,40.513721],[28.80538,40.513771],[28.804979,40.513694],[28.804221,40.513549],[28.803464,40.513701],[28.802907,40.513813],[28.801267,40.513973],[28.800868,40.514003],[28.800494,40.513905],[28.800193,40.51396],[28.799155,40.514304],[28.798873,40.514329],[28.798216,40.514151],[28.797756,40.514022],[28.797559,40.513966],[28.797381,40.51396],[28.797062,40.513985],[28.796957,40.514052],[28.796816,40.514071],[28.796599,40.514281],[28.795797,40.515059],[28.795527,40.515219],[28.795299,40.515243],[28.795293,40.515379],[28.794808,40.515716],[28.794464,40.515907],[28.794354,40.515864],[28.794249,40.515925],[28.794237,40.516011],[28.793899,40.516269],[28.793476,40.516551],[28.793138,40.516778],[28.792727,40.516999],[28.79253,40.51692],[28.79245,40.516969],[28.792506,40.517061],[28.791935,40.517319],[28.791621,40.51746],[28.791363,40.517331],[28.791235,40.517294],[28.79113,40.517441],[28.790479,40.517687],[28.790068,40.517736],[28.789773,40.517699],[28.789798,40.517429],[28.789718,40.517411],[28.789669,40.517681],[28.789221,40.517699],[28.788619,40.517724],[28.788361,40.517699],[28.788072,40.517533],[28.787722,40.517294],[28.787679,40.517374],[28.787397,40.517515],[28.78701,40.517613],[28.786513,40.51765],[28.786052,40.517595],[28.785745,40.517386],[28.785726,40.517316],[28.785707,40.517242],[28.785568,40.517183],[28.785125,40.51713],[28.784688,40.517209],[28.784344,40.517527],[28.783901,40.517784],[28.783736,40.517871],[28.783365,40.517983],[28.783141,40.517897],[28.782823,40.517705],[28.782618,40.517791],[28.782545,40.517837],[28.782353,40.517864],[28.782281,40.517811],[28.782188,40.517804],[28.782149,40.517851],[28.782149,40.51791],[28.782115,40.517963],[28.781891,40.518023],[28.781811,40.518036],[28.781752,40.518003],[28.781686,40.51795],[28.7816,40.517943],[28.781527,40.517976],[28.781494,40.518069],[28.781447,40.518175],[28.781361,40.518228],[28.781216,40.518221],[28.781123,40.518175],[28.781051,40.518128],[28.780951,40.518082],[28.780779,40.518089],[28.780839,40.518181],[28.780892,40.518221],[28.780904,40.51826],[28.780912,40.518287],[28.780832,40.51838],[28.780852,40.518433],[28.780931,40.518472],[28.780971,40.518684],[28.780885,40.518975],[28.780839,40.519061],[28.780766,40.519081],[28.78076,40.51916],[28.780812,40.519233],[28.780773,40.519392],[28.780812,40.519471],[28.780859,40.519511],[28.780859,40.519656],[28.780978,40.519762],[28.780971,40.519967],[28.781064,40.520265],[28.78107,40.52045],[28.78115,40.520556],[28.781151,40.520587],[28.781156,40.520774],[28.781103,40.520873],[28.781002,40.520946],[28.780965,40.520972],[28.780938,40.521078],[28.78094,40.52111],[28.780958,40.521396],[28.780905,40.521541],[28.780839,40.521581],[28.780772,40.521578],[28.780693,40.521574],[28.780667,40.521634],[28.780634,40.521713],[28.780455,40.521753],[28.780389,40.521826],[28.780369,40.521905],[28.780402,40.522024],[28.780435,40.522163],[28.780402,40.522454],[28.780237,40.522606],[28.780171,40.522705],[28.780164,40.522771],[28.780032,40.522785],[28.779953,40.522831],[28.779946,40.522871],[28.780058,40.522943],[28.780085,40.523208],[28.780197,40.523287],[28.780239,40.523377],[28.780435,40.523803],[28.780482,40.524226],[28.780409,40.524293],[28.780416,40.524458],[28.78027,40.524603],[28.78027,40.52467],[28.78025,40.524709],[28.780191,40.524709],[28.780151,40.524749],[28.780125,40.524868],[28.780065,40.524888],[28.779979,40.524881],[28.779936,40.524895],[28.779853,40.524921],[28.779873,40.525133],[28.779901,40.525156],[28.779959,40.525205],[28.779939,40.525258],[28.779881,40.525317],[28.779853,40.525344],[28.779853,40.525476],[28.779714,40.525569],[28.779582,40.525662],[28.779582,40.525761],[28.779602,40.52586],[28.779655,40.5259],[28.779655,40.525939],[28.779622,40.526006],[28.779721,40.526039],[28.779829,40.526045],[28.779834,40.526045],[28.780025,40.52631],[28.780072,40.526495],[28.780316,40.526898],[28.780369,40.527388],[28.780343,40.527613],[28.780224,40.527692],[28.780118,40.527851],[28.78021,40.528043],[28.780144,40.528281],[28.780171,40.528367],[28.780155,40.528398],[28.78014,40.528448],[28.780135,40.528494],[28.780132,40.528512],[28.780089,40.528523],[28.780066,40.52855],[28.780078,40.528584],[28.780069,40.528606],[28.780036,40.528616],[28.780041,40.52869],[28.780051,40.528754],[28.780035,40.528802],[28.78002,40.528856],[28.779947,40.528856],[28.779936,40.528901],[28.779936,40.528922],[28.779909,40.528958],[28.779886,40.528973],[28.779842,40.528972],[28.779773,40.52897],[28.779745,40.528983],[28.779733,40.529013],[28.779748,40.529028],[28.779776,40.529041],[28.779843,40.529044],[28.779845,40.529048],[28.779848,40.529057],[28.779846,40.529075],[28.779845,40.52908],[28.779815,40.529097],[28.779776,40.52911],[28.779735,40.529136],[28.779698,40.529155],[28.779667,40.529189],[28.779641,40.529226],[28.779639,40.52925],[28.779629,40.529265],[28.779613,40.529285],[28.779562,40.529308],[28.779562,40.529324],[28.779537,40.529349],[28.779534,40.529374],[28.779537,40.529407],[28.779565,40.529431],[28.779563,40.529451],[28.779548,40.529471],[28.77955,40.529492],[28.779565,40.529511],[28.779578,40.529516],[28.779576,40.529544],[28.779563,40.52956],[28.779566,40.529585],[28.779593,40.529616],[28.779591,40.529634],[28.779604,40.529665],[28.7796,40.529733],[28.779619,40.529753],[28.779646,40.529766],[28.779667,40.529789],[28.779649,40.529868],[28.779657,40.529913],[28.779675,40.529939],[28.7797,40.529974],[28.779728,40.530005],[28.779753,40.530031],[28.779771,40.530048],[28.779751,40.530107],[28.779726,40.53012],[28.779695,40.530171],[28.779692,40.530206],[28.779705,40.530246],[28.779721,40.530288],[28.779746,40.53032],[28.779779,40.530345],[28.779806,40.530361],[28.779802,40.530392],[28.779787,40.530412],[28.779787,40.530443],[28.779809,40.530462],[28.779835,40.530462],[28.779855,40.530448],[28.779868,40.530434],[28.779885,40.530437],[28.779904,40.530452],[28.779909,40.530473],[28.779904,40.530496],[28.779891,40.530511],[28.779886,40.530539],[28.779893,40.530562],[28.779898,40.530585],[28.779909,40.530595],[28.779919,40.530593],[28.779931,40.53059],[28.779959,40.530583],[28.779992,40.530565],[28.78001,40.530546],[28.780028,40.530537],[28.780046,40.530537],[28.780064,40.530572],[28.780269,40.530768],[28.780601,40.531343],[28.780625,40.531424],[28.780623,40.531586],[28.780641,40.531617],[28.780677,40.531651],[28.780717,40.531696],[28.780717,40.531762],[28.780705,40.531813],[28.780697,40.531858],[28.780684,40.531885],[28.780654,40.531925],[28.780643,40.53196],[28.780643,40.531979],[28.780588,40.532049],[28.780562,40.532045],[28.780534,40.532039],[28.780493,40.532054],[28.780466,40.532105],[28.780465,40.532129],[28.78044,40.532161],[28.78042,40.532175],[28.780371,40.532174],[28.780354,40.532182],[28.780349,40.53222],[28.780364,40.532243],[28.780382,40.532253],[28.780414,40.53226],[28.780447,40.53225],[28.780468,40.532241],[28.780498,40.532245],[28.780491,40.532303],[28.780494,40.532339],[28.780516,40.532358],[28.780555,40.532342],[28.780574,40.53234],[28.780597,40.532355],[28.780608,40.532375],[28.7806,40.532406],[28.780577,40.532454],[28.780549,40.532485],[28.780554,40.532522],[28.780574,40.532531],[28.78061,40.532647],[28.780626,40.532691],[28.780631,40.532901],[28.780565,40.533003],[28.780544,40.533021],[28.780534,40.533047],[28.780546,40.533069],[28.780593,40.53309],[28.780628,40.533093],[28.780663,40.533122],[28.780682,40.533146],[28.780702,40.533191],[28.780732,40.533227],[28.780742,40.53326],[28.780742,40.53328],[28.780778,40.53339],[28.780735,40.53344],[28.780694,40.533489],[28.780611,40.533572],[28.780554,40.533578],[28.780531,40.533595],[28.780521,40.533642],[28.780555,40.533684],[28.780555,40.533716],[28.780546,40.533738],[28.780531,40.533766],[28.780501,40.533779],[28.780475,40.533824],[28.780463,40.533856],[28.78046,40.533919],[28.780478,40.534011],[28.780475,40.534038],[28.780468,40.534076],[28.780452,40.534095],[28.78043,40.53412],[28.780414,40.534165],[28.78042,40.534206],[28.780435,40.534226],[28.780458,40.534242],[28.780463,40.534264],[28.780452,40.534287],[28.780437,40.53431],[28.780387,40.534313],[28.780361,40.534346],[28.780359,40.534371],[28.780369,40.534396],[28.780402,40.534412],[28.78046,40.5344],[28.780491,40.534409],[28.780486,40.534461],[28.780422,40.534476],[28.780392,40.534496],[28.780389,40.534519],[28.780399,40.534542],[28.780448,40.534572],[28.780484,40.534628],[28.780512,40.534654],[28.780545,40.534667],[28.780587,40.534717],[28.780649,40.534786],[28.780695,40.534826],[28.780697,40.534827],[28.780906,40.535035],[28.780977,40.535137],[28.781007,40.535163],[28.781038,40.535178],[28.781071,40.535182],[28.781086,40.535185],[28.781122,40.535193],[28.781159,40.535215],[28.781162,40.535229],[28.781129,40.535249],[28.781134,40.535267],[28.781134,40.53529],[28.781114,40.535299],[28.781094,40.53532],[28.781114,40.535351],[28.781119,40.535376],[28.781114,40.535388],[28.781096,40.535393],[28.781053,40.535368],[28.781032,40.535371],[28.780989,40.535396],[28.78099,40.535416],[28.781004,40.535444],[28.781033,40.53546],[28.781045,40.535472],[28.781045,40.535495],[28.78103,40.535526],[28.781027,40.535554],[28.78104,40.535579],[28.781063,40.535623],[28.781099,40.535646],[28.781134,40.53565],[28.781182,40.535668],[28.781226,40.535702],[28.781241,40.535725],[28.781233,40.535777],[28.781249,40.535811],[28.781271,40.535846],[28.781308,40.535865],[28.781368,40.535897],[28.781368,40.535925],[28.781389,40.536027],[28.781485,40.536195],[28.781501,40.536357],[28.781546,40.536571],[28.781617,40.536614],[28.781681,40.536637],[28.781684,40.536655],[28.781747,40.53669],[28.78177,40.536731],[28.781798,40.53676],[28.781821,40.536772],[28.781852,40.536782],[28.781879,40.536787],[28.781884,40.536802],[28.781871,40.536828],[28.781879,40.536853],[28.7819,40.536886],[28.781892,40.536937],[28.781905,40.536961],[28.781923,40.53697],[28.781938,40.536973],[28.781951,40.536963],[28.78195,40.536933],[28.781941,40.536919],[28.781946,40.536907],[28.781974,40.53692],[28.782004,40.536965],[28.782029,40.537024],[28.782058,40.537047],[28.782182,40.537148],[28.782325,40.537334],[28.782371,40.537374],[28.78239,40.5374],[28.782472,40.537458],[28.782554,40.537512],[28.782625,40.537584],[28.782657,40.537575],[28.782676,40.537558],[28.782699,40.537555],[28.782714,40.537583],[28.782742,40.537593],[28.782787,40.537588],[28.782868,40.53757],[28.782961,40.537552],[28.783019,40.537542],[28.783168,40.53754],[28.783378,40.537591],[28.78352,40.537627],[28.78385,40.537741],[28.78395,40.537807],[28.784023,40.537893],[28.784025,40.537926],[28.784076,40.537955],[28.784071,40.538003],[28.784033,40.538046],[28.784029,40.538094],[28.784038,40.538117],[28.784056,40.538123],[28.784085,40.53812],[28.784102,40.538102],[28.784117,40.538072],[28.784133,40.538048],[28.784161,40.538028],[28.784202,40.538026],[28.784306,40.538046],[28.784339,40.538056],[28.784413,40.538059],[28.78452,40.538074],[28.784835,40.538135],[28.784972,40.538163],[28.785488,40.538343],[28.785734,40.538451],[28.786454,40.538781],[28.786994,40.539038],[28.787738,40.539491],[28.787925,40.539635],[28.788028,40.53987],[28.78841,40.540167],[28.788608,40.540587],[28.788789,40.540928],[28.788921,40.541171],[28.788883,40.541281],[28.788896,40.541349],[28.789109,40.541579],[28.78929,40.541845],[28.78933,40.541912],[28.78947,40.542164],[28.790018,40.543166],[28.790203,40.543771],[28.790135,40.54403],[28.789969,40.544183],[28.789737,40.544284],[28.789603,40.54436],[28.789595,40.544399],[28.789602,40.544437],[28.789677,40.54447],[28.789695,40.544521],[28.789639,40.544579],[28.789634,40.544623],[28.789649,40.544646],[28.789697,40.544664],[28.78971,40.544697],[28.789658,40.544791],[28.789684,40.544846],[28.78973,40.544887],[28.789697,40.544933],[28.789694,40.544968],[28.789786,40.545024],[28.789819,40.545068],[28.789798,40.545136],[28.789773,40.545189],[28.789821,40.545233],[28.789928,40.545299],[28.789957,40.545317],[28.789959,40.545403],[28.789913,40.545502],[28.789839,40.545545],[28.789817,40.545614],[28.789852,40.545665],[28.789859,40.545698],[28.789836,40.545762],[28.789826,40.54581],[28.789897,40.545833],[28.789919,40.545971],[28.789969,40.545985],[28.790015,40.545988],[28.790093,40.546123],[28.7902,40.546207],[28.790276,40.546253],[28.790322,40.546318],[28.79035,40.546411],[28.790338,40.546492],[28.79035,40.546576],[28.79032,40.546665],[28.790323,40.546772],[28.790366,40.546789],[28.790399,40.546759],[28.790444,40.546743],[28.790498,40.546753],[28.790516,40.546823],[28.790551,40.54687],[28.790597,40.546881],[28.790683,40.546959],[28.790701,40.546974],[28.790834,40.547046],[28.790936,40.547069],[28.791086,40.54716],[28.791144,40.547193],[28.791268,40.54729],[28.791454,40.547377],[28.791663,40.547658],[28.791701,40.547778],[28.791775,40.547847],[28.791853,40.54792],[28.792006,40.548153],[28.792055,40.548437],[28.792055,40.548554],[28.791971,40.548745],[28.791971,40.548833],[28.792031,40.54889],[28.792045,40.548997],[28.792049,40.549078],[28.791989,40.549162],[28.791981,40.549296],[28.792111,40.549419],[28.792174,40.549597],[28.792095,40.549719],[28.792093,40.54973],[28.792082,40.549793],[28.792138,40.549843],[28.792227,40.549909],[28.792321,40.550006],[28.792339,40.550079],[28.792306,40.550108],[28.792336,40.550148],[28.792375,40.550151],[28.792411,40.550192],[28.792405,40.550229],[28.79243,40.550258],[28.792462,40.55027],[28.792497,40.550299],[28.792513,40.550377],[28.792481,40.550377],[28.792462,40.550384],[28.792482,40.55043],[28.79253,40.550494],[28.792617,40.550612],[28.792632,40.550705],[28.792624,40.550769],[28.792594,40.5508],[28.79257,40.550818],[28.792553,40.550866],[28.792546,40.550939],[28.792538,40.550974],[28.792574,40.551011],[28.79263,40.55103],[28.792695,40.551071],[28.792753,40.551097],[28.792792,40.551125],[28.792853,40.551203],[28.792907,40.551232],[28.792945,40.551221],[28.792978,40.551163],[28.792995,40.551156],[28.793102,40.551201],[28.793202,40.551268],[28.793255,40.551343],[28.793319,40.551399],[28.793417,40.551481],[28.793502,40.551554],[28.793606,40.551617],[28.793725,40.551689],[28.79386,40.551772],[28.793945,40.551825],[28.794039,40.551852],[28.794157,40.55188],[28.794252,40.551927],[28.794322,40.551967],[28.794368,40.551985],[28.794431,40.552003],[28.794492,40.55202],[28.794566,40.552038],[28.794707,40.552083],[28.794866,40.55213],[28.794905,40.552141],[28.795081,40.552198],[28.795608,40.552368],[28.795958,40.552488],[28.796175,40.552618],[28.796252,40.552735],[28.796286,40.552825],[28.796255,40.552895],[28.796252,40.552902],[28.796249,40.552972],[28.796172,40.553019],[28.796162,40.553072],[28.796212,40.553199],[28.796352,40.55327],[28.796426,40.553383],[28.796439,40.553447],[28.796686,40.553573],[28.796766,40.553617],[28.796877,40.55364],[28.79696,40.553674],[28.797044,40.553727],[28.797184,40.553794],[28.797297,40.553841],[28.797314,40.553867],[28.797291,40.553907],[28.797334,40.553941],[28.797424,40.553961],[28.797544,40.553968],[28.797922,40.554295],[28.797905,40.554325],[28.797835,40.554355],[28.797808,40.554422],[28.797848,40.554445],[28.797898,40.554445],[28.798002,40.554388],[28.798086,40.554388],[28.798196,40.554415],[28.798343,40.554468],[28.798453,40.554525],[28.798553,40.554605],[28.798516,40.554642],[28.798533,40.554685],[28.798676,40.554692],[28.798763,40.554712],[28.79898,40.554839],[28.799131,40.554919],[28.799268,40.554963],[28.799321,40.554953],[28.799398,40.554973],[28.799582,40.555043],[28.799812,40.555126],[28.799875,40.555153],[28.800133,40.555193],[28.800396,40.555229],[28.800523,40.555246],[28.800837,40.555283],[28.801064,40.555317],[28.801328,40.555367],[28.801595,40.555497],[28.801772,40.555584],[28.802113,40.555797],[28.802367,40.555964],[28.802604,40.556128],[28.802754,40.556285],[28.802861,40.556438],[28.802917,40.556539],[28.802971,40.556676],[28.802994,40.556736],[28.802998,40.556866],[28.802941,40.556929],[28.802781,40.556943],[28.80271,40.556963],[28.802734,40.557036],[28.80277,40.557103],[28.802787,40.557167],[28.802831,40.557227],[28.802917,40.557263],[28.803014,40.557273],[28.803141,40.557243],[28.803255,40.55718],[28.803308,40.557123],[28.803365,40.557197],[28.803455,40.557213],[28.803572,40.557273],[28.803686,40.55733],[28.803772,40.55743],[28.803789,40.55751],[28.803833,40.557557],[28.803909,40.557557],[28.804073,40.557527],[28.80415,40.557524],[28.804367,40.557541],[28.804454,40.557581],[28.80465,40.557619],[28.804657,40.557621],[28.804808,40.557671],[28.804985,40.557761],[28.805051,40.557771],[28.805676,40.558008],[28.805943,40.558115],[28.806097,40.558232],[28.80602,40.558382],[28.806018,40.558394],[28.806003,40.558482],[28.806196,40.558495],[28.8082,40.558629],[28.808935,40.558836],[28.809743,40.55907],[28.810171,40.559327],[28.810054,40.559517],[28.810211,40.559631],[28.810638,40.559798],[28.811276,40.560305],[28.811533,40.560529],[28.81189,40.561037],[28.811887,40.561247],[28.812161,40.561334],[28.812602,40.561805],[28.813547,40.562446],[28.813727,40.562563],[28.813934,40.56275],[28.814358,40.562933],[28.81507,40.563251],[28.815236,40.563334],[28.81553,40.563598],[28.815545,40.563633],[28.815624,40.563832],[28.815711,40.563989],[28.815721,40.564202],[28.815794,40.564299],[28.816202,40.564319],[28.816609,40.56446],[28.816923,40.564663],[28.81721,40.564857],[28.817591,40.564864],[28.818015,40.564971],[28.818332,40.565101],[28.818813,40.565241],[28.81904,40.565278],[28.819361,40.565171],[28.819491,40.565141],[28.819925,40.565084],[28.820867,40.56498],[28.821505,40.56492],[28.821775,40.564894],[28.8228,40.564977],[28.823445,40.565491],[28.823548,40.565682],[28.823698,40.565715],[28.824089,40.565668],[28.82456,40.565658],[28.825342,40.565688],[28.825462,40.565692],[28.825922,40.565809],[28.82643,40.565872],[28.827155,40.565842],[28.827622,40.565785],[28.828855,40.565792],[28.830444,40.565769],[28.831753,40.565784],[28.831847,40.565785],[28.832605,40.565835],[28.832875,40.565855],[28.834218,40.566136],[28.835229,40.566343],[28.835379,40.566403],[28.836094,40.566693],[28.836328,40.566864],[28.836655,40.567007],[28.837049,40.567134],[28.837711,40.567355],[28.838128,40.567592],[28.838495,40.567792],[28.838726,40.568036],[28.839036,40.568507],[28.839237,40.568777],[28.839364,40.568964],[28.839591,40.569041],[28.840061,40.569108],[28.840285,40.569128],[28.840709,40.569161],[28.840876,40.569178],[28.842212,40.569408],[28.842907,40.569525],[28.843468,40.569682],[28.844536,40.569989],[28.845311,40.57027],[28.845625,40.570534],[28.845742,40.570647],[28.845972,40.570901],[28.846386,40.571028],[28.847038,40.571128],[28.847562,40.571315],[28.847782,40.571398],[28.848116,40.571555],[28.848457,40.571826],[28.848767,40.57206],[28.849265,40.572126],[28.849759,40.572283],[28.850187,40.572487],[28.850454,40.572561],[28.850627,40.572681],[28.850911,40.572714],[28.851696,40.572651],[28.851913,40.572634],[28.852684,40.572718],[28.853286,40.572794],[28.85402,40.572991],[28.855025,40.573268],[28.85549,40.573392],[28.855616,40.573425],[28.855887,40.573472],[28.856805,40.573642],[28.857567,40.573819],[28.858866,40.574407],[28.85935,40.574631],[28.859724,40.574788],[28.860088,40.574891],[28.860582,40.574978],[28.860676,40.574995],[28.861273,40.575175],[28.862412,40.575312],[28.863157,40.575412],[28.863397,40.575499],[28.863527,40.575546],[28.863951,40.575636],[28.864613,40.575623],[28.864837,40.575619],[28.865508,40.575653],[28.865812,40.575666],[28.866209,40.575706],[28.866516,40.575733],[28.867458,40.575937],[28.868146,40.576117],[28.869291,40.576665],[28.869408,40.576855],[28.869795,40.576978],[28.870146,40.577015],[28.87039,40.577065],[28.870607,40.577145],[28.871061,40.577172],[28.871348,40.577342],[28.871709,40.577349],[28.872053,40.577406],[28.872427,40.577543],[28.872574,40.577847],[28.872851,40.577847],[28.873108,40.577823],[28.873485,40.577917],[28.874027,40.578187],[28.874083,40.578361],[28.874113,40.578518],[28.874421,40.578581],[28.874868,40.578585],[28.875616,40.578662],[28.876284,40.578742],[28.876511,40.578775],[28.877216,40.578919],[28.877803,40.579042],[28.878782,40.579356],[28.879226,40.5795],[28.87972,40.579653],[28.880672,40.579927],[28.881423,40.580131],[28.882575,40.580338],[28.88324,40.580458],[28.885547,40.581243],[28.886209,40.581453],[28.886709,40.58161],[28.887364,40.581804],[28.88767,40.581881],[28.88867,40.582134],[28.889648,40.582371],[28.889962,40.582505],[28.891485,40.583143],[28.892316,40.583517],[28.892741,40.583711],[28.893228,40.583931],[28.893588,40.584122],[28.894023,40.584352],[28.894848,40.584792],[28.895415,40.585096],[28.895806,40.585487],[28.896611,40.586278],[28.897001,40.586459],[28.898568,40.58701],[28.899379,40.587314],[28.900001,40.587547],[28.900635,40.587785],[28.901303,40.588028],[28.902321,40.588659],[28.902592,40.588826],[28.902835,40.589054],[28.90376,40.589905],[28.904548,40.590697],[28.904876,40.590934],[28.90539,40.591321],[28.905864,40.591665],[28.905809,40.591064],[28.906002,40.590528],[28.906436,40.589608],[28.907463,40.588962],[28.909264,40.587837],[28.910106,40.587297],[28.91094,40.586748],[28.911763,40.586189],[28.912168,40.585904],[28.912957,40.585321],[28.913336,40.58502],[28.913701,40.58471],[28.914072,40.584367],[28.914427,40.584016],[28.915652,40.582715],[28.915936,40.582436],[28.916238,40.582174],[28.916564,40.581934],[28.916982,40.581691],[28.917436,40.581479],[28.917915,40.581291],[28.918414,40.581118],[28.918926,40.580958],[28.919976,40.58066],[28.921583,40.580239],[28.92482,40.579419],[28.926441,40.57902],[28.927526,40.57877],[28.928071,40.578655],[28.928619,40.578548],[28.929102,40.578463],[28.931533,40.578091],[28.933222,40.577801],[28.935466,40.57738],[28.939395,40.576622],[28.941075,40.576284],[28.942185,40.576035],[28.942732,40.575898],[28.943272,40.575746],[28.943752,40.575593],[28.944223,40.575425],[28.944684,40.575244],[28.945135,40.575049],[28.945582,40.574834],[28.946015,40.574604],[28.94643,40.574358],[28.946824,40.574094],[28.947215,40.573793],[28.947578,40.573471],[28.94791,40.573132],[28.948209,40.572775],[28.948443,40.572444],[28.948652,40.572102],[28.948843,40.571751],[28.949019,40.571393],[28.949184,40.571031],[28.94949,40.570292],[28.949768,40.569544],[28.950019,40.568792],[28.950131,40.568413],[28.950231,40.568034],[28.950316,40.567654],[28.95038,40.567272],[28.950425,40.566829],[28.950444,40.566384],[28.950445,40.565938],[28.950433,40.565491],[28.950354,40.564147],[28.949901,40.558323],[28.949864,40.557816],[28.950793,40.557366],[28.952852,40.557116],[28.95346,40.557011],[28.953875,40.556886],[28.954477,40.55672],[28.955474,40.556575],[28.95591,40.55645],[28.956242,40.556014],[28.9565,40.555684],[28.956943,40.555463],[28.95746,40.555205],[28.957756,40.554835],[28.958198,40.554577],[28.958715,40.554577],[28.959527,40.554946],[28.960118,40.555168],[28.960856,40.555315],[28.961558,40.555463],[28.96189,40.555758],[28.962037,40.556054],[28.96237,40.556201],[28.963071,40.556497],[28.963846,40.556866],[28.964511,40.557493],[28.964954,40.557862],[28.965655,40.558047],[28.966836,40.558158],[28.967685,40.558084],[28.968313,40.55801],[28.968977,40.557678],[28.969494,40.557345],[28.970011,40.556792],[28.970195,40.556275],[28.971044,40.55598],[28.971967,40.555648],[28.972742,40.5555],[28.973739,40.555684],[28.975141,40.55598],[28.975917,40.55598],[28.976692,40.555832],[28.977725,40.5555],[28.978353,40.554946],[28.979202,40.553986],[28.9809,40.552953],[28.983558,40.552252],[28.986548,40.551919],[28.989279,40.551624],[28.992343,40.551329],[28.994631,40.55107],[28.999356,40.550258],[29.009575,40.548916],[29.008121,40.545522],[29.006676,40.54172],[29.005839,40.535103],[29.004242,40.526432],[29.001276,40.516165],[28.999831,40.512058],[28.996028,40.504985],[28.990704,40.496543],[28.986902,40.490458],[28.98462,40.48407],[28.983631,40.47905],[28.983707,40.47692],[28.985456,40.473498],[28.989841,40.466232]]]}},{"type":"Feature","properties":{"id":"TR-D-77-003","parent_id":"TR-P-77","region_id":"TR-R-MAR","level":"district","municipality_type":null,"municipality_type_label":null,"is_metropolitan_municipality":null,"name":"Çiftlikköy","name_ascii":"ciftlikkoy","slug":"ciftlikkoy-yalova"},"geometry":{"type":"Polygon","coordinates":[[[29.396346,40.712108],[29.420467,40.698535],[29.431251,40.697842],[29.432384,40.698243],[29.436814,40.699811],[29.436815,40.699804],[29.437388,40.69702],[29.437124,40.694516],[29.437233,40.690066],[29.437907,40.684801],[29.438397,40.681799],[29.439071,40.679409],[29.439071,40.677142],[29.438336,40.673956],[29.437111,40.671872],[29.434537,40.667767],[29.433434,40.664765],[29.432638,40.662252],[29.432086,40.659924],[29.431535,40.657902],[29.431351,40.655083],[29.431535,40.65202],[29.433189,40.648282],[29.435701,40.646505],[29.440297,40.643503],[29.441339,40.642338],[29.447221,40.635169],[29.45004,40.631799],[29.45151,40.629103],[29.453839,40.624998],[29.454513,40.621873],[29.454819,40.618993],[29.454635,40.617216],[29.452307,40.614214],[29.449978,40.612314],[29.448446,40.61164],[29.444831,40.609067],[29.442319,40.607351],[29.439807,40.60539],[29.438765,40.603736],[29.436621,40.600366],[29.43515,40.599018],[29.434599,40.598037],[29.434599,40.597179],[29.434905,40.596199],[29.434966,40.595096],[29.434599,40.5943],[29.433924,40.593932],[29.433496,40.593442],[29.433005,40.592461],[29.432454,40.591236],[29.431474,40.589827],[29.429942,40.587743],[29.429758,40.587069],[29.429758,40.586334],[29.429697,40.58517],[29.429574,40.584251],[29.429023,40.583393],[29.428471,40.582903],[29.428165,40.582351],[29.428165,40.581555],[29.428349,40.580268],[29.428287,40.578797],[29.428594,40.577878],[29.429268,40.577327],[29.429697,40.576898],[29.429819,40.576653],[29.429758,40.575489],[29.429513,40.573405],[29.42939,40.571261],[29.4289,40.569545],[29.428594,40.568626],[29.427858,40.568136],[29.426633,40.567829],[29.425101,40.567707],[29.424611,40.567462],[29.424182,40.566971],[29.424059,40.566297],[29.423998,40.56544],[29.423876,40.564337],[29.42355,40.563236],[29.423385,40.562682],[29.423263,40.561886],[29.423263,40.560844],[29.422773,40.560109],[29.421731,40.559251],[29.421118,40.558822],[29.421118,40.558271],[29.421363,40.557658],[29.421547,40.556677],[29.421731,40.555636],[29.421731,40.55343],[29.421792,40.550489],[29.421792,40.548099],[29.421547,40.546996],[29.420996,40.546138],[29.420138,40.545403],[29.419034,40.545137],[29.41887,40.545211],[29.418516,40.54537],[29.414105,40.547348],[29.410682,40.548565],[29.405967,40.550086],[29.401175,40.550694],[29.401146,40.550693],[29.398209,40.550618],[29.398206,40.550619],[29.394863,40.551531],[29.394603,40.551632],[29.390375,40.55328],[29.386573,40.555257],[29.381933,40.558984],[29.376153,40.563319],[29.375465,40.563741],[29.373795,40.564764],[29.372198,40.565297],[29.372166,40.565296],[29.371848,40.565286],[29.371673,40.565281],[29.371672,40.565282],[29.37063,40.56677],[29.370447,40.56697],[29.369275,40.568252],[29.365894,40.572343],[29.365826,40.572383],[29.363094,40.575164],[29.360214,40.578045],[29.355495,40.581273],[29.351919,40.583359],[29.349088,40.584551],[29.345562,40.586339],[29.343625,40.587879],[29.339403,40.590809],[29.337416,40.592498],[29.335032,40.594783],[29.332499,40.596124],[29.331009,40.59662],[29.329122,40.597465],[29.328476,40.59816],[29.326738,40.603822],[29.3249,40.609981],[29.323957,40.614451],[29.323659,40.617232],[29.323063,40.61902],[29.320827,40.625229],[29.319983,40.628507],[29.319188,40.629997],[29.318692,40.634169],[29.318294,40.638341],[29.317897,40.63988],[29.311391,40.647529],[29.309404,40.650261],[29.308835,40.6509],[29.308854,40.65092],[29.308248,40.651602],[29.30795,40.652645],[29.307701,40.653738],[29.307701,40.654582],[29.30795,40.655675],[29.308099,40.656171],[29.308397,40.656718],[29.308893,40.657413],[29.309291,40.658208],[29.309787,40.659201],[29.309837,40.659946],[29.309539,40.660542],[29.308794,40.661734],[29.308546,40.662727],[29.308347,40.663522],[29.308446,40.664217],[29.308496,40.664764],[29.308297,40.666204],[29.307739,40.667402],[29.307699,40.667413],[29.307535,40.667763],[29.307525,40.667785],[29.309721,40.669675],[29.322555,40.680725],[29.329761,40.681881],[29.336442,40.682952],[29.344831,40.682544],[29.361533,40.696151],[29.384927,40.711899],[29.391778,40.710377],[29.396346,40.712108]]]}},{"type":"Feature","properties":{"id":"TR-D-77-004","parent_id":"TR-P-77","region_id":"TR-R-MAR","level":"district","municipality_type":null,"municipality_type_label":null,"is_metropolitan_municipality":null,"name":"Çınarcık","name_ascii":"cinarcik","slug":"cinarcik-yalova"},"geometry":{"type":"Polygon","coordinates":[[[29.206505,40.656367],[29.20283,40.653311],[29.199664,40.648181],[29.196595,40.642686],[29.191941,40.638302],[29.191671,40.638048],[29.187104,40.635479],[29.183393,40.634718],[29.181538,40.634337],[29.177542,40.633195],[29.175871,40.632755],[29.172867,40.631964],[29.170191,40.630787],[29.168643,40.628646],[29.167765,40.627433],[29.163341,40.623936],[29.160343,40.619369],[29.158345,40.612946],[29.157917,40.610092],[29.155562,40.603027],[29.153279,40.594892],[29.152422,40.593036],[29.150424,40.591395],[29.145928,40.587684],[29.141219,40.583688],[29.137549,40.580721],[29.133012,40.577051],[29.130514,40.575553],[29.122593,40.572555],[29.117384,40.569986],[29.11353,40.566276],[29.111247,40.563136],[29.110735,40.562508],[29.110363,40.562052],[29.107373,40.562711],[29.103647,40.562483],[29.097334,40.561114],[29.094748,40.560657],[29.090565,40.560505],[29.085545,40.560353],[29.076571,40.560353],[29.067368,40.561646],[29.064402,40.562635],[29.056568,40.564688],[29.052613,40.565677],[29.051473,40.565677],[29.041281,40.565373],[29.035349,40.563928],[29.030785,40.562559],[29.024549,40.560733],[29.019757,40.559517],[29.016791,40.558832],[29.013977,40.556246],[29.011696,40.553508],[29.010403,40.550846],[29.009575,40.548916],[28.999356,40.550258],[28.994631,40.55107],[28.992343,40.551329],[28.989279,40.551624],[28.986548,40.551919],[28.983558,40.552252],[28.9809,40.552953],[28.979202,40.553986],[28.978353,40.554946],[28.977725,40.5555],[28.976692,40.555832],[28.975917,40.55598],[28.975141,40.55598],[28.973739,40.555684],[28.972742,40.5555],[28.971967,40.555648],[28.971044,40.55598],[28.970195,40.556275],[28.970011,40.556792],[28.969494,40.557345],[28.968977,40.557678],[28.968313,40.55801],[28.967685,40.558084],[28.966836,40.558158],[28.965655,40.558047],[28.964954,40.557862],[28.964511,40.557493],[28.963846,40.556866],[28.963071,40.556497],[28.96237,40.556201],[28.962037,40.556054],[28.96189,40.555758],[28.961558,40.555463],[28.960856,40.555315],[28.960118,40.555168],[28.959527,40.554946],[28.958715,40.554577],[28.958198,40.554577],[28.957756,40.554835],[28.95746,40.555205],[28.956943,40.555463],[28.9565,40.555684],[28.956242,40.556014],[28.95591,40.55645],[28.955474,40.556575],[28.954477,40.55672],[28.953875,40.556886],[28.95346,40.557011],[28.952852,40.557116],[28.950793,40.557366],[28.949864,40.557816],[28.949901,40.558323],[28.950354,40.564147],[28.950433,40.565491],[28.950445,40.565938],[28.950444,40.566384],[28.950425,40.566829],[28.95038,40.567272],[28.950316,40.567654],[28.950231,40.568034],[28.950131,40.568413],[28.950019,40.568792],[28.949768,40.569544],[28.94949,40.570292],[28.949184,40.571031],[28.949019,40.571393],[28.948843,40.571751],[28.948652,40.572102],[28.948443,40.572444],[28.948209,40.572775],[28.94791,40.573132],[28.947578,40.573471],[28.947215,40.573793],[28.946824,40.574094],[28.94643,40.574358],[28.946015,40.574604],[28.945582,40.574834],[28.945135,40.575049],[28.944684,40.575244],[28.944223,40.575425],[28.943752,40.575593],[28.943272,40.575746],[28.942732,40.575898],[28.942185,40.576035],[28.941075,40.576284],[28.939395,40.576622],[28.935466,40.57738],[28.933222,40.577801],[28.931533,40.578091],[28.929102,40.578463],[28.928619,40.578548],[28.928071,40.578655],[28.927526,40.57877],[28.926441,40.57902],[28.92482,40.579419],[28.921583,40.580239],[28.919976,40.58066],[28.918926,40.580958],[28.918414,40.581118],[28.917915,40.581291],[28.917436,40.581479],[28.916982,40.581691],[28.916564,40.581934],[28.916238,40.582174],[28.915936,40.582436],[28.915652,40.582715],[28.914427,40.584016],[28.914072,40.584367],[28.913701,40.58471],[28.913336,40.58502],[28.912957,40.585321],[28.912168,40.585904],[28.911763,40.586189],[28.91094,40.586748],[28.910106,40.587297],[28.909264,40.587837],[28.907463,40.588962],[28.906436,40.589608],[28.906002,40.590528],[28.905809,40.591064],[28.905864,40.591665],[28.906422,40.591929],[28.906555,40.591989],[28.906863,40.592089],[28.907514,40.592136],[28.907734,40.592156],[28.908257,40.592259],[28.908278,40.592263],[28.908292,40.592266],[28.908618,40.592338],[28.909762,40.592581],[28.911706,40.593056],[28.913576,40.593546],[28.916424,40.594306],[28.917419,40.594577],[28.919369,40.595228],[28.919423,40.595243],[28.920497,40.595563],[28.920847,40.595669],[28.92141,40.595894],[28.921814,40.596092],[28.921993,40.596304],[28.922013,40.596367],[28.922039,40.59645],[28.921946,40.596582],[28.92182,40.596628],[28.921807,40.596734],[28.921854,40.596807],[28.921959,40.59682],[28.922473,40.596567],[28.922482,40.596562],[28.922734,40.596562],[28.922952,40.596642],[28.923535,40.596986],[28.92364,40.597074],[28.924005,40.597376],[28.924375,40.59782],[28.924594,40.598038],[28.92486,40.598237],[28.925547,40.598356],[28.926063,40.598468],[28.928359,40.599266],[28.929557,40.599739],[28.931636,40.600632],[28.932331,40.600962],[28.932992,40.601274],[28.933489,40.601612],[28.933502,40.601625],[28.933846,40.601969],[28.934254,40.602579],[28.93517,40.603048],[28.93601,40.603425],[28.936983,40.60416],[28.937638,40.604729],[28.93832,40.605331],[28.938353,40.60556],[28.938416,40.605606],[28.938621,40.605619],[28.938833,40.605712],[28.939184,40.606006],[28.939955,40.606658],[28.941113,40.607737],[28.943446,40.609296],[28.943559,40.609398],[28.943707,40.609425],[28.94381,40.609421],[28.944128,40.609494],[28.945097,40.609924],[28.945958,40.610265],[28.946384,40.610451],[28.946861,40.610649],[28.947457,40.61098],[28.947933,40.611218],[28.948029,40.611298],[28.948049,40.611374],[28.948059,40.61147],[28.948082,40.611516],[28.948178,40.611513],[28.948575,40.611437],[28.94885,40.611516],[28.94937,40.611781],[28.950261,40.612233],[28.951217,40.612855],[28.951717,40.613256],[28.952193,40.613671],[28.952355,40.613817],[28.952472,40.613924],[28.952825,40.614349],[28.952908,40.614531],[28.953093,40.614637],[28.953265,40.614776],[28.953589,40.615219],[28.953721,40.615457],[28.953979,40.616211],[28.954329,40.61709],[28.954259,40.617286],[28.954124,40.617493],[28.953982,40.617579],[28.953812,40.617614],[28.953779,40.617667],[28.953834,40.617747],[28.953928,40.617785],[28.95399,40.617794],[28.954053,40.617769],[28.954442,40.617579],[28.954852,40.618188],[28.954937,40.618174],[28.955096,40.618429],[28.955361,40.618855],[28.955314,40.619398],[28.95505,40.619491],[28.954204,40.619788],[28.953231,40.618342],[28.95308,40.618393],[28.952286,40.617028],[28.952009,40.61711],[28.953351,40.619212],[28.953972,40.620112],[28.955316,40.621649],[28.955628,40.621921],[28.956101,40.622333],[28.957179,40.623477],[28.957708,40.624304],[28.958389,40.625864],[28.959299,40.627077],[28.959672,40.62761],[28.960088,40.62804],[28.960406,40.628172],[28.961272,40.629064],[28.961454,40.629391],[28.961728,40.629884],[28.962482,40.630519],[28.963447,40.631279],[28.964402,40.631859],[28.964591,40.631974],[28.965318,40.632589],[28.965327,40.632611],[28.965695,40.633527],[28.96592,40.633765],[28.966211,40.633799],[28.966921,40.633805],[28.966925,40.633805],[28.967242,40.633856],[28.967358,40.633876],[28.967712,40.633971],[28.968572,40.634644],[28.969638,40.635213],[28.9708,40.635617],[28.97156,40.636014],[28.971885,40.636172],[28.972969,40.636847],[28.973317,40.637117],[28.973412,40.637191],[28.973696,40.637283],[28.973718,40.637281],[28.974132,40.63725],[28.975098,40.637303],[28.975468,40.637475],[28.97562,40.637528],[28.975825,40.637508],[28.976288,40.637554],[28.977511,40.638149],[28.978225,40.638559],[28.978761,40.638896],[28.979395,40.639128],[28.979904,40.639445],[28.980121,40.63969],[28.980202,40.639783],[28.980585,40.639935],[28.980793,40.639941],[28.981716,40.639968],[28.982331,40.640107],[28.982807,40.640133],[28.983627,40.64043],[28.984123,40.64049],[28.985188,40.640869],[28.987262,40.641861],[28.989065,40.642682],[28.989753,40.643125],[28.990004,40.643396],[28.990754,40.644207],[28.991043,40.644263],[28.991341,40.64421],[28.991791,40.64429],[28.992631,40.644501],[28.993137,40.644529],[28.993465,40.644548],[28.994136,40.644697],[28.995125,40.644988],[28.995265,40.64507],[28.995933,40.645461],[28.996422,40.645884],[28.996594,40.645897],[28.99674,40.645811],[28.997022,40.645216],[28.997038,40.645183],[28.997289,40.64509],[28.999426,40.644859],[28.99983,40.644773],[29.000114,40.644667],[29.000385,40.644667],[29.000696,40.644773],[29.001358,40.644759],[29.002502,40.644647],[29.003422,40.644667],[29.003958,40.644786],[29.004428,40.644938],[29.004572,40.645007],[29.004706,40.64507],[29.004759,40.645216],[29.005037,40.645414],[29.005321,40.645421],[29.005619,40.645282],[29.005903,40.645196],[29.006346,40.645236],[29.006684,40.645381],[29.00683,40.645534],[29.006823,40.645646],[29.00675,40.645712],[29.006638,40.645772],[29.006644,40.645844],[29.00677,40.645864],[29.006768,40.645943],[29.006763,40.64597],[29.006697,40.646314],[29.006717,40.646466],[29.006796,40.646532],[29.007008,40.646519],[29.007187,40.64646],[29.007637,40.646453],[29.008259,40.646222],[29.008841,40.64595],[29.00896,40.645831],[29.009033,40.645335],[29.009159,40.645193],[29.009536,40.645047],[29.009972,40.644905],[29.010144,40.644925],[29.010258,40.645027],[29.010316,40.64513],[29.010435,40.645163],[29.010779,40.64505],[29.011117,40.644746],[29.011454,40.644362],[29.011555,40.644301],[29.011725,40.644197],[29.01203,40.644118],[29.013082,40.644078],[29.013849,40.64423],[29.015023,40.644524],[29.01504,40.644528],[29.015232,40.644687],[29.015225,40.644898],[29.015378,40.645031],[29.015556,40.645057],[29.015761,40.644984],[29.016066,40.644773],[29.016233,40.644726],[29.01635,40.644693],[29.016698,40.644689],[29.017898,40.645063],[29.017945,40.645077],[29.019301,40.645534],[29.020128,40.645725],[29.020737,40.645891],[29.02074,40.645891],[29.021142,40.645867],[29.021564,40.645778],[29.022106,40.645838],[29.022555,40.64592],[29.022887,40.646109],[29.023363,40.646486],[29.023522,40.646579],[29.023674,40.646552],[29.023701,40.64642],[29.023648,40.646248],[29.023774,40.646222],[29.023906,40.646261],[29.024031,40.64642],[29.024389,40.64644],[29.024872,40.64642],[29.025123,40.646334],[29.025461,40.646063],[29.025831,40.645917],[29.026466,40.64593],[29.026943,40.646235],[29.027922,40.646427],[29.028272,40.646566],[29.028908,40.646596],[29.029166,40.646612],[29.029794,40.646791],[29.030601,40.646771],[29.032831,40.646361],[29.034081,40.64605],[29.034981,40.645884],[29.035762,40.645805],[29.03649,40.645851],[29.037343,40.645977],[29.038402,40.646248],[29.039004,40.64644],[29.039238,40.646607],[29.039242,40.64661],[29.039337,40.646776],[29.03936,40.646955],[29.039521,40.647134],[29.039813,40.647169],[29.04064,40.646961],[29.041795,40.646794],[29.042748,40.646705],[29.043313,40.646717],[29.043789,40.646794],[29.044521,40.646997],[29.045783,40.647401],[29.046123,40.647598],[29.046212,40.647735],[29.046182,40.647842],[29.046249,40.648018],[29.046488,40.648197],[29.047059,40.648519],[29.047218,40.648474],[29.047364,40.648298],[29.047763,40.648161],[29.04861,40.648072],[29.049331,40.647917],[29.049921,40.647738],[29.050612,40.647643],[29.051297,40.647667],[29.051786,40.647726],[29.052269,40.647869],[29.052752,40.648167],[29.053103,40.648239],[29.053568,40.648263],[29.054301,40.648126],[29.054796,40.647947],[29.055559,40.647732],[29.055541,40.647643],[29.055106,40.647631],[29.055127,40.647447],[29.055368,40.647327],[29.055499,40.64716],[29.055636,40.646934],[29.055907,40.646835],[29.056375,40.646666],[29.056572,40.646683],[29.057358,40.646803],[29.057764,40.64691],[29.058002,40.646916],[29.058021,40.64694],[29.058538,40.647595],[29.058616,40.647578],[29.058193,40.646949],[29.058127,40.64685],[29.058747,40.646451],[29.05883,40.646302],[29.058836,40.646207],[29.059969,40.645861],[29.060392,40.645879],[29.060791,40.645795],[29.061024,40.645688],[29.061924,40.645474],[29.063729,40.64511],[29.064421,40.645092],[29.064582,40.645063],[29.066912,40.644556],[29.067925,40.644389],[29.069588,40.644276],[29.070798,40.644198],[29.072788,40.644842],[29.073191,40.644938],[29.074469,40.645241],[29.074501,40.645254],[29.074826,40.645379],[29.075094,40.645414],[29.076352,40.645635],[29.077139,40.645826],[29.078545,40.646439],[29.078778,40.646511],[29.078867,40.646612],[29.079177,40.646678],[29.079439,40.646678],[29.079701,40.646612],[29.080035,40.646416],[29.08053,40.646308],[29.081388,40.646034],[29.082103,40.645867],[29.083545,40.645653],[29.084135,40.645563],[29.085208,40.645462],[29.086323,40.645397],[29.087723,40.645349],[29.088873,40.645385],[29.089875,40.645492],[29.0905,40.645516],[29.090709,40.645569],[29.091067,40.645665],[29.091228,40.645635],[29.0914,40.645474],[29.092169,40.644973],[29.092527,40.644807],[29.093158,40.644616],[29.093647,40.644503],[29.095006,40.644223],[29.095721,40.644109],[29.096052,40.644046],[29.097116,40.643841],[29.099813,40.643563],[29.101709,40.643516],[29.102575,40.643412],[29.103503,40.643389],[29.104757,40.64346],[29.107927,40.643765],[29.109269,40.643928],[29.110448,40.644132],[29.111488,40.644343],[29.112018,40.644469],[29.112517,40.644541],[29.113617,40.644824],[29.114123,40.645029],[29.115428,40.64554],[29.115938,40.645756],[29.116014,40.645843],[29.116104,40.646279],[29.116161,40.646378],[29.116257,40.646408],[29.116557,40.646423],[29.116728,40.646402],[29.116852,40.646321],[29.116933,40.646339],[29.116443,40.646994],[29.116308,40.647],[29.116065,40.647288],[29.116065,40.647381],[29.116239,40.64749],[29.116365,40.647442],[29.116593,40.647144],[29.116545,40.647024],[29.117026,40.646426],[29.117086,40.646435],[29.117098,40.646549],[29.117086,40.646706],[29.117176,40.64682],[29.117332,40.646904],[29.117338,40.646944],[29.117681,40.64707],[29.117687,40.647072],[29.117711,40.647047],[29.117973,40.647111],[29.118047,40.647114],[29.118275,40.647047],[29.118616,40.647182],[29.118926,40.64723],[29.119426,40.64719],[29.120005,40.647317],[29.120998,40.647412],[29.122467,40.647579],[29.123292,40.64773],[29.124507,40.648079],[29.12592,40.648635],[29.126412,40.648754],[29.127563,40.648913],[29.127905,40.649127],[29.129191,40.64962],[29.129844,40.649839],[29.131283,40.650315],[29.131694,40.650455],[29.131786,40.650425],[29.131794,40.650341],[29.131711,40.650258],[29.131625,40.650242],[29.131445,40.650244],[29.131351,40.650209],[29.131403,40.650128],[29.128921,40.649272],[29.128945,40.648788],[29.129453,40.648399],[29.129725,40.648325],[29.130065,40.648232],[29.130319,40.648177],[29.130541,40.648161],[29.131486,40.648105],[29.132238,40.648168],[29.133583,40.648369],[29.133683,40.648301],[29.133805,40.64828],[29.134985,40.648428],[29.135816,40.648629],[29.137287,40.649201],[29.138048,40.649546],[29.138256,40.649647],[29.138377,40.649714],[29.138371,40.649752],[29.138362,40.649783],[29.138907,40.650148],[29.139749,40.650635],[29.141395,40.651831],[29.141061,40.652096],[29.141103,40.652133],[29.141453,40.651884],[29.14195,40.652265],[29.141606,40.652487],[29.14167,40.652562],[29.141993,40.652313],[29.142797,40.653144],[29.143591,40.653985],[29.143962,40.654393],[29.144531,40.655127],[29.144723,40.655375],[29.145004,40.655817],[29.145293,40.656266],[29.145247,40.656346],[29.14512,40.65639],[29.145053,40.656354],[29.14503,40.65638],[29.14512,40.656429],[29.145141,40.656506],[29.145206,40.656509],[29.145177,40.656405],[29.145338,40.656371],[29.145721,40.657111],[29.145812,40.657406],[29.145866,40.657909],[29.145709,40.6587],[29.145631,40.658773],[29.144645,40.659295],[29.144436,40.659313],[29.144332,40.6594],[29.144436,40.659888],[29.144443,40.660071],[29.144305,40.660356],[29.144043,40.660765],[29.143979,40.66096],[29.14407,40.661225],[29.144249,40.66134],[29.144424,40.661345],[29.144571,40.661273],[29.144785,40.661233],[29.145003,40.661241],[29.145209,40.661309],[29.145428,40.661329],[29.145765,40.66134],[29.145951,40.661333],[29.146741,40.661293],[29.147602,40.66117],[29.148181,40.661007],[29.148574,40.660876],[29.148733,40.661035],[29.148777,40.661039],[29.148666,40.660825],[29.15003,40.66048],[29.150094,40.66065],[29.150058,40.66067],[29.150086,40.660746],[29.150149,40.660722],[29.150094,40.660444],[29.151213,40.660269],[29.151308,40.660214],[29.151332,40.660087],[29.151348,40.659714],[29.151395,40.6595],[29.151625,40.659325],[29.152156,40.65912],[29.152624,40.659001],[29.152965,40.658977],[29.153108,40.658905],[29.153235,40.658755],[29.153481,40.65858],[29.153997,40.658175],[29.154561,40.657572],[29.154696,40.657477],[29.155228,40.65727],[29.156966,40.65677],[29.157266,40.656695],[29.15826,40.656445],[29.159014,40.656286],[29.159129,40.656264],[29.160483,40.656008],[29.162007,40.65581],[29.163563,40.656127],[29.164119,40.656254],[29.16442,40.656262],[29.164897,40.656207],[29.16554,40.656262],[29.165508,40.656191],[29.165047,40.656056],[29.165151,40.655889],[29.165357,40.65581],[29.165817,40.655849],[29.165937,40.656119],[29.165857,40.656199],[29.165861,40.656316],[29.165945,40.656302],[29.166072,40.656175],[29.165984,40.655937],[29.166087,40.655857],[29.167112,40.655841],[29.167413,40.655897],[29.16777,40.655881],[29.168199,40.655778],[29.168636,40.655746],[29.169465,40.655479],[29.170416,40.655415],[29.171638,40.655471],[29.173422,40.655614],[29.175675,40.655812],[29.176397,40.655931],[29.177182,40.656177],[29.179022,40.656185],[29.180291,40.656335],[29.181053,40.656486],[29.181433,40.656605],[29.181687,40.656661],[29.183305,40.656772],[29.185003,40.656978],[29.188294,40.657247],[29.188699,40.657339],[29.189551,40.6575],[29.189897,40.657572],[29.190091,40.657547],[29.190148,40.657465],[29.190427,40.657404],[29.191081,40.657321],[29.191239,40.657372],[29.191603,40.657368],[29.191846,40.657393],[29.191965,40.657361],[29.191975,40.657268],[29.191957,40.657132],[29.19194,40.657021],[29.192076,40.656864],[29.192905,40.656671],[29.193413,40.656628],[29.193545,40.656613],[29.193917,40.656517],[29.19411,40.656467],[29.194604,40.656395],[29.194876,40.65636],[29.195015,40.656335],[29.195087,40.656335],[29.19523,40.656345],[29.195384,40.656277],[29.195598,40.65622],[29.195909,40.656177],[29.196413,40.656109],[29.196765,40.656059],[29.206026,40.656351],[29.206505,40.656367]]]}},{"type":"Feature","properties":{"id":"TR-D-77-005","parent_id":"TR-P-77","region_id":"TR-R-MAR","level":"district","municipality_type":null,"municipality_type_label":null,"is_metropolitan_municipality":null,"name":"Termal","name_ascii":"termal","slug":"termal-yalova"},"geometry":{"type":"Polygon","coordinates":[[[29.223282,40.525596],[29.211721,40.524759],[29.200769,40.524759],[29.197043,40.524987],[29.189437,40.526356],[29.185102,40.527421],[29.180463,40.531072],[29.174758,40.536244],[29.170884,40.539062],[29.168066,40.541111],[29.165936,40.542049],[29.161677,40.543925],[29.151714,40.547652],[29.141142,40.550998],[29.126996,40.554953],[29.119618,40.557919],[29.115055,40.560353],[29.111861,40.561722],[29.110363,40.562052],[29.110735,40.562508],[29.111247,40.563136],[29.11353,40.566276],[29.117384,40.569986],[29.122593,40.572555],[29.130514,40.575553],[29.133012,40.577051],[29.137549,40.580721],[29.141219,40.583688],[29.145928,40.587684],[29.150424,40.591395],[29.152422,40.593036],[29.153279,40.594892],[29.155562,40.603027],[29.157917,40.610092],[29.158345,40.612946],[29.160343,40.619369],[29.163341,40.623936],[29.167765,40.627433],[29.168643,40.628646],[29.170191,40.630787],[29.172867,40.631964],[29.175871,40.632755],[29.177542,40.633195],[29.181538,40.634337],[29.183393,40.634718],[29.187104,40.635479],[29.191671,40.638048],[29.191941,40.638302],[29.196595,40.642686],[29.197944,40.640999],[29.199293,40.639311],[29.202682,40.633662],[29.204696,40.632876],[29.20617,40.63209],[29.208184,40.631156],[29.209216,40.630223],[29.209854,40.628013],[29.209505,40.625092],[29.209461,40.624721],[29.209426,40.624395],[29.209117,40.621577],[29.209412,40.619809],[29.210345,40.616027],[29.211377,40.613816],[29.212556,40.612244],[29.213195,40.610918],[29.213195,40.610083],[29.212851,40.609346],[29.212212,40.608413],[29.211475,40.60797],[29.211033,40.607332],[29.210057,40.605846],[29.209903,40.605613],[29.208577,40.604581],[29.208159,40.604337],[29.207987,40.604237],[29.207963,40.604236],[29.207103,40.604188],[29.206219,40.604335],[29.205875,40.604188],[29.205482,40.603795],[29.205286,40.603009],[29.204844,40.601977],[29.2045,40.601142],[29.204352,40.600405],[29.203321,40.599669],[29.203069,40.599527],[29.202535,40.599227],[29.200791,40.598589],[29.200521,40.59849],[29.19944,40.597851],[29.199152,40.597311],[29.199047,40.597114],[29.199096,40.595935],[29.19944,40.594412],[29.199735,40.593381],[29.200079,40.592349],[29.200275,40.591612],[29.200717,40.590925],[29.201104,40.590403],[29.201505,40.589892],[29.202348,40.589602],[29.202955,40.589574],[29.203757,40.589519],[29.204199,40.5895],[29.20442,40.589491],[29.204699,40.589238],[29.204724,40.589215],[29.204692,40.588908],[29.204669,40.58869],[29.20464,40.588593],[29.20453,40.58822],[29.204577,40.587898],[29.204641,40.587446],[29.204724,40.586783],[29.204568,40.586331],[29.20442,40.585899],[29.204282,40.58518],[29.204193,40.584699],[29.204144,40.584434],[29.204254,40.583771],[29.204334,40.583547],[29.204558,40.582915],[29.204737,40.582446],[29.204779,40.582334],[29.205,40.582113],[29.205525,40.582058],[29.206244,40.582003],[29.206769,40.581809],[29.2071,40.581423],[29.207653,40.580759],[29.208014,40.580267],[29.208261,40.57993],[29.20834,40.579837],[29.208565,40.579571],[29.209034,40.579323],[29.209604,40.579133],[29.209946,40.579019],[29.210471,40.578728],[29.210996,40.578438],[29.211687,40.577886],[29.211963,40.577444],[29.212068,40.577147],[29.212129,40.576974],[29.212098,40.576728],[29.212037,40.576235],[29.211897,40.57543],[29.21176,40.574824],[29.211652,40.574345],[29.211372,40.573995],[29.211361,40.573924],[29.211302,40.573539],[29.211547,40.572874],[29.213951,40.570785],[29.216192,40.56845],[29.218013,40.567003],[29.221981,40.564996],[29.225063,40.563782],[29.226603,40.562848],[29.228517,40.560747],[29.230292,40.557619],[29.230898,40.554398],[29.230992,40.551596],[29.23083,40.550616],[29.230011,40.545667],[29.229311,40.541605],[29.228284,40.538291],[29.225996,40.534462],[29.224736,40.532922],[29.223755,40.530401],[29.223382,40.527226],[29.223282,40.525596]]]}},{"type":"Feature","properties":{"id":"TR-D-77-006","parent_id":"TR-P-77","region_id":"TR-R-MAR","level":"district","municipality_type":null,"municipality_type_label":null,"is_metropolitan_municipality":null,"name":"Yalova","name_ascii":"yalova","slug":"yalova-yalova"},"geometry":{"type":"Polygon","coordinates":[[[29.308446,40.664217],[29.308347,40.663522],[29.308546,40.662727],[29.308794,40.661734],[29.309539,40.660542],[29.309837,40.659946],[29.309787,40.659201],[29.309291,40.658208],[29.308893,40.657413],[29.308397,40.656718],[29.308099,40.656171],[29.30795,40.655675],[29.307701,40.654582],[29.307701,40.653738],[29.30795,40.652645],[29.308248,40.651602],[29.308854,40.65092],[29.308835,40.6509],[29.309404,40.650261],[29.311391,40.647529],[29.317897,40.63988],[29.318294,40.638341],[29.318692,40.634169],[29.319188,40.629997],[29.319983,40.628507],[29.320827,40.625229],[29.323063,40.61902],[29.323659,40.617232],[29.323957,40.614451],[29.3249,40.609981],[29.326738,40.603822],[29.328476,40.59816],[29.329122,40.597465],[29.331009,40.59662],[29.332499,40.596124],[29.335032,40.594783],[29.337416,40.592498],[29.339403,40.590809],[29.343625,40.587879],[29.345562,40.586339],[29.349088,40.584551],[29.351919,40.583359],[29.355495,40.581273],[29.360214,40.578045],[29.363094,40.575164],[29.365826,40.572383],[29.365894,40.572343],[29.369275,40.568252],[29.370447,40.56697],[29.37063,40.56677],[29.371672,40.565282],[29.371673,40.565281],[29.369688,40.565221],[29.367901,40.564878],[29.366114,40.564536],[29.362463,40.564004],[29.357954,40.563341],[29.357291,40.563243],[29.353793,40.56266],[29.346796,40.561494],[29.338354,40.5583],[29.328847,40.553964],[29.320176,40.552672],[29.311278,40.55077],[29.303672,40.547728],[29.298196,40.545066],[29.287853,40.541035],[29.27827,40.537765],[29.270858,40.535509],[29.266025,40.534038],[29.259323,40.532331],[29.257963,40.531984],[29.244805,40.528182],[29.231724,40.526204],[29.223282,40.525596],[29.223382,40.527226],[29.223755,40.530401],[29.224736,40.532922],[29.225996,40.534462],[29.228284,40.538291],[29.229311,40.541605],[29.230011,40.545667],[29.23083,40.550616],[29.230992,40.551596],[29.230898,40.554398],[29.230292,40.557619],[29.228517,40.560747],[29.226603,40.562848],[29.225063,40.563782],[29.221981,40.564996],[29.218013,40.567003],[29.216192,40.56845],[29.213951,40.570785],[29.211547,40.572874],[29.211302,40.573539],[29.211361,40.573924],[29.211372,40.573995],[29.211652,40.574345],[29.21176,40.574824],[29.211897,40.57543],[29.212037,40.576235],[29.212098,40.576728],[29.212129,40.576974],[29.212068,40.577147],[29.211963,40.577444],[29.211687,40.577886],[29.210996,40.578438],[29.210471,40.578728],[29.209946,40.579019],[29.209604,40.579133],[29.209034,40.579323],[29.208565,40.579571],[29.20834,40.579837],[29.208261,40.57993],[29.208014,40.580267],[29.207653,40.580759],[29.2071,40.581423],[29.206769,40.581809],[29.206244,40.582003],[29.205525,40.582058],[29.205,40.582113],[29.204779,40.582334],[29.204737,40.582446],[29.204558,40.582915],[29.204334,40.583547],[29.204254,40.583771],[29.204144,40.584434],[29.204193,40.584699],[29.204282,40.58518],[29.20442,40.585899],[29.204568,40.586331],[29.204724,40.586783],[29.204641,40.587446],[29.204577,40.587898],[29.20453,40.58822],[29.20464,40.588593],[29.204669,40.58869],[29.204692,40.588908],[29.204724,40.589215],[29.204699,40.589238],[29.20442,40.589491],[29.204199,40.5895],[29.203757,40.589519],[29.202955,40.589574],[29.202348,40.589602],[29.201505,40.589892],[29.201104,40.590403],[29.200717,40.590925],[29.200275,40.591612],[29.200079,40.592349],[29.199735,40.593381],[29.19944,40.594412],[29.199096,40.595935],[29.199047,40.597114],[29.199152,40.597311],[29.19944,40.597851],[29.200521,40.59849],[29.200791,40.598589],[29.202535,40.599227],[29.203069,40.599527],[29.203321,40.599669],[29.204352,40.600405],[29.2045,40.601142],[29.204844,40.601977],[29.205286,40.603009],[29.205482,40.603795],[29.205875,40.604188],[29.206219,40.604335],[29.207103,40.604188],[29.207963,40.604236],[29.207987,40.604237],[29.208159,40.604337],[29.208577,40.604581],[29.209903,40.605613],[29.210057,40.605846],[29.211033,40.607332],[29.211475,40.60797],[29.212212,40.608413],[29.212851,40.609346],[29.213195,40.610083],[29.213195,40.610918],[29.212556,40.612244],[29.211377,40.613816],[29.210345,40.616027],[29.209412,40.619809],[29.209117,40.621577],[29.209426,40.624395],[29.209461,40.624721],[29.209505,40.625092],[29.209854,40.628013],[29.209216,40.630223],[29.208184,40.631156],[29.20617,40.63209],[29.204696,40.632876],[29.202682,40.633662],[29.199293,40.639311],[29.197944,40.640999],[29.196595,40.642686],[29.199664,40.648181],[29.20283,40.653311],[29.206505,40.656367],[29.222098,40.656878],[29.223016,40.656925],[29.22338,40.656893],[29.227516,40.657228],[29.229766,40.657555],[29.230035,40.65754],[29.230603,40.657604],[29.231004,40.657638],[29.231179,40.657713],[29.231144,40.657978],[29.231181,40.657987],[29.23121,40.657719],[29.231539,40.657795],[29.231934,40.657878],[29.232241,40.657907],[29.232629,40.657959],[29.232561,40.658228],[29.23252,40.658269],[29.232412,40.658267],[29.232407,40.658294],[29.232536,40.658295],[29.232601,40.658224],[29.232663,40.657957],[29.233088,40.657978],[29.233164,40.657985],[29.233408,40.658036],[29.23371,40.658028],[29.234268,40.658143],[29.234483,40.658181],[29.234598,40.658201],[29.235029,40.658257],[29.235622,40.658373],[29.236198,40.658464],[29.236788,40.658553],[29.237045,40.658573],[29.237886,40.6587],[29.238117,40.658769],[29.238615,40.658853],[29.23989,40.659106],[29.24004,40.659213],[29.240148,40.659537],[29.240681,40.659442],[29.240806,40.659276],[29.241393,40.659276],[29.242414,40.659385],[29.242864,40.659462],[29.243186,40.659494],[29.243301,40.65953],[29.244378,40.660101],[29.244483,40.660188],[29.245309,40.661093],[29.245452,40.661182],[29.245532,40.661126],[29.245482,40.661026],[29.245368,40.660951],[29.245096,40.660666],[29.244941,40.660474],[29.244678,40.660202],[29.24468,40.660119],[29.244708,40.660091],[29.244518,40.659982],[29.24441,40.660003],[29.243314,40.659421],[29.242994,40.659303],[29.242723,40.659108],[29.242736,40.659058],[29.24261,40.658873],[29.242541,40.658681],[29.242511,40.658599],[29.242399,40.658246],[29.242402,40.65815],[29.24235,40.658021],[29.242227,40.65783],[29.241814,40.657833],[29.241725,40.65775],[29.241828,40.657618],[29.241851,40.657565],[29.241953,40.657552],[29.242026,40.657559],[29.242161,40.657589],[29.242323,40.657549],[29.242468,40.657443],[29.242633,40.657453],[29.242907,40.657704],[29.243,40.657714],[29.243013,40.657767],[29.243109,40.65782],[29.243188,40.657902],[29.243162,40.657952],[29.243277,40.658071],[29.243248,40.65811],[29.24333,40.658239],[29.243281,40.658365],[29.243264,40.658583],[29.24337,40.658639],[29.243364,40.658757],[29.24336,40.658827],[29.243535,40.658966],[29.243842,40.658985],[29.244014,40.658946],[29.244546,40.6589],[29.244621,40.658872],[29.244879,40.658778],[29.245137,40.658778],[29.245233,40.658873],[29.246781,40.658669],[29.246719,40.659065],[29.2466,40.659821],[29.246359,40.659798],[29.245844,40.659887],[29.245807,40.659854],[29.245745,40.659848],[29.245687,40.659901],[29.245733,40.659967],[29.245763,40.659988],[29.246106,40.659914],[29.246339,40.65986],[29.24654,40.659901],[29.246543,40.660124],[29.246589,40.660303],[29.246678,40.660448],[29.246702,40.660534],[29.246807,40.660646],[29.246919,40.660633],[29.246807,40.660375],[29.246715,40.660247],[29.246692,40.660108],[29.246705,40.659748],[29.246761,40.659441],[29.246832,40.659075],[29.246883,40.65881],[29.246995,40.658771],[29.247157,40.658622],[29.247316,40.658662],[29.247719,40.658543],[29.247946,40.658559],[29.248359,40.658377],[29.248627,40.658358],[29.248627,40.658311],[29.250007,40.65807],[29.250245,40.65806],[29.250529,40.65814],[29.250522,40.658259],[29.25079,40.658572],[29.251348,40.658661],[29.251797,40.658688],[29.251965,40.658701],[29.252315,40.658671],[29.252751,40.658605],[29.252969,40.658513],[29.253184,40.658404],[29.253246,40.658433],[29.253448,40.658298],[29.253643,40.658282],[29.254772,40.658295],[29.255845,40.658298],[29.256245,40.658295],[29.256572,40.658255],[29.257199,40.658123],[29.257794,40.657922],[29.257916,40.657793],[29.258048,40.65772],[29.258104,40.657743],[29.258712,40.657757],[29.258837,40.65769],[29.25889,40.657456],[29.261114,40.657463],[29.261538,40.657462],[29.26175,40.657565],[29.262017,40.657622],[29.263699,40.657875],[29.264312,40.658036],[29.264754,40.658174],[29.265179,40.658328],[29.265753,40.658626],[29.265891,40.658753],[29.265693,40.659112],[29.265726,40.659234],[29.265919,40.65919],[29.266018,40.658753],[29.266361,40.658869],[29.266466,40.659228],[29.266681,40.659471],[29.266891,40.659659],[29.267067,40.659863],[29.267299,40.660194],[29.267504,40.660294],[29.267277,40.659891],[29.267371,40.659769],[29.267338,40.65972],[29.267233,40.659753],[29.267018,40.659538],[29.266764,40.659289],[29.266659,40.659134],[29.266659,40.659002],[29.266758,40.658914],[29.266968,40.658869],[29.267189,40.658831],[29.267465,40.658803],[29.267736,40.658825],[29.268216,40.658903],[29.268625,40.659074],[29.26873,40.659184],[29.268829,40.65941],[29.268746,40.659543],[29.268707,40.65978],[29.26789,40.659918],[29.26783,40.659985],[29.267918,40.660062],[29.268674,40.659908],[29.26947,40.659819],[29.269591,40.660057],[29.269784,40.660012],[29.269663,40.659698],[29.269679,40.659438],[29.269762,40.659444],[29.269773,40.659311],[29.270392,40.65909],[29.271408,40.659156],[29.271695,40.659212],[29.27217,40.659256],[29.272192,40.659195],[29.272986,40.65922],[29.273235,40.659264],[29.273439,40.659463],[29.273577,40.659799],[29.273682,40.661086],[29.273743,40.661318],[29.273858,40.661334],[29.273914,40.661163],[29.273897,40.661014],[29.274118,40.660672],[29.274862,40.660142],[29.275578,40.659888],[29.27576,40.659888],[29.276041,40.659888],[29.276196,40.659935],[29.276524,40.660033],[29.277056,40.660306],[29.2776,40.660753],[29.277823,40.660963],[29.278084,40.661114],[29.278248,40.661161],[29.278389,40.661297],[29.278468,40.661372],[29.278515,40.661515],[29.278486,40.661598],[29.278424,40.661683],[29.278314,40.661785],[29.278147,40.661859],[29.277998,40.661868],[29.277936,40.661841],[29.277902,40.661861],[29.277941,40.661913],[29.277939,40.661927],[29.277926,40.66203],[29.277963,40.662072],[29.278031,40.662045],[29.27815,40.661951],[29.278156,40.661947],[29.278336,40.66184],[29.278449,40.661752],[29.278537,40.661652],[29.278581,40.661551],[29.278568,40.660111],[29.278732,40.660086],[29.278742,40.66036],[29.279408,40.660319],[29.279489,40.660317],[29.279585,40.661212],[29.27966,40.661202],[29.279568,40.660313],[29.279924,40.66029],[29.279906,40.660122],[29.280412,40.660085],[29.280537,40.66002],[29.280561,40.659916],[29.280984,40.660057],[29.281847,40.660351],[29.28213,40.660536],[29.282955,40.660765],[29.28322,40.660878],[29.283537,40.661054],[29.28377,40.661127],[29.28381,40.661311],[29.284099,40.66136],[29.284372,40.661319],[29.28491,40.661436],[29.285316,40.661621],[29.285577,40.661697],[29.286825,40.662248],[29.288307,40.66286],[29.290252,40.663662],[29.290308,40.663718],[29.290371,40.66375],[29.290514,40.663773],[29.290951,40.663741],[29.291792,40.663853],[29.29341,40.664099],[29.295331,40.664495],[29.29691,40.664749],[29.297339,40.664837],[29.298656,40.664948],[29.300987,40.665487],[29.302632,40.665972],[29.304251,40.666567],[29.306306,40.667305],[29.30752,40.66775],[29.307535,40.667763],[29.307699,40.667413],[29.307739,40.667402],[29.308297,40.666204],[29.308496,40.664764],[29.308446,40.664217]]]}}]}